{
  "features": [
    {
      "geometry": {
        "coordinates": [
          139.599856,
          35.739261
        ],
        "type": "Point"
      },
      "properties": {
        "bangumi_id": 100444,
        "bangumi_title": "四月是你的谎言",
        "ep_cut": 1,
        "image_url": "https://w.junreimap.com/images/user/1130/bangumi/100444/points/51i51ymjb-1719991258366.jpg",
        "location": "石神井公园",
        "point_id": "51i51ymjb",
        "point_name": "宮園かをりが黒猫を発見した場所",
        "remark": "桜並木がきれいなシーン（左边已被拆除/(ㄒoㄒ)/~~）"
      },
      "type": "Feature"
    },
    {
      "geometry": {
        "coordinates": [
          139.597306,
          35.738884
        ],
        "type": "Point"
      },
      "properties": {
        "bangumi_id": 100444,
        "bangumi_title": "四月是你的谎言",
        "ep_cut": 1,
        "image_url": "https://w.junreimap.com/images/user/1130/bangumi/100444/points/51i51ymcf-1720017335431.jpg",
        "location": "石神井公园",
        "point_id": "51i51ymcf",
        "point_name": "１話（～00:30）宮園かをりが猫を探すシーン",
        "remark": "かをりが自販機の裏を見て黒猫を探しているシーン野球球場横にあります。また黒猫にエサを上げているシーン。\n第1话 宫园薰寻找黑猫的场景"
      },
      "type": "Feature"
    },
    {
      "geometry": {
        "coordinates": [
          139.597169,
          35.738908
        ],
        "type": "Point"
      },
      "properties": {
        "bangumi_id": 100444,
        "bangumi_title": "四月是你的谎言",
        "ep_cut": 1,
        "image_url": "https://w.junreimap.com/images/points/100444/ubm23rilk_1743695084253.jpg",
        "location": "石神井公园",
        "point_id": "ubm23rilk",
        "point_name": "石神井公園",
        "remark": "薰找到黑猫的樱花树"
      },
      "type": "Feature"
    },
    {
      "geometry": {
        "coordinates": [
          139.597154,
          35.738925
        ],
        "type": "Point"
      },
      "properties": {
        "bangumi_id": 100444,
        "bangumi_title": "四月是你的谎言",
        "ep_cut": 1,
        "image_url": "https://w.junreimap.com/images/points/100444/ubm77uh09_1743695198279.jpg",
        "location": "石神井公园",
        "point_id": "ubm77uh09",
        "point_name": "黒猫が座っていたベンチ",
        "remark": ""
      },
      "type": "Feature"
    },
    {
      "geometry": {
        "coordinates": [
          139.597201,
          35.738896
        ],
        "type": "Point"
      },
      "properties": {
        "bangumi_id": 100444,
        "bangumi_title": "四月是你的谎言",
        "ep_cut": 1,
        "image_url": "https://w.junreimap.com/images/points/100444/ubm5tapub_1743695115314.jpg",
        "location": "石神井公园",
        "point_id": "ubm5tapub",
        "point_name": "",
        "remark": ""
      },
      "type": "Feature"
    },
    {
      "geometry": {
        "coordinates": [
          139.597191,
          35.738929
        ],
        "type": "Point"
      },
      "properties": {
        "bangumi_id": 100444,
        "bangumi_title": "四月是你的谎言",
        "ep_cut": 1,
        "image_url": "https://w.junreimap.com/images/points/100444/ubm826cfs_1743695170212.jpg",
        "location": "石神井公园",
        "point_id": "ubm826cfs",
        "point_name": "黒猫に近づくかをり",
        "remark": ""
      },
      "type": "Feature"
    },
    {
      "geometry": {
        "coordinates": [
          139.551022,
          35.766433
        ],
        "type": "Point"
      },
      "properties": {
        "bangumi_id": 100444,
        "bangumi_title": "四月是你的谎言",
        "ep_cut": 1,
        "image_url": "https://w.junreimap.com/images/user/1130/bangumi/100444/points/51i51yogb-1720020143619.jpg",
        "location": "前通り橋",
        "point_id": "51i51yogb",
        "point_name": "前通り橋",
        "remark": "OP&5話の主な舞台　飛び込むシーン"
      },
      "type": "Feature"
    },
    {
      "geometry": {
        "coordinates": [
          35.491505,
          31.539761
        ],
        "type": "Point"
      },
      "properties": {
        "bangumi_id": 100444,
        "bangumi_title": "四月是你的谎言",
        "ep_cut": 1,
        "image_url": "https://w.junreimap.com/images/user/1000/bangumi/100444/points/59p7s6u8p-1673008972460.jpg",
        "location": "",
        "point_id": "59p7s6u8p",
        "point_name": "البحر الميت ים המלח",
        "remark": "二次元横店"
      },
      "type": "Feature"
    },
    {
      "geometry": {
        "coordinates": [
          139.619027,
          35.719565
        ],
        "type": "Point"
      },
      "properties": {
        "bangumi_id": 100444,
        "bangumi_title": "四月是你的谎言",
        "ep_cut": 1,
        "image_url": "https://w.junreimap.com/images/points/100444/ubjhr0oko_1743694758335.jpg",
        "location": "杉并区",
        "point_id": "ubjhr0oko",
        "point_name": "杉並区立中瀬中学校の角",
        "remark": "第一话 公生、椿、渡放学的场景"
      },
      "type": "Feature"
    },
    {
      "geometry": {
        "coordinates": [
          139.620832,
          35.721433
        ],
        "type": "Point"
      },
      "properties": {
        "bangumi_id": 100444,
        "bangumi_title": "四月是你的谎言",
        "ep_cut": 1,
        "image_url": "https://w.junreimap.com/images/points/100444/ubjzavvv5_1743694957766.jpg",
        "location": "杉并区",
        "point_id": "ubjzavvv5",
        "point_name": "桃井第五小",
        "remark": "公生、椿、渡放学走的人行道"
      },
      "type": "Feature"
    },
    {
      "geometry": {
        "coordinates": [
          139.581263,
          35.737287
        ],
        "type": "Point"
      },
      "properties": {
        "bangumi_id": 100444,
        "bangumi_title": "四月是你的谎言",
        "ep_cut": 1,
        "image_url": "https://w.junreimap.com/images/points/100444/ubk4ivhrx_1743694988801.jpg",
        "location": "练马区",
        "point_id": "ubk4ivhrx",
        "point_name": "セブン-イレブン 練馬石神井台８丁目店",
        "remark": "三人放学后经过的711"
      },
      "type": "Feature"
    },
    {
      "geometry": {
        "coordinates": [
          139.491692,
          35.655545
        ],
        "type": "Point"
      },
      "properties": {
        "bangumi_id": 100444,
        "bangumi_title": "四月是你的谎言",
        "ep_cut": 1,
        "image_url": "https://w.junreimap.com/images/points/100444/ubkbrfhap_1743695007957.jpg",
        "location": "是政桥",
        "point_id": "ubkbrfhap",
        "point_name": "多摩川通り",
        "remark": "通过路面上“この先凹凸あり”的提示，可以找到拍摄位置，但景色与动画中有较大差距。"
      },
      "type": "Feature"
    },
    {
      "geometry": {
        "coordinates": [
          139.487957,
          35.653648
        ],
        "type": "Point"
      },
      "properties": {
        "bangumi_id": 100444,
        "bangumi_title": "四月是你的谎言",
        "ep_cut": 1,
        "image_url": "https://w.junreimap.com/images/user/0/bangumi/100444/points/51i51ym7c-1710126068313.jpg",
        "location": "是政桥",
        "point_id": "51i51ym7c",
        "point_name": "１話（06:16)有馬公生、澤部椿、渡亮太が学校帰りにコンビニへ寄り道",
        "remark": ""
      },
      "type": "Feature"
    },
    {
      "geometry": {
        "coordinates": [
          139.573346,
          35.747914
        ],
        "type": "Point"
      },
      "properties": {
        "bangumi_id": 100444,
        "bangumi_title": "四月是你的谎言",
        "ep_cut": 1,
        "image_url": "https://w.junreimap.com/images/points/100444/ubkuqup3h_1743694691388.jpg",
        "location": "练马区",
        "point_id": "ubkuqup3h",
        "point_name": "",
        "remark": ""
      },
      "type": "Feature"
    },
    {
      "geometry": {
        "coordinates": [
          139.57438,
          35.748032
        ],
        "type": "Point"
      },
      "properties": {
        "bangumi_id": 100444,
        "bangumi_title": "四月是你的谎言",
        "ep_cut": 1,
        "image_url": "https://w.junreimap.com/images/points/100444/ubm9o6uwe_1743694724313.jpg",
        "location": "练马区",
        "point_id": "ubm9o6uwe",
        "point_name": "",
        "remark": ""
      },
      "type": "Feature"
    },
    {
      "geometry": {
        "coordinates": [
          139.586045,
          35.753077
        ],
        "type": "Point"
      },
      "properties": {
        "bangumi_id": 100444,
        "bangumi_title": "四月是你的谎言",
        "ep_cut": 1,
        "image_url": "https://w.junreimap.com/images/user/1130/bangumi/100444/points/lxn4vdr03-1720023053137.jpg",
        "location": "大泉中学校",
        "point_id": "lxn4vdr03",
        "point_name": "練馬区立大泉中学校 大泉学園通り",
        "remark": ""
      },
      "type": "Feature"
    },
    {
      "geometry": {
        "coordinates": [
          139.652857,
          35.739791
        ],
        "type": "Point"
      },
      "properties": {
        "bangumi_id": 100444,
        "bangumi_title": "四月是你的谎言",
        "ep_cut": 1,
        "image_url": "https://w.junreimap.com/images/points/100444/ubn41514i_1743693452404.jpg",
        "location": "练马文化中心",
        "point_id": "ubn41514i",
        "point_name": "平成つつじ公園",
        "remark": ""
      },
      "type": "Feature"
    },
    {
      "geometry": {
        "coordinates": [
          139.652883,
          35.739789
        ],
        "type": "Point"
      },
      "properties": {
        "bangumi_id": 100444,
        "bangumi_title": "四月是你的谎言",
        "ep_cut": 1,
        "image_url": "https://w.junreimap.com/images/points/100444/ubn598opo_1743693523037.jpg",
        "location": "练马文化中心",
        "point_id": "ubn598opo",
        "point_name": "平成つつじ公園",
        "remark": ""
      },
      "type": "Feature"
    },
    {
      "geometry": {
        "coordinates": [
          139.653024,
          35.739097
        ],
        "type": "Point"
      },
      "properties": {
        "bangumi_id": 100444,
        "bangumi_title": "四月是你的谎言",
        "ep_cut": 1,
        "image_url": "https://w.junreimap.com/images/user/0/bangumi/100444/points/m5apj708r-1720623010082.jpg",
        "location": "练马文化中心",
        "point_id": "m5apj708r",
        "point_name": "平成つつじ公園",
        "remark": "施工中，设施已经被拆"
      },
      "type": "Feature"
    },
    {
      "geometry": {
        "coordinates": [
          139.6533,
          35.738277
        ],
        "type": "Point"
      },
      "properties": {
        "bangumi_id": 100444,
        "bangumi_title": "四月是你的谎言",
        "ep_cut": 1,
        "image_url": "https://w.junreimap.com/images/user/1130/bangumi/100444/points/51i51ymmi-1720018430933.jpg",
        "location": "练马文化中心",
        "point_id": "51i51ymmi",
        "point_name": "待ち合わせ場所と演奏場所になります",
        "remark": "第1话 四人的集合场所和薰的演奏场所  *注：此区域包括薰演奏时站在其上的设施在内的全部游乐设施均已被拆除"
      },
      "type": "Feature"
    },
    {
      "geometry": {
        "coordinates": [
          139.653612,
          35.738822
        ],
        "type": "Point"
      },
      "properties": {
        "bangumi_id": 100444,
        "bangumi_title": "四月是你的谎言",
        "ep_cut": 1,
        "image_url": "https://w.junreimap.com/images/user/2184/bangumi/100444/points/kg9elv-1748247036995.jpg",
        "location": "练马文化中心",
        "point_id": "kg9elv",
        "point_name": "練馬区立平成つつじ公園",
        "remark": "游乐设施已经拆除，但背景是对的"
      },
      "type": "Feature"
    },
    {
      "geometry": {
        "coordinates": [
          139.654112,
          35.739009
        ],
        "type": "Point"
      },
      "properties": {
        "bangumi_id": 100444,
        "bangumi_title": "四月是你的谎言",
        "ep_cut": 1,
        "image_url": "https://w.junreimap.com/images/points/100444/ubnixbtrk_1743694089523.jpg",
        "location": "练马文化中心",
        "point_id": "ubnixbtrk",
        "point_name": "練馬文化センター",
        "remark": ""
      },
      "type": "Feature"
    },
    {
      "geometry": {
        "coordinates": [
          139.654088,
          35.739049
        ],
        "type": "Point"
      },
      "properties": {
        "bangumi_id": 100444,
        "bangumi_title": "四月是你的谎言",
        "ep_cut": 1,
        "image_url": "https://w.junreimap.com/images/points/100444/ubnjvsn2a_1743694154821.jpg",
        "location": "练马文化中心",
        "point_id": "ubnjvsn2a",
        "point_name": "練馬文化センター",
        "remark": ""
      },
      "type": "Feature"
    },
    {
      "geometry": {
        "coordinates": [
          139.653755,
          35.739366
        ],
        "type": "Point"
      },
      "properties": {
        "bangumi_id": 100444,
        "bangumi_title": "四月是你的谎言",
        "ep_cut": 2,
        "image_url": "https://w.junreimap.com/images/points/100444/ubnn0xmgn_1743693565046.jpg",
        "location": "练马文化中心",
        "point_id": "ubnn0xmgn",
        "point_name": "藤和ホール",
        "remark": ""
      },
      "type": "Feature"
    },
    {
      "geometry": {
        "coordinates": [
          139.654166,
          35.739058
        ],
        "type": "Point"
      },
      "properties": {
        "bangumi_id": 100444,
        "bangumi_title": "四月是你的谎言",
        "ep_cut": 2,
        "image_url": "https://w.junreimap.com/images/user/1130/bangumi/100444/points/51i51ynk8-1719991574072.jpg",
        "location": "练马文化中心",
        "point_id": "51i51ynk8",
        "point_name": "練馬文化センター",
        "remark": "TOWAHALL（練馬文化センター）へ二人乗りで到着するシーン"
      },
      "type": "Feature"
    },
    {
      "geometry": {
        "coordinates": [
          139.653849,
          35.739368
        ],
        "type": "Point"
      },
      "properties": {
        "bangumi_id": 100444,
        "bangumi_title": "四月是你的谎言",
        "ep_cut": 2,
        "image_url": "https://w.junreimap.com/images/points/100444/ubno97hjb_1743693599022.jpg",
        "location": "练马文化中心",
        "point_id": "ubno97hjb",
        "point_name": "藤和ホール",
        "remark": ""
      },
      "type": "Feature"
    },
    {
      "geometry": {
        "coordinates": [
          139.653813,
          35.739292
        ],
        "type": "Point"
      },
      "properties": {
        "bangumi_id": 100444,
        "bangumi_title": "四月是你的谎言",
        "ep_cut": 2,
        "image_url": "https://w.junreimap.com/images/points/100444/ubnpgykz0_1743693866017.jpg",
        "location": "练马文化中心",
        "point_id": "ubnpgykz0",
        "point_name": "藤和ホール",
        "remark": ""
      },
      "type": "Feature"
    },
    {
      "geometry": {
        "coordinates": [
          139.65385,
          35.739292
        ],
        "type": "Point"
      },
      "properties": {
        "bangumi_id": 100444,
        "bangumi_title": "四月是你的谎言",
        "ep_cut": 2,
        "image_url": "https://w.junreimap.com/images/points/100444/ubnqdwhry_1743694030148.jpg",
        "location": "练马文化中心",
        "point_id": "ubnqdwhry",
        "point_name": "藤和ホール",
        "remark": ""
      },
      "type": "Feature"
    },
    {
      "geometry": {
        "coordinates": [
          139.586971,
          35.7268
        ],
        "type": "Point"
      },
      "properties": {
        "bangumi_id": 100444,
        "bangumi_title": "四月是你的谎言",
        "ep_cut": 2,
        "image_url": "https://w.junreimap.com/images/user/0/bangumi/100444/points/nfdr68q4b-1724234284298.jpg",
        "location": "最终回的铁道口",
        "point_id": "nfdr68q4b",
        "point_name": "線路脇の道路　上石神井駅付近",
        "remark": ""
      },
      "type": "Feature"
    },
    {
      "geometry": {
        "coordinates": [
          139.617268,
          35.739305
        ],
        "type": "Point"
      },
      "properties": {
        "bangumi_id": 100444,
        "bangumi_title": "四月是你的谎言",
        "ep_cut": 2,
        "image_url": "https://w.junreimap.com/images/points/100444/ubnubmwga_1743694236195.jpg",
        "location": "南田中团地",
        "point_id": "ubnubmwga",
        "point_name": "南田中団地",
        "remark": ""
      },
      "type": "Feature"
    },
    {
      "geometry": {
        "coordinates": [
          139.617337,
          35.739314
        ],
        "type": "Point"
      },
      "properties": {
        "bangumi_id": 100444,
        "bangumi_title": "四月是你的谎言",
        "ep_cut": 2,
        "image_url": "https://w.junreimap.com/images/points/100444/ubnvqpdiw_1743694298949.jpg",
        "location": "南田中团地",
        "point_id": "ubnvqpdiw",
        "point_name": "南田中団地",
        "remark": ""
      },
      "type": "Feature"
    },
    {
      "geometry": {
        "coordinates": [
          139.617305,
          35.739315
        ],
        "type": "Point"
      },
      "properties": {
        "bangumi_id": 100444,
        "bangumi_title": "四月是你的谎言",
        "ep_cut": 2,
        "image_url": "https://w.junreimap.com/images/user/1130/bangumi/100444/points/lxmsprhgc-1720022212695.jpg",
        "location": "南田中团地",
        "point_id": "lxmsprhgc",
        "point_name": "南田中団地",
        "remark": "薰第一次称公生为“友人A”的樱花树下"
      },
      "type": "Feature"
    },
    {
      "geometry": {
        "coordinates": [
          139.617373,
          35.73931
        ],
        "type": "Point"
      },
      "properties": {
        "bangumi_id": 100444,
        "bangumi_title": "四月是你的谎言",
        "ep_cut": 2,
        "image_url": "https://w.junreimap.com/images/points/100444/ubnw1iu2d_1743694387826.jpg",
        "location": "南田中团地",
        "point_id": "ubnw1iu2d",
        "point_name": "南田中団地",
        "remark": ""
      },
      "type": "Feature"
    },
    {
      "geometry": {
        "coordinates": [
          139.617304,
          35.739291
        ],
        "type": "Point"
      },
      "properties": {
        "bangumi_id": 100444,
        "bangumi_title": "四月是你的谎言",
        "ep_cut": 2,
        "image_url": "https://w.junreimap.com/images/points/100444/ubnw4owmp_1743694426995.jpg",
        "location": "南田中团地",
        "point_id": "ubnw4owmp",
        "point_name": "南田中団地",
        "remark": ""
      },
      "type": "Feature"
    },
    {
      "geometry": {
        "coordinates": [
          139.588629,
          35.738441
        ],
        "type": "Point"
      },
      "properties": {
        "bangumi_id": 100444,
        "bangumi_title": "四月是你的谎言",
        "ep_cut": 3,
        "image_url": "https://w.junreimap.com/images/points/100444/ubo00gdlw_1743694483333.jpg",
        "location": "练马区",
        "point_id": "ubo00gdlw",
        "point_name": "ラ・プリムール",
        "remark": "来吃焦糖华夫饼的薰"
      },
      "type": "Feature"
    },
    {
      "geometry": {
        "coordinates": [
          139.588632,
          35.738466
        ],
        "type": "Point"
      },
      "properties": {
        "bangumi_id": 100444,
        "bangumi_title": "四月是你的谎言",
        "ep_cut": 3,
        "image_url": "https://w.junreimap.com/images/user/1130/bangumi/100444/points/51i51yna1-1719991479484.jpg",
        "location": "练马区",
        "point_id": "51i51yna1",
        "point_name": "La Primeur カフェ",
        "remark": "カフェ「ラ・プリムール カフェ」。かをりが頼んだ「リンゴとナッツのキャラメルワッフル」もあります。公生が弾いたピアノは暖炉として置いてあります。"
      },
      "type": "Feature"
    },
    {
      "geometry": {
        "coordinates": [
          139.589783,
          35.748754
        ],
        "type": "Point"
      },
      "properties": {
        "bangumi_id": 100444,
        "bangumi_title": "四月是你的谎言",
        "ep_cut": 3,
        "image_url": "https://w.junreimap.com/images/points/100444/ubo7qqti5_1743694551597.jpg",
        "location": "泉こぶし公園",
        "point_id": "ubo7qqti5",
        "point_name": "泉こぶし公園",
        "remark": ""
      },
      "type": "Feature"
    },
    {
      "geometry": {
        "coordinates": [
          139.589872,
          35.748778
        ],
        "type": "Point"
      },
      "properties": {
        "bangumi_id": 100444,
        "bangumi_title": "四月是你的谎言",
        "ep_cut": 3,
        "image_url": "https://w.junreimap.com/images/points/100444/ubo83efyz_1743694577859.jpg",
        "location": "泉こぶし公園",
        "point_id": "ubo83efyz",
        "point_name": "泉こぶし公園",
        "remark": "这个公园15年重新修缮过，动画中的滑梯已经移除，地面瓷砖也不一样，只剩标志性的门栏和石碑可以分辨出"
      },
      "type": "Feature"
    },
    {
      "geometry": {
        "coordinates": [
          139.589834,
          35.748772
        ],
        "type": "Point"
      },
      "properties": {
        "bangumi_id": 100444,
        "bangumi_title": "四月是你的谎言",
        "ep_cut": 3,
        "image_url": "https://w.junreimap.com/images/user/1130/bangumi/100444/points/51i51yn9y-1720022019776.jpg",
        "location": "泉こぶし公園",
        "point_id": "51i51yn9y",
        "point_name": "泉こぶし公園",
        "remark": "泉こぶし公園になります。公生が猫を見つけ、ピアノを弾きたくない理由を聞く。そしてかをりが「友人A」を「伴奏者」に任命するシーン"
      },
      "type": "Feature"
    },
    {
      "geometry": {
        "coordinates": [
          139.61905,
          35.719637
        ],
        "type": "Point"
      },
      "properties": {
        "bangumi_id": 100444,
        "bangumi_title": "四月是你的谎言",
        "ep_cut": 3,
        "image_url": "https://w.junreimap.com/images/points/100444/uboazyh2o_1743694792648.jpg",
        "location": "杉并区",
        "point_id": "uboazyh2o",
        "point_name": "杉並区立中瀬中学校の角",
        "remark": ""
      },
      "type": "Feature"
    },
    {
      "geometry": {
        "coordinates": [
          139.619068,
          35.71966
        ],
        "type": "Point"
      },
      "properties": {
        "bangumi_id": 100444,
        "bangumi_title": "四月是你的谎言",
        "ep_cut": 3,
        "image_url": "https://w.junreimap.com/images/points/100444/ubobc5y4e_1743694824244.jpg",
        "location": "杉并区",
        "point_id": "ubobc5y4e",
        "point_name": "杉並区立中瀬中学校の角",
        "remark": ""
      },
      "type": "Feature"
    },
    {
      "geometry": {
        "coordinates": [
          139.619612,
          35.718819
        ],
        "type": "Point"
      },
      "properties": {
        "bangumi_id": 100444,
        "bangumi_title": "四月是你的谎言",
        "ep_cut": 3,
        "image_url": "https://w.junreimap.com/images/points/100444/ubochcosu_1743694876934.jpg",
        "location": "杉并区",
        "point_id": "ubochcosu",
        "point_name": "中瀬中学校（バス）",
        "remark": ""
      },
      "type": "Feature"
    },
    {
      "geometry": {
        "coordinates": [
          139.574965,
          35.723097
        ],
        "type": "Point"
      },
      "properties": {
        "bangumi_id": 100444,
        "bangumi_title": "四月是你的谎言",
        "ep_cut": 3,
        "image_url": "https://w.junreimap.com/images/points/100444/ubogsyp3m_1743695260247.jpg",
        "location": "练马区",
        "point_id": "ubogsyp3m",
        "point_name": "関町郵便局前",
        "remark": "椿下车的公交站"
      },
      "type": "Feature"
    },
    {
      "geometry": {
        "coordinates": [
          139.654018,
          35.738738
        ],
        "type": "Point"
      },
      "properties": {
        "bangumi_id": 100444,
        "bangumi_title": "四月是你的谎言",
        "ep_cut": 4,
        "image_url": "https://w.junreimap.com/images/points/100444/uboj3idqm_1743693932043.jpg",
        "location": "练马文化中心",
        "point_id": "uboj3idqm",
        "point_name": "藤和ホール前",
        "remark": ""
      },
      "type": "Feature"
    },
    {
      "geometry": {
        "coordinates": [
          139.653993,
          35.738734
        ],
        "type": "Point"
      },
      "properties": {
        "bangumi_id": 100444,
        "bangumi_title": "四月是你的谎言",
        "ep_cut": 4,
        "image_url": "https://w.junreimap.com/images/points/100444/ubojz1x6z_1743693979311.jpg",
        "location": "练马文化中心",
        "point_id": "ubojz1x6z",
        "point_name": "藤和ホール前",
        "remark": ""
      },
      "type": "Feature"
    },
    {
      "geometry": {
        "coordinates": [
          139.589746,
          35.748852
        ],
        "type": "Point"
      },
      "properties": {
        "bangumi_id": 100444,
        "bangumi_title": "四月是你的谎言",
        "ep_cut": 4,
        "image_url": "https://w.junreimap.com/images/points/100444/ubo8kr9m8_1743694613030.jpg",
        "location": "泉こぶし公園",
        "point_id": "ubo8kr9m8",
        "point_name": "泉こぶし公園",
        "remark": ""
      },
      "type": "Feature"
    },
    {
      "geometry": {
        "coordinates": [
          139.551064,
          35.766536
        ],
        "type": "Point"
      },
      "properties": {
        "bangumi_id": 100444,
        "bangumi_title": "四月是你的谎言",
        "ep_cut": 5,
        "image_url": "https://w.junreimap.com/images/points/100444/ubozzg075_1743692961633.jpg",
        "location": "前通り橋",
        "point_id": "ubozzg075",
        "point_name": "前通り橋",
        "remark": ""
      },
      "type": "Feature"
    },
    {
      "geometry": {
        "coordinates": [
          139.629756,
          35.762152
        ],
        "type": "Point"
      },
      "properties": {
        "bangumi_id": 100444,
        "bangumi_title": "四月是你的谎言",
        "ep_cut": 5,
        "image_url": "https://w.junreimap.com/images/user/1130/bangumi/100444/points/51i51yo69-1720022529276.jpg",
        "location": "练马区",
        "point_id": "51i51yo69",
        "point_name": "練馬光が丘病院",
        "remark": "宮園かをりが入院する病院"
      },
      "type": "Feature"
    },
    {
      "geometry": {
        "coordinates": [
          139.619632,
          35.71885
        ],
        "type": "Point"
      },
      "properties": {
        "bangumi_id": 100444,
        "bangumi_title": "四月是你的谎言",
        "ep_cut": 5,
        "image_url": "https://w.junreimap.com/images/points/100444/ubouvak2d_1743692651819.jpg",
        "location": "杉并区",
        "point_id": "ubouvak2d",
        "point_name": "中瀬中学校",
        "remark": ""
      },
      "type": "Feature"
    },
    {
      "geometry": {
        "coordinates": [
          139.551077,
          35.766576
        ],
        "type": "Point"
      },
      "properties": {
        "bangumi_id": 100444,
        "bangumi_title": "四月是你的谎言",
        "ep_cut": 5,
        "image_url": "https://w.junreimap.com/images/user/1130/bangumi/100444/points/lxncr817u-1720023484970.jpg",
        "location": "前通り橋",
        "point_id": "lxncr817u",
        "point_name": "前通り橋",
        "remark": "第5话 出院的薰等待公生的场景"
      },
      "type": "Feature"
    },
    {
      "geometry": {
        "coordinates": [
          139.551067,
          35.766515
        ],
        "type": "Point"
      },
      "properties": {
        "bangumi_id": 100444,
        "bangumi_title": "四月是你的谎言",
        "ep_cut": 5,
        "image_url": "https://w.junreimap.com/images/points/100444/ubp2r6r27_1743693128132.jpg",
        "location": "前通り橋",
        "point_id": "ubp2r6r27",
        "point_name": "前通り橋",
        "remark": ""
      },
      "type": "Feature"
    },
    {
      "geometry": {
        "coordinates": [
          139.551046,
          35.766517
        ],
        "type": "Point"
      },
      "properties": {
        "bangumi_id": 100444,
        "bangumi_title": "四月是你的谎言",
        "ep_cut": 5,
        "image_url": "https://w.junreimap.com/images/points/100444/ubp3ywsyr_1743693201026.jpg",
        "location": "前通り橋",
        "point_id": "ubp3ywsyr",
        "point_name": "前通り橋",
        "remark": ""
      },
      "type": "Feature"
    },
    {
      "geometry": {
        "coordinates": [
          139.551089,
          35.766539
        ],
        "type": "Point"
      },
      "properties": {
        "bangumi_id": 100444,
        "bangumi_title": "四月是你的谎言",
        "ep_cut": 5,
        "image_url": "https://w.junreimap.com/images/points/100444/ubp4nvmb4_1743693243626.jpg",
        "location": "前通り橋",
        "point_id": "ubp4nvmb4",
        "point_name": "前通り橋",
        "remark": ""
      },
      "type": "Feature"
    },
    {
      "geometry": {
        "coordinates": [
          139.551091,
          35.766591
        ],
        "type": "Point"
      },
      "properties": {
        "bangumi_id": 100444,
        "bangumi_title": "四月是你的谎言",
        "ep_cut": 5,
        "image_url": "https://w.junreimap.com/images/points/100444/ubp6g4unt_1743693351527.jpg",
        "location": "前通り橋",
        "point_id": "ubp6g4unt",
        "point_name": "前通り橋",
        "remark": "ED画面"
      },
      "type": "Feature"
    },
    {
      "geometry": {
        "coordinates": [
          139.589641,
          35.748673
        ],
        "type": "Point"
      },
      "properties": {
        "bangumi_id": 100444,
        "bangumi_title": "四月是你的谎言",
        "ep_cut": 6,
        "image_url": "https://w.junreimap.com/images/points/100444/ubrdk9q66_1743698134697.jpg",
        "location": "泉こぶし公園",
        "point_id": "ubrdk9q66",
        "point_name": "泉こぶし公園",
        "remark": ""
      },
      "type": "Feature"
    },
    {
      "geometry": {
        "coordinates": [
          139.582901,
          35.749908
        ],
        "type": "Point"
      },
      "properties": {
        "bangumi_id": 100444,
        "bangumi_title": "四月是你的谎言",
        "ep_cut": 6,
        "image_url": "https://w.junreimap.com/images/user/0/bangumi/100444/points/nfclvj4mz-1724231705354.jpg",
        "location": "练马区",
        "point_id": "nfclvj4mz",
        "point_name": "大泉学園～保谷駅間の道",
        "remark": ""
      },
      "type": "Feature"
    },
    {
      "geometry": {
        "coordinates": [
          139.589918,
          35.748765
        ],
        "type": "Point"
      },
      "properties": {
        "bangumi_id": 100444,
        "bangumi_title": "四月是你的谎言",
        "ep_cut": 6,
        "image_url": "https://w.junreimap.com/images/points/100444/ubrash0by_1743698005796.jpg",
        "location": "泉こぶし公園",
        "point_id": "ubrash0by",
        "point_name": "泉こぶし公園",
        "remark": ""
      },
      "type": "Feature"
    },
    {
      "geometry": {
        "coordinates": [
          139.589676,
          35.748682
        ],
        "type": "Point"
      },
      "properties": {
        "bangumi_id": 100444,
        "bangumi_title": "四月是你的谎言",
        "ep_cut": 6,
        "image_url": "https://w.junreimap.com/images/points/100444/ubrcxoppo_1743698096434.jpg",
        "location": "泉こぶし公園",
        "point_id": "ubrcxoppo",
        "point_name": "泉こぶし公園",
        "remark": ""
      },
      "type": "Feature"
    },
    {
      "geometry": {
        "coordinates": [
          139.582376,
          35.749398
        ],
        "type": "Point"
      },
      "properties": {
        "bangumi_id": 100444,
        "bangumi_title": "四月是你的谎言",
        "ep_cut": 6,
        "image_url": "https://w.junreimap.com/images/points/100444/ubrgqg6rs_1743698328011.jpg",
        "location": "练马区",
        "point_id": "ubrgqg6rs",
        "point_name": "椿の試合の帰り道に公生が心配して待っていた場面",
        "remark": ""
      },
      "type": "Feature"
    },
    {
      "geometry": {
        "coordinates": [
          139.582604,
          35.749858
        ],
        "type": "Point"
      },
      "properties": {
        "bangumi_id": 100444,
        "bangumi_title": "四月是你的谎言",
        "ep_cut": 6,
        "image_url": "https://w.junreimap.com/images/user/0/bangumi/100444/points/nfc9b8o7m-1724231291345.jpg",
        "location": "练马区",
        "point_id": "nfc9b8o7m",
        "point_name": "大泉学園～保谷駅間の踏切",
        "remark": ""
      },
      "type": "Feature"
    },
    {
      "geometry": {
        "coordinates": [
          139.593876,
          35.751749
        ],
        "type": "Point"
      },
      "properties": {
        "bangumi_id": 100444,
        "bangumi_title": "四月是你的谎言",
        "ep_cut": 6,
        "image_url": "https://w.junreimap.com/images/user/0/bangumi/100444/points/nfbwrakw6-1724230409361.jpg",
        "location": "练马区",
        "point_id": "nfbwrakw6",
        "point_name": "ブッチャーズテーブル",
        "remark": ""
      },
      "type": "Feature"
    },
    {
      "geometry": {
        "coordinates": [
          139.582436,
          35.749543
        ],
        "type": "Point"
      },
      "properties": {
        "bangumi_id": 100444,
        "bangumi_title": "四月是你的谎言",
        "ep_cut": 6,
        "image_url": "https://w.junreimap.com/images/user/1130/bangumi/100444/points/51i51yo2h-1720022631073.jpg",
        "location": "练马区",
        "point_id": "51i51yo2h",
        "point_name": "椿の試合の帰り道に公生が心配して待っていた場面",
        "remark": ""
      },
      "type": "Feature"
    },
    {
      "geometry": {
        "coordinates": [
          139.587317,
          35.740172
        ],
        "type": "Point"
      },
      "properties": {
        "bangumi_id": 100444,
        "bangumi_title": "四月是你的谎言",
        "ep_cut": 7,
        "image_url": "https://w.junreimap.com/images/points/100444/ubrl0wp2l_1743698587145.jpg",
        "location": "儿童公园",
        "point_id": "ubrl0wp2l",
        "point_name": "練馬区おはよう児童公園",
        "remark": ""
      },
      "type": "Feature"
    },
    {
      "geometry": {
        "coordinates": [
          139.587096,
          35.740153
        ],
        "type": "Point"
      },
      "properties": {
        "bangumi_id": 100444,
        "bangumi_title": "四月是你的谎言",
        "ep_cut": 7,
        "image_url": "https://w.junreimap.com/images/points/100444/ubrmi7hxx_1743698674796.jpg",
        "location": "儿童公园",
        "point_id": "ubrmi7hxx",
        "point_name": "練馬区おはよう児童公園",
        "remark": ""
      },
      "type": "Feature"
    },
    {
      "geometry": {
        "coordinates": [
          139.586928,
          35.740092
        ],
        "type": "Point"
      },
      "properties": {
        "bangumi_id": 100444,
        "bangumi_title": "四月是你的谎言",
        "ep_cut": 7,
        "image_url": "https://w.junreimap.com/images/points/100444/ubrnb71p5_1743698724327.jpg",
        "location": "儿童公园",
        "point_id": "ubrnb71p5",
        "point_name": "練馬区おはよう児童公園",
        "remark": ""
      },
      "type": "Feature"
    },
    {
      "geometry": {
        "coordinates": [
          139.680801,
          35.714578
        ],
        "type": "Point"
      },
      "properties": {
        "bangumi_id": 100444,
        "bangumi_title": "四月是你的谎言",
        "ep_cut": 7,
        "image_url": "https://w.junreimap.com/images/points/100444/ubrpygj3a_1743698919707.jpg",
        "location": "落合公园",
        "point_id": "ubrpygj3a",
        "point_name": "新宿区立落合公園",
        "remark": "根据图中标志性告示牌结合谷歌地图2022年4月更新的地图来看新位置更符合拍摄视角（实景截图上传可能失败）建议复核参考定位35°42'52.5\"N 139°40'50.8\"E"
      },
      "type": "Feature"
    },
    {
      "geometry": {
        "coordinates": [
          139.680723,
          35.714864
        ],
        "type": "Point"
      },
      "properties": {
        "bangumi_id": 100444,
        "bangumi_title": "四月是你的谎言",
        "ep_cut": 7,
        "image_url": "https://w.junreimap.com/images/points/100444/ubrqulvw2_1743698938283.jpg",
        "location": "落合公园",
        "point_id": "ubrqulvw2",
        "point_name": "新宿区立落合公園",
        "remark": ""
      },
      "type": "Feature"
    },
    {
      "geometry": {
        "coordinates": [
          139.68064,
          35.714961
        ],
        "type": "Point"
      },
      "properties": {
        "bangumi_id": 100444,
        "bangumi_title": "四月是你的谎言",
        "ep_cut": 7,
        "image_url": "https://w.junreimap.com/images/points/100444/ubrru6dyl_1743698997745.jpg",
        "location": "落合公园",
        "point_id": "ubrru6dyl",
        "point_name": "新宿区立落合公園",
        "remark": ""
      },
      "type": "Feature"
    },
    {
      "geometry": {
        "coordinates": [
          139.680723,
          35.714961
        ],
        "type": "Point"
      },
      "properties": {
        "bangumi_id": 100444,
        "bangumi_title": "四月是你的谎言",
        "ep_cut": 7,
        "image_url": "https://w.junreimap.com/images/points/100444/ubrsms5s8_1743699068619.jpg",
        "location": "落合公园",
        "point_id": "ubrsms5s8",
        "point_name": "新宿区立落合公園",
        "remark": ""
      },
      "type": "Feature"
    },
    {
      "geometry": {
        "coordinates": [
          139.680773,
          35.714904
        ],
        "type": "Point"
      },
      "properties": {
        "bangumi_id": 100444,
        "bangumi_title": "四月是你的谎言",
        "ep_cut": 7,
        "image_url": "https://w.junreimap.com/images/points/100444/ubrtjc2cj_1743699102712.jpg",
        "location": "落合公园",
        "point_id": "ubrtjc2cj",
        "point_name": "新宿区立落合公園",
        "remark": ""
      },
      "type": "Feature"
    },
    {
      "geometry": {
        "coordinates": [
          139.680401,
          35.714741
        ],
        "type": "Point"
      },
      "properties": {
        "bangumi_id": 100444,
        "bangumi_title": "四月是你的谎言",
        "ep_cut": 7,
        "image_url": "https://w.junreimap.com/images/user/1130/bangumi/100444/points/51i51ynu3-1720020369738.jpg",
        "location": "落合公园",
        "point_id": "51i51ynu3",
        "point_name": "公生とかをりが手を合わせるシーンがある公園になります。",
        "remark": ""
      },
      "type": "Feature"
    },
    {
      "geometry": {
        "coordinates": [
          139.487839,
          35.735369
        ],
        "type": "Point"
      },
      "properties": {
        "bangumi_id": 100444,
        "bangumi_title": "四月是你的谎言",
        "ep_cut": 7,
        "image_url": "https://w.junreimap.com/images/points/100444/ubry0tdp7_1743699372716.jpg",
        "location": "小平",
        "point_id": "ubry0tdp7",
        "point_name": "ルネこだいら(小平市民文化会館)",
        "remark": "７,８,９話毎報音楽コンクールに出ることになった公生。と応援に来た渡、かをり、椿たちが演奏前に公生を見送る場所です。"
      },
      "type": "Feature"
    },
    {
      "geometry": {
        "coordinates": [
          139.487849,
          35.735438
        ],
        "type": "Point"
      },
      "properties": {
        "bangumi_id": 100444,
        "bangumi_title": "四月是你的谎言",
        "ep_cut": 7,
        "image_url": "https://w.junreimap.com/images/points/100444/ubrzhuvsi_1743699462093.jpg",
        "location": "小平",
        "point_id": "ubrzhuvsi",
        "point_name": "ルネこだいら(小平市民文化会館)",
        "remark": ""
      },
      "type": "Feature"
    },
    {
      "geometry": {
        "coordinates": [
          139.487715,
          35.735326
        ],
        "type": "Point"
      },
      "properties": {
        "bangumi_id": 100444,
        "bangumi_title": "四月是你的谎言",
        "ep_cut": 7,
        "image_url": "https://w.junreimap.com/images/points/100444/ubs080wrj_1743699505756.jpg",
        "location": "小平",
        "point_id": "ubs080wrj",
        "point_name": "ルネこだいら(小平市民文化会館)",
        "remark": ""
      },
      "type": "Feature"
    },
    {
      "geometry": {
        "coordinates": [
          139.48762,
          35.735223
        ],
        "type": "Point"
      },
      "properties": {
        "bangumi_id": 100444,
        "bangumi_title": "四月是你的谎言",
        "ep_cut": 7,
        "image_url": "https://w.junreimap.com/images/points/100444/ubs0vp51s_1743699544261.jpg",
        "location": "小平",
        "point_id": "ubs0vp51s",
        "point_name": "ルネこだいら(小平市民文化会館)",
        "remark": ""
      },
      "type": "Feature"
    },
    {
      "geometry": {
        "coordinates": [
          139.587522,
          35.740199
        ],
        "type": "Point"
      },
      "properties": {
        "bangumi_id": 100444,
        "bangumi_title": "四月是你的谎言",
        "ep_cut": 10,
        "image_url": "https://w.junreimap.com/images/points/100444/ubupsxmly_1743705421486.jpg",
        "location": "儿童公园",
        "point_id": "ubupsxmly",
        "point_name": "練馬区おはよう児童公園",
        "remark": "10話　公生と渡の帰り道"
      },
      "type": "Feature"
    },
    {
      "geometry": {
        "coordinates": [
          139.48739,
          35.735091
        ],
        "type": "Point"
      },
      "properties": {
        "bangumi_id": 100444,
        "bangumi_title": "四月是你的谎言",
        "ep_cut": 11,
        "image_url": "https://w.junreimap.com/images/points/100444/uburzn1cv_1743705537987.jpg",
        "location": "小平",
        "point_id": "uburzn1cv",
        "point_name": "ルネこだいら(小平市民文化会館)",
        "remark": ""
      },
      "type": "Feature"
    },
    {
      "geometry": {
        "coordinates": [
          139.487397,
          35.735012
        ],
        "type": "Point"
      },
      "properties": {
        "bangumi_id": 100444,
        "bangumi_title": "四月是你的谎言",
        "ep_cut": 11,
        "image_url": "https://w.junreimap.com/images/points/100444/ubusvpj8p_1743705590923.jpg",
        "location": "小平",
        "point_id": "ubusvpj8p",
        "point_name": "ルネこだいら(小平市民文化会館)",
        "remark": ""
      },
      "type": "Feature"
    },
    {
      "geometry": {
        "coordinates": [
          139.48767,
          35.735193
        ],
        "type": "Point"
      },
      "properties": {
        "bangumi_id": 100444,
        "bangumi_title": "四月是你的谎言",
        "ep_cut": 11,
        "image_url": "https://w.junreimap.com/images/points/100444/ubutjluu6_1743705631307.jpg",
        "location": "小平",
        "point_id": "ubutjluu6",
        "point_name": "ルネこだいら(小平市民文化会館)",
        "remark": "“因为我是友人A啊”"
      },
      "type": "Feature"
    },
    {
      "geometry": {
        "coordinates": [
          139.586121,
          35.726847
        ],
        "type": "Point"
      },
      "properties": {
        "bangumi_id": 100444,
        "bangumi_title": "四月是你的谎言",
        "ep_cut": 11,
        "image_url": "https://w.junreimap.com/images/points/100444/ubuwfm5dw_1743705806676.jpg",
        "location": "最终回的铁道口",
        "point_id": "ubuwfm5dw",
        "point_name": "西武新宿線・上石神井駅の近くの踏切",
        "remark": ""
      },
      "type": "Feature"
    },
    {
      "geometry": {
        "coordinates": [
          139.586317,
          35.726859
        ],
        "type": "Point"
      },
      "properties": {
        "bangumi_id": 100444,
        "bangumi_title": "四月是你的谎言",
        "ep_cut": 11,
        "image_url": "https://w.junreimap.com/images/user/1130/bangumi/100444/points/51i51ynz5-1720020481073.jpg",
        "location": "最终回的铁道口",
        "point_id": "51i51ynz5",
        "point_name": "みんなで走るシーンです。",
        "remark": ""
      },
      "type": "Feature"
    },
    {
      "geometry": {
        "coordinates": [
          139.5697,
          35.748914
        ],
        "type": "Point"
      },
      "properties": {
        "bangumi_id": 100444,
        "bangumi_title": "四月是你的谎言",
        "ep_cut": 11,
        "image_url": "https://w.junreimap.com/images/points/100444/ubv9kaj60_1743706625877.jpg",
        "location": "练马区",
        "point_id": "ubv9kaj60",
        "point_name": "ARCACHON",
        "remark": "动漫中薰家的模型店，此为搬迁后的新地址，四谎的味道依然很浓，值得一去。"
      },
      "type": "Feature"
    },
    {
      "geometry": {
        "coordinates": [
          139.551087,
          35.766564
        ],
        "type": "Point"
      },
      "properties": {
        "bangumi_id": 100444,
        "bangumi_title": "四月是你的谎言",
        "ep_cut": 11,
        "image_url": "https://w.junreimap.com/images/points/100444/ubvbv4dud_1743706738441.jpg",
        "location": "前通り橋",
        "point_id": "ubvbv4dud",
        "point_name": "前通り橋",
        "remark": ""
      },
      "type": "Feature"
    },
    {
      "geometry": {
        "coordinates": [
          139.551066,
          35.766558
        ],
        "type": "Point"
      },
      "properties": {
        "bangumi_id": 100444,
        "bangumi_title": "四月是你的谎言",
        "ep_cut": 11,
        "image_url": "https://w.junreimap.com/images/points/100444/ubvcs9g5q_1743706794060.jpg",
        "location": "前通り橋",
        "point_id": "ubvcs9g5q",
        "point_name": "前通り橋",
        "remark": ""
      },
      "type": "Feature"
    },
    {
      "geometry": {
        "coordinates": [
          139.551003,
          35.766664
        ],
        "type": "Point"
      },
      "properties": {
        "bangumi_id": 100444,
        "bangumi_title": "四月是你的谎言",
        "ep_cut": 11,
        "image_url": "https://w.junreimap.com/images/user/1130/bangumi/100444/points/51i51yo5v-1720020550882.jpg",
        "location": "前通り橋",
        "point_id": "51i51yo5v",
        "point_name": "11話　土稜橋　かをりが公生にコンクールの感想を聞いた場所",
        "remark": ""
      },
      "type": "Feature"
    },
    {
      "geometry": {
        "coordinates": [
          139.55115,
          35.76645
        ],
        "type": "Point"
      },
      "properties": {
        "bangumi_id": 100444,
        "bangumi_title": "四月是你的谎言",
        "ep_cut": 11,
        "image_url": "https://w.junreimap.com/images/points/100444/ubvfc8pag_1743706950257.jpg",
        "location": "前通り橋",
        "point_id": "ubvfc8pag",
        "point_name": "前通り橋",
        "remark": "两人看萤火虫的地方"
      },
      "type": "Feature"
    },
    {
      "geometry": {
        "coordinates": [
          139.551179,
          35.766439
        ],
        "type": "Point"
      },
      "properties": {
        "bangumi_id": 100444,
        "bangumi_title": "四月是你的谎言",
        "ep_cut": 11,
        "image_url": "https://w.junreimap.com/images/points/100444/ubvggum7l_1743707016815.jpg",
        "location": "前通り橋",
        "point_id": "ubvggum7l",
        "point_name": "前通り橋",
        "remark": ""
      },
      "type": "Feature"
    },
    {
      "geometry": {
        "coordinates": [
          139.551134,
          35.766455
        ],
        "type": "Point"
      },
      "properties": {
        "bangumi_id": 100444,
        "bangumi_title": "四月是你的谎言",
        "ep_cut": 11,
        "image_url": "https://w.junreimap.com/images/points/100444/ubvgufjg2_1743707040435.jpg",
        "location": "前通り橋",
        "point_id": "ubvgufjg2",
        "point_name": "前通り橋",
        "remark": ""
      },
      "type": "Feature"
    },
    {
      "geometry": {
        "coordinates": [
          139.551201,
          35.766437
        ],
        "type": "Point"
      },
      "properties": {
        "bangumi_id": 100444,
        "bangumi_title": "四月是你的谎言",
        "ep_cut": 11,
        "image_url": "https://w.junreimap.com/images/points/100444/ubvhtyrxm_1743707099321.jpg",
        "location": "前通り橋",
        "point_id": "ubvhtyrxm",
        "point_name": "前通り橋",
        "remark": ""
      },
      "type": "Feature"
    },
    {
      "geometry": {
        "coordinates": [
          139.672355,
          35.738231
        ],
        "type": "Point"
      },
      "properties": {
        "bangumi_id": 100444,
        "bangumi_title": "四月是你的谎言",
        "ep_cut": 12,
        "image_url": "https://w.junreimap.com/images/points/100444/51i51ynub_1730273909090.jpg",
        "location": "练马区",
        "point_id": "51i51ynub",
        "point_name": "12話　瀬戸 紘子たちと出かけたお祭り",
        "remark": ""
      },
      "type": "Feature"
    },
    {
      "geometry": {
        "coordinates": [
          139.566496,
          35.747013
        ],
        "type": "Point"
      },
      "properties": {
        "bangumi_id": 100444,
        "bangumi_title": "四月是你的谎言",
        "ep_cut": 12,
        "image_url": "https://w.junreimap.com/images/user/1130/bangumi/100444/points/51i51ynzz-1720022711557.jpg",
        "location": "练马区",
        "point_id": "51i51ynzz",
        "point_name": "かをりの実家ケーキ屋のモデル",
        "remark": "取景店铺已经搬走，新店地址请查看其它地标。（新店的外观和装潢依然与动漫很像，值得一去--和泉Ciao留）"
      },
      "type": "Feature"
    },
    {
      "geometry": {
        "coordinates": [
          139.580483,
          35.755845
        ],
        "type": "Point"
      },
      "properties": {
        "bangumi_id": 100444,
        "bangumi_title": "四月是你的谎言",
        "ep_cut": 14,
        "image_url": "https://w.junreimap.com/images/points/100444/pkgh5yjy4_1730274143492.jpg",
        "location": "练马区",
        "point_id": "pkgh5yjy4",
        "point_name": "諏訪神社",
        "remark": ""
      },
      "type": "Feature"
    },
    {
      "geometry": {
        "coordinates": [
          139.522555,
          35.303269
        ],
        "type": "Point"
      },
      "properties": {
        "bangumi_id": 100444,
        "bangumi_title": "四月是你的谎言",
        "ep_cut": 14,
        "image_url": "https://w.junreimap.com/images/user/2184/bangumi/100444/points/kky38a-1748254968356.jpg",
        "location": "稲村ヶ崎",
        "point_id": "kky38a",
        "point_name": "稲村ヶ崎",
        "remark": ""
      },
      "type": "Feature"
    },
    {
      "geometry": {
        "coordinates": [
          139.534013,
          35.309075
        ],
        "type": "Point"
      },
      "properties": {
        "bangumi_id": 100444,
        "bangumi_title": "四月是你的谎言",
        "ep_cut": 14,
        "image_url": "https://w.junreimap.com/images/user/2184/bangumi/100444/points/kkuao5-1748254701956.jpg",
        "location": "",
        "point_id": "kkuao5",
        "point_name": "ローソン\n鎌倉​坂ノ下​店",
        "remark": "买小椿去买冰棒的罗森"
      },
      "type": "Feature"
    },
    {
      "geometry": {
        "coordinates": [
          139.522569,
          35.303034
        ],
        "type": "Point"
      },
      "properties": {
        "bangumi_id": 100444,
        "bangumi_title": "四月是你的谎言",
        "ep_cut": 14,
        "image_url": "https://w.junreimap.com/images/user/2184/bangumi/100444/points/51i51yooo-1748254094616.jpg",
        "location": "稲村ヶ崎",
        "point_id": "51i51yooo",
        "point_name": "稲村ヶ崎",
        "remark": "小时候公生和椿玩的海滩，和椿说清楚要去有音乐科的高中的海滩"
      },
      "type": "Feature"
    },
    {
      "geometry": {
        "coordinates": [
          139.569202,
          35.75693
        ],
        "type": "Point"
      },
      "properties": {
        "bangumi_id": 100444,
        "bangumi_title": "四月是你的谎言",
        "ep_cut": 15,
        "image_url": "https://w.junreimap.com/images/points/100444/51i51yp73_1730273932512.jpg",
        "location": "练马区",
        "point_id": "51i51yp73",
        "point_name": "15話　椿が先輩に振られるシーン",
        "remark": ""
      },
      "type": "Feature"
    },
    {
      "geometry": {
        "coordinates": [
          139.585778,
          35.752124
        ],
        "type": "Point"
      },
      "properties": {
        "bangumi_id": 100444,
        "bangumi_title": "四月是你的谎言",
        "ep_cut": 15,
        "image_url": "https://w.junreimap.com/images/user/0/bangumi/100444/points/51i51yovr-1724232529580.jpg",
        "location": "练马区",
        "point_id": "51i51yovr",
        "point_name": "クリーニングの和光",
        "remark": "相座凪が木から落ちてくるシーン （原店铺名：kamitani，现在已经不是以前的店铺了，与动漫差距较大）"
      },
      "type": "Feature"
    },
    {
      "geometry": {
        "coordinates": [
          139.617799,
          35.739365
        ],
        "type": "Point"
      },
      "properties": {
        "bangumi_id": 100444,
        "bangumi_title": "四月是你的谎言",
        "ep_cut": 16,
        "image_url": "https://w.junreimap.com/images/user/1130/bangumi/100444/points/51i51yoxw-1720020628564.jpg",
        "location": "南田中团地",
        "point_id": "51i51yoxw",
        "point_name": "南田中团地",
        "remark": "再度、かをりと公生が偶然会うシーン"
      },
      "type": "Feature"
    },
    {
      "geometry": {
        "coordinates": [
          139.700093,
          35.694447
        ],
        "type": "Point"
      },
      "properties": {
        "bangumi_id": 100444,
        "bangumi_title": "四月是你的谎言",
        "ep_cut": 16,
        "image_url": "https://w.junreimap.com/images/points/100444/ubvrvgvl8_1743707781611.jpg",
        "location": "西武新宿",
        "point_id": "ubvrvgvl8",
        "point_name": "ジ・エンポリアム",
        "remark": "16话 公生和薰逛的商场--西武新宿PePe 3层THE EMPORIUM"
      },
      "type": "Feature"
    },
    {
      "geometry": {
        "coordinates": [
          139.700115,
          35.694491
        ],
        "type": "Point"
      },
      "properties": {
        "bangumi_id": 100444,
        "bangumi_title": "四月是你的谎言",
        "ep_cut": 16,
        "image_url": "https://w.junreimap.com/images/points/100444/ubvut2kb9_1743707898163.jpg",
        "location": "西武新宿",
        "point_id": "ubvut2kb9",
        "point_name": "hands be",
        "remark": "西武新宿PePe 4层 hands be"
      },
      "type": "Feature"
    },
    {
      "geometry": {
        "coordinates": [
          139.416032,
          35.770281
        ],
        "type": "Point"
      },
      "properties": {
        "bangumi_id": 100444,
        "bangumi_title": "四月是你的谎言",
        "ep_cut": 16,
        "image_url": "",
        "location": "",
        "point_id": "51i51yor8",
        "point_name": "16話　公生が藍里凪を追いかけた寺",
        "remark": ""
      },
      "type": "Feature"
    },
    {
      "geometry": {
        "coordinates": [
          139.649009,
          35.707355
        ],
        "type": "Point"
      },
      "properties": {
        "bangumi_id": 100444,
        "bangumi_title": "四月是你的谎言",
        "ep_cut": 17,
        "image_url": "https://w.junreimap.com/images/user/0/bangumi/100444/points/51i51your-1705910082934.jpg",
        "location": "",
        "point_id": "51i51your",
        "point_name": "高円寺北公園",
        "remark": "凪が公生を追いかけた公園"
      },
      "type": "Feature"
    },
    {
      "geometry": {
        "coordinates": [
          139.648777,
          35.707381
        ],
        "type": "Point"
      },
      "properties": {
        "bangumi_id": 100444,
        "bangumi_title": "四月是你的谎言",
        "ep_cut": 17,
        "image_url": "https://w.junreimap.com/images/user/2184/bangumi/100444/points/kjyu5k-1748253245422.jpg",
        "location": "",
        "point_id": "kjyu5k",
        "point_name": "高円寺北公園",
        "remark": "和凪谈心的公园，“抓住梦想”的石碑是现实存在的"
      },
      "type": "Feature"
    },
    {
      "geometry": {
        "coordinates": [
          139.716718,
          35.800942
        ],
        "type": "Point"
      },
      "properties": {
        "bangumi_id": 100444,
        "bangumi_title": "四月是你的谎言",
        "ep_cut": 18,
        "image_url": "",
        "location": "",
        "point_id": "51i51yosg",
        "point_name": "18話　凪と公生が連弾したコンサートホール",
        "remark": ""
      },
      "type": "Feature"
    },
    {
      "geometry": {
        "coordinates": [
          139.415968,
          35.77025
        ],
        "type": "Point"
      },
      "properties": {
        "bangumi_id": 100444,
        "bangumi_title": "四月是你的谎言",
        "ep_cut": 19,
        "image_url": "https://w.junreimap.com/images/user/0/bangumi/100444/points/51i51yoru-1753601813631.jpg",
        "location": "",
        "point_id": "51i51yoru",
        "point_name": "19話　小さい頃の相座が階段を登ったシーン",
        "remark": ""
      },
      "type": "Feature"
    },
    {
      "geometry": {
        "coordinates": [
          139.654868,
          35.701662
        ],
        "type": "Point"
      },
      "properties": {
        "bangumi_id": 100444,
        "bangumi_title": "四月是你的谎言",
        "ep_cut": 20,
        "image_url": "https://w.junreimap.com/images/points/100444/ubvyaybov_1743708169838.jpg",
        "location": "高元寺",
        "point_id": "ubvyaybov",
        "point_name": "環七通り",
        "remark": ""
      },
      "type": "Feature"
    },
    {
      "geometry": {
        "coordinates": [
          139.654746,
          35.701666
        ],
        "type": "Point"
      },
      "properties": {
        "bangumi_id": 100444,
        "bangumi_title": "四月是你的谎言",
        "ep_cut": 20,
        "image_url": "https://w.junreimap.com/images/points/100444/ubw04vahc_1743708232858.jpg",
        "location": "高元寺",
        "point_id": "ubw04vahc",
        "point_name": "環七通り",
        "remark": ""
      },
      "type": "Feature"
    },
    {
      "geometry": {
        "coordinates": [
          139.585962,
          35.752752
        ],
        "type": "Point"
      },
      "properties": {
        "bangumi_id": 100444,
        "bangumi_title": "四月是你的谎言",
        "ep_cut": 20,
        "image_url": "https://w.junreimap.com/images/points/100444/ubw479qkn_1743708451822.jpg",
        "location": "大泉中学校",
        "point_id": "ubw479qkn",
        "point_name": "練馬区立大泉中学校 大泉学園通り",
        "remark": "20話　公生がかをりに「君に会いたいんだ。　いけない？」と言ったシーン"
      },
      "type": "Feature"
    },
    {
      "geometry": {
        "coordinates": [
          139.585981,
          35.752791
        ],
        "type": "Point"
      },
      "properties": {
        "bangumi_id": 100444,
        "bangumi_title": "四月是你的谎言",
        "ep_cut": 20,
        "image_url": "https://w.junreimap.com/images/points/100444/ubw5ph5e4_1743708542785.jpg",
        "location": "大泉中学校",
        "point_id": "ubw5ph5e4",
        "point_name": "練馬区立大泉中学校 大泉学園通り",
        "remark": ""
      },
      "type": "Feature"
    },
    {
      "geometry": {
        "coordinates": [
          139.585987,
          35.752831
        ],
        "type": "Point"
      },
      "properties": {
        "bangumi_id": 100444,
        "bangumi_title": "四月是你的谎言",
        "ep_cut": 20,
        "image_url": "https://w.junreimap.com/images/points/100444/ubw6h6won_1743708588933.jpg",
        "location": "大泉中学校",
        "point_id": "ubw6h6won",
        "point_name": "練馬区立大泉中学校 大泉学園通り",
        "remark": "这种感情该怎么称呼呢，这种心情该如何形容呢，这应该就是别人口中的恋爱吧。"
      },
      "type": "Feature"
    },
    {
      "geometry": {
        "coordinates": [
          139.58428,
          35.753297
        ],
        "type": "Point"
      },
      "properties": {
        "bangumi_id": 100444,
        "bangumi_title": "四月是你的谎言",
        "ep_cut": 20,
        "image_url": "https://w.junreimap.com/images/points/100444/ubwa1f9lb_1743708804780.jpg",
        "location": "大泉中学校",
        "point_id": "ubwa1f9lb",
        "point_name": "大泉​ココ​動物​病院",
        "remark": "20话 公生带着黑猫跑到的动物医院"
      },
      "type": "Feature"
    },
    {
      "geometry": {
        "coordinates": [
          139.587422,
          35.740252
        ],
        "type": "Point"
      },
      "properties": {
        "bangumi_id": 100444,
        "bangumi_title": "四月是你的谎言",
        "ep_cut": 20,
        "image_url": "https://w.junreimap.com/images/points/100444/ubwc31e1q_1743708928329.jpg",
        "location": "儿童公园",
        "point_id": "ubwc31e1q",
        "point_name": "練馬区おはよう児童公園",
        "remark": "黑猫死后公生前往的公园"
      },
      "type": "Feature"
    },
    {
      "geometry": {
        "coordinates": [
          139.764234,
          35.725844
        ],
        "type": "Point"
      },
      "properties": {
        "bangumi_id": 100444,
        "bangumi_title": "四月是你的谎言",
        "ep_cut": 20,
        "image_url": "https://w.junreimap.com/images/user/0/bangumi/100444/points/51i51yom3-1730808147368.jpg",
        "location": "",
        "point_id": "51i51yom3",
        "point_name": "駄菓子の木村屋（已永久关闭）",
        "remark": "20話　公生と椿が帰りに寄った駄菓子屋"
      },
      "type": "Feature"
    },
    {
      "geometry": {
        "coordinates": [
          139.587444,
          35.740253
        ],
        "type": "Point"
      },
      "properties": {
        "bangumi_id": 100444,
        "bangumi_title": "四月是你的谎言",
        "ep_cut": 20,
        "image_url": "https://w.junreimap.com/images/points/100444/ubwcw5f3a_1743708977695.jpg",
        "location": "儿童公园",
        "point_id": "ubwcw5f3a",
        "point_name": "練馬区おはよう児童公園",
        "remark": ""
      },
      "type": "Feature"
    },
    {
      "geometry": {
        "coordinates": [
          139.587408,
          35.740243
        ],
        "type": "Point"
      },
      "properties": {
        "bangumi_id": 100444,
        "bangumi_title": "四月是你的谎言",
        "ep_cut": 20,
        "image_url": "https://w.junreimap.com/images/points/100444/ubwdfz7p2_1743709010189.jpg",
        "location": "儿童公园",
        "point_id": "ubwdfz7p2",
        "point_name": "練馬区おはよう児童公園",
        "remark": ""
      },
      "type": "Feature"
    },
    {
      "geometry": {
        "coordinates": [
          139.717124,
          35.801816
        ],
        "type": "Point"
      },
      "properties": {
        "bangumi_id": 100444,
        "bangumi_title": "四月是你的谎言",
        "ep_cut": 21,
        "image_url": "https://w.junreimap.com/images/points/100444/ubwjh6ds2_1743709376398.jpg",
        "location": "",
        "point_id": "ubwjh6ds2",
        "point_name": "",
        "remark": ""
      },
      "type": "Feature"
    },
    {
      "geometry": {
        "coordinates": [
          139.586039,
          35.752855
        ],
        "type": "Point"
      },
      "properties": {
        "bangumi_id": 100444,
        "bangumi_title": "四月是你的谎言",
        "ep_cut": 22,
        "image_url": "https://w.junreimap.com/images/points/100444/ubwlp0ior_1743709617802.jpg",
        "location": "大泉中学校",
        "point_id": "ubwlp0ior",
        "point_name": "練馬区立大泉中学校 大泉学園通り",
        "remark": "22话 公生掏出信件的地方"
      },
      "type": "Feature"
    },
    {
      "geometry": {
        "coordinates": [
          139.587056,
          35.726774
        ],
        "type": "Point"
      },
      "properties": {
        "bangumi_id": 100444,
        "bangumi_title": "四月是你的谎言",
        "ep_cut": 22,
        "image_url": "https://w.junreimap.com/images/points/100444/ubwqazu6g_1743709824158.jpg",
        "location": "最终回的铁道口",
        "point_id": "ubwqazu6g",
        "point_name": "線路脇の道路　上石神井駅付近",
        "remark": "22话 薰向前迈进的场景"
      },
      "type": "Feature"
    },
    {
      "geometry": {
        "coordinates": [
          139.551049,
          35.766549
        ],
        "type": "Point"
      },
      "properties": {
        "bangumi_id": 100444,
        "bangumi_title": "四月是你的谎言",
        "ep_cut": 22,
        "image_url": "https://w.junreimap.com/images/points/100444/ubws8uuw3_1743709935352.jpg",
        "location": "前通り橋",
        "point_id": "ubws8uuw3",
        "point_name": "前通り橋",
        "remark": "“我住进你的心里了吗”"
      },
      "type": "Feature"
    },
    {
      "geometry": {
        "coordinates": [
          139.617921,
          35.739403
        ],
        "type": "Point"
      },
      "properties": {
        "bangumi_id": 100444,
        "bangumi_title": "四月是你的谎言",
        "ep_cut": 22,
        "image_url": "https://w.junreimap.com/images/points/100444/ubwuavy7j_1743710031665.jpg",
        "location": "南田中团地",
        "point_id": "ubwuavy7j",
        "point_name": "南田中团地",
        "remark": "“就算是片刻，你有没有想起我呢”"
      },
      "type": "Feature"
    },
    {
      "geometry": {
        "coordinates": [
          139.586122,
          35.726861
        ],
        "type": "Point"
      },
      "properties": {
        "bangumi_id": 100444,
        "bangumi_title": "四月是你的谎言",
        "ep_cut": 22,
        "image_url": "https://w.junreimap.com/images/points/100444/ubww48u3z_1743710142730.jpg",
        "location": "最终回的铁道口",
        "point_id": "ubww48u3z",
        "point_name": "いっぱいいっぱいごめんね",
        "remark": "“一直以来，对不起。”"
      },
      "type": "Feature"
    },
    {
      "geometry": {
        "coordinates": [
          139.586111,
          35.726905
        ],
        "type": "Point"
      },
      "properties": {
        "bangumi_id": 100444,
        "bangumi_title": "四月是你的谎言",
        "ep_cut": 22,
        "image_url": "https://w.junreimap.com/images/user/1130/bangumi/100444/points/51i51yorr-1720020707757.jpg",
        "location": "最终回的铁道口",
        "point_id": "51i51yorr",
        "point_name": "かをり「ありがとう！」のシーン",
        "remark": "かをり「ありがとう！」のシーン"
      },
      "type": "Feature"
    },
    {
      "geometry": {
        "coordinates": [
          139.586114,
          35.726873
        ],
        "type": "Point"
      },
      "properties": {
        "bangumi_id": 100444,
        "bangumi_title": "四月是你的谎言",
        "ep_cut": 22,
        "image_url": "https://w.junreimap.com/images/points/100444/ubwxmijaq_1743710247752.jpg",
        "location": "最终回的铁道口",
        "point_id": "ubwxmijaq",
        "point_name": "かをり「ありがとう！」のシーン",
        "remark": ""
      },
      "type": "Feature"
    },
    {
      "geometry": {
        "coordinates": [
          139.586553,
          35.726819
        ],
        "type": "Point"
      },
      "properties": {
        "bangumi_id": 100444,
        "bangumi_title": "四月是你的谎言",
        "ep_cut": 22,
        "image_url": "https://w.junreimap.com/images/user/0/bangumi/100444/points/nfdw4ozb0-1724234498551.jpg",
        "location": "最终回的铁道口",
        "point_id": "nfdw4ozb0",
        "point_name": "線路脇の道路　上石神井駅付近",
        "remark": ""
      },
      "type": "Feature"
    },
    {
      "geometry": {
        "coordinates": [
          139.628981,
          35.767903
        ],
        "type": "Point"
      },
      "properties": {
        "bangumi_id": 100444,
        "bangumi_title": "四月是你的谎言",
        "ep_cut": "周边",
        "image_url": "https://w.junreimap.com/images/points/100444/ubos0c58w_1743692539778.jpg",
        "location": "练马区",
        "point_id": "ubos0c58w",
        "point_name": "光が丘公園",
        "remark": "四谎某张文件夹（当初限定2000张）封面的取景地"
      },
      "type": "Feature"
    }
  ],
  "type": "FeatureCollection"
}