{
  "features": [
    {
      "geometry": {
        "coordinates": [
          139.713705,
          35.717257
        ],
        "type": "Point"
      },
      "properties": {
        "bangumi_id": 100403,
        "bangumi_title": "路人女主的养成方法",
        "ep_cut": 12,
        "image_url": "https://w.junreimap.com/images/user/0/bangumi/100403/points/4ywpa6aww-1718286534903.jpg",
        "location": "",
        "point_id": "4ywpa6aww",
        "point_name": "のぞき坂",
        "remark": ""
      },
      "type": "Feature"
    },
    {
      "geometry": {
        "coordinates": [
          139.713682,
          35.717214
        ],
        "type": "Point"
      },
      "properties": {
        "bangumi_id": 100403,
        "bangumi_title": "路人女主的养成方法",
        "ep_cut": 6,
        "image_url": "https://w.junreimap.com/images/points/100403/4sm48erao_1672163237321.jpg",
        "location": "都内",
        "point_id": "4sm48erao",
        "point_name": "のぞき坂",
        "remark": "1,2,3,7話、OP、キービジュアル、~egoistic-lily~1巻。作中では通称探偵坂。"
      },
      "type": "Feature"
    },
    {
      "geometry": {
        "coordinates": [
          139.713645,
          35.71716
        ],
        "type": "Point"
      },
      "properties": {
        "bangumi_id": 100403,
        "bangumi_title": "路人女主的养成方法",
        "ep_cut": 3,
        "image_url": "https://w.junreimap.com/images/points/100403/4ywphnlau_1672163258047.jpg",
        "location": "",
        "point_id": "4ywphnlau",
        "point_name": "のぞき坂",
        "remark": ""
      },
      "type": "Feature"
    },
    {
      "geometry": {
        "coordinates": [
          139.713585,
          35.717012
        ],
        "type": "Point"
      },
      "properties": {
        "bangumi_id": 100403,
        "bangumi_title": "路人女主的养成方法",
        "ep_cut": 1,
        "image_url": "https://w.junreimap.com/images/points/100403/4ywpm4bwg_1672163264204.jpg",
        "location": "",
        "point_id": "4ywpm4bwg",
        "point_name": "のぞき坂",
        "remark": ""
      },
      "type": "Feature"
    },
    {
      "geometry": {
        "coordinates": [
          139.713558,
          35.716958
        ],
        "type": "Point"
      },
      "properties": {
        "bangumi_id": 100403,
        "bangumi_title": "路人女主的养成方法",
        "ep_cut": 11,
        "image_url": "https://w.junreimap.com/images/points/100403/4ywppdj05_1672163269610.jpg",
        "location": "",
        "point_id": "4ywppdj05",
        "point_name": "のぞき坂",
        "remark": ""
      },
      "type": "Feature"
    },
    {
      "geometry": {
        "coordinates": [
          139.713507,
          35.716846
        ],
        "type": "Point"
      },
      "properties": {
        "bangumi_id": 100403,
        "bangumi_title": "路人女主的养成方法",
        "ep_cut": 1,
        "image_url": "https://w.junreimap.com/images/points/100403/4ywprfh2j_1672163273668.jpg",
        "location": "",
        "point_id": "4ywprfh2j",
        "point_name": "のぞき坂",
        "remark": ""
      },
      "type": "Feature"
    },
    {
      "geometry": {
        "coordinates": [
          139.713474,
          35.716731
        ],
        "type": "Point"
      },
      "properties": {
        "bangumi_id": 100403,
        "bangumi_title": "路人女主的养成方法",
        "ep_cut": 1,
        "image_url": "https://w.junreimap.com/images/points/100403/4ywptjy6u_1672163276902.jpg",
        "location": "",
        "point_id": "4ywptjy6u",
        "point_name": "のぞき坂",
        "remark": ""
      },
      "type": "Feature"
    },
    {
      "geometry": {
        "coordinates": [
          139.713414,
          35.716633
        ],
        "type": "Point"
      },
      "properties": {
        "bangumi_id": 100403,
        "bangumi_title": "路人女主的养成方法",
        "ep_cut": "1",
        "image_url": "https://w.junreimap.com/images/user/0/bangumi/100403/points/4ywq6q2gz-1720702670996.jpg",
        "location": "",
        "point_id": "4ywq6q2gz",
        "point_name": "のぞき坂",
        "remark": ""
      },
      "type": "Feature"
    },
    {
      "geometry": {
        "coordinates": [
          139.713373,
          35.716543
        ],
        "type": "Point"
      },
      "properties": {
        "bangumi_id": 100403,
        "bangumi_title": "路人女主的养成方法",
        "ep_cut": 2,
        "image_url": "https://w.junreimap.com/images/points/100403/4ywq94w5l_1672163302412.jpg",
        "location": "",
        "point_id": "4ywq94w5l",
        "point_name": "のぞき坂",
        "remark": ""
      },
      "type": "Feature"
    },
    {
      "geometry": {
        "coordinates": [
          139.713708,
          35.717236
        ],
        "type": "Point"
      },
      "properties": {
        "bangumi_id": 100403,
        "bangumi_title": "路人女主的养成方法",
        "ep_cut": 2,
        "image_url": "https://w.junreimap.com/images/points/100403/4ywqai76v_1672163305247.jpg",
        "location": "",
        "point_id": "4ywqai76v",
        "point_name": "のぞき坂",
        "remark": "沿着上坡方向的道路右侧"
      },
      "type": "Feature"
    },
    {
      "geometry": {
        "coordinates": [
          139.71331,
          35.71638
        ],
        "type": "Point"
      },
      "properties": {
        "bangumi_id": 100403,
        "bangumi_title": "路人女主的养成方法",
        "ep_cut": 2,
        "image_url": "https://w.junreimap.com/images/points/100403/4ywqde6u7_1672163309494.jpg",
        "location": "",
        "point_id": "4ywqde6u7",
        "point_name": "のぞき坂",
        "remark": ""
      },
      "type": "Feature"
    },
    {
      "geometry": {
        "coordinates": [
          139.713266,
          35.716301
        ],
        "type": "Point"
      },
      "properties": {
        "bangumi_id": 100403,
        "bangumi_title": "路人女主的养成方法",
        "ep_cut": 2,
        "image_url": "https://w.junreimap.com/images/points/100403/4ywqfzgba_1672163314294.jpg",
        "location": "",
        "point_id": "4ywqfzgba",
        "point_name": "のぞき坂",
        "remark": ""
      },
      "type": "Feature"
    },
    {
      "geometry": {
        "coordinates": [
          139.713243,
          35.7162
        ],
        "type": "Point"
      },
      "properties": {
        "bangumi_id": 100403,
        "bangumi_title": "路人女主的养成方法",
        "ep_cut": 3,
        "image_url": "https://w.junreimap.com/images/points/100403/4ywqhovdy_1672163320976.jpg",
        "location": "",
        "point_id": "4ywqhovdy",
        "point_name": "のぞき坂",
        "remark": ""
      },
      "type": "Feature"
    },
    {
      "geometry": {
        "coordinates": [
          139.713995,
          35.717789
        ],
        "type": "Point"
      },
      "properties": {
        "bangumi_id": 100403,
        "bangumi_title": "路人女主的养成方法",
        "ep_cut": 3,
        "image_url": "https://w.junreimap.com/images/points/100403/4ywqm0tng_1672163324681.jpg",
        "location": "",
        "point_id": "4ywqm0tng",
        "point_name": "のぞき坂",
        "remark": "应该在坡上而非坡下"
      },
      "type": "Feature"
    },
    {
      "geometry": {
        "coordinates": [
          139.71389,
          35.717591
        ],
        "type": "Point"
      },
      "properties": {
        "bangumi_id": 100403,
        "bangumi_title": "路人女主的养成方法",
        "ep_cut": 3,
        "image_url": "https://w.junreimap.com/images/points/100403/4ywqsxp89_1672163336296.jpg",
        "location": "",
        "point_id": "4ywqsxp89",
        "point_name": "のぞき坂",
        "remark": "在坡的下侧"
      },
      "type": "Feature"
    },
    {
      "geometry": {
        "coordinates": [
          139.71211,
          35.715472
        ],
        "type": "Point"
      },
      "properties": {
        "bangumi_id": 100403,
        "bangumi_title": "路人女主的养成方法",
        "ep_cut": "",
        "image_url": "https://w.junreimap.com/images/user/0/bangumi/100403/points/4sm48erwf-1758432210708.jpg",
        "location": "都内",
        "point_id": "4sm48erwf",
        "point_name": "学習院下電停",
        "remark": "ＯＰ。電停北側の踏切内から南側を向いたもの。\n是在后面一段路，可以通过电车路口拐弯来判断\n可以在前一个岔路口的电车站使用长焦镜头拍摄"
      },
      "type": "Feature"
    },
    {
      "geometry": {
        "coordinates": [
          139.713328,
          35.713939
        ],
        "type": "Point"
      },
      "properties": {
        "bangumi_id": 100403,
        "bangumi_title": "路人女主的养成方法",
        "ep_cut": "",
        "image_url": "https://w.junreimap.com/images/user/1073/bangumi/100403/points/4sm48erw5-1766108878760.jpg",
        "location": "都内",
        "point_id": "4sm48erw5",
        "point_name": "曙橋",
        "remark": "１話、新ＰＶ。"
      },
      "type": "Feature"
    },
    {
      "geometry": {
        "coordinates": [
          139.563382,
          35.732048
        ],
        "type": "Point"
      },
      "properties": {
        "bangumi_id": 100403,
        "bangumi_title": "路人女主的养成方法",
        "ep_cut": 11,
        "image_url": "https://w.junreimap.com/images/points/100403/4sm48ermy_1672163838640.jpg",
        "location": "都内",
        "point_id": "4sm48ermy",
        "point_name": "コメダ珈琲店保谷店",
        "remark": "2,3話。"
      },
      "type": "Feature"
    },
    {
      "geometry": {
        "coordinates": [
          139.563372,
          35.732039
        ],
        "type": "Point"
      },
      "properties": {
        "bangumi_id": 100403,
        "bangumi_title": "路人女主的养成方法",
        "ep_cut": 2,
        "image_url": "https://w.junreimap.com/images/points/100403/4ywz7twie_1672163844683.jpg",
        "location": "",
        "point_id": "4ywz7twie",
        "point_name": "コメダ珈琲店保谷店",
        "remark": ""
      },
      "type": "Feature"
    },
    {
      "geometry": {
        "coordinates": [
          139.563364,
          35.732035
        ],
        "type": "Point"
      },
      "properties": {
        "bangumi_id": 100403,
        "bangumi_title": "路人女主的养成方法",
        "ep_cut": 2,
        "image_url": "https://w.junreimap.com/images/points/100403/4ywzaa2sy_1672163848447.jpg",
        "location": "",
        "point_id": "4ywzaa2sy",
        "point_name": "コメダ珈琲店保谷店",
        "remark": ""
      },
      "type": "Feature"
    },
    {
      "geometry": {
        "coordinates": [
          139.563355,
          35.732031
        ],
        "type": "Point"
      },
      "properties": {
        "bangumi_id": 100403,
        "bangumi_title": "路人女主的养成方法",
        "ep_cut": 2,
        "image_url": "https://w.junreimap.com/images/points/100403/4ywzbneg0_1672163851051.jpg",
        "location": "",
        "point_id": "4ywzbneg0",
        "point_name": "コメダ珈琲店保谷店",
        "remark": ""
      },
      "type": "Feature"
    },
    {
      "geometry": {
        "coordinates": [
          139.563347,
          35.732028
        ],
        "type": "Point"
      },
      "properties": {
        "bangumi_id": 100403,
        "bangumi_title": "路人女主的养成方法",
        "ep_cut": 2,
        "image_url": "https://w.junreimap.com/images/points/100403/4ywzd99zl_1672163853814.jpg",
        "location": "",
        "point_id": "4ywzd99zl",
        "point_name": "コメダ珈琲店保谷店",
        "remark": ""
      },
      "type": "Feature"
    },
    {
      "geometry": {
        "coordinates": [
          139.563341,
          35.732024
        ],
        "type": "Point"
      },
      "properties": {
        "bangumi_id": 100403,
        "bangumi_title": "路人女主的养成方法",
        "ep_cut": 2,
        "image_url": "https://w.junreimap.com/images/points/100403/4ywzfj37k_1672163857347.jpg",
        "location": "",
        "point_id": "4ywzfj37k",
        "point_name": "コメダ珈琲店保谷店",
        "remark": ""
      },
      "type": "Feature"
    },
    {
      "geometry": {
        "coordinates": [
          139.563334,
          35.732019
        ],
        "type": "Point"
      },
      "properties": {
        "bangumi_id": 100403,
        "bangumi_title": "路人女主的养成方法",
        "ep_cut": 15,
        "image_url": "https://w.junreimap.com/images/points/100403/4ywzhz088_1672163861471.jpg",
        "location": "",
        "point_id": "4ywzhz088",
        "point_name": "コメダ珈琲店保谷店",
        "remark": ""
      },
      "type": "Feature"
    },
    {
      "geometry": {
        "coordinates": [
          139.563329,
          35.732018
        ],
        "type": "Point"
      },
      "properties": {
        "bangumi_id": 100403,
        "bangumi_title": "路人女主的养成方法",
        "ep_cut": 2,
        "image_url": "https://w.junreimap.com/images/points/100403/4ywzjseol_1672163864773.jpg",
        "location": "",
        "point_id": "4ywzjseol",
        "point_name": "コメダ珈琲店保谷店",
        "remark": ""
      },
      "type": "Feature"
    },
    {
      "geometry": {
        "coordinates": [
          139.563325,
          35.732023
        ],
        "type": "Point"
      },
      "properties": {
        "bangumi_id": 100403,
        "bangumi_title": "路人女主的养成方法",
        "ep_cut": 2,
        "image_url": "https://w.junreimap.com/images/points/100403/4ywznvluq_1672163875672.jpg",
        "location": "",
        "point_id": "4ywznvluq",
        "point_name": "コメダ珈琲店保谷店",
        "remark": ""
      },
      "type": "Feature"
    },
    {
      "geometry": {
        "coordinates": [
          139.563319,
          35.73203
        ],
        "type": "Point"
      },
      "properties": {
        "bangumi_id": 100403,
        "bangumi_title": "路人女主的养成方法",
        "ep_cut": 2,
        "image_url": "https://w.junreimap.com/images/points/100403/4ywzrt30z_1672163878176.jpg",
        "location": "",
        "point_id": "4ywzrt30z",
        "point_name": "コメダ珈琲店保谷店",
        "remark": ""
      },
      "type": "Feature"
    },
    {
      "geometry": {
        "coordinates": [
          139.563318,
          35.732035
        ],
        "type": "Point"
      },
      "properties": {
        "bangumi_id": 100403,
        "bangumi_title": "路人女主的养成方法",
        "ep_cut": 2,
        "image_url": "https://w.junreimap.com/images/points/100403/4ywzuk2gk_1672163882372.jpg",
        "location": "",
        "point_id": "4ywzuk2gk",
        "point_name": "コメダ珈琲店保谷店",
        "remark": ""
      },
      "type": "Feature"
    },
    {
      "geometry": {
        "coordinates": [
          139.563315,
          35.732044
        ],
        "type": "Point"
      },
      "properties": {
        "bangumi_id": 100403,
        "bangumi_title": "路人女主的养成方法",
        "ep_cut": 2,
        "image_url": "https://w.junreimap.com/images/points/100403/4ywzvxpob_1672163884732.jpg",
        "location": "",
        "point_id": "4ywzvxpob",
        "point_name": "コメダ珈琲店保谷店",
        "remark": ""
      },
      "type": "Feature"
    },
    {
      "geometry": {
        "coordinates": [
          139.563314,
          35.732049
        ],
        "type": "Point"
      },
      "properties": {
        "bangumi_id": 100403,
        "bangumi_title": "路人女主的养成方法",
        "ep_cut": 2,
        "image_url": "https://w.junreimap.com/images/points/100403/4ywzx7ggh_1672163888311.jpg",
        "location": "",
        "point_id": "4ywzx7ggh",
        "point_name": "コメダ珈琲店保谷店",
        "remark": ""
      },
      "type": "Feature"
    },
    {
      "geometry": {
        "coordinates": [
          139.56331,
          35.732056
        ],
        "type": "Point"
      },
      "properties": {
        "bangumi_id": 100403,
        "bangumi_title": "路人女主的养成方法",
        "ep_cut": 2,
        "image_url": "https://w.junreimap.com/images/points/100403/4ywzzjf01_1672163891669.jpg",
        "location": "",
        "point_id": "4ywzzjf01",
        "point_name": "コメダ珈琲店保谷店",
        "remark": ""
      },
      "type": "Feature"
    },
    {
      "geometry": {
        "coordinates": [
          139.563311,
          35.732064
        ],
        "type": "Point"
      },
      "properties": {
        "bangumi_id": 100403,
        "bangumi_title": "路人女主的养成方法",
        "ep_cut": 3,
        "image_url": "https://w.junreimap.com/images/points/100403/4yx01b0em_1672163894156.jpg",
        "location": "",
        "point_id": "4yx01b0em",
        "point_name": "コメダ珈琲店保谷店",
        "remark": ""
      },
      "type": "Feature"
    },
    {
      "geometry": {
        "coordinates": [
          139.563309,
          35.732071
        ],
        "type": "Point"
      },
      "properties": {
        "bangumi_id": 100403,
        "bangumi_title": "路人女主的养成方法",
        "ep_cut": 3,
        "image_url": "https://w.junreimap.com/images/points/100403/4yx03myy1_1672163898120.jpg",
        "location": "",
        "point_id": "4yx03myy1",
        "point_name": "コメダ珈琲店保谷店",
        "remark": ""
      },
      "type": "Feature"
    },
    {
      "geometry": {
        "coordinates": [
          139.563306,
          35.732078
        ],
        "type": "Point"
      },
      "properties": {
        "bangumi_id": 100403,
        "bangumi_title": "路人女主的养成方法",
        "ep_cut": 3,
        "image_url": "https://w.junreimap.com/images/points/100403/4yx05h2sl_1672163901157.jpg",
        "location": "",
        "point_id": "4yx05h2sl",
        "point_name": "コメダ珈琲店保谷店",
        "remark": ""
      },
      "type": "Feature"
    },
    {
      "geometry": {
        "coordinates": [
          139.563306,
          35.732086
        ],
        "type": "Point"
      },
      "properties": {
        "bangumi_id": 100403,
        "bangumi_title": "路人女主的养成方法",
        "ep_cut": 11,
        "image_url": "https://w.junreimap.com/images/points/100403/4yx086znc_1672163907832.jpg",
        "location": "",
        "point_id": "4yx086znc",
        "point_name": "コメダ珈琲店保谷店",
        "remark": ""
      },
      "type": "Feature"
    },
    {
      "geometry": {
        "coordinates": [
          139.563303,
          35.732093
        ],
        "type": "Point"
      },
      "properties": {
        "bangumi_id": 100403,
        "bangumi_title": "路人女主的养成方法",
        "ep_cut": 11,
        "image_url": "https://w.junreimap.com/images/points/100403/4yx0aw7fe_1672163910561.jpg",
        "location": "",
        "point_id": "4yx0aw7fe",
        "point_name": "コメダ珈琲店保谷店",
        "remark": ""
      },
      "type": "Feature"
    },
    {
      "geometry": {
        "coordinates": [
          139.563298,
          35.732101
        ],
        "type": "Point"
      },
      "properties": {
        "bangumi_id": 100403,
        "bangumi_title": "路人女主的养成方法",
        "ep_cut": 11,
        "image_url": "https://w.junreimap.com/images/points/100403/4yx0dbmha_1672163914325.jpg",
        "location": "",
        "point_id": "4yx0dbmha",
        "point_name": "コメダ珈琲店保谷店",
        "remark": ""
      },
      "type": "Feature"
    },
    {
      "geometry": {
        "coordinates": [
          139.787604,
          35.551079
        ],
        "type": "Point"
      },
      "properties": {
        "bangumi_id": 100403,
        "bangumi_title": "路人女主的养成方法",
        "ep_cut": 3,
        "image_url": "https://w.junreimap.com/images/points/100403/4sm48ere1_1672164316341.jpg",
        "location": "都内",
        "point_id": "4sm48ere1",
        "point_name": "羽田空港第2旅客ターミナル",
        "remark": "3話。恵が降り立ったのは5番到着口の手荷物受取所。"
      },
      "type": "Feature"
    },
    {
      "geometry": {
        "coordinates": [
          139.787712,
          35.550996
        ],
        "type": "Point"
      },
      "properties": {
        "bangumi_id": 100403,
        "bangumi_title": "路人女主的养成方法",
        "ep_cut": 18,
        "image_url": "https://w.junreimap.com/images/points/100403/4yx73183n_1672164320147.jpg",
        "location": "",
        "point_id": "4yx73183n",
        "point_name": "羽田空港第2旅客ターミナル",
        "remark": ""
      },
      "type": "Feature"
    },
    {
      "geometry": {
        "coordinates": [
          139.717029,
          35.715707
        ],
        "type": "Point"
      },
      "properties": {
        "bangumi_id": 100403,
        "bangumi_title": "路人女主的养成方法",
        "ep_cut": 3,
        "image_url": "https://w.junreimap.com/images/user/0/bangumi/100403/points/4sm48erpk-1712858915452.jpg",
        "location": "都内",
        "point_id": "4sm48erpk",
        "point_name": "富士見坂",
        "remark": "3,7,9話。英梨々の家（立地の設定）手前の坂。"
      },
      "type": "Feature"
    },
    {
      "geometry": {
        "coordinates": [
          139.745976,
          35.743064
        ],
        "type": "Point"
      },
      "properties": {
        "bangumi_id": 100403,
        "bangumi_title": "路人女主的养成方法",
        "ep_cut": 9,
        "image_url": "https://w.junreimap.com/images/points/100403/4sm48erey_1672163083062.jpg",
        "location": "都内",
        "point_id": "4sm48erey",
        "point_name": "旧古河庭園洋館",
        "remark": "3,7,8話。澤村邸のモデル。（英梨々の部屋以外の屋敷内は旧岩崎邸がモデル。）コミカライズ~egoistic-lily~1巻にて初出。"
      },
      "type": "Feature"
    },
    {
      "geometry": {
        "coordinates": [
          139.746171,
          35.742975
        ],
        "type": "Point"
      },
      "properties": {
        "bangumi_id": 100403,
        "bangumi_title": "路人女主的养成方法",
        "ep_cut": "",
        "image_url": "https://w.junreimap.com/images/points/100403/4ywmww4ah_1672163102333.jpg",
        "location": "",
        "point_id": "4ywmww4ah",
        "point_name": "旧古河庭園洋館",
        "remark": ""
      },
      "type": "Feature"
    },
    {
      "geometry": {
        "coordinates": [
          139.746141,
          35.742841
        ],
        "type": "Point"
      },
      "properties": {
        "bangumi_id": 100403,
        "bangumi_title": "路人女主的养成方法",
        "ep_cut": 7,
        "image_url": "https://w.junreimap.com/images/points/100403/4ywn0qwej_1672163109142.jpg",
        "location": "",
        "point_id": "4ywn0qwej",
        "point_name": "旧古河庭園洋館",
        "remark": ""
      },
      "type": "Feature"
    },
    {
      "geometry": {
        "coordinates": [
          139.713985,
          35.713079
        ],
        "type": "Point"
      },
      "properties": {
        "bangumi_id": 100403,
        "bangumi_title": "路人女主的养成方法",
        "ep_cut": 4,
        "image_url": "https://w.junreimap.com/images/user/0/bangumi/100403/points/4sm48erpf-1712858286219.jpg",
        "location": "都内",
        "point_id": "4sm48erpf",
        "point_name": "面影橋電停",
        "remark": "４話。"
      },
      "type": "Feature"
    },
    {
      "geometry": {
        "coordinates": [
          139.711622,
          35.714375
        ],
        "type": "Point"
      },
      "properties": {
        "bangumi_id": 100403,
        "bangumi_title": "路人女主的养成方法",
        "ep_cut": "",
        "image_url": "https://w.junreimap.com/images/user/0/bangumi/100403/points/4sm48ern2-1770737500012.jpg",
        "location": "都内",
        "point_id": "4sm48ern2",
        "point_name": "高戸橋",
        "remark": "4話。"
      },
      "type": "Feature"
    },
    {
      "geometry": {
        "coordinates": [
          139.744348,
          35.697778
        ],
        "type": "Point"
      },
      "properties": {
        "bangumi_id": 100403,
        "bangumi_title": "路人女主的养成方法",
        "ep_cut": 4,
        "image_url": "https://w.junreimap.com/images/user/0/bangumi/100403/points/4sm48erg4-1712859169148.jpg",
        "location": "都内",
        "point_id": "4sm48erg4",
        "point_name": "角川書店本社ビル",
        "remark": "４話。作中では不死川書店。"
      },
      "type": "Feature"
    },
    {
      "geometry": {
        "coordinates": [
          139.790672,
          35.633948
        ],
        "type": "Point"
      },
      "properties": {
        "bangumi_id": 100403,
        "bangumi_title": "路人女主的养成方法",
        "ep_cut": "",
        "image_url": "https://w.junreimap.com/images/user/0/bangumi/100403/points/4sm48erm9-1725284876594.jpg",
        "location": "都内",
        "point_id": "4sm48erm9",
        "point_name": "東京ビッグサイト（西展示場外観）",
        "remark": "5,7,8,9話。"
      },
      "type": "Feature"
    },
    {
      "geometry": {
        "coordinates": [
          139.792796,
          35.631297
        ],
        "type": "Point"
      },
      "properties": {
        "bangumi_id": 100403,
        "bangumi_title": "路人女主的养成方法",
        "ep_cut": "8",
        "image_url": "https://w.junreimap.com/images/user/1073/bangumi/100403/points/4sm48erv7-1766108917763.jpg",
        "location": "都内",
        "point_id": "4sm48erv7",
        "point_name": "やぐら橋",
        "remark": "8話。"
      },
      "type": "Feature"
    },
    {
      "geometry": {
        "coordinates": [
          139.791337,
          35.633765
        ],
        "type": "Point"
      },
      "properties": {
        "bangumi_id": 100403,
        "bangumi_title": "路人女主的养成方法",
        "ep_cut": 8,
        "image_url": "https://w.junreimap.com/images/points/100403/4sm48erf9_1672164200474.jpg",
        "location": "都内",
        "point_id": "4sm48erf9",
        "point_name": "国際展示場駅",
        "remark": "8話。"
      },
      "type": "Feature"
    },
    {
      "geometry": {
        "coordinates": [
          139.797308,
          35.632923
        ],
        "type": "Point"
      },
      "properties": {
        "bangumi_id": 100403,
        "bangumi_title": "路人女主的养成方法",
        "ep_cut": 8,
        "image_url": "https://w.junreimap.com/images/points/100403/4sm48eroi_1672164215775.jpg",
        "location": "都内",
        "point_id": "4sm48eroi",
        "point_name": "東京ビッグサイト（東展示場）",
        "remark": "8,9話。東5,6ホールなど。"
      },
      "type": "Feature"
    },
    {
      "geometry": {
        "coordinates": [
          139.797379,
          35.632857
        ],
        "type": "Point"
      },
      "properties": {
        "bangumi_id": 100403,
        "bangumi_title": "路人女主的养成方法",
        "ep_cut": 8,
        "image_url": "https://w.junreimap.com/images/points/100403/4yx5eoh2q_1672164218909.jpg",
        "location": "",
        "point_id": "4yx5eoh2q",
        "point_name": "東京ビッグサイト（東展示場）",
        "remark": ""
      },
      "type": "Feature"
    },
    {
      "geometry": {
        "coordinates": [
          139.797463,
          35.632827
        ],
        "type": "Point"
      },
      "properties": {
        "bangumi_id": 100403,
        "bangumi_title": "路人女主的养成方法",
        "ep_cut": 8,
        "image_url": "https://w.junreimap.com/images/points/100403/4yx5h90h3_1672164222863.jpg",
        "location": "",
        "point_id": "4yx5h90h3",
        "point_name": "東京ビッグサイト（東展示場）",
        "remark": ""
      },
      "type": "Feature"
    },
    {
      "geometry": {
        "coordinates": [
          139.703967,
          35.715437
        ],
        "type": "Point"
      },
      "properties": {
        "bangumi_id": 100403,
        "bangumi_title": "路人女主的养成方法",
        "ep_cut": 4,
        "image_url": "https://w.junreimap.com/images/points/100403/4sm48erca_1672163362253.jpg",
        "location": "都内",
        "point_id": "4sm48erca",
        "point_name": "東京アニメーションカレッジ専門学校",
        "remark": "1話など。豊ヶ崎学園の校舎モデル。"
      },
      "type": "Feature"
    },
    {
      "geometry": {
        "coordinates": [
          139.767165,
          35.709766
        ],
        "type": "Point"
      },
      "properties": {
        "bangumi_id": 100403,
        "bangumi_title": "路人女主的养成方法",
        "ep_cut": 7,
        "image_url": "https://w.junreimap.com/images/points/100403/4sm48ersa_1672163126758.jpg",
        "location": "都内",
        "point_id": "4sm48ersa",
        "point_name": "旧岩崎邸洋館",
        "remark": "7話など。澤村邸内部のモデル。（2016年4月より平日のみ内部の撮影解禁。）"
      },
      "type": "Feature"
    },
    {
      "geometry": {
        "coordinates": [
          139.767195,
          35.709709
        ],
        "type": "Point"
      },
      "properties": {
        "bangumi_id": 100403,
        "bangumi_title": "路人女主的养成方法",
        "ep_cut": 7,
        "image_url": "https://w.junreimap.com/images/points/100403/4ywne7gwv_1672163131736.jpg",
        "location": "",
        "point_id": "4ywne7gwv",
        "point_name": "旧岩崎邸洋館",
        "remark": ""
      },
      "type": "Feature"
    },
    {
      "geometry": {
        "coordinates": [
          139.767138,
          35.709698
        ],
        "type": "Point"
      },
      "properties": {
        "bangumi_id": 100403,
        "bangumi_title": "路人女主的养成方法",
        "ep_cut": 7,
        "image_url": "https://w.junreimap.com/images/points/100403/4ywnh7lht_1672163136077.jpg",
        "location": "",
        "point_id": "4ywnh7lht",
        "point_name": "旧岩崎邸洋館",
        "remark": ""
      },
      "type": "Feature"
    },
    {
      "geometry": {
        "coordinates": [
          139.767071,
          35.709682
        ],
        "type": "Point"
      },
      "properties": {
        "bangumi_id": 100403,
        "bangumi_title": "路人女主的养成方法",
        "ep_cut": 7,
        "image_url": "https://w.junreimap.com/images/points/100403/4ywnlqj9q_1672163150197.jpg",
        "location": "",
        "point_id": "4ywnlqj9q",
        "point_name": "旧岩崎邸洋館",
        "remark": ""
      },
      "type": "Feature"
    },
    {
      "geometry": {
        "coordinates": [
          139.793344,
          35.630538
        ],
        "type": "Point"
      },
      "properties": {
        "bangumi_id": 100403,
        "bangumi_title": "路人女主的养成方法",
        "ep_cut": 8,
        "image_url": "https://w.junreimap.com/images/points/100403/4sm48ergm_1672164181478.jpg",
        "location": "都内",
        "point_id": "4sm48ergm",
        "point_name": "東京ビッグサイト西展示棟前",
        "remark": "8話。"
      },
      "type": "Feature"
    },
    {
      "geometry": {
        "coordinates": [
          139.793355,
          35.630472
        ],
        "type": "Point"
      },
      "properties": {
        "bangumi_id": 100403,
        "bangumi_title": "路人女主的养成方法",
        "ep_cut": 8,
        "image_url": "https://w.junreimap.com/images/points/100403/4yx4v2hzu_1672164185765.jpg",
        "location": "",
        "point_id": "4yx4v2hzu",
        "point_name": "東京ビッグサイト西展示棟前",
        "remark": ""
      },
      "type": "Feature"
    },
    {
      "geometry": {
        "coordinates": [
          139.793339,
          35.630448
        ],
        "type": "Point"
      },
      "properties": {
        "bangumi_id": 100403,
        "bangumi_title": "路人女主的养成方法",
        "ep_cut": 8,
        "image_url": "https://w.junreimap.com/images/points/100403/4yx4wv49v_1672164188918.jpg",
        "location": "",
        "point_id": "4yx4wv49v",
        "point_name": "東京ビッグサイト西展示棟前",
        "remark": ""
      },
      "type": "Feature"
    },
    {
      "geometry": {
        "coordinates": [
          139.767594,
          35.682311
        ],
        "type": "Point"
      },
      "properties": {
        "bangumi_id": 100403,
        "bangumi_title": "路人女主的养成方法",
        "ep_cut": "",
        "image_url": "",
        "location": "都内",
        "point_id": "4sm48erg8",
        "point_name": "東京駅20番線大宮方",
        "remark": "~egoistic lily~2巻 p.34。"
      },
      "type": "Feature"
    },
    {
      "geometry": {
        "coordinates": [
          139.795493,
          35.632209
        ],
        "type": "Point"
      },
      "properties": {
        "bangumi_id": 100403,
        "bangumi_title": "路人女主的养成方法",
        "ep_cut": 8,
        "image_url": "https://w.junreimap.com/images/points/100403/4sm48eruo_1672164256083.jpg",
        "location": "都内",
        "point_id": "4sm48eruo",
        "point_name": "東京ビッグサイト正門交差点",
        "remark": "~egoistic lily~2巻p.141~153"
      },
      "type": "Feature"
    },
    {
      "geometry": {
        "coordinates": [
          139.795534,
          35.632162
        ],
        "type": "Point"
      },
      "properties": {
        "bangumi_id": 100403,
        "bangumi_title": "路人女主的养成方法",
        "ep_cut": 8,
        "image_url": "https://w.junreimap.com/images/points/100403/4yx64v563_1672164263133.jpg",
        "location": "",
        "point_id": "4yx64v563",
        "point_name": "東京ビッグサイト正門交差点",
        "remark": ""
      },
      "type": "Feature"
    },
    {
      "geometry": {
        "coordinates": [
          139.795459,
          35.632262
        ],
        "type": "Point"
      },
      "properties": {
        "bangumi_id": 100403,
        "bangumi_title": "路人女主的养成方法",
        "ep_cut": 8,
        "image_url": "https://w.junreimap.com/images/points/100403/4yx67kzg8_1672164267402.jpg",
        "location": "",
        "point_id": "4yx67kzg8",
        "point_name": "東京ビッグサイト正門交差点",
        "remark": ""
      },
      "type": "Feature"
    },
    {
      "geometry": {
        "coordinates": [
          139.795354,
          35.632195
        ],
        "type": "Point"
      },
      "properties": {
        "bangumi_id": 100403,
        "bangumi_title": "路人女主的养成方法",
        "ep_cut": 8,
        "image_url": "https://w.junreimap.com/images/points/100403/4yx6adom8_1672164272521.jpg",
        "location": "",
        "point_id": "4yx6adom8",
        "point_name": "東京ビッグサイト正門交差点",
        "remark": ""
      },
      "type": "Feature"
    },
    {
      "geometry": {
        "coordinates": [
          139.795402,
          35.632137
        ],
        "type": "Point"
      },
      "properties": {
        "bangumi_id": 100403,
        "bangumi_title": "路人女主的养成方法",
        "ep_cut": 8,
        "image_url": "https://w.junreimap.com/images/points/100403/4yx6e2xv9_1672164278700.jpg",
        "location": "",
        "point_id": "4yx6e2xv9",
        "point_name": "東京ビッグサイト正門交差点",
        "remark": ""
      },
      "type": "Feature"
    },
    {
      "geometry": {
        "coordinates": [
          139.795605,
          35.63206
        ],
        "type": "Point"
      },
      "properties": {
        "bangumi_id": 100403,
        "bangumi_title": "路人女主的养成方法",
        "ep_cut": 8,
        "image_url": "https://w.junreimap.com/images/points/100403/4yx6gdung_1672164282093.jpg",
        "location": "",
        "point_id": "4yx6gdung",
        "point_name": "東京ビッグサイト正門交差点",
        "remark": ""
      },
      "type": "Feature"
    },
    {
      "geometry": {
        "coordinates": [
          139.77261,
          35.69888
        ],
        "type": "Point"
      },
      "properties": {
        "bangumi_id": 100403,
        "bangumi_title": "路人女主的养成方法",
        "ep_cut": 12,
        "image_url": "https://w.junreimap.com/images/points/100403/4sm48erl1_1672164005201.jpg",
        "location": "都内",
        "point_id": "4sm48erl1",
        "point_name": "ＪＲ秋葉原駅電気街口",
        "remark": "12話。"
      },
      "type": "Feature"
    },
    {
      "geometry": {
        "coordinates": [
          139.774434,
          35.699347
        ],
        "type": "Point"
      },
      "properties": {
        "bangumi_id": 100403,
        "bangumi_title": "路人女主的养成方法",
        "ep_cut": 12,
        "image_url": "https://w.junreimap.com/images/points/100403/4sm48erd5_1672164001576.jpg",
        "location": "都内",
        "point_id": "4sm48erd5",
        "point_name": "ヨドバシカメラ　マルチメディアAkiba前",
        "remark": "12話。"
      },
      "type": "Feature"
    },
    {
      "geometry": {
        "coordinates": [
          139.775142,
          35.702026
        ],
        "type": "Point"
      },
      "properties": {
        "bangumi_id": 100403,
        "bangumi_title": "路人女主的养成方法",
        "ep_cut": 12,
        "image_url": "https://w.junreimap.com/images/points/100403/4sm48eri2_1672163939479.jpg",
        "location": "都内",
        "point_id": "4sm48eri2",
        "point_name": "秋葉原MOGURA",
        "remark": "12話。"
      },
      "type": "Feature"
    },
    {
      "geometry": {
        "coordinates": [
          139.775142,
          35.702022
        ],
        "type": "Point"
      },
      "properties": {
        "bangumi_id": 100403,
        "bangumi_title": "路人女主的养成方法",
        "ep_cut": 12,
        "image_url": "https://w.junreimap.com/images/points/100403/4yx0vkfwy_1672163944717.jpg",
        "location": "",
        "point_id": "4yx0vkfwy",
        "point_name": "秋葉原MOGURA",
        "remark": ""
      },
      "type": "Feature"
    },
    {
      "geometry": {
        "coordinates": [
          139.775141,
          35.702019
        ],
        "type": "Point"
      },
      "properties": {
        "bangumi_id": 100403,
        "bangumi_title": "路人女主的养成方法",
        "ep_cut": 12,
        "image_url": "https://w.junreimap.com/images/points/100403/4yx0x5uis_1672163953005.jpg",
        "location": "",
        "point_id": "4yx0x5uis",
        "point_name": "秋葉原MOGURA",
        "remark": ""
      },
      "type": "Feature"
    },
    {
      "geometry": {
        "coordinates": [
          139.775141,
          35.702016
        ],
        "type": "Point"
      },
      "properties": {
        "bangumi_id": 100403,
        "bangumi_title": "路人女主的养成方法",
        "ep_cut": 12,
        "image_url": "https://w.junreimap.com/images/points/100403/4yx120jng_1672163955557.jpg",
        "location": "",
        "point_id": "4yx120jng",
        "point_name": "秋葉原MOGURA",
        "remark": ""
      },
      "type": "Feature"
    },
    {
      "geometry": {
        "coordinates": [
          139.775142,
          35.702012
        ],
        "type": "Point"
      },
      "properties": {
        "bangumi_id": 100403,
        "bangumi_title": "路人女主的养成方法",
        "ep_cut": 12,
        "image_url": "https://w.junreimap.com/images/points/100403/4yx13i4lq_1672163958176.jpg",
        "location": "",
        "point_id": "4yx13i4lq",
        "point_name": "秋葉原MOGURA",
        "remark": ""
      },
      "type": "Feature"
    },
    {
      "geometry": {
        "coordinates": [
          139.775142,
          35.70201
        ],
        "type": "Point"
      },
      "properties": {
        "bangumi_id": 100403,
        "bangumi_title": "路人女主的养成方法",
        "ep_cut": 12,
        "image_url": "https://w.junreimap.com/images/points/100403/4yx17k9ga_1672163964880.jpg",
        "location": "",
        "point_id": "4yx17k9ga",
        "point_name": "秋葉原MOGURA",
        "remark": ""
      },
      "type": "Feature"
    },
    {
      "geometry": {
        "coordinates": [
          139.775169,
          35.701634
        ],
        "type": "Point"
      },
      "properties": {
        "bangumi_id": 100403,
        "bangumi_title": "路人女主的养成方法",
        "ep_cut": 12,
        "image_url": "https://w.junreimap.com/images/points/100403/4sm48ero1_1672163972670.jpg",
        "location": "都内",
        "point_id": "4sm48ero1",
        "point_name": "コンベンションルームAP秋葉原前",
        "remark": "12話。"
      },
      "type": "Feature"
    },
    {
      "geometry": {
        "coordinates": [
          139.774488,
          35.701655
        ],
        "type": "Point"
      },
      "properties": {
        "bangumi_id": 100403,
        "bangumi_title": "路人女主的养成方法",
        "ep_cut": 12,
        "image_url": "https://w.junreimap.com/images/points/100403/4sm48eri6_1672163975246.jpg",
        "location": "都内",
        "point_id": "4sm48eri6",
        "point_name": "木下神田事務所前の交差点",
        "remark": "12話。"
      },
      "type": "Feature"
    },
    {
      "geometry": {
        "coordinates": [
          139.774595,
          35.701002
        ],
        "type": "Point"
      },
      "properties": {
        "bangumi_id": 100403,
        "bangumi_title": "路人女主的养成方法",
        "ep_cut": 12,
        "image_url": "https://w.junreimap.com/images/points/100403/4sm48eryq_1672163984119.jpg",
        "location": "都内",
        "point_id": "4sm48eryq",
        "point_name": "ムラタヤビル前",
        "remark": "12話。"
      },
      "type": "Feature"
    },
    {
      "geometry": {
        "coordinates": [
          139.774573,
          35.700588
        ],
        "type": "Point"
      },
      "properties": {
        "bangumi_id": 100403,
        "bangumi_title": "路人女主的养成方法",
        "ep_cut": 12,
        "image_url": "https://w.junreimap.com/images/user/0/bangumi/100403/points/4sm48erdv-1757425331641.jpg",
        "location": "都内",
        "point_id": "4sm48erdv",
        "point_name": "ローソン　秋葉原北口店",
        "remark": "12話。"
      },
      "type": "Feature"
    },
    {
      "geometry": {
        "coordinates": [
          139.771532,
          35.699699
        ],
        "type": "Point"
      },
      "properties": {
        "bangumi_id": 100403,
        "bangumi_title": "路人女主的养成方法",
        "ep_cut": 12,
        "image_url": "https://w.junreimap.com/images/points/100403/4sm48erlh_1672164028042.jpg",
        "location": "都内",
        "point_id": "4sm48erlh",
        "point_name": "外神田3丁目交差点",
        "remark": "12話。"
      },
      "type": "Feature"
    },
    {
      "geometry": {
        "coordinates": [
          139.771531,
          35.699694
        ],
        "type": "Point"
      },
      "properties": {
        "bangumi_id": 100403,
        "bangumi_title": "路人女主的养成方法",
        "ep_cut": 12,
        "image_url": "https://w.junreimap.com/images/points/100403/4yx2buxy2_1672164032966.jpg",
        "location": "",
        "point_id": "4yx2buxy2",
        "point_name": "外神田3丁目交差点",
        "remark": ""
      },
      "type": "Feature"
    },
    {
      "geometry": {
        "coordinates": [
          139.771113,
          35.698636
        ],
        "type": "Point"
      },
      "properties": {
        "bangumi_id": 100403,
        "bangumi_title": "路人女主的养成方法",
        "ep_cut": 12,
        "image_url": "https://w.junreimap.com/images/points/100403/4sm48erfe_1672164035295.jpg",
        "location": "都内",
        "point_id": "4sm48erfe",
        "point_name": "セガ　秋葉原1号館",
        "remark": "12話。"
      },
      "type": "Feature"
    },
    {
      "geometry": {
        "coordinates": [
          139.771108,
          35.698297
        ],
        "type": "Point"
      },
      "properties": {
        "bangumi_id": 100403,
        "bangumi_title": "路人女主的养成方法",
        "ep_cut": 12,
        "image_url": "https://w.junreimap.com/images/points/100403/4sm48ergx_1672164038927.jpg",
        "location": "都内",
        "point_id": "4sm48ergx",
        "point_name": "ボークス秋葉原ホビー天国",
        "remark": "12話。"
      },
      "type": "Feature"
    },
    {
      "geometry": {
        "coordinates": [
          139.771107,
          35.698291
        ],
        "type": "Point"
      },
      "properties": {
        "bangumi_id": 100403,
        "bangumi_title": "路人女主的养成方法",
        "ep_cut": 12,
        "image_url": "https://w.junreimap.com/images/points/100403/4yx2h3jy9_1672164042518.jpg",
        "location": "",
        "point_id": "4yx2h3jy9",
        "point_name": "ボークス秋葉原ホビー天国",
        "remark": ""
      },
      "type": "Feature"
    },
    {
      "geometry": {
        "coordinates": [
          139.771618,
          35.698153
        ],
        "type": "Point"
      },
      "properties": {
        "bangumi_id": 100403,
        "bangumi_title": "路人女主的养成方法",
        "ep_cut": "",
        "image_url": "",
        "location": "都内",
        "point_id": "4sm48eriv",
        "point_name": "AKIHABARAゲーマーズ本店",
        "remark": "恋するメトロノーム3巻。"
      },
      "type": "Feature"
    },
    {
      "geometry": {
        "coordinates": [
          139.771484,
          35.699408
        ],
        "type": "Point"
      },
      "properties": {
        "bangumi_id": 100403,
        "bangumi_title": "路人女主的养成方法",
        "ep_cut": "",
        "image_url": "",
        "location": "都内",
        "point_id": "4sm48eryp",
        "point_name": "CAFE MOCO",
        "remark": "恋するメトロノーム3巻。"
      },
      "type": "Feature"
    },
    {
      "geometry": {
        "coordinates": [
          139.771435,
          35.698571
        ],
        "type": "Point"
      },
      "properties": {
        "bangumi_id": 100403,
        "bangumi_title": "路人女主的养成方法",
        "ep_cut": "",
        "image_url": "",
        "location": "都内",
        "point_id": "4sm48erj7",
        "point_name": "セガ　秋葉原1号館向かい（中央通り）",
        "remark": "恋するメトロノーム1巻など。"
      },
      "type": "Feature"
    },
    {
      "geometry": {
        "coordinates": [
          139.771599,
          35.70044
        ],
        "type": "Point"
      },
      "properties": {
        "bangumi_id": 100403,
        "bangumi_title": "路人女主的养成方法",
        "ep_cut": "",
        "image_url": "",
        "location": "都内",
        "point_id": "4sm48erro",
        "point_name": "コミックとらのあな秋葉原店Ａ",
        "remark": "恋するメトロノーム3巻。"
      },
      "type": "Feature"
    },
    {
      "geometry": {
        "coordinates": [
          139.771604,
          35.700527
        ],
        "type": "Point"
      },
      "properties": {
        "bangumi_id": 100403,
        "bangumi_title": "路人女主的养成方法",
        "ep_cut": "",
        "image_url": "",
        "location": "都内",
        "point_id": "4sm48er89",
        "point_name": "アニメイト秋葉原店",
        "remark": "恋するメトロノーム3巻。"
      },
      "type": "Feature"
    },
    {
      "geometry": {
        "coordinates": [
          139.758836,
          35.695852
        ],
        "type": "Point"
      },
      "properties": {
        "bangumi_id": 100403,
        "bangumi_title": "路人女主的养成方法",
        "ep_cut": "",
        "image_url": "",
        "location": "都内",
        "point_id": "4sm48ervd",
        "point_name": "一誠堂書店",
        "remark": "恋するメトロノーム1巻など、コミカライズ1巻p.139,140。作中では帖文堂書店。"
      },
      "type": "Feature"
    },
    {
      "geometry": {
        "coordinates": [
          139.713467,
          35.718852
        ],
        "type": "Point"
      },
      "properties": {
        "bangumi_id": 100403,
        "bangumi_title": "路人女主的养成方法",
        "ep_cut": "",
        "image_url": "",
        "location": "都内",
        "point_id": "4sm48erly",
        "point_name": "千登世橋",
        "remark": "~egoistic lily~3巻。"
      },
      "type": "Feature"
    },
    {
      "geometry": {
        "coordinates": [
          139.70997,
          35.730963
        ],
        "type": "Point"
      },
      "properties": {
        "bangumi_id": 100403,
        "bangumi_title": "路人女主的养成方法",
        "ep_cut": "",
        "image_url": "",
        "location": "都内",
        "point_id": "4sm48ers4",
        "point_name": "池袋駅西口",
        "remark": "恋するメトロノーム3巻p.7。"
      },
      "type": "Feature"
    },
    {
      "geometry": {
        "coordinates": [
          139.720666,
          35.733498
        ],
        "type": "Point"
      },
      "properties": {
        "bangumi_id": 100403,
        "bangumi_title": "路人女主的养成方法",
        "ep_cut": "",
        "image_url": "",
        "location": "都内",
        "point_id": "4sm48erbx",
        "point_name": "西巣鴨橋南詰",
        "remark": "恋するメトロノーム3巻p.87、第15話扉絵。"
      },
      "type": "Feature"
    },
    {
      "geometry": {
        "coordinates": [
          139.728804,
          35.731891
        ],
        "type": "Point"
      },
      "properties": {
        "bangumi_id": 100403,
        "bangumi_title": "路人女主的养成方法",
        "ep_cut": "",
        "image_url": "",
        "location": "都内",
        "point_id": "4sm48ero0",
        "point_name": "ＪＲ大塚駅北口",
        "remark": "恋するメトロノーム3巻、コミカライズ1巻。"
      },
      "type": "Feature"
    },
    {
      "geometry": {
        "coordinates": [
          139.728216,
          35.731777
        ],
        "type": "Point"
      },
      "properties": {
        "bangumi_id": 100403,
        "bangumi_title": "路人女主的养成方法",
        "ep_cut": "",
        "image_url": "",
        "location": "都内",
        "point_id": "4sm48ereq",
        "point_name": "ＪＲ大塚駅ホーム",
        "remark": "恋するメトロノーム3巻。"
      },
      "type": "Feature"
    },
    {
      "geometry": {
        "coordinates": [
          139.721637,
          35.737626
        ],
        "type": "Point"
      },
      "properties": {
        "bangumi_id": 100403,
        "bangumi_title": "路人女主的养成方法",
        "ep_cut": "",
        "image_url": "",
        "location": "都内",
        "point_id": "4sm48er92",
        "point_name": "東京新聞上池袋新聞販売所",
        "remark": "恋するメトロノーム2巻。"
      },
      "type": "Feature"
    },
    {
      "geometry": {
        "coordinates": [
          139.729158,
          35.732271
        ],
        "type": "Point"
      },
      "properties": {
        "bangumi_id": 100403,
        "bangumi_title": "路人女主的养成方法",
        "ep_cut": "",
        "image_url": "",
        "location": "都内",
        "point_id": "4sm48ercg",
        "point_name": "山下書店　大塚店",
        "remark": "恋するメトロノーム2巻。"
      },
      "type": "Feature"
    },
    {
      "geometry": {
        "coordinates": [
          138.21981,
          36.098606
        ],
        "type": "Point"
      },
      "properties": {
        "bangumi_id": 100403,
        "bangumi_title": "路人女主的养成方法",
        "ep_cut": "",
        "image_url": "https://w.junreimap.com/images/points/100403/4sm48ersl_1672163719756.jpg",
        "location": "その他エリア",
        "point_id": "4sm48ersl",
        "point_name": "白樺湖",
        "remark": "０話。ロケハン温泉合宿にて訪れた湖。"
      },
      "type": "Feature"
    },
    {
      "geometry": {
        "coordinates": [
          138.219853,
          36.098311
        ],
        "type": "Point"
      },
      "properties": {
        "bangumi_id": 100403,
        "bangumi_title": "路人女主的养成方法",
        "ep_cut": "",
        "image_url": "https://w.junreimap.com/images/points/100403/4ywxh1bda_1672163738863.jpg",
        "location": "",
        "point_id": "4ywxh1bda",
        "point_name": "ビーナスライン",
        "remark": ""
      },
      "type": "Feature"
    },
    {
      "geometry": {
        "coordinates": [
          138.219778,
          36.098068
        ],
        "type": "Point"
      },
      "properties": {
        "bangumi_id": 100403,
        "bangumi_title": "路人女主的养成方法",
        "ep_cut": "",
        "image_url": "https://w.junreimap.com/images/points/100403/4ywxiul70_1672163742043.jpg",
        "location": "",
        "point_id": "4ywxiul70",
        "point_name": "ビーナスライン",
        "remark": ""
      },
      "type": "Feature"
    },
    {
      "geometry": {
        "coordinates": [
          138.21967,
          36.097798
        ],
        "type": "Point"
      },
      "properties": {
        "bangumi_id": 100403,
        "bangumi_title": "路人女主的养成方法",
        "ep_cut": "",
        "image_url": "https://w.junreimap.com/images/points/100403/4ywxka1mv_1672163745177.jpg",
        "location": "",
        "point_id": "4ywxka1mv",
        "point_name": "ビーナスライン",
        "remark": ""
      },
      "type": "Feature"
    },
    {
      "geometry": {
        "coordinates": [
          135.675359,
          35.017406
        ],
        "type": "Point"
      },
      "properties": {
        "bangumi_id": 100403,
        "bangumi_title": "路人女主的养成方法",
        "ep_cut": 25,
        "image_url": "https://w.junreimap.com/images/points/100403/4sm48erum_1672164051850.jpg",
        "location": "その他エリア",
        "point_id": "4sm48erum",
        "point_name": "竹林の道",
        "remark": "0話Ｂパート"
      },
      "type": "Feature"
    },
    {
      "geometry": {
        "coordinates": [
          135.675304,
          35.0174
        ],
        "type": "Point"
      },
      "properties": {
        "bangumi_id": 100403,
        "bangumi_title": "路人女主的养成方法",
        "ep_cut": "",
        "image_url": "https://w.junreimap.com/images/points/100403/4yx2rhd5m_1672164059368.jpg",
        "location": "",
        "point_id": "4yx2rhd5m",
        "point_name": "竹林の道",
        "remark": ""
      },
      "type": "Feature"
    },
    {
      "geometry": {
        "coordinates": [
          142.47872,
          43.768597
        ],
        "type": "Point"
      },
      "properties": {
        "bangumi_id": 100403,
        "bangumi_title": "路人女主的养成方法",
        "ep_cut": "",
        "image_url": "https://w.junreimap.com/images/points/100403/4sm48erje_1672164391424.jpg",
        "location": "その他エリア",
        "point_id": "4sm48erje",
        "point_name": "旭山動物園あざらし館",
        "remark": "3話。"
      },
      "type": "Feature"
    },
    {
      "geometry": {
        "coordinates": [
          142.478792,
          43.76849
        ],
        "type": "Point"
      },
      "properties": {
        "bangumi_id": 100403,
        "bangumi_title": "路人女主的养成方法",
        "ep_cut": 3,
        "image_url": "https://w.junreimap.com/images/points/100403/4yx8cvy6v_1672164397330.jpg",
        "location": "",
        "point_id": "4yx8cvy6v",
        "point_name": "旭山動物園あざらし館",
        "remark": ""
      },
      "type": "Feature"
    },
    {
      "geometry": {
        "coordinates": [
          142.478877,
          43.768404
        ],
        "type": "Point"
      },
      "properties": {
        "bangumi_id": 100403,
        "bangumi_title": "路人女主的养成方法",
        "ep_cut": 3,
        "image_url": "https://w.junreimap.com/images/points/100403/4yx8eezk3_1672164399666.jpg",
        "location": "",
        "point_id": "4yx8eezk3",
        "point_name": "旭山動物園あざらし館",
        "remark": ""
      },
      "type": "Feature"
    },
    {
      "geometry": {
        "coordinates": [
          141.353402,
          43.062743
        ],
        "type": "Point"
      },
      "properties": {
        "bangumi_id": 100403,
        "bangumi_title": "路人女主的养成方法",
        "ep_cut": "",
        "image_url": "",
        "location": "その他エリア",
        "point_id": "4sm48erjq",
        "point_name": "札幌市時計台",
        "remark": "コミカライズ2巻p.5扉絵。"
      },
      "type": "Feature"
    },
    {
      "geometry": {
        "coordinates": [
          138.189254,
          36.642908
        ],
        "type": "Point"
      },
      "properties": {
        "bangumi_id": 100403,
        "bangumi_title": "路人女主的养成方法",
        "ep_cut": "",
        "image_url": "https://w.junreimap.com/images/points/100403/4sm48ervt_1672163771454.jpg",
        "location": "その他エリア",
        "point_id": "4sm48ervt",
        "point_name": "E2系あさま（0番台）",
        "remark": "0話。（あさまの車内カット回収は始発駅の長野がしやすいので長野駅をマッピングしました。）"
      },
      "type": "Feature"
    },
    {
      "geometry": {
        "coordinates": [
          138.189177,
          36.642858
        ],
        "type": "Point"
      },
      "properties": {
        "bangumi_id": 100403,
        "bangumi_title": "路人女主的养成方法",
        "ep_cut": "",
        "image_url": "https://w.junreimap.com/images/points/100403/4ywy2ltuy_1672163775614.jpg",
        "location": "",
        "point_id": "4ywy2ltuy",
        "point_name": "E2系あさま（0番台）",
        "remark": ""
      },
      "type": "Feature"
    },
    {
      "geometry": {
        "coordinates": [
          138.18912,
          36.642815
        ],
        "type": "Point"
      },
      "properties": {
        "bangumi_id": 100403,
        "bangumi_title": "路人女主的养成方法",
        "ep_cut": "",
        "image_url": "https://w.junreimap.com/images/points/100403/4ywy4nli3_1672163795882.jpg",
        "location": "",
        "point_id": "4ywy4nli3",
        "point_name": "E2系あさま（0番台）",
        "remark": ""
      },
      "type": "Feature"
    },
    {
      "geometry": {
        "coordinates": [
          138.189077,
          36.642766
        ],
        "type": "Point"
      },
      "properties": {
        "bangumi_id": 100403,
        "bangumi_title": "路人女主的养成方法",
        "ep_cut": "",
        "image_url": "https://w.junreimap.com/images/points/100403/4ywygp2tl_1672163798943.jpg",
        "location": "",
        "point_id": "4ywygp2tl",
        "point_name": "E2系あさま（0番台）",
        "remark": ""
      },
      "type": "Feature"
    },
    {
      "geometry": {
        "coordinates": [
          138.189009,
          36.642747
        ],
        "type": "Point"
      },
      "properties": {
        "bangumi_id": 100403,
        "bangumi_title": "路人女主的养成方法",
        "ep_cut": "",
        "image_url": "https://w.junreimap.com/images/points/100403/4ywyj7pq7_1672163803221.jpg",
        "location": "",
        "point_id": "4ywyj7pq7",
        "point_name": "E2系あさま（0番台）",
        "remark": ""
      },
      "type": "Feature"
    },
    {
      "geometry": {
        "coordinates": [
          138.188969,
          36.642715
        ],
        "type": "Point"
      },
      "properties": {
        "bangumi_id": 100403,
        "bangumi_title": "路人女主的养成方法",
        "ep_cut": "",
        "image_url": "https://w.junreimap.com/images/points/100403/4ywynkxxr_1672163810128.jpg",
        "location": "",
        "point_id": "4ywynkxxr",
        "point_name": "E2系あさま（0番台）",
        "remark": ""
      },
      "type": "Feature"
    },
    {
      "geometry": {
        "coordinates": [
          138.188922,
          36.642672
        ],
        "type": "Point"
      },
      "properties": {
        "bangumi_id": 100403,
        "bangumi_title": "路人女主的养成方法",
        "ep_cut": 22,
        "image_url": "https://w.junreimap.com/images/points/100403/4ywyp88wk_1672163813532.jpg",
        "location": "",
        "point_id": "4ywyp88wk",
        "point_name": "E2系あさま（0番台）",
        "remark": ""
      },
      "type": "Feature"
    },
    {
      "geometry": {
        "coordinates": [
          136.899701,
          35.159113
        ],
        "type": "Point"
      },
      "properties": {
        "bangumi_id": 100403,
        "bangumi_title": "路人女主的养成方法",
        "ep_cut": "",
        "image_url": "",
        "location": "その他エリア",
        "point_id": "4sm48erp9",
        "point_name": "仁王門通（大須交番前）",
        "remark": "~egoistic lily~2巻 p.69"
      },
      "type": "Feature"
    },
    {
      "geometry": {
        "coordinates": [
          139.380573,
          35.810314
        ],
        "type": "Point"
      },
      "properties": {
        "bangumi_id": 100403,
        "bangumi_title": "路人女主的养成方法",
        "ep_cut": 5,
        "image_url": "https://w.junreimap.com/images/user/0/bangumi/100403/points/4sm48erfz-1725363713156.jpg",
        "location": "首都圏近郊",
        "point_id": "4sm48erfz",
        "point_name": "三井アウトレットパーク入間",
        "remark": "5,6話。六天馬モールのモデル。"
      },
      "type": "Feature"
    },
    {
      "geometry": {
        "coordinates": [
          139.611989,
          35.788128
        ],
        "type": "Point"
      },
      "properties": {
        "bangumi_id": 100403,
        "bangumi_title": "路人女主的养成方法",
        "ep_cut": 5,
        "image_url": "https://w.junreimap.com/images/points/100403/4sm48erp0_1672163388460.jpg",
        "location": "首都圏近郊",
        "point_id": "4sm48erp0",
        "point_name": "和光市駅南口",
        "remark": "5,6話。作中では和合市駅。"
      },
      "type": "Feature"
    },
    {
      "geometry": {
        "coordinates": [
          139.612079,
          35.78815
        ],
        "type": "Point"
      },
      "properties": {
        "bangumi_id": 100403,
        "bangumi_title": "路人女主的养成方法",
        "ep_cut": 3,
        "image_url": "https://w.junreimap.com/images/points/100403/4ywrqbqae_1672163391965.jpg",
        "location": "",
        "point_id": "4ywrqbqae",
        "point_name": "和光市駅南口",
        "remark": ""
      },
      "type": "Feature"
    },
    {
      "geometry": {
        "coordinates": [
          139.612163,
          35.788106
        ],
        "type": "Point"
      },
      "properties": {
        "bangumi_id": 100403,
        "bangumi_title": "路人女主的养成方法",
        "ep_cut": 6,
        "image_url": "https://w.junreimap.com/images/points/100403/4ywrs2wp9_1672163395123.jpg",
        "location": "",
        "point_id": "4ywrs2wp9",
        "point_name": "和光市駅南口",
        "remark": ""
      },
      "type": "Feature"
    },
    {
      "geometry": {
        "coordinates": [
          139.612089,
          35.788087
        ],
        "type": "Point"
      },
      "properties": {
        "bangumi_id": 100403,
        "bangumi_title": "路人女主的养成方法",
        "ep_cut": 6,
        "image_url": "https://w.junreimap.com/images/points/100403/4ywrus3c8_1672163400935.jpg",
        "location": "",
        "point_id": "4ywrus3c8",
        "point_name": "和光市駅南口",
        "remark": ""
      },
      "type": "Feature"
    },
    {
      "geometry": {
        "coordinates": [
          139.612039,
          35.788089
        ],
        "type": "Point"
      },
      "properties": {
        "bangumi_id": 100403,
        "bangumi_title": "路人女主的养成方法",
        "ep_cut": 6,
        "image_url": "https://w.junreimap.com/images/points/100403/4ywrxegum_1672163404368.jpg",
        "location": "",
        "point_id": "4ywrxegum",
        "point_name": "和光市駅南口",
        "remark": ""
      },
      "type": "Feature"
    },
    {
      "geometry": {
        "coordinates": [
          139.611924,
          35.788064
        ],
        "type": "Point"
      },
      "properties": {
        "bangumi_id": 100403,
        "bangumi_title": "路人女主的养成方法",
        "ep_cut": 6,
        "image_url": "https://w.junreimap.com/images/points/100403/4yws0zrvi_1672163409962.jpg",
        "location": "",
        "point_id": "4yws0zrvi",
        "point_name": "和光市駅南口",
        "remark": ""
      },
      "type": "Feature"
    },
    {
      "geometry": {
        "coordinates": [
          139.611979,
          35.78807
        ],
        "type": "Point"
      },
      "properties": {
        "bangumi_id": 100403,
        "bangumi_title": "路人女主的养成方法",
        "ep_cut": 6,
        "image_url": "https://w.junreimap.com/images/points/100403/4yws2labl_1672163412636.jpg",
        "location": "",
        "point_id": "4yws2labl",
        "point_name": "和光市駅南口",
        "remark": ""
      },
      "type": "Feature"
    },
    {
      "geometry": {
        "coordinates": [
          139.612403,
          35.787855
        ],
        "type": "Point"
      },
      "properties": {
        "bangumi_id": 100403,
        "bangumi_title": "路人女主的养成方法",
        "ep_cut": 6,
        "image_url": "https://w.junreimap.com/images/points/100403/4ywsen1no_1672163436361.jpg",
        "location": "",
        "point_id": "4ywsen1no",
        "point_name": "和光市駅4番線ホーム",
        "remark": ""
      },
      "type": "Feature"
    },
    {
      "geometry": {
        "coordinates": [
          139.612426,
          35.78789
        ],
        "type": "Point"
      },
      "properties": {
        "bangumi_id": 100403,
        "bangumi_title": "路人女主的养成方法",
        "ep_cut": 6,
        "image_url": "https://w.junreimap.com/images/points/100403/4ywsozdbj_1672163450668.jpg",
        "location": "",
        "point_id": "4ywsozdbj",
        "point_name": "和光市駅4番線ホーム",
        "remark": ""
      },
      "type": "Feature"
    },
    {
      "geometry": {
        "coordinates": [
          139.615599,
          35.786644
        ],
        "type": "Point"
      },
      "properties": {
        "bangumi_id": 100403,
        "bangumi_title": "路人女主的养成方法",
        "ep_cut": 7,
        "image_url": "https://w.junreimap.com/images/points/100403/4sm48er8o_1672163522035.jpg",
        "location": "首都圏近郊",
        "point_id": "4sm48er8o",
        "point_name": "せせらぎ公園",
        "remark": "5,6話。"
      },
      "type": "Feature"
    },
    {
      "geometry": {
        "coordinates": [
          139.615716,
          35.786644
        ],
        "type": "Point"
      },
      "properties": {
        "bangumi_id": 100403,
        "bangumi_title": "路人女主的养成方法",
        "ep_cut": 7,
        "image_url": "https://w.junreimap.com/images/points/100403/4ywtxligd_1672163524799.jpg",
        "location": "",
        "point_id": "4ywtxligd",
        "point_name": "せせらぎ公園",
        "remark": ""
      },
      "type": "Feature"
    },
    {
      "geometry": {
        "coordinates": [
          139.615786,
          35.786678
        ],
        "type": "Point"
      },
      "properties": {
        "bangumi_id": 100403,
        "bangumi_title": "路人女主的养成方法",
        "ep_cut": 7,
        "image_url": "https://w.junreimap.com/images/points/100403/4ywtz56ac_1672163527453.jpg",
        "location": "",
        "point_id": "4ywtz56ac",
        "point_name": "せせらぎ公園",
        "remark": ""
      },
      "type": "Feature"
    },
    {
      "geometry": {
        "coordinates": [
          139.615772,
          35.786627
        ],
        "type": "Point"
      },
      "properties": {
        "bangumi_id": 100403,
        "bangumi_title": "路人女主的养成方法",
        "ep_cut": 7,
        "image_url": "https://w.junreimap.com/images/points/100403/4ywu19akn_1672163531278.jpg",
        "location": "",
        "point_id": "4ywu19akn",
        "point_name": "せせらぎ公園",
        "remark": ""
      },
      "type": "Feature"
    },
    {
      "geometry": {
        "coordinates": [
          139.615662,
          35.786597
        ],
        "type": "Point"
      },
      "properties": {
        "bangumi_id": 100403,
        "bangumi_title": "路人女主的养成方法",
        "ep_cut": 7,
        "image_url": "https://w.junreimap.com/images/points/100403/4ywu4d3z6_1672163535939.jpg",
        "location": "",
        "point_id": "4ywu4d3z6",
        "point_name": "せせらぎ公園",
        "remark": ""
      },
      "type": "Feature"
    },
    {
      "geometry": {
        "coordinates": [
          139.615706,
          35.786587
        ],
        "type": "Point"
      },
      "properties": {
        "bangumi_id": 100403,
        "bangumi_title": "路人女主的养成方法",
        "ep_cut": 7,
        "image_url": "https://w.junreimap.com/images/points/100403/4ywu5njay_1672163538541.jpg",
        "location": "",
        "point_id": "4ywu5njay",
        "point_name": "せせらぎ公園",
        "remark": ""
      },
      "type": "Feature"
    },
    {
      "geometry": {
        "coordinates": [
          139.61575,
          35.786561
        ],
        "type": "Point"
      },
      "properties": {
        "bangumi_id": 100403,
        "bangumi_title": "路人女主的养成方法",
        "ep_cut": 7,
        "image_url": "https://w.junreimap.com/images/points/100403/4ywu82dxc_1672163542473.jpg",
        "location": "",
        "point_id": "4ywu82dxc",
        "point_name": "せせらぎ公園",
        "remark": ""
      },
      "type": "Feature"
    },
    {
      "geometry": {
        "coordinates": [
          139.614492,
          35.787197
        ],
        "type": "Point"
      },
      "properties": {
        "bangumi_id": 100403,
        "bangumi_title": "路人女主的养成方法",
        "ep_cut": 7,
        "image_url": "https://w.junreimap.com/images/points/100403/4ywu9skat_1672163545351.jpg",
        "location": "",
        "point_id": "4ywu9skat",
        "point_name": "せせらぎ公園",
        "remark": "所有第七集的公园都应该是在隔壁的这个，和第六集的不在同一个"
      },
      "type": "Feature"
    },
    {
      "geometry": {
        "coordinates": [
          139.615585,
          35.786525
        ],
        "type": "Point"
      },
      "properties": {
        "bangumi_id": 100403,
        "bangumi_title": "路人女主的养成方法",
        "ep_cut": 7,
        "image_url": "https://w.junreimap.com/images/points/100403/4ywubbygb_1672163548236.jpg",
        "location": "",
        "point_id": "4ywubbygb",
        "point_name": "せせらぎ公園",
        "remark": ""
      },
      "type": "Feature"
    },
    {
      "geometry": {
        "coordinates": [
          139.615629,
          35.786474
        ],
        "type": "Point"
      },
      "properties": {
        "bangumi_id": 100403,
        "bangumi_title": "路人女主的养成方法",
        "ep_cut": 7,
        "image_url": "https://w.junreimap.com/images/points/100403/4ywuddvwm_1672163554403.jpg",
        "location": "",
        "point_id": "4ywuddvwm",
        "point_name": "せせらぎ公園",
        "remark": ""
      },
      "type": "Feature"
    },
    {
      "geometry": {
        "coordinates": [
          139.615546,
          35.78645
        ],
        "type": "Point"
      },
      "properties": {
        "bangumi_id": 100403,
        "bangumi_title": "路人女主的养成方法",
        "ep_cut": 7,
        "image_url": "https://w.junreimap.com/images/points/100403/4ywuhbqfg_1672163557883.jpg",
        "location": "",
        "point_id": "4ywuhbqfg",
        "point_name": "せせらぎ公園",
        "remark": ""
      },
      "type": "Feature"
    },
    {
      "geometry": {
        "coordinates": [
          139.615504,
          35.786422
        ],
        "type": "Point"
      },
      "properties": {
        "bangumi_id": 100403,
        "bangumi_title": "路人女主的养成方法",
        "ep_cut": 7,
        "image_url": "https://w.junreimap.com/images/points/100403/4ywul3wc2_1672163564369.jpg",
        "location": "",
        "point_id": "4ywul3wc2",
        "point_name": "せせらぎ公園",
        "remark": ""
      },
      "type": "Feature"
    },
    {
      "geometry": {
        "coordinates": [
          139.615555,
          35.786356
        ],
        "type": "Point"
      },
      "properties": {
        "bangumi_id": 100403,
        "bangumi_title": "路人女主的养成方法",
        "ep_cut": 7,
        "image_url": "https://w.junreimap.com/images/points/100403/4ywuu39d5_1672163579557.jpg",
        "location": "",
        "point_id": "4ywuu39d5",
        "point_name": "せせらぎ公園",
        "remark": ""
      },
      "type": "Feature"
    },
    {
      "geometry": {
        "coordinates": [
          139.615513,
          35.786333
        ],
        "type": "Point"
      },
      "properties": {
        "bangumi_id": 100403,
        "bangumi_title": "路人女主的养成方法",
        "ep_cut": 7,
        "image_url": "https://w.junreimap.com/images/points/100403/4ywuvrytk_1672163582678.jpg",
        "location": "",
        "point_id": "4ywuvrytk",
        "point_name": "せせらぎ公園",
        "remark": ""
      },
      "type": "Feature"
    },
    {
      "geometry": {
        "coordinates": [
          139.615467,
          35.786292
        ],
        "type": "Point"
      },
      "properties": {
        "bangumi_id": 100403,
        "bangumi_title": "路人女主的养成方法",
        "ep_cut": 7,
        "image_url": "https://w.junreimap.com/images/points/100403/4ywuxp2g4_1672163593357.jpg",
        "location": "",
        "point_id": "4ywuxp2g4",
        "point_name": "せせらぎ公園",
        "remark": ""
      },
      "type": "Feature"
    },
    {
      "geometry": {
        "coordinates": [
          139.615455,
          35.786337
        ],
        "type": "Point"
      },
      "properties": {
        "bangumi_id": 100403,
        "bangumi_title": "路人女主的养成方法",
        "ep_cut": 7,
        "image_url": "https://w.junreimap.com/images/points/100403/4ywv4kx0g_1672163597127.jpg",
        "location": "",
        "point_id": "4ywv4kx0g",
        "point_name": "せせらぎ公園",
        "remark": ""
      },
      "type": "Feature"
    },
    {
      "geometry": {
        "coordinates": [
          139.615439,
          35.786307
        ],
        "type": "Point"
      },
      "properties": {
        "bangumi_id": 100403,
        "bangumi_title": "路人女主的养成方法",
        "ep_cut": 7,
        "image_url": "https://w.junreimap.com/images/points/100403/4ywv69ak5_1672163600290.jpg",
        "location": "",
        "point_id": "4ywv69ak5",
        "point_name": "せせらぎ公園",
        "remark": ""
      },
      "type": "Feature"
    },
    {
      "geometry": {
        "coordinates": [
          139.615416,
          35.786271
        ],
        "type": "Point"
      },
      "properties": {
        "bangumi_id": 100403,
        "bangumi_title": "路人女主的养成方法",
        "ep_cut": 7,
        "image_url": "https://w.junreimap.com/images/points/100403/4ywv81914_1672163603362.jpg",
        "location": "",
        "point_id": "4ywv81914",
        "point_name": "せせらぎ公園",
        "remark": ""
      },
      "type": "Feature"
    },
    {
      "geometry": {
        "coordinates": [
          139.615534,
          35.786774
        ],
        "type": "Point"
      },
      "properties": {
        "bangumi_id": 100403,
        "bangumi_title": "路人女主的养成方法",
        "ep_cut": 6,
        "image_url": "https://w.junreimap.com/images/points/100403/4ywvdbqtl_1672163612056.jpg",
        "location": "",
        "point_id": "4ywvdbqtl",
        "point_name": "せせらぎ公園",
        "remark": ""
      },
      "type": "Feature"
    },
    {
      "geometry": {
        "coordinates": [
          139.615501,
          35.786722
        ],
        "type": "Point"
      },
      "properties": {
        "bangumi_id": 100403,
        "bangumi_title": "路人女主的养成方法",
        "ep_cut": 6,
        "image_url": "https://w.junreimap.com/images/points/100403/4ywvf15d8_1672163615139.jpg",
        "location": "",
        "point_id": "4ywvf15d8",
        "point_name": "せせらぎ公園",
        "remark": ""
      },
      "type": "Feature"
    },
    {
      "geometry": {
        "coordinates": [
          139.615485,
          35.786688
        ],
        "type": "Point"
      },
      "properties": {
        "bangumi_id": 100403,
        "bangumi_title": "路人女主的养成方法",
        "ep_cut": 6,
        "image_url": "https://w.junreimap.com/images/points/100403/4ywvgkitb_1672163618805.jpg",
        "location": "",
        "point_id": "4ywvgkitb",
        "point_name": "せせらぎ公園",
        "remark": ""
      },
      "type": "Feature"
    },
    {
      "geometry": {
        "coordinates": [
          139.615463,
          35.786658
        ],
        "type": "Point"
      },
      "properties": {
        "bangumi_id": 100403,
        "bangumi_title": "路人女主的养成方法",
        "ep_cut": 6,
        "image_url": "https://w.junreimap.com/images/points/100403/4ywvjnp1a_1672163633309.jpg",
        "location": "",
        "point_id": "4ywvjnp1a",
        "point_name": "せせらぎ公園",
        "remark": ""
      },
      "type": "Feature"
    },
    {
      "geometry": {
        "coordinates": [
          139.615452,
          35.786647
        ],
        "type": "Point"
      },
      "properties": {
        "bangumi_id": 100403,
        "bangumi_title": "路人女主的养成方法",
        "ep_cut": 6,
        "image_url": "https://w.junreimap.com/images/points/100403/4ywvro2x0_1672163635918.jpg",
        "location": "",
        "point_id": "4ywvro2x0",
        "point_name": "せせらぎ公園",
        "remark": ""
      },
      "type": "Feature"
    },
    {
      "geometry": {
        "coordinates": [
          139.615443,
          35.786635
        ],
        "type": "Point"
      },
      "properties": {
        "bangumi_id": 100403,
        "bangumi_title": "路人女主的养成方法",
        "ep_cut": 6,
        "image_url": "https://w.junreimap.com/images/points/100403/4ywvt9j28_1672163639172.jpg",
        "location": "",
        "point_id": "4ywvt9j28",
        "point_name": "せせらぎ公園",
        "remark": ""
      },
      "type": "Feature"
    },
    {
      "geometry": {
        "coordinates": [
          139.615433,
          35.786618
        ],
        "type": "Point"
      },
      "properties": {
        "bangumi_id": 100403,
        "bangumi_title": "路人女主的养成方法",
        "ep_cut": 6,
        "image_url": "https://w.junreimap.com/images/points/100403/4ywvv76yq_1672163642053.jpg",
        "location": "",
        "point_id": "4ywvv76yq",
        "point_name": "せせらぎ公園",
        "remark": ""
      },
      "type": "Feature"
    },
    {
      "geometry": {
        "coordinates": [
          139.615383,
          35.786555
        ],
        "type": "Point"
      },
      "properties": {
        "bangumi_id": 100403,
        "bangumi_title": "路人女主的养成方法",
        "ep_cut": 6,
        "image_url": "https://w.junreimap.com/images/points/100403/4ywvxu8i5_1672163645737.jpg",
        "location": "",
        "point_id": "4ywvxu8i5",
        "point_name": "せせらぎ公園",
        "remark": ""
      },
      "type": "Feature"
    },
    {
      "geometry": {
        "coordinates": [
          139.615368,
          35.786537
        ],
        "type": "Point"
      },
      "properties": {
        "bangumi_id": 100403,
        "bangumi_title": "路人女主的养成方法",
        "ep_cut": 6,
        "image_url": "https://w.junreimap.com/images/points/100403/4ywvz27zs_1672163648136.jpg",
        "location": "",
        "point_id": "4ywvz27zs",
        "point_name": "せせらぎ公園",
        "remark": ""
      },
      "type": "Feature"
    },
    {
      "geometry": {
        "coordinates": [
          139.612541,
          35.788585
        ],
        "type": "Point"
      },
      "properties": {
        "bangumi_id": 100403,
        "bangumi_title": "路人女主的养成方法",
        "ep_cut": 6,
        "image_url": "https://w.junreimap.com/images/user/0/bangumi/100403/points/4sm48ervx-1725284318441.jpg",
        "location": "首都圏近郊",
        "point_id": "4sm48ervx",
        "point_name": "和光市駅",
        "remark": "6話。倫也が終電（土休日ダイヤ）を逃すのは4番線。"
      },
      "type": "Feature"
    },
    {
      "geometry": {
        "coordinates": [
          139.612718,
          35.787959
        ],
        "type": "Point"
      },
      "properties": {
        "bangumi_id": 100403,
        "bangumi_title": "路人女主的养成方法",
        "ep_cut": 6,
        "image_url": "https://w.junreimap.com/images/user/0/bangumi/100403/points/4sm48ersr-1725211062697.jpg",
        "location": "首都圏近郊",
        "point_id": "4sm48ersr",
        "point_name": "ガスト 和光市駅前店",
        "remark": "6話。"
      },
      "type": "Feature"
    },
    {
      "geometry": {
        "coordinates": [
          139.613094,
          35.787148
        ],
        "type": "Point"
      },
      "properties": {
        "bangumi_id": 100403,
        "bangumi_title": "路人女主的养成方法",
        "ep_cut": 6,
        "image_url": "https://w.junreimap.com/images/points/100403/4ywt2idqc_1672163473150.jpg",
        "location": "",
        "point_id": "4ywt2idqc",
        "point_name": "東横イン　和光市駅前",
        "remark": ""
      },
      "type": "Feature"
    },
    {
      "geometry": {
        "coordinates": [
          139.613029,
          35.78721
        ],
        "type": "Point"
      },
      "properties": {
        "bangumi_id": 100403,
        "bangumi_title": "路人女主的养成方法",
        "ep_cut": 4,
        "image_url": "https://w.junreimap.com/images/points/100403/4sm48ercr_1672163467688.jpg",
        "location": "首都圏近郊",
        "point_id": "4sm48ercr",
        "point_name": "東横イン　和光市駅前",
        "remark": "4,5,6話。"
      },
      "type": "Feature"
    },
    {
      "geometry": {
        "coordinates": [
          139.613148,
          35.78714
        ],
        "type": "Point"
      },
      "properties": {
        "bangumi_id": 100403,
        "bangumi_title": "路人女主的养成方法",
        "ep_cut": 6,
        "image_url": "https://w.junreimap.com/images/points/100403/4ywt4hgwo_1672163475734.jpg",
        "location": "",
        "point_id": "4ywt4hgwo",
        "point_name": "東横イン　和光市駅前",
        "remark": ""
      },
      "type": "Feature"
    },
    {
      "geometry": {
        "coordinates": [
          139.613136,
          35.787219
        ],
        "type": "Point"
      },
      "properties": {
        "bangumi_id": 100403,
        "bangumi_title": "路人女主的养成方法",
        "ep_cut": 6,
        "image_url": "https://w.junreimap.com/images/points/100403/4ywt5tozf_1672163480250.jpg",
        "location": "",
        "point_id": "4ywt5tozf",
        "point_name": "東横イン　和光市駅前",
        "remark": ""
      },
      "type": "Feature"
    },
    {
      "geometry": {
        "coordinates": [
          139.613075,
          35.787238
        ],
        "type": "Point"
      },
      "properties": {
        "bangumi_id": 100403,
        "bangumi_title": "路人女主的养成方法",
        "ep_cut": 6,
        "image_url": "https://w.junreimap.com/images/points/100403/4ywt91guu_1672163483722.jpg",
        "location": "",
        "point_id": "4ywt91guu",
        "point_name": "東横イン　和光市駅前",
        "remark": ""
      },
      "type": "Feature"
    },
    {
      "geometry": {
        "coordinates": [
          139.613043,
          35.787255
        ],
        "type": "Point"
      },
      "properties": {
        "bangumi_id": 100403,
        "bangumi_title": "路人女主的养成方法",
        "ep_cut": 6,
        "image_url": "https://w.junreimap.com/images/points/100403/4ywtbulit_1672163488221.jpg",
        "location": "",
        "point_id": "4ywtbulit",
        "point_name": "東横イン　和光市駅前",
        "remark": ""
      },
      "type": "Feature"
    },
    {
      "geometry": {
        "coordinates": [
          139.612999,
          35.787265
        ],
        "type": "Point"
      },
      "properties": {
        "bangumi_id": 100403,
        "bangumi_title": "路人女主的养成方法",
        "ep_cut": 6,
        "image_url": "https://w.junreimap.com/images/points/100403/4ywtdbtdj_1672163491821.jpg",
        "location": "",
        "point_id": "4ywtdbtdj",
        "point_name": "東横イン　和光市駅前",
        "remark": ""
      },
      "type": "Feature"
    },
    {
      "geometry": {
        "coordinates": [
          139.612989,
          35.787221
        ],
        "type": "Point"
      },
      "properties": {
        "bangumi_id": 100403,
        "bangumi_title": "路人女主的养成方法",
        "ep_cut": 6,
        "image_url": "https://w.junreimap.com/images/points/100403/4ywtfeu65_1672163494178.jpg",
        "location": "",
        "point_id": "4ywtfeu65",
        "point_name": "東横イン　和光市駅前",
        "remark": ""
      },
      "type": "Feature"
    },
    {
      "geometry": {
        "coordinates": [
          139.613027,
          35.787169
        ],
        "type": "Point"
      },
      "properties": {
        "bangumi_id": 100403,
        "bangumi_title": "路人女主的养成方法",
        "ep_cut": 6,
        "image_url": "https://w.junreimap.com/images/points/100403/4ywtihaa4_1672163499456.jpg",
        "location": "",
        "point_id": "4ywtihaa4",
        "point_name": "東横イン　和光市駅前",
        "remark": ""
      },
      "type": "Feature"
    },
    {
      "geometry": {
        "coordinates": [
          139.613008,
          35.787136
        ],
        "type": "Point"
      },
      "properties": {
        "bangumi_id": 100403,
        "bangumi_title": "路人女主的养成方法",
        "ep_cut": 6,
        "image_url": "https://w.junreimap.com/images/points/100403/4ywtk09vg_1672163502086.jpg",
        "location": "",
        "point_id": "4ywtk09vg",
        "point_name": "東横イン　和光市駅前",
        "remark": ""
      },
      "type": "Feature"
    },
    {
      "geometry": {
        "coordinates": [
          139.613099,
          35.787089
        ],
        "type": "Point"
      },
      "properties": {
        "bangumi_id": 100403,
        "bangumi_title": "路人女主的养成方法",
        "ep_cut": 6,
        "image_url": "https://w.junreimap.com/images/points/100403/4ywtmhywo_1672163506463.jpg",
        "location": "",
        "point_id": "4ywtmhywo",
        "point_name": "東横イン　和光市駅前",
        "remark": ""
      },
      "type": "Feature"
    },
    {
      "geometry": {
        "coordinates": [
          139.613036,
          35.787061
        ],
        "type": "Point"
      },
      "properties": {
        "bangumi_id": 100403,
        "bangumi_title": "路人女主的养成方法",
        "ep_cut": 6,
        "image_url": "https://w.junreimap.com/images/points/100403/4ywtp4ayg_1672163510459.jpg",
        "location": "",
        "point_id": "4ywtp4ayg",
        "point_name": "東横イン　和光市駅前",
        "remark": ""
      },
      "type": "Feature"
    },
    {
      "geometry": {
        "coordinates": [
          139.613015,
          35.787091
        ],
        "type": "Point"
      },
      "properties": {
        "bangumi_id": 100403,
        "bangumi_title": "路人女主的养成方法",
        "ep_cut": 21,
        "image_url": "https://w.junreimap.com/images/points/100403/4ywtsmeyd_1672163516525.jpg",
        "location": "",
        "point_id": "4ywtsmeyd",
        "point_name": "東横イン　和光市駅前",
        "remark": ""
      },
      "type": "Feature"
    },
    {
      "geometry": {
        "coordinates": [
          139.614615,
          35.78721
        ],
        "type": "Point"
      },
      "properties": {
        "bangumi_id": 100403,
        "bangumi_title": "路人女主的养成方法",
        "ep_cut": 7,
        "image_url": "https://w.junreimap.com/images/user/0/bangumi/100403/points/4sm48ervz-1725268876406.jpg",
        "location": "首都圏近郊",
        "point_id": "4sm48ervz",
        "point_name": "チビッコ公園",
        "remark": "7話。"
      },
      "type": "Feature"
    },
    {
      "geometry": {
        "coordinates": [
          139.613504,
          35.78795
        ],
        "type": "Point"
      },
      "properties": {
        "bangumi_id": 100403,
        "bangumi_title": "路人女主的养成方法",
        "ep_cut": "",
        "image_url": "",
        "location": "首都圏近郊",
        "point_id": "4sm48erws",
        "point_name": "和光市駅南口バス停（ザバススポーツクラブ前）",
        "remark": "6話。和光市駅1番線より撮影。"
      },
      "type": "Feature"
    },
    {
      "geometry": {
        "coordinates": [
          139.599589,
          35.707565
        ],
        "type": "Point"
      },
      "properties": {
        "bangumi_id": 100403,
        "bangumi_title": "路人女主的养成方法",
        "ep_cut": 5,
        "image_url": "https://w.junreimap.com/images/user/0/bangumi/100403/points/4yu7y1wcw.jpg",
        "location": "",
        "point_id": "4yu7y1wcw",
        "point_name": "井荻橋",
        "remark": ""
      },
      "type": "Feature"
    },
    {
      "geometry": {
        "coordinates": [
          139.599861,
          35.707553
        ],
        "type": "Point"
      },
      "properties": {
        "bangumi_id": 100403,
        "bangumi_title": "路人女主的养成方法",
        "ep_cut": 5,
        "image_url": "https://w.junreimap.com/images/user/0/bangumi/100403/points/4yu9upzjy.jpg",
        "location": "",
        "point_id": "4yu9upzjy",
        "point_name": "井荻橋",
        "remark": ""
      },
      "type": "Feature"
    },
    {
      "geometry": {
        "coordinates": [
          139.771793,
          35.6263
        ],
        "type": "Point"
      },
      "properties": {
        "bangumi_id": 100403,
        "bangumi_title": "路人女主的养成方法",
        "ep_cut": "",
        "image_url": "https://w.junreimap.com/images/user/0/bangumi/100403/points/4yuvsuwlv.jpg",
        "location": "",
        "point_id": "4yuvsuwlv",
        "point_name": "台場駅",
        "remark": ""
      },
      "type": "Feature"
    },
    {
      "geometry": {
        "coordinates": [
          139.744364,
          35.697407
        ],
        "type": "Point"
      },
      "properties": {
        "bangumi_id": 100403,
        "bangumi_title": "路人女主的养成方法",
        "ep_cut": 4,
        "image_url": "https://w.junreimap.com/images/user/0/bangumi/100403/points/5o9td35oh-1674150933680.jpg",
        "location": "",
        "point_id": "5o9td35oh",
        "point_name": "角川本社ビル",
        "remark": "不死川書店"
      },
      "type": "Feature"
    },
    {
      "geometry": {
        "coordinates": [
          139.717045,
          35.715717
        ],
        "type": "Point"
      },
      "properties": {
        "bangumi_id": 100403,
        "bangumi_title": "路人女主的养成方法",
        "ep_cut": " 路人女主的养成方法 Fine",
        "image_url": "https://w.junreimap.com/images/user/0/bangumi/100403/points/lub8mqfp7-1719763386855.jpg",
        "location": "",
        "point_id": "lub8mqfp7",
        "point_name": "富士見坂",
        "remark": ""
      },
      "type": "Feature"
    }
  ],
  "type": "FeatureCollection"
}