{
  "features": [
    {
      "geometry": {
        "coordinates": [
          139.606433,
          35.74491
        ],
        "type": "Point"
      },
      "properties": {
        "bangumi_id": 10086,
        "bangumi_title": "四叶妹妹！",
        "ep_cut": "",
        "image_url": "https://w.junreimap.com/images/points/10086/0866f609_1760313975279.jpg",
        "location": "",
        "point_id": "0866f609",
        "point_name": "",
        "remark": "１巻P148"
      },
      "type": "Feature"
    },
    {
      "geometry": {
        "coordinates": [
          139.606374,
          35.744825
        ],
        "type": "Point"
      },
      "properties": {
        "bangumi_id": 10086,
        "bangumi_title": "四叶妹妹！",
        "ep_cut": "",
        "image_url": "https://w.junreimap.com/images/points/10086/3169d963_1760313943802.jpg",
        "location": "",
        "point_id": "3169d963",
        "point_name": "",
        "remark": "クレスト石神井公園3巻P055～058 １巻P148"
      },
      "type": "Feature"
    },
    {
      "geometry": {
        "coordinates": [
          139.606172,
          35.744865
        ],
        "type": "Point"
      },
      "properties": {
        "bangumi_id": 10086,
        "bangumi_title": "四叶妹妹！",
        "ep_cut": "",
        "image_url": "https://w.junreimap.com/images/points/10086/640rri5_1760314220980.jpg",
        "location": "",
        "point_id": "640rri5",
        "point_name": 94,
        "remark": "第一卷 149p"
      },
      "type": "Feature"
    },
    {
      "geometry": {
        "coordinates": [
          139.59583,
          35.751689
        ],
        "type": "Point"
      },
      "properties": {
        "bangumi_id": 10086,
        "bangumi_title": "四叶妹妹！",
        "ep_cut": "",
        "image_url": "https://w.junreimap.com/images/points/10086/f0bb10a8_1760313919648.jpg",
        "location": "",
        "point_id": "f0bb10a8",
        "point_name": "LIVIN OZ大泉",
        "remark": "１巻P149"
      },
      "type": "Feature"
    },
    {
      "geometry": {
        "coordinates": [
          139.595759,
          35.751653
        ],
        "type": "Point"
      },
      "properties": {
        "bangumi_id": 10086,
        "bangumi_title": "四叶妹妹！",
        "ep_cut": "",
        "image_url": "https://w.junreimap.com/images/points/10086/640lrem_1760313928405.jpg",
        "location": "",
        "point_id": "640lrem",
        "point_name": "LIVIN OZ大泉",
        "remark": ""
      },
      "type": "Feature"
    },
    {
      "geometry": {
        "coordinates": [
          139.595655,
          35.7518
        ],
        "type": "Point"
      },
      "properties": {
        "bangumi_id": 10086,
        "bangumi_title": "四叶妹妹！",
        "ep_cut": "",
        "image_url": "",
        "location": "",
        "point_id": "653uunl",
        "point_name": "LIVIN OZ大泉",
        "remark": ""
      },
      "type": "Feature"
    },
    {
      "geometry": {
        "coordinates": [
          139.599751,
          35.736289
        ],
        "type": "Point"
      },
      "properties": {
        "bangumi_id": 10086,
        "bangumi_title": "四叶妹妹！",
        "ep_cut": "",
        "image_url": "https://w.junreimap.com/images/points/10086/c6a31b48_1760379943031.jpg",
        "location": "",
        "point_id": "c6a31b48",
        "point_name": "石神井図書館改築しちゃいました",
        "remark": "１巻P182"
      },
      "type": "Feature"
    },
    {
      "geometry": {
        "coordinates": [
          139.605358,
          35.74309
        ],
        "type": "Point"
      },
      "properties": {
        "bangumi_id": 10086,
        "bangumi_title": "四叶妹妹！",
        "ep_cut": "",
        "image_url": "",
        "location": "",
        "point_id": "a4ec3055",
        "point_name": "2巻P068",
        "remark": "ドトール69ページの「あ そうだった」コマもしかして逆向きの方向か？ドトール→フルタにして"
      },
      "type": "Feature"
    },
    {
      "geometry": {
        "coordinates": [
          139.60521,
          35.743077
        ],
        "type": "Point"
      },
      "properties": {
        "bangumi_id": 10086,
        "bangumi_title": "四叶妹妹！",
        "ep_cut": "",
        "image_url": "https://w.junreimap.com/images/user/0/bangumi/10086/points/12c3bb4e-1774404931682.jpg",
        "location": "",
        "point_id": "12c3bb4e",
        "point_name": "2巻P068",
        "remark": "the100STORES"
      },
      "type": "Feature"
    },
    {
      "geometry": {
        "coordinates": [
          139.605913,
          35.743314
        ],
        "type": "Point"
      },
      "properties": {
        "bangumi_id": 10086,
        "bangumi_title": "四叶妹妹！",
        "ep_cut": "",
        "image_url": "https://w.junreimap.com/images/user/0/bangumi/10086/points/84205cc0-1774405064524.jpg",
        "location": "",
        "point_id": "84205cc0",
        "point_name": "2巻P070",
        "remark": "サンメリー"
      },
      "type": "Feature"
    },
    {
      "geometry": {
        "coordinates": [
          139.607557,
          35.743739
        ],
        "type": "Point"
      },
      "properties": {
        "bangumi_id": 10086,
        "bangumi_title": "四叶妹妹！",
        "ep_cut": "",
        "image_url": "",
        "location": "",
        "point_id": "cb6a3025",
        "point_name": "2巻P076",
        "remark": "タリーズ？改変してんのかな"
      },
      "type": "Feature"
    },
    {
      "geometry": {
        "coordinates": [
          139.606452,
          35.744564
        ],
        "type": "Point"
      },
      "properties": {
        "bangumi_id": 10086,
        "bangumi_title": "四叶妹妹！",
        "ep_cut": "",
        "image_url": "",
        "location": "",
        "point_id": "3b7c6a9f",
        "point_name": "3巻P093",
        "remark": "クレスト石神井公園"
      },
      "type": "Feature"
    },
    {
      "geometry": {
        "coordinates": [
          139.607029,
          35.743815
        ],
        "type": "Point"
      },
      "properties": {
        "bangumi_id": 10086,
        "bangumi_title": "四叶妹妹！",
        "ep_cut": "",
        "image_url": "",
        "location": "",
        "point_id": "7f63ad56",
        "point_name": "3巻P094～098",
        "remark": "石神井公園駅北口高架化のため出口消滅P096～97ロータリーとクイーンズ伊勢丹は健在5巻P158"
      },
      "type": "Feature"
    },
    {
      "geometry": {
        "coordinates": [
          139.571175,
          35.700976
        ],
        "type": "Point"
      },
      "properties": {
        "bangumi_id": 10086,
        "bangumi_title": "四叶妹妹！",
        "ep_cut": "",
        "image_url": "",
        "location": "",
        "point_id": "69007732",
        "point_name": "3巻P114～P130",
        "remark": "4つのモデルがあるらしいうちの主モデル　らしい"
      },
      "type": "Feature"
    },
    {
      "geometry": {
        "coordinates": [
          139.538538,
          35.643556
        ],
        "type": "Point"
      },
      "properties": {
        "bangumi_id": 10086,
        "bangumi_title": "四叶妹妹！",
        "ep_cut": "",
        "image_url": "",
        "location": "",
        "point_id": "4da58ac3",
        "point_name": "3巻P163",
        "remark": "ローソン街灯は該当なし"
      },
      "type": "Feature"
    },
    {
      "geometry": {
        "coordinates": [
          139.535695,
          35.641712
        ],
        "type": "Point"
      },
      "properties": {
        "bangumi_id": 10086,
        "bangumi_title": "四叶妹妹！",
        "ep_cut": "",
        "image_url": "",
        "location": "",
        "point_id": "b888b9f5",
        "point_name": "3巻P165",
        "remark": "京王相模原線多摩川鉄橋調布市花火大会かな"
      },
      "type": "Feature"
    },
    {
      "geometry": {
        "coordinates": [
          138.835129,
          35.942861
        ],
        "type": "Point"
      },
      "properties": {
        "bangumi_id": 10086,
        "bangumi_title": "四叶妹妹！",
        "ep_cut": "",
        "image_url": "",
        "location": "",
        "point_id": "9d7c7332",
        "point_name": "4巻P034",
        "remark": "入川渓流観光釣場の入り口部分"
      },
      "type": "Feature"
    },
    {
      "geometry": {
        "coordinates": [
          139.148991,
          35.876709
        ],
        "type": "Point"
      },
      "properties": {
        "bangumi_id": 10086,
        "bangumi_title": "四叶妹妹！",
        "ep_cut": "",
        "image_url": "",
        "location": "",
        "point_id": "0e7d1b29",
        "point_name": "4巻P034",
        "remark": "有間渓谷観光釣場建物はここ"
      },
      "type": "Feature"
    },
    {
      "geometry": {
        "coordinates": [
          134.804681,
          34.759336
        ],
        "type": "Point"
      },
      "properties": {
        "bangumi_id": 10086,
        "bangumi_title": "四叶妹妹！",
        "ep_cut": "",
        "image_url": "",
        "location": "",
        "point_id": "1fb827a8",
        "point_name": "4巻P183",
        "remark": "ぼたん児童公園"
      },
      "type": "Feature"
    },
    {
      "geometry": {
        "coordinates": [
          140.113883,
          35.612886
        ],
        "type": "Point"
      },
      "properties": {
        "bangumi_id": 10086,
        "bangumi_title": "四叶妹妹！",
        "ep_cut": "",
        "image_url": "",
        "location": "",
        "point_id": "ab6c49c6",
        "point_name": "5巻P162",
        "remark": "JR千葉駅6番線ホーム"
      },
      "type": "Feature"
    },
    {
      "geometry": {
        "coordinates": [
          140.250955,
          35.137193
        ],
        "type": "Point"
      },
      "properties": {
        "bangumi_id": 10086,
        "bangumi_title": "四叶妹妹！",
        "ep_cut": "",
        "image_url": "",
        "location": "",
        "point_id": "c0333cbb",
        "point_name": "5巻P166～168P203",
        "remark": "上総興津駅ホーム、改札、駅舎"
      },
      "type": "Feature"
    },
    {
      "geometry": {
        "coordinates": [
          140.018493,
          35.039945
        ],
        "type": "Point"
      },
      "properties": {
        "bangumi_id": 10086,
        "bangumi_title": "四叶妹妹！",
        "ep_cut": "",
        "image_url": "",
        "location": "",
        "point_id": "3f367b2f",
        "point_name": "5巻P168",
        "remark": "踏切(反転)看板"
      },
      "type": "Feature"
    },
    {
      "geometry": {
        "coordinates": [
          140.018955,
          35.039903
        ],
        "type": "Point"
      },
      "properties": {
        "bangumi_id": 10086,
        "bangumi_title": "四叶妹妹！",
        "ep_cut": "",
        "image_url": "",
        "location": "",
        "point_id": "42166a06",
        "point_name": "5巻P168",
        "remark": "海水浴場への道"
      },
      "type": "Feature"
    },
    {
      "geometry": {
        "coordinates": [
          140.019408,
          35.039699
        ],
        "type": "Point"
      },
      "properties": {
        "bangumi_id": 10086,
        "bangumi_title": "四叶妹妹！",
        "ep_cut": "",
        "image_url": "",
        "location": "",
        "point_id": "c1fe7768",
        "point_name": "5巻P169",
        "remark": "海水浴場への道"
      },
      "type": "Feature"
    },
    {
      "geometry": {
        "coordinates": [
          140.019687,
          35.039556
        ],
        "type": "Point"
      },
      "properties": {
        "bangumi_id": 10086,
        "bangumi_title": "四叶妹妹！",
        "ep_cut": "",
        "image_url": "",
        "location": "",
        "point_id": "fbc2b555",
        "point_name": "5巻P169P171",
        "remark": "海水浴場への道"
      },
      "type": "Feature"
    },
    {
      "geometry": {
        "coordinates": [
          140.019628,
          35.041691
        ],
        "type": "Point"
      },
      "properties": {
        "bangumi_id": 10086,
        "bangumi_title": "四叶妹妹！",
        "ep_cut": "",
        "image_url": "",
        "location": "",
        "point_id": "9e3bb130",
        "point_name": "5巻P203",
        "remark": "和田浦駅ホーム"
      },
      "type": "Feature"
    },
    {
      "geometry": {
        "coordinates": [
          139.603673,
          35.834602
        ],
        "type": "Point"
      },
      "properties": {
        "bangumi_id": 10086,
        "bangumi_title": "四叶妹妹！",
        "ep_cut": "",
        "image_url": "",
        "location": "",
        "point_id": "e07553e1",
        "point_name": "6巻表紙",
        "remark": "秋ヶ瀬橋交差点"
      },
      "type": "Feature"
    },
    {
      "geometry": {
        "coordinates": [
          139.610233,
          35.851927
        ],
        "type": "Point"
      },
      "properties": {
        "bangumi_id": 10086,
        "bangumi_title": "四叶妹妹！",
        "ep_cut": "",
        "image_url": "",
        "location": "",
        "point_id": "031fd07d",
        "point_name": "6巻P076",
        "remark": "たしかここらへん右側は加古川っぽい"
      },
      "type": "Feature"
    },
    {
      "geometry": {
        "coordinates": [
          134.806504,
          34.764487
        ],
        "type": "Point"
      },
      "properties": {
        "bangumi_id": 10086,
        "bangumi_title": "四叶妹妹！",
        "ep_cut": "",
        "image_url": "",
        "location": "",
        "point_id": "b42cea84",
        "point_name": "6巻P140",
        "remark": "真ん中の建物は高砂工事"
      },
      "type": "Feature"
    },
    {
      "geometry": {
        "coordinates": [
          134.807452,
          34.766519
        ],
        "type": "Point"
      },
      "properties": {
        "bangumi_id": 10086,
        "bangumi_title": "四叶妹妹！",
        "ep_cut": "",
        "image_url": "",
        "location": "",
        "point_id": "fe31a73b",
        "point_name": "6巻P141",
        "remark": "高砂側播州大橋たもと"
      },
      "type": "Feature"
    },
    {
      "geometry": {
        "coordinates": [
          134.80746,
          34.76688
        ],
        "type": "Point"
      },
      "properties": {
        "bangumi_id": 10086,
        "bangumi_title": "四叶妹妹！",
        "ep_cut": "",
        "image_url": "",
        "location": "",
        "point_id": "4268512b",
        "point_name": "6巻P143～P147",
        "remark": "高砂側播州大橋歩道橋"
      },
      "type": "Feature"
    },
    {
      "geometry": {
        "coordinates": [
          134.807956,
          34.766708
        ],
        "type": "Point"
      },
      "properties": {
        "bangumi_id": 10086,
        "bangumi_title": "四叶妹妹！",
        "ep_cut": "",
        "image_url": "",
        "location": "",
        "point_id": "7b6eb125",
        "point_name": "6巻P146",
        "remark": "播州大橋高砂市から加古川市方面"
      },
      "type": "Feature"
    },
    {
      "geometry": {
        "coordinates": [
          134.812202,
          34.763851
        ],
        "type": "Point"
      },
      "properties": {
        "bangumi_id": 10086,
        "bangumi_title": "四叶妹妹！",
        "ep_cut": "",
        "image_url": "",
        "location": "",
        "point_id": "764420a6",
        "point_name": "6巻P147～P149",
        "remark": "加古川市側播州大橋歩道橋"
      },
      "type": "Feature"
    },
    {
      "geometry": {
        "coordinates": [
          138.408548,
          35.922872
        ],
        "type": "Point"
      },
      "properties": {
        "bangumi_id": 10086,
        "bangumi_title": "四叶妹妹！",
        "ep_cut": "",
        "image_url": "",
        "location": "",
        "point_id": "25416232",
        "point_name": "7巻よつばとぼくじょう",
        "remark": "山梨県立まきば公園"
      },
      "type": "Feature"
    },
    {
      "geometry": {
        "coordinates": [
          138.466968,
          35.965129
        ],
        "type": "Point"
      },
      "properties": {
        "bangumi_id": 10086,
        "bangumi_title": "四叶妹妹！",
        "ep_cut": "",
        "image_url": "",
        "location": "",
        "point_id": "21a89f3d",
        "point_name": "7巻よつばとぼくじょう",
        "remark": "滝沢牧場"
      },
      "type": "Feature"
    },
    {
      "geometry": {
        "coordinates": [
          139.258112,
          35.547783
        ],
        "type": "Point"
      },
      "properties": {
        "bangumi_id": 10086,
        "bangumi_title": "四叶妹妹！",
        "ep_cut": "",
        "image_url": "",
        "location": "",
        "point_id": "19757049",
        "point_name": "7巻よつばとぼくじょう",
        "remark": "服部牧場"
      },
      "type": "Feature"
    },
    {
      "geometry": {
        "coordinates": [
          134.803383,
          34.743402
        ],
        "type": "Point"
      },
      "properties": {
        "bangumi_id": 10086,
        "bangumi_title": "四叶妹妹！",
        "ep_cut": "",
        "image_url": "",
        "location": "",
        "point_id": "752b3f0a",
        "point_name": "8巻P183～188",
        "remark": "高砂神社"
      },
      "type": "Feature"
    },
    {
      "geometry": {
        "coordinates": [
          139.578058,
          35.749386
        ],
        "type": "Point"
      },
      "properties": {
        "bangumi_id": 10086,
        "bangumi_title": "四叶妹妹！",
        "ep_cut": "",
        "image_url": "",
        "location": "",
        "point_id": "23137aea",
        "point_name": "8巻P191",
        "remark": "大泉学園駅保谷駅間"
      },
      "type": "Feature"
    },
    {
      "geometry": {
        "coordinates": [
          139.607681,
          35.741335
        ],
        "type": "Point"
      },
      "properties": {
        "bangumi_id": 10086,
        "bangumi_title": "四叶妹妹！",
        "ep_cut": "",
        "image_url": "",
        "location": "",
        "point_id": "82158595",
        "point_name": "8巻P200",
        "remark": "和田掘公園反転"
      },
      "type": "Feature"
    },
    {
      "geometry": {
        "coordinates": [
          139.598621,
          35.738314
        ],
        "type": "Point"
      },
      "properties": {
        "bangumi_id": 10086,
        "bangumi_title": "四叶妹妹！",
        "ep_cut": "",
        "image_url": "",
        "location": "",
        "point_id": "ff05704d",
        "point_name": "8巻P200～202",
        "remark": "？三宝寺池前"
      },
      "type": "Feature"
    },
    {
      "geometry": {
        "coordinates": [
          139.599049,
          35.738009
        ],
        "type": "Point"
      },
      "properties": {
        "bangumi_id": 10086,
        "bangumi_title": "四叶妹妹！",
        "ep_cut": "",
        "image_url": "",
        "location": "",
        "point_id": "f13c3bac",
        "point_name": "8巻P203",
        "remark": "石神井公園反転"
      },
      "type": "Feature"
    },
    {
      "geometry": {
        "coordinates": [
          139.604945,
          35.739481
        ],
        "type": "Point"
      },
      "properties": {
        "bangumi_id": 10086,
        "bangumi_title": "四叶妹妹！",
        "ep_cut": "",
        "image_url": "",
        "location": "",
        "point_id": "2fb3ae70",
        "point_name": "8巻P206～P214",
        "remark": "石神井公園くつろぎ広場どんぐり拾ってんのはここら辺か"
      },
      "type": "Feature"
    },
    {
      "geometry": {
        "coordinates": [
          139.379398,
          35.810224
        ],
        "type": "Point"
      },
      "properties": {
        "bangumi_id": 10086,
        "bangumi_title": "四叶妹妹！",
        "ep_cut": "",
        "image_url": "",
        "location": "",
        "point_id": "46f29f2e",
        "point_name": "9巻よつばとジュラルミン",
        "remark": "三井アウトレットパーク入間P037下段の駐車場　反転P038ウエストプラザゲート　反転P038P039はそのままP041Diffusione Tessile       HUNTING WORLDP058センタープラザ噴水"
      },
      "type": "Feature"
    },
    {
      "geometry": {
        "coordinates": [
          139.609606,
          35.74309
        ],
        "type": "Point"
      },
      "properties": {
        "bangumi_id": 10086,
        "bangumi_title": "四叶妹妹！",
        "ep_cut": "",
        "image_url": "",
        "location": "",
        "point_id": "8d00258f",
        "point_name": "9巻P125",
        "remark": "練馬高野台２号踏切高架化でお亡くなり"
      },
      "type": "Feature"
    },
    {
      "geometry": {
        "coordinates": [
          136.529661,
          34.881123
        ],
        "type": "Point"
      },
      "properties": {
        "bangumi_id": 10086,
        "bangumi_title": "四叶妹妹！",
        "ep_cut": "",
        "image_url": "",
        "location": "",
        "point_id": "ef8deb68",
        "point_name": "9巻P162",
        "remark": "鈴鹿高校大学前"
      },
      "type": "Feature"
    },
    {
      "geometry": {
        "coordinates": [
          136.52889,
          34.882419
        ],
        "type": "Point"
      },
      "properties": {
        "bangumi_id": 10086,
        "bangumi_title": "四叶妹妹！",
        "ep_cut": "",
        "image_url": "",
        "location": "",
        "point_id": "f1f23664",
        "point_name": "9巻P163～P222",
        "remark": "鈴鹿川河川敷鈴鹿バルーンフェスティバル他のモデル栃木、渡良瀬"
      },
      "type": "Feature"
    },
    {
      "geometry": {
        "coordinates": [
          139.653705,
          36.254736
        ],
        "type": "Point"
      },
      "properties": {
        "bangumi_id": 10086,
        "bangumi_title": "四叶妹妹！",
        "ep_cut": "",
        "image_url": "",
        "location": "",
        "point_id": "3801fab5",
        "point_name": "9巻P176",
        "remark": "？藤岡渡良瀬運動公園鉄塔"
      },
      "type": "Feature"
    },
    {
      "geometry": {
        "coordinates": [
          134.808811,
          34.766382
        ],
        "type": "Point"
      },
      "properties": {
        "bangumi_id": 10086,
        "bangumi_title": "四叶妹妹！",
        "ep_cut": "",
        "image_url": "",
        "location": "",
        "point_id": "a59a4ed5",
        "point_name": "10巻P093",
        "remark": "播州大橋イオン方面　反転"
      },
      "type": "Feature"
    },
    {
      "geometry": {
        "coordinates": [
          134.806634,
          34.76475
        ],
        "type": "Point"
      },
      "properties": {
        "bangumi_id": 10086,
        "bangumi_title": "四叶妹妹！",
        "ep_cut": "",
        "image_url": "",
        "location": "",
        "point_id": "212cbf1f",
        "point_name": "10巻P094",
        "remark": "右の建物は高砂工事"
      },
      "type": "Feature"
    },
    {
      "geometry": {
        "coordinates": [
          139.607825,
          35.743495
        ],
        "type": "Point"
      },
      "properties": {
        "bangumi_id": 10086,
        "bangumi_title": "四叶妹妹！",
        "ep_cut": "",
        "image_url": "",
        "location": "",
        "point_id": "43d678b1",
        "point_name": "10巻P155",
        "remark": "練馬高野台３号踏切高架化工事でお亡くなり"
      },
      "type": "Feature"
    },
    {
      "geometry": {
        "coordinates": [
          134.800588,
          34.747962
        ],
        "type": "Point"
      },
      "properties": {
        "bangumi_id": 10086,
        "bangumi_title": "四叶妹妹！",
        "ep_cut": "",
        "image_url": "",
        "location": "",
        "point_id": "d869a045",
        "point_name": "10巻P157",
        "remark": "極楽寺"
      },
      "type": "Feature"
    },
    {
      "geometry": {
        "coordinates": [
          134.800264,
          34.747142
        ],
        "type": "Point"
      },
      "properties": {
        "bangumi_id": 10086,
        "bangumi_title": "四叶妹妹！",
        "ep_cut": "",
        "image_url": "",
        "location": "",
        "point_id": "1c7d96bb",
        "point_name": "10巻P158～P166",
        "remark": "十輪寺"
      },
      "type": "Feature"
    },
    {
      "geometry": {
        "coordinates": [
          139.586882,
          35.755711
        ],
        "type": "Point"
      },
      "properties": {
        "bangumi_id": 10086,
        "bangumi_title": "四叶妹妹！",
        "ep_cut": "",
        "image_url": "",
        "location": "",
        "point_id": "0a4057d4",
        "point_name": "10巻P167",
        "remark": "白子川前田橋"
      },
      "type": "Feature"
    },
    {
      "geometry": {
        "coordinates": [
          139.606118,
          35.740598
        ],
        "type": "Point"
      },
      "properties": {
        "bangumi_id": 10086,
        "bangumi_title": "四叶妹妹！",
        "ep_cut": "",
        "image_url": "",
        "location": "",
        "point_id": "55864948",
        "point_name": "10巻P220",
        "remark": "石神井公園前ドミノピザ反転"
      },
      "type": "Feature"
    },
    {
      "geometry": {
        "coordinates": [
          134.79781,
          34.781188
        ],
        "type": "Point"
      },
      "properties": {
        "bangumi_id": 10086,
        "bangumi_title": "四叶妹妹！",
        "ep_cut": "",
        "image_url": "",
        "location": "",
        "point_id": "212759bf",
        "point_name": "11巻P102",
        "remark": "高砂市総合体育館脇から生石神社"
      },
      "type": "Feature"
    },
    {
      "geometry": {
        "coordinates": [
          134.797678,
          34.78325
        ],
        "type": "Point"
      },
      "properties": {
        "bangumi_id": 10086,
        "bangumi_title": "四叶妹妹！",
        "ep_cut": "",
        "image_url": "",
        "location": "",
        "point_id": "fbecbee0",
        "point_name": "11巻P102",
        "remark": "法華山谷川なんとか橋"
      },
      "type": "Feature"
    },
    {
      "geometry": {
        "coordinates": [
          134.795433,
          34.782488
        ],
        "type": "Point"
      },
      "properties": {
        "bangumi_id": 10086,
        "bangumi_title": "四叶妹妹！",
        "ep_cut": "",
        "image_url": "",
        "location": "",
        "point_id": "d7db025f",
        "point_name": "11巻P103～",
        "remark": "生石神社階段のモデルがここ境内は違うらしい1巻の階段もこことか"
      },
      "type": "Feature"
    },
    {
      "geometry": {
        "coordinates": [
          135.83396,
          35.12135
        ],
        "type": "Point"
      },
      "properties": {
        "bangumi_id": 10086,
        "bangumi_title": "四叶妹妹！",
        "ep_cut": "",
        "image_url": "",
        "location": "",
        "point_id": "5e1e9dff",
        "point_name": "2006カレンダー01月",
        "remark": "宝泉院"
      },
      "type": "Feature"
    },
    {
      "geometry": {
        "coordinates": [
          136.594986,
          34.839141
        ],
        "type": "Point"
      },
      "properties": {
        "bangumi_id": 10086,
        "bangumi_title": "四叶妹妹！",
        "ep_cut": "",
        "image_url": "",
        "location": "",
        "point_id": "a6daa6d0",
        "point_name": "2006カレンダー05月",
        "remark": "近鉄名古屋線"
      },
      "type": "Feature"
    },
    {
      "geometry": {
        "coordinates": [
          139.731411,
          35.659665
        ],
        "type": "Point"
      },
      "properties": {
        "bangumi_id": 10086,
        "bangumi_title": "四叶妹妹！",
        "ep_cut": "",
        "image_url": "",
        "location": "",
        "point_id": "53f7c95f",
        "point_name": "2007カレンダー 表紙",
        "remark": "たぶんテレビ朝日屋上から東京タワー方面"
      },
      "type": "Feature"
    },
    {
      "geometry": {
        "coordinates": [
          136.598779,
          34.836381
        ],
        "type": "Point"
      },
      "properties": {
        "bangumi_id": 10086,
        "bangumi_title": "四叶妹妹！",
        "ep_cut": "",
        "image_url": "",
        "location": "",
        "point_id": "38261f63",
        "point_name": "2007カレンダー07月",
        "remark": "白子海岸ここら辺っだったような"
      },
      "type": "Feature"
    },
    {
      "geometry": {
        "coordinates": [
          136.529136,
          34.882842
        ],
        "type": "Point"
      },
      "properties": {
        "bangumi_id": 10086,
        "bangumi_title": "四叶妹妹！",
        "ep_cut": "",
        "image_url": "",
        "location": "",
        "point_id": "429bc868",
        "point_name": "2007カレンダー08月",
        "remark": "鈴鹿川河川敷"
      },
      "type": "Feature"
    },
    {
      "geometry": {
        "coordinates": [
          136.59287,
          34.839866
        ],
        "type": "Point"
      },
      "properties": {
        "bangumi_id": 10086,
        "bangumi_title": "四叶妹妹！",
        "ep_cut": "",
        "image_url": "",
        "location": "",
        "point_id": "443dd84e",
        "point_name": "2007カレンダー12月",
        "remark": "中江島南交差点第三銀行白子中央支店"
      },
      "type": "Feature"
    },
    {
      "geometry": {
        "coordinates": [
          135.774112,
          34.977155
        ],
        "type": "Point"
      },
      "properties": {
        "bangumi_id": 10086,
        "bangumi_title": "四叶妹妹！",
        "ep_cut": "",
        "image_url": "",
        "location": "",
        "point_id": "01487f03",
        "point_name": "2008カレンダー01月",
        "remark": "東福寺"
      },
      "type": "Feature"
    },
    {
      "geometry": {
        "coordinates": [
          139.677622,
          35.650889
        ],
        "type": "Point"
      },
      "properties": {
        "bangumi_id": 10086,
        "bangumi_title": "四叶妹妹！",
        "ep_cut": "",
        "image_url": "",
        "location": "",
        "point_id": "567cbd12",
        "point_name": "2008カレンダー03月",
        "remark": "三宿池尻交差点付近"
      },
      "type": "Feature"
    },
    {
      "geometry": {
        "coordinates": [
          136.616833,
          34.869395
        ],
        "type": "Point"
      },
      "properties": {
        "bangumi_id": 10086,
        "bangumi_title": "四叶妹妹！",
        "ep_cut": "",
        "image_url": "",
        "location": "",
        "point_id": "231a324b",
        "point_name": "2008カレンダー09月",
        "remark": "伊勢若松駅一番線ホーム"
      },
      "type": "Feature"
    },
    {
      "geometry": {
        "coordinates": [
          136.597019,
          34.836894
        ],
        "type": "Point"
      },
      "properties": {
        "bangumi_id": 10086,
        "bangumi_title": "四叶妹妹！",
        "ep_cut": "",
        "image_url": "",
        "location": "",
        "point_id": "4e150097",
        "point_name": "2008カレンダー10月",
        "remark": "江島若宮八幡神社前"
      },
      "type": "Feature"
    },
    {
      "geometry": {
        "coordinates": [
          136.598488,
          34.836416
        ],
        "type": "Point"
      },
      "properties": {
        "bangumi_id": 10086,
        "bangumi_title": "四叶妹妹！",
        "ep_cut": "",
        "image_url": "",
        "location": "",
        "point_id": "135db1b8",
        "point_name": "2008カレンダー12月",
        "remark": "白子海岸　江島公園"
      },
      "type": "Feature"
    },
    {
      "geometry": {
        "coordinates": [
          139.607595,
          35.743188
        ],
        "type": "Point"
      },
      "properties": {
        "bangumi_id": 10086,
        "bangumi_title": "四叶妹妹！",
        "ep_cut": "",
        "image_url": "",
        "location": "",
        "point_id": "a43cda3f",
        "point_name": "2010カレンダー 表紙",
        "remark": "道路拡幅のため消滅"
      },
      "type": "Feature"
    },
    {
      "geometry": {
        "coordinates": [
          139.694407,
          35.648432
        ],
        "type": "Point"
      },
      "properties": {
        "bangumi_id": 10086,
        "bangumi_title": "四叶妹妹！",
        "ep_cut": "",
        "image_url": "",
        "location": "",
        "point_id": "b75aab44",
        "point_name": "2010カレンダー04月",
        "remark": "目黒川千歳橋"
      },
      "type": "Feature"
    },
    {
      "geometry": {
        "coordinates": [
          139.607469,
          35.742925
        ],
        "type": "Point"
      },
      "properties": {
        "bangumi_id": 10086,
        "bangumi_title": "四叶妹妹！",
        "ep_cut": "",
        "image_url": "",
        "location": "",
        "point_id": "ca862e7d",
        "point_name": "2010カレンダー06月",
        "remark": "道路拡幅のため消滅"
      },
      "type": "Feature"
    },
    {
      "geometry": {
        "coordinates": [
          139.603202,
          35.739414
        ],
        "type": "Point"
      },
      "properties": {
        "bangumi_id": 10086,
        "bangumi_title": "四叶妹妹！",
        "ep_cut": "",
        "image_url": "",
        "location": "",
        "point_id": "dff49dab",
        "point_name": "2010カレンダー08月",
        "remark": "石神井公園"
      },
      "type": "Feature"
    },
    {
      "geometry": {
        "coordinates": [
          139.607442,
          35.743314
        ],
        "type": "Point"
      },
      "properties": {
        "bangumi_id": 10086,
        "bangumi_title": "四叶妹妹！",
        "ep_cut": "",
        "image_url": "",
        "location": "",
        "point_id": "62a03e63",
        "point_name": "2010カレンダー11月",
        "remark": "工事の衝立もう無いかも"
      },
      "type": "Feature"
    },
    {
      "geometry": {
        "coordinates": [
          139.700796,
          35.648439
        ],
        "type": "Point"
      },
      "properties": {
        "bangumi_id": 10086,
        "bangumi_title": "四叶妹妹！",
        "ep_cut": "",
        "image_url": "",
        "location": "",
        "point_id": "978e5313",
        "point_name": "2010カレンダー12月",
        "remark": "ニーム"
      },
      "type": "Feature"
    },
    {
      "geometry": {
        "coordinates": [
          136.599387,
          34.842529
        ],
        "type": "Point"
      },
      "properties": {
        "bangumi_id": 10086,
        "bangumi_title": "四叶妹妹！",
        "ep_cut": "",
        "image_url": "",
        "location": "",
        "point_id": "e53f9017",
        "point_name": "2011カレンダー02月",
        "remark": "近鉄名古屋線確かここら辺"
      },
      "type": "Feature"
    },
    {
      "geometry": {
        "coordinates": [
          136.593805,
          34.83085
        ],
        "type": "Point"
      },
      "properties": {
        "bangumi_id": 10086,
        "bangumi_title": "四叶妹妹！",
        "ep_cut": "",
        "image_url": "",
        "location": "",
        "point_id": "07500bfe",
        "point_name": "2011カレンダー03月",
        "remark": "白子港"
      },
      "type": "Feature"
    },
    {
      "geometry": {
        "coordinates": [
          139.642243,
          35.451987
        ],
        "type": "Point"
      },
      "properties": {
        "bangumi_id": 10086,
        "bangumi_title": "四叶妹妹！",
        "ep_cut": "",
        "image_url": "",
        "location": "",
        "point_id": "dccd082b",
        "point_name": "2011カレンダー12月",
        "remark": "アートリンクin横浜赤レンガ倉庫"
      },
      "type": "Feature"
    },
    {
      "geometry": {
        "coordinates": [
          139.648418,
          35.608346
        ],
        "type": "Point"
      },
      "properties": {
        "bangumi_id": 10086,
        "bangumi_title": "四叶妹妹！",
        "ep_cut": "",
        "image_url": "",
        "location": "",
        "point_id": "7901fec5",
        "point_name": "2012カレンダー05月",
        "remark": "大井町線等々力駅"
      },
      "type": "Feature"
    },
    {
      "geometry": {
        "coordinates": [
          139.704518,
          39.942581
        ],
        "type": "Point"
      },
      "properties": {
        "bangumi_id": 10086,
        "bangumi_title": "四叶妹妹！",
        "ep_cut": "",
        "image_url": "",
        "location": "",
        "point_id": "c186fa67",
        "point_name": "2012カレンダー08月",
        "remark": "男鹿水族館しろくま"
      },
      "type": "Feature"
    },
    {
      "geometry": {
        "coordinates": [
          135.840164,
          34.684649
        ],
        "type": "Point"
      },
      "properties": {
        "bangumi_id": 10086,
        "bangumi_title": "四叶妹妹！",
        "ep_cut": "",
        "image_url": "",
        "location": "",
        "point_id": "4e670a50",
        "point_name": "2012カレンダー01月",
        "remark": "たぶん奈良公園内2011年6月はどうだろうか"
      },
      "type": "Feature"
    },
    {
      "geometry": {
        "coordinates": [
          -157.830526,
          21.297061
        ],
        "type": "Point"
      },
      "properties": {
        "bangumi_id": 10086,
        "bangumi_title": "四叶妹妹！",
        "ep_cut": "",
        "image_url": "",
        "location": "",
        "point_id": "83a95d3e",
        "point_name": "2013カレンダー06月",
        "remark": "IDEAL KEY SHOP"
      },
      "type": "Feature"
    },
    {
      "geometry": {
        "coordinates": [
          -157.829709,
          21.296841
        ],
        "type": "Point"
      },
      "properties": {
        "bangumi_id": 10086,
        "bangumi_title": "四叶妹妹！",
        "ep_cut": "",
        "image_url": "",
        "location": "",
        "point_id": "0fd0a45f",
        "point_name": "2013カレンダー10月",
        "remark": "Connie Gayle Beauty Center‎"
      },
      "type": "Feature"
    },
    {
      "geometry": {
        "coordinates": [
          -157.825502,
          21.27547
        ],
        "type": "Point"
      },
      "properties": {
        "bangumi_id": 10086,
        "bangumi_title": "四叶妹妹！",
        "ep_cut": "",
        "image_url": "",
        "location": "",
        "point_id": "860fb040",
        "point_name": "2013カレンダー08月",
        "remark": "Waikiki BeachWaikiki City Police Station"
      },
      "type": "Feature"
    },
    {
      "geometry": {
        "coordinates": [
          -157.832807,
          21.295324
        ],
        "type": "Point"
      },
      "properties": {
        "bangumi_id": 10086,
        "bangumi_title": "四叶妹妹！",
        "ep_cut": "",
        "image_url": "",
        "location": "",
        "point_id": "ae7da93b",
        "point_name": "2013カレンダー04月",
        "remark": "Hawaii Duck Tours車はたぶんビーチで見られるのか？"
      },
      "type": "Feature"
    },
    {
      "geometry": {
        "coordinates": [
          -157.82302,
          21.279086
        ],
        "type": "Point"
      },
      "properties": {
        "bangumi_id": 10086,
        "bangumi_title": "四叶妹妹！",
        "ep_cut": "",
        "image_url": "",
        "location": "",
        "point_id": "6ea9870a",
        "point_name": "2013カレンダー05月",
        "remark": "waikiki sandvilla hotel‎"
      },
      "type": "Feature"
    },
    {
      "geometry": {
        "coordinates": [
          -157.824405,
          21.277555
        ],
        "type": "Point"
      },
      "properties": {
        "bangumi_id": 10086,
        "bangumi_title": "四叶妹妹！",
        "ep_cut": "",
        "image_url": "",
        "location": "",
        "point_id": "3cecbdc7",
        "point_name": "2013カレンダー11月",
        "remark": "Kuhio Ave + Kaiulani Ave"
      },
      "type": "Feature"
    },
    {
      "geometry": {
        "coordinates": [
          -157.852464,
          21.294068
        ],
        "type": "Point"
      },
      "properties": {
        "bangumi_id": 10086,
        "bangumi_title": "四叶妹妹！",
        "ep_cut": "",
        "image_url": "",
        "location": "",
        "point_id": "d949be05",
        "point_name": "2013カレンダー01月",
        "remark": ""
      },
      "type": "Feature"
    },
    {
      "geometry": {
        "coordinates": [
          139.605431,
          35.744614
        ],
        "type": "Point"
      },
      "properties": {
        "bangumi_id": 10086,
        "bangumi_title": "四叶妹妹！",
        "ep_cut": "",
        "image_url": "",
        "location": "",
        "point_id": "a78326dc",
        "point_name": "12巻P074",
        "remark": "毎日新聞石神井公園販売所前"
      },
      "type": "Feature"
    },
    {
      "geometry": {
        "coordinates": [
          139.625743,
          35.758265
        ],
        "type": "Point"
      },
      "properties": {
        "bangumi_id": 10086,
        "bangumi_title": "四叶妹妹！",
        "ep_cut": "",
        "image_url": "",
        "location": "",
        "point_id": "dc08eb75",
        "point_name": "12巻P080",
        "remark": "光が丘七丁目交差点 人道橋から"
      },
      "type": "Feature"
    },
    {
      "geometry": {
        "coordinates": [
          138.584107,
          37.02104
        ],
        "type": "Point"
      },
      "properties": {
        "bangumi_id": 10086,
        "bangumi_title": "四叶妹妹！",
        "ep_cut": "",
        "image_url": "",
        "location": "",
        "point_id": "12b40b5f",
        "point_name": "12巻",
        "remark": "津南キャンプ場"
      },
      "type": "Feature"
    },
    {
      "geometry": {
        "coordinates": [
          137.476623,
          36.075868
        ],
        "type": "Point"
      },
      "properties": {
        "bangumi_id": 10086,
        "bangumi_title": "四叶妹妹！",
        "ep_cut": "",
        "image_url": "",
        "location": "",
        "point_id": "1ef877f0",
        "point_name": "12巻",
        "remark": "南乗鞍キャンプ場"
      },
      "type": "Feature"
    },
    {
      "geometry": {
        "coordinates": [
          138.476862,
          36.541493
        ],
        "type": "Point"
      },
      "properties": {
        "bangumi_id": 10086,
        "bangumi_title": "四叶妹妹！",
        "ep_cut": "",
        "image_url": "",
        "location": "",
        "point_id": "17fc3c76",
        "point_name": "12巻",
        "remark": "嬬恋キャンプ場"
      },
      "type": "Feature"
    },
    {
      "geometry": {
        "coordinates": [
          24.952918,
          60.167782
        ],
        "type": "Point"
      },
      "properties": {
        "bangumi_id": 10086,
        "bangumi_title": "四叶妹妹！",
        "ep_cut": "",
        "image_url": "",
        "location": "",
        "point_id": "a12626dd",
        "point_name": "2014カレンダー表紙",
        "remark": "Kauppatori, Helsinki　青空市場"
      },
      "type": "Feature"
    },
    {
      "geometry": {
        "coordinates": [
          24.929652,
          60.162888
        ],
        "type": "Point"
      },
      "properties": {
        "bangumi_id": 10086,
        "bangumi_title": "四叶妹妹！",
        "ep_cut": "",
        "image_url": "",
        "location": "",
        "point_id": "4565fd1c",
        "point_name": "2014カレンダー06月",
        "remark": "KAUPPAHALLI SALUHALLHietalahden Tori　フリーマーケット"
      },
      "type": "Feature"
    },
    {
      "geometry": {
        "coordinates": [
          24.941309,
          60.170995
        ],
        "type": "Point"
      },
      "properties": {
        "bangumi_id": 10086,
        "bangumi_title": "四叶妹妹！",
        "ep_cut": "",
        "image_url": "",
        "location": "",
        "point_id": "d5c98c31",
        "point_name": "2014カレンダー10月",
        "remark": "Helsingin rautatieasemaヘルシンキ中央駅"
      },
      "type": "Feature"
    },
    {
      "geometry": {
        "coordinates": [
          139.693842,
          35.651255
        ],
        "type": "Point"
      },
      "properties": {
        "bangumi_id": 10086,
        "bangumi_title": "四叶妹妹！",
        "ep_cut": "",
        "image_url": "",
        "location": "",
        "point_id": "84778051",
        "point_name": "FiND YOTSUBA　表紙",
        "remark": "i"
      },
      "type": "Feature"
    }
  ],
  "type": "FeatureCollection"
}