{
  "features": [
    {
      "geometry": {
        "coordinates": [
          139.519348,
          35.77123
        ],
        "type": "Point"
      },
      "properties": {
        "bangumi_id": 104614,
        "bangumi_title": "孤独的美食家 第四季",
        "ep_cut": "",
        "image_url": "",
        "location": "シーズン4",
        "point_id": "fcd9a055",
        "point_name": "松山１丁目９−１８",
        "remark": ""
      },
      "type": "Feature"
    },
    {
      "geometry": {
        "coordinates": [
          139.759178,
          35.668114
        ],
        "type": "Point"
      },
      "properties": {
        "bangumi_id": 104614,
        "bangumi_title": "孤独的美食家 第四季",
        "ep_cut": "",
        "image_url": "",
        "location": "シーズン4",
        "point_id": "bdc08f12",
        "point_name": "銀座ナイン1号館",
        "remark": ""
      },
      "type": "Feature"
    },
    {
      "geometry": {
        "coordinates": [
          139.057869,
          35.243133
        ],
        "type": "Point"
      },
      "properties": {
        "bangumi_id": 104614,
        "bangumi_title": "孤独的美食家 第四季",
        "ep_cut": "",
        "image_url": "",
        "location": "シーズン4",
        "point_id": "721fab82",
        "point_name": "宮ノ下２９６",
        "remark": ""
      },
      "type": "Feature"
    },
    {
      "geometry": {
        "coordinates": [
          139.372891,
          35.687433
        ],
        "type": "Point"
      },
      "properties": {
        "bangumi_id": 104614,
        "bangumi_title": "孤独的美食家 第四季",
        "ep_cut": "",
        "image_url": "",
        "location": "シーズン4",
        "point_id": "423d970e",
        "point_name": "小宮町８６３−３",
        "remark": ""
      },
      "type": "Feature"
    },
    {
      "geometry": {
        "coordinates": [
          136.997764,
          34.703176
        ],
        "type": "Point"
      },
      "properties": {
        "bangumi_id": 104614,
        "bangumi_title": "孤独的美食家 第四季",
        "ep_cut": "",
        "image_url": "",
        "location": "シーズン4",
        "point_id": "0b1822fe",
        "point_name": "乙姫",
        "remark": ""
      },
      "type": "Feature"
    },
    {
      "geometry": {
        "coordinates": [
          139.810859,
          35.668878
        ],
        "type": "Point"
      },
      "properties": {
        "bangumi_id": 104614,
        "bangumi_title": "孤独的美食家 第四季",
        "ep_cut": "",
        "image_url": "",
        "location": "シーズン4",
        "point_id": "4147a1a1",
        "point_name": "タンドールバル カマルプール",
        "remark": ""
      },
      "type": "Feature"
    },
    {
      "geometry": {
        "coordinates": [
          139.783793,
          35.70229
        ],
        "type": "Point"
      },
      "properties": {
        "bangumi_id": 104614,
        "bangumi_title": "孤独的美食家 第四季",
        "ep_cut": "",
        "image_url": "",
        "location": "シーズン4",
        "point_id": "2c44b7c4",
        "point_name": "鳥越１丁目１−５",
        "remark": ""
      },
      "type": "Feature"
    },
    {
      "geometry": {
        "coordinates": [
          139.639078,
          35.70488
        ],
        "type": "Point"
      },
      "properties": {
        "bangumi_id": 104614,
        "bangumi_title": "孤独的美食家 第四季",
        "ep_cut": "",
        "image_url": "",
        "location": "シーズン4",
        "point_id": "0bf57632",
        "point_name": "ハウスポート阿佐谷ビル 1f",
        "remark": ""
      },
      "type": "Feature"
    },
    {
      "geometry": {
        "coordinates": [
          139.713249,
          35.670834
        ],
        "type": "Point"
      },
      "properties": {
        "bangumi_id": 104614,
        "bangumi_title": "孤独的美食家 第四季",
        "ep_cut": "",
        "image_url": "",
        "location": "シーズン4",
        "point_id": "372a842a",
        "point_name": "神宮前３丁目７−５",
        "remark": ""
      },
      "type": "Feature"
    },
    {
      "geometry": {
        "coordinates": [
          130.41066,
          33.598329
        ],
        "type": "Point"
      },
      "properties": {
        "bangumi_id": 104614,
        "bangumi_title": "孤独的美食家 第四季",
        "ep_cut": "",
        "image_url": "",
        "location": "シーズン4",
        "point_id": "ec0a3bcb",
        "point_name": "上呉服町１０−２４",
        "remark": ""
      },
      "type": "Feature"
    },
    {
      "geometry": {
        "coordinates": [
          130.406328,
          33.592334
        ],
        "type": "Point"
      },
      "properties": {
        "bangumi_id": 104614,
        "bangumi_title": "孤独的美食家 第四季",
        "ep_cut": "",
        "image_url": "",
        "location": "シーズン4",
        "point_id": "f67ae0f1",
        "point_name": "原田中洲ビル",
        "remark": ""
      },
      "type": "Feature"
    },
    {
      "geometry": {
        "coordinates": [
          139.703969,
          35.681073
        ],
        "type": "Point"
      },
      "properties": {
        "bangumi_id": 104614,
        "bangumi_title": "孤独的美食家 第四季",
        "ep_cut": 9,
        "image_url": "https://w.junreimap.com/images/points/104614/kwkt8d_1748274410934.jpg",
        "location": "シーズン4",
        "point_id": "kwkt8d",
        "point_name": "鉄板中華 青山シャンウェイ",
        "remark": "第9話 渋谷区神宮前→千駄ヶ谷　五郎’sセレクション：蒸し鶏のネギ醤油（もも）、天使の海老ロンジン茶炒め（龙井虾仁）、毛スペアリブ、黒チャーハン、麻辣湯"
      },
      "type": "Feature"
    },
    {
      "geometry": {
        "coordinates": [
          139.810514,
          35.65789
        ],
        "type": "Point"
      },
      "properties": {
        "bangumi_id": 104614,
        "bangumi_title": "孤独的美食家 第四季",
        "ep_cut": 10,
        "image_url": "https://w.junreimap.com/images/points/104614/fdc42050_1748273801200.jpg",
        "location": "シーズン4",
        "point_id": "fdc42050",
        "point_name": "枝川３丁目８−８",
        "remark": "第10話"
      },
      "type": "Feature"
    },
    {
      "geometry": {
        "coordinates": [
          139.72026,
          35.562611
        ],
        "type": "Point"
      },
      "properties": {
        "bangumi_id": 104614,
        "bangumi_title": "孤独的美食家 第四季",
        "ep_cut": 11,
        "image_url": "https://w.junreimap.com/images/points/104614/95d3cb77_1748273626117.jpg",
        "location": "シーズン4",
        "point_id": "95d3cb77",
        "point_name": "２６",
        "remark": "第11話　五郎’sセレクション：海老の生春巻き、揚げ春巻き、肉入りおもち、とりおこわ、レモングラスのビーフン（ブン・ボー・フエ）、ベトナムコーヒー"
      },
      "type": "Feature"
    },
    {
      "geometry": {
        "coordinates": [
          139.708504,
          35.647914
        ],
        "type": "Point"
      },
      "properties": {
        "bangumi_id": 104614,
        "bangumi_title": "孤独的美食家 第四季",
        "ep_cut": 12,
        "image_url": "https://w.junreimap.com/images/points/104614/69b28404_1748274111344.jpg",
        "location": "シーズン4",
        "point_id": "69b28404",
        "point_name": "恵比寿西１丁目７−１２",
        "remark": "第12話"
      },
      "type": "Feature"
    }
  ],
  "type": "FeatureCollection"
}