{
  "features": [
    {
      "geometry": {
        "coordinates": [
          139.649584,
          35.445878
        ],
        "type": "Point"
      },
      "properties": {
        "bangumi_id": 1048,
        "bangumi_title": "你所期望的永远",
        "ep_cut": "",
        "image_url": "https://w.junreimap.com/images/user/2171/bangumi/1048/points/swcu0sd22-1739670093680.jpg",
        "location": "",
        "point_id": "swcu0sd22",
        "point_name": "山下公園",
        "remark": ""
      },
      "type": "Feature"
    },
    {
      "geometry": {
        "coordinates": [
          139.643767,
          35.437834
        ],
        "type": "Point"
      },
      "properties": {
        "bangumi_id": 1048,
        "bangumi_title": "你所期望的永远",
        "ep_cut": "",
        "image_url": "https://w.junreimap.com/images/user/2171/bangumi/1048/points/swv2zhjti-1739709692625.jpg",
        "location": "",
        "point_id": "swv2zhjti",
        "point_name": "石川町駅前郵便局",
        "remark": ""
      },
      "type": "Feature"
    },
    {
      "geometry": {
        "coordinates": [
          139.636403,
          35.455069
        ],
        "type": "Point"
      },
      "properties": {
        "bangumi_id": 1048,
        "bangumi_title": "你所期望的永远",
        "ep_cut": "",
        "image_url": "https://w.junreimap.com/images/user/2171/bangumi/1048/points/swvr93f3q-1739711107881.jpg",
        "location": "",
        "point_id": "swvr93f3q",
        "point_name": "よこはまコスモワールド",
        "remark": ""
      },
      "type": "Feature"
    },
    {
      "geometry": {
        "coordinates": [
          139.633867,
          35.458234
        ],
        "type": "Point"
      },
      "properties": {
        "bangumi_id": 1048,
        "bangumi_title": "你所期望的永远",
        "ep_cut": "",
        "image_url": "https://w.junreimap.com/images/user/2171/bangumi/1048/points/swvuk2dcz-1739711318830.jpg",
        "location": "",
        "point_id": "swvuk2dcz",
        "point_name": "ロイヤルホストみなとみらい店",
        "remark": ""
      },
      "type": "Feature"
    },
    {
      "geometry": {
        "coordinates": [
          139.13849,
          35.202722
        ],
        "type": "Point"
      },
      "properties": {
        "bangumi_id": 1048,
        "bangumi_title": "你所期望的永远",
        "ep_cut": "",
        "image_url": "https://w.junreimap.com/images/user/2171/bangumi/1048/points/swvx2fkdn-1739711461932.jpg",
        "location": "",
        "point_id": "swvx2fkdn",
        "point_name": "根府川駅",
        "remark": ""
      },
      "type": "Feature"
    },
    {
      "geometry": {
        "coordinates": [
          139.212749,
          35.280807
        ],
        "type": "Point"
      },
      "properties": {
        "bangumi_id": 1048,
        "bangumi_title": "你所期望的永远",
        "ep_cut": "",
        "image_url": "https://w.junreimap.com/images/user/2171/bangumi/1048/points/swvyvbbd8-1739711572933.jpg",
        "location": "",
        "point_id": "swvyvbbd8",
        "point_name": "国府津駅",
        "remark": ""
      },
      "type": "Feature"
    },
    {
      "geometry": {
        "coordinates": [
          139.604568,
          35.437161
        ],
        "type": "Point"
      },
      "properties": {
        "bangumi_id": 1048,
        "bangumi_title": "你所期望的永远",
        "ep_cut": "",
        "image_url": "https://w.junreimap.com/images/user/2171/bangumi/1048/points/sww8ovp5d-1739712186569.jpg",
        "location": "",
        "point_id": "sww8ovp5d",
        "point_name": "清水ヶ丘公園のゆずの木",
        "remark": ""
      },
      "type": "Feature"
    },
    {
      "geometry": {
        "coordinates": [
          139.647739,
          35.447422
        ],
        "type": "Point"
      },
      "properties": {
        "bangumi_id": 1048,
        "bangumi_title": "你所期望的永远",
        "ep_cut": "",
        "image_url": "https://w.junreimap.com/images/user/2171/bangumi/1048/points/sww0oow6n-1739711720774.jpg",
        "location": "",
        "point_id": "sww0oow6n",
        "point_name": "山下公園",
        "remark": ""
      },
      "type": "Feature"
    },
    {
      "geometry": {
        "coordinates": [
          139.631612,
          35.450914
        ],
        "type": "Point"
      },
      "properties": {
        "bangumi_id": 1048,
        "bangumi_title": "你所期望的永远",
        "ep_cut": "",
        "image_url": "https://w.junreimap.com/images/user/2171/bangumi/1048/points/sww4ituik-1739711959256.jpg",
        "location": "",
        "point_id": "sww4ituik",
        "point_name": "桜木町駅",
        "remark": ""
      },
      "type": "Feature"
    }
  ],
  "type": "FeatureCollection"
}