{
  "features": [
    {
      "geometry": {
        "coordinates": [
          135.605797,
          34.222751
        ],
        "type": "Point"
      },
      "properties": {
        "bangumi_id": 108558,
        "bangumi_title": "零 ～濡鸦之巫女～",
        "ep_cut": "",
        "image_url": "https://w.junreimap.com/images/user/0/bangumi/108558/points/3p199ju-1755054650802.jpg",
        "location": "",
        "point_id": "3p199ju",
        "point_name": "高野山奥の院無縁塚",
        "remark": ""
      },
      "type": "Feature"
    },
    {
      "geometry": {
        "coordinates": [
          141.085345,
          41.326799
        ],
        "type": "Point"
      },
      "properties": {
        "bangumi_id": 108558,
        "bangumi_title": "零 ～濡鸦之巫女～",
        "ep_cut": "",
        "image_url": "https://w.junreimap.com/images/user/0/bangumi/108558/points/3p22ton-1755055917447.jpg",
        "location": "",
        "point_id": "3p22ton",
        "point_name": "極楽浜",
        "remark": ""
      },
      "type": "Feature"
    },
    {
      "geometry": {
        "coordinates": [
          141.087946,
          41.328485
        ],
        "type": "Point"
      },
      "properties": {
        "bangumi_id": 108558,
        "bangumi_title": "零 ～濡鸦之巫女～",
        "ep_cut": "",
        "image_url": "https://w.junreimap.com/images/user/0/bangumi/108558/points/3p28eo7-1755056141745.jpg",
        "location": "",
        "point_id": "3p28eo7",
        "point_name": "慈覚大師堂",
        "remark": ""
      },
      "type": "Feature"
    }
  ],
  "type": "FeatureCollection"
}