{
  "features": [
    {
      "geometry": {
        "coordinates": [
          116.405282,
          39.906944
        ],
        "type": "Point"
      },
      "properties": {
        "bangumi_id": 110781,
        "bangumi_title": "龙族Ⅱ : 悼亡者之瞳",
        "ep_cut": "第十八幕 迷宫 Maze",
        "image_url": "https://w.junreimap.com/images/user/0/bangumi/110781/points/h8p7bxw-1784541909297.webp",
        "location": "",
        "point_id": "h8p7bxw",
        "point_name": "王府井",
        "remark": "“师兄你累不累？”夏弥问。\n“没事，你有多重？一百斤？只是负重一百斤从王府井走到苹果园而已。”楚子航淡淡地说。"
      },
      "type": "Feature"
    },
    {
      "geometry": {
        "coordinates": [
          116.4127,
          39.914559
        ],
        "type": "Point"
      },
      "properties": {
        "bangumi_id": 110781,
        "bangumi_title": "龙族Ⅱ : 悼亡者之瞳",
        "ep_cut": "第十七幕 悲剧舞台 Tragedy stage",
        "image_url": "https://w.junreimap.com/images/user/0/bangumi/110781/points/h8piv6g-1784542456940.webp",
        "location": "",
        "point_id": "h8piv6g",
        "point_name": "北京丽晶酒店",
        "remark": "记不清楚了，路明非也不想再去想那些事，他只想赶快离开这里，不要在雨里一个人孤零零地走路，想找个暖和点的地方洗个澡，有杯热乎乎的东西喝。\n他们住在丽晶酒店，距离这里其实只有地铁一站路。\n"
      },
      "type": "Feature"
    },
    {
      "geometry": {
        "coordinates": [
          116.269781,
          39.990423
        ],
        "type": "Point"
      },
      "properties": {
        "bangumi_id": 110781,
        "bangumi_title": "龙族Ⅱ : 悼亡者之瞳",
        "ep_cut": "第十六幕 It's a Beautiful Day",
        "image_url": "https://w.junreimap.com/images/user/0/bangumi/110781/points/ha29sal-1784624294880.webp",
        "location": "",
        "point_id": "ha29sal",
        "point_name": "北京颐和园昆明湖南湖岛",
        "remark": "诺诺坐在长廊里，靠着一根柱子，眺望着浩瀚的昆明湖，喝着自己带进来的啤酒。湖对面就是万寿山，山顶是宏伟的佛香阁和排云殿。\n"
      },
      "type": "Feature"
    },
    {
      "geometry": {
        "coordinates": [
          116.27226,
          39.989236
        ],
        "type": "Point"
      },
      "properties": {
        "bangumi_id": 110781,
        "bangumi_title": "龙族Ⅱ : 悼亡者之瞳",
        "ep_cut": "第十六幕 It's a Beautiful Day",
        "image_url": "https://w.junreimap.com/images/user/0/bangumi/110781/points/ha2ioki-1784624597428.webp",
        "location": "",
        "point_id": "ha2ioki",
        "point_name": "北京颐和园昆明湖十七孔桥",
        "remark": "十七孔桥在前方的夜色里就像是一具龙的脊骨横卧在水面上，诺诺忽然站了起来，脱掉身上的长衣长裤。她在夜风中舒展身体，冷风吹得她的皮肤表面起了一层小疙瘩。\n她鱼跃入水，向着十七孔桥游去。"
      },
      "type": "Feature"
    }
  ],
  "type": "FeatureCollection"
}