{
  "features": [
    {
      "geometry": {
        "coordinates": [
          103.854615,
          1.299608
        ],
        "type": "Point"
      },
      "properties": {
        "bangumi_id": 114685,
        "bangumi_title": "可塑性记忆",
        "ep_cut": 1,
        "image_url": "https://w.junreimap.com/images/user/0/bangumi/114685/points/m12r4xelh-1720292276233.jpg",
        "location": "",
        "point_id": "m12r4xelh",
        "point_name": "Bugis+ Entrance",
        "remark": ""
      },
      "type": "Feature"
    },
    {
      "geometry": {
        "coordinates": [
          103.854078,
          1.299585
        ],
        "type": "Point"
      },
      "properties": {
        "bangumi_id": 114685,
        "bangumi_title": "可塑性记忆",
        "ep_cut": 1,
        "image_url": "https://w.junreimap.com/images/user/0/bangumi/114685/points/m13066ml8-1720292664070.jpg",
        "location": "",
        "point_id": "m13066ml8",
        "point_name": "The Coffee Bean & Tea Leaf",
        "remark": ""
      },
      "type": "Feature"
    },
    {
      "geometry": {
        "coordinates": [
          103.854823,
          1.299793
        ],
        "type": "Point"
      },
      "properties": {
        "bangumi_id": 114685,
        "bangumi_title": "可塑性记忆",
        "ep_cut": 3,
        "image_url": "https://w.junreimap.com/images/user/0/bangumi/114685/points/m13d4yhqo-1720293446884.jpg",
        "location": "",
        "point_id": "m13d4yhqo",
        "point_name": "Bugis+ Shopping Mall",
        "remark": ""
      },
      "type": "Feature"
    },
    {
      "geometry": {
        "coordinates": [
          103.859903,
          1.284568
        ],
        "type": "Point"
      },
      "properties": {
        "bangumi_id": 114685,
        "bangumi_title": "可塑性记忆",
        "ep_cut": 3,
        "image_url": "https://w.junreimap.com/images/user/0/bangumi/114685/points/m135kea0q-1720293176346.jpg",
        "location": "",
        "point_id": "m135kea0q",
        "point_name": "The Shoppes at Marina Bay Sands",
        "remark": ""
      },
      "type": "Feature"
    },
    {
      "geometry": {
        "coordinates": [
          103.854456,
          1.299451
        ],
        "type": "Point"
      },
      "properties": {
        "bangumi_id": 114685,
        "bangumi_title": "可塑性记忆",
        "ep_cut": 3,
        "image_url": "https://w.junreimap.com/images/user/0/bangumi/114685/points/m13n3huiy-1720294081186.jpg",
        "location": "",
        "point_id": "m13n3huiy",
        "point_name": "Bugis+ Shopping Mall",
        "remark": ""
      },
      "type": "Feature"
    },
    {
      "geometry": {
        "coordinates": [
          103.795735,
          1.310875
        ],
        "type": "Point"
      },
      "properties": {
        "bangumi_id": 114685,
        "bangumi_title": "可塑性记忆",
        "ep_cut": 5,
        "image_url": "https://w.junreimap.com/images/user/0/bangumi/114685/points/m13sofhs8-1720294528205.jpg",
        "location": "",
        "point_id": "m13sofhs8",
        "point_name": "Holland Road Shopping Centre",
        "remark": ""
      },
      "type": "Feature"
    },
    {
      "geometry": {
        "coordinates": [
          103.8444,
          1.284889
        ],
        "type": "Point"
      },
      "properties": {
        "bangumi_id": 114685,
        "bangumi_title": "可塑性记忆",
        "ep_cut": 5,
        "image_url": "https://w.junreimap.com/images/user/0/bangumi/114685/points/m140fi5c4-1720294874412.jpg",
        "location": "",
        "point_id": "m140fi5c4",
        "point_name": "Chinatown MRT Exit E",
        "remark": ""
      },
      "type": "Feature"
    },
    {
      "geometry": {
        "coordinates": [
          103.844714,
          1.284945
        ],
        "type": "Point"
      },
      "properties": {
        "bangumi_id": 114685,
        "bangumi_title": "可塑性记忆",
        "ep_cut": 5,
        "image_url": "https://w.junreimap.com/images/user/0/bangumi/114685/points/m14586hoi-1720295168849.jpg",
        "location": "",
        "point_id": "m14586hoi",
        "point_name": "Chinatown Point Shopping Mall",
        "remark": ""
      },
      "type": "Feature"
    },
    {
      "geometry": {
        "coordinates": [
          103.845797,
          1.281938
        ],
        "type": "Point"
      },
      "properties": {
        "bangumi_id": 114685,
        "bangumi_title": "可塑性记忆",
        "ep_cut": 5,
        "image_url": "https://w.junreimap.com/images/user/0/bangumi/114685/points/m14aq3r4f-1720295506821.jpg",
        "location": "",
        "point_id": "m14aq3r4f",
        "point_name": "Club Street",
        "remark": ""
      },
      "type": "Feature"
    },
    {
      "geometry": {
        "coordinates": [
          103.846119,
          1.28356
        ],
        "type": "Point"
      },
      "properties": {
        "bangumi_id": 114685,
        "bangumi_title": "可塑性记忆",
        "ep_cut": 5,
        "image_url": "https://w.junreimap.com/images/user/0/bangumi/114685/points/m14opa07x-1720296354434.jpg",
        "location": "",
        "point_id": "m14opa07x",
        "point_name": "Hong Lim Complex",
        "remark": ""
      },
      "type": "Feature"
    },
    {
      "geometry": {
        "coordinates": [
          103.830142,
          1.306266
        ],
        "type": "Point"
      },
      "properties": {
        "bangumi_id": 114685,
        "bangumi_title": "可塑性记忆",
        "ep_cut": 5,
        "image_url": "https://w.junreimap.com/images/user/0/bangumi/114685/points/m14j753z2-1720296067964.jpg",
        "location": "",
        "point_id": "m14j753z2",
        "point_name": "Orchard Road",
        "remark": "旧位置在人行道上了"
      },
      "type": "Feature"
    },
    {
      "geometry": {
        "coordinates": [
          103.845933,
          1.284929
        ],
        "type": "Point"
      },
      "properties": {
        "bangumi_id": 114685,
        "bangumi_title": "可塑性记忆",
        "ep_cut": 5,
        "image_url": "https://w.junreimap.com/images/user/0/bangumi/114685/points/m14wzwemj-1720296748968.jpg",
        "location": "",
        "point_id": "m14wzwemj",
        "point_name": "Hong Lim Apartments",
        "remark": ""
      },
      "type": "Feature"
    },
    {
      "geometry": {
        "coordinates": [
          103.856702,
          1.297715
        ],
        "type": "Point"
      },
      "properties": {
        "bangumi_id": 114685,
        "bangumi_title": "可塑性记忆",
        "ep_cut": 7,
        "image_url": "https://w.junreimap.com/images/user/0/bangumi/114685/points/m14zxzkz7-1720297134576.jpg",
        "location": "",
        "point_id": "m14zxzkz7",
        "point_name": "Liang Seah St",
        "remark": ""
      },
      "type": "Feature"
    },
    {
      "geometry": {
        "coordinates": [
          103.864086,
          1.281748
        ],
        "type": "Point"
      },
      "properties": {
        "bangumi_id": 114685,
        "bangumi_title": "可塑性记忆",
        "ep_cut": 7,
        "image_url": "https://w.junreimap.com/images/user/0/bangumi/114685/points/m15885hqq-1720297494652.jpg",
        "location": "",
        "point_id": "m15885hqq",
        "point_name": "Gardens by the Bay - Supertree Grove",
        "remark": ""
      },
      "type": "Feature"
    },
    {
      "geometry": {
        "coordinates": [
          103.84651,
          1.299542
        ],
        "type": "Point"
      },
      "properties": {
        "bangumi_id": 114685,
        "bangumi_title": "可塑性记忆",
        "ep_cut": 9,
        "image_url": "https://w.junreimap.com/images/user/0/bangumi/114685/points/m15dn2n3u-1720298365591.jpg",
        "location": "",
        "point_id": "m15dn2n3u",
        "point_name": "Handy Road",
        "remark": "由于房屋建设，左边已经没有空地了"
      },
      "type": "Feature"
    },
    {
      "geometry": {
        "coordinates": [
          103.808797,
          1.304458
        ],
        "type": "Point"
      },
      "properties": {
        "bangumi_id": 114685,
        "bangumi_title": "可塑性记忆",
        "ep_cut": 10,
        "image_url": "https://w.junreimap.com/images/user/0/bangumi/114685/points/m190071zw-1720305822620.jpg",
        "location": "",
        "point_id": "m190071zw",
        "point_name": "Dempsey Hill",
        "remark": ""
      },
      "type": "Feature"
    },
    {
      "geometry": {
        "coordinates": [
          103.858127,
          1.283591
        ],
        "type": "Point"
      },
      "properties": {
        "bangumi_id": 114685,
        "bangumi_title": "可塑性记忆",
        "ep_cut": 11,
        "image_url": "https://w.junreimap.com/images/user/0/bangumi/114685/points/m19bug9mx-1720306503256.jpg",
        "location": "",
        "point_id": "m19bug9mx",
        "point_name": "Marina Bay",
        "remark": ""
      },
      "type": "Feature"
    }
  ],
  "type": "FeatureCollection"
}