{
  "features": [
    {
      "geometry": {
        "coordinates": [
          139.254174,
          35.299392
        ],
        "type": "Point"
      },
      "properties": {
        "bangumi_id": 11577,
        "bangumi_title": "偶像大师",
        "ep_cut": 1,
        "image_url": "https://w.junreimap.com/images/user/0/bangumi/11577/points/a857o82c-1741591109448.jpg",
        "location": "",
        "point_id": "a857o82c",
        "point_name": "吾妻山公園 第２展望台",
        "remark": "１話 从吾妻山公园俯瞰二宫站"
      },
      "type": "Feature"
    },
    {
      "geometry": {
        "coordinates": [
          139.258141,
          35.298652
        ],
        "type": "Point"
      },
      "properties": {
        "bangumi_id": 11577,
        "bangumi_title": "偶像大师",
        "ep_cut": 1,
        "image_url": "https://w.junreimap.com/images/user/0/bangumi/11577/points/a857o848-1741591468237.jpg",
        "location": "",
        "point_id": "a857o848",
        "point_name": "二宮駅南口",
        "remark": "１話"
      },
      "type": "Feature"
    },
    {
      "geometry": {
        "coordinates": [
          139.257773,
          35.298825
        ],
        "type": "Point"
      },
      "properties": {
        "bangumi_id": 11577,
        "bangumi_title": "偶像大师",
        "ep_cut": 1,
        "image_url": "https://w.junreimap.com/images/user/0/bangumi/11577/points/a857o8d4-1741591356100.jpg",
        "location": "",
        "point_id": "a857o8d4",
        "point_name": "二宮駅",
        "remark": "１話 阁下第一次平地摔的地方"
      },
      "type": "Feature"
    },
    {
      "geometry": {
        "coordinates": [
          139.630751,
          35.701494
        ],
        "type": "Point"
      },
      "properties": {
        "bangumi_id": 11577,
        "bangumi_title": "偶像大师",
        "ep_cut": 1,
        "image_url": "https://w.junreimap.com/images/points/11577/a857o8bf_1754037004717.jpg",
        "location": "",
        "point_id": "a857o8bf",
        "point_name": "事務所前道路",
        "remark": "１話"
      },
      "type": "Feature"
    },
    {
      "geometry": {
        "coordinates": [
          139.632585,
          35.700549
        ],
        "type": "Point"
      },
      "properties": {
        "bangumi_id": 11577,
        "bangumi_title": "偶像大师",
        "ep_cut": 1,
        "image_url": "https://w.junreimap.com/images/points/11577/a857o8dc_1717934477577.jpg",
        "location": "",
        "point_id": "a857o8dc",
        "point_name": "事務所",
        "remark": "１話"
      },
      "type": "Feature"
    },
    {
      "geometry": {
        "coordinates": [
          139.625241,
          35.703099
        ],
        "type": "Point"
      },
      "properties": {
        "bangumi_id": 11577,
        "bangumi_title": "偶像大师",
        "ep_cut": 1,
        "image_url": "https://w.junreimap.com/images/points/11577/a857o8no_1717936170529.jpg",
        "location": "",
        "point_id": "a857o8no",
        "point_name": "旅館西郊付近",
        "remark": "１話"
      },
      "type": "Feature"
    },
    {
      "geometry": {
        "coordinates": [
          139.625254,
          35.703074
        ],
        "type": "Point"
      },
      "properties": {
        "bangumi_id": 11577,
        "bangumi_title": "偶像大师",
        "ep_cut": 1,
        "image_url": "https://w.junreimap.com/images/points/11577/387g6iy_1754036944388.jpg",
        "location": "",
        "point_id": "387g6iy",
        "point_name": "旅館西郊付近",
        "remark": "１話"
      },
      "type": "Feature"
    },
    {
      "geometry": {
        "coordinates": [
          139.632296,
          35.70076
        ],
        "type": "Point"
      },
      "properties": {
        "bangumi_id": 11577,
        "bangumi_title": "偶像大师",
        "ep_cut": 1,
        "image_url": "https://w.junreimap.com/images/points/11577/a857o8r9_1717934508695.jpg",
        "location": "",
        "point_id": "a857o8r9",
        "point_name": "歩道橋",
        "remark": "１話"
      },
      "type": "Feature"
    },
    {
      "geometry": {
        "coordinates": [
          139.709238,
          35.647249
        ],
        "type": "Point"
      },
      "properties": {
        "bangumi_id": 11577,
        "bangumi_title": "偶像大师",
        "ep_cut": 4,
        "image_url": "",
        "location": "",
        "point_id": "a857o8q1",
        "point_name": "恵比寿駅西口",
        "remark": "４話ＥＤ"
      },
      "type": "Feature"
    },
    {
      "geometry": {
        "coordinates": [
          139.754551,
          35.672657
        ],
        "type": "Point"
      },
      "properties": {
        "bangumi_id": 11577,
        "bangumi_title": "偶像大师",
        "ep_cut": 6,
        "image_url": "https://w.junreimap.com/images/points/11577/a857o8dn_1717935623122.jpg",
        "location": "",
        "point_id": "a857o8dn",
        "point_name": "日比谷野外大音楽堂",
        "remark": "６話"
      },
      "type": "Feature"
    },
    {
      "geometry": {
        "coordinates": [
          139.731202,
          35.713678
        ],
        "type": "Point"
      },
      "properties": {
        "bangumi_id": 11577,
        "bangumi_title": "偶像大师",
        "ep_cut": 9,
        "image_url": "https://w.junreimap.com/images/points/11577/a857o8ra_1754039017098.jpg",
        "location": "",
        "point_id": "a857o8ra",
        "point_name": "鳩山会館",
        "remark": "９話"
      },
      "type": "Feature"
    },
    {
      "geometry": {
        "coordinates": [
          139.689204,
          35.696848
        ],
        "type": "Point"
      },
      "properties": {
        "bangumi_id": 11577,
        "bangumi_title": "偶像大师",
        "ep_cut": 11,
        "image_url": "https://w.junreimap.com/images/points/11577/a857o9iw_1755580148623.jpg",
        "location": "",
        "point_id": "a857o9iw",
        "point_name": "新宿村スタジオ",
        "remark": "11話、23話"
      },
      "type": "Feature"
    },
    {
      "geometry": {
        "coordinates": [
          139.69938,
          35.693378
        ],
        "type": "Point"
      },
      "properties": {
        "bangumi_id": 11577,
        "bangumi_title": "偶像大师",
        "ep_cut": 11,
        "image_url": "",
        "location": "",
        "point_id": "a857o9j9",
        "point_name": "「新宿大ガード西」交差点",
        "remark": "11話"
      },
      "type": "Feature"
    },
    {
      "geometry": {
        "coordinates": [
          139.699029,
          35.693382
        ],
        "type": "Point"
      },
      "properties": {
        "bangumi_id": 11577,
        "bangumi_title": "偶像大师",
        "ep_cut": 11,
        "image_url": "",
        "location": "",
        "point_id": "a857o8xg",
        "point_name": "「新宿大ガード西」交差点",
        "remark": "11話"
      },
      "type": "Feature"
    },
    {
      "geometry": {
        "coordinates": [
          139.700024,
          35.693838
        ],
        "type": "Point"
      },
      "properties": {
        "bangumi_id": 11577,
        "bangumi_title": "偶像大师",
        "ep_cut": 11,
        "image_url": "",
        "location": "",
        "point_id": "a857o9ai",
        "point_name": "「新宿大ガード東」交差点",
        "remark": "11話"
      },
      "type": "Feature"
    },
    {
      "geometry": {
        "coordinates": [
          139.699268,
          35.691197
        ],
        "type": "Point"
      },
      "properties": {
        "bangumi_id": 11577,
        "bangumi_title": "偶像大师",
        "ep_cut": 11,
        "image_url": "https://w.junreimap.com/images/points/11577/a857o956_1717934617685.jpg",
        "location": "",
        "point_id": "a857o956",
        "point_name": "新宿駅西口",
        "remark": "11話"
      },
      "type": "Feature"
    },
    {
      "geometry": {
        "coordinates": [
          139.699501,
          35.691346
        ],
        "type": "Point"
      },
      "properties": {
        "bangumi_id": 11577,
        "bangumi_title": "偶像大师",
        "ep_cut": 11,
        "image_url": "https://w.junreimap.com/images/points/11577/a857o90x_1717934621883.jpg",
        "location": "",
        "point_id": "a857o90x",
        "point_name": "新宿駅西口改札",
        "remark": "11話改札の中ではありません詳しい位置までは分かりません"
      },
      "type": "Feature"
    },
    {
      "geometry": {
        "coordinates": [
          139.706958,
          35.654701
        ],
        "type": "Point"
      },
      "properties": {
        "bangumi_id": 11577,
        "bangumi_title": "偶像大师",
        "ep_cut": 11,
        "image_url": "https://w.junreimap.com/images/points/11577/a857o990_1717935953295.jpg",
        "location": "",
        "point_id": "a857o990",
        "point_name": "ライフ渋谷東店",
        "remark": "11話"
      },
      "type": "Feature"
    },
    {
      "geometry": {
        "coordinates": [
          139.70902,
          35.6469
        ],
        "type": "Point"
      },
      "properties": {
        "bangumi_id": 11577,
        "bangumi_title": "偶像大师",
        "ep_cut": 11,
        "image_url": "https://w.junreimap.com/images/points/11577/a857o92h_1755581157222.jpg",
        "location": "",
        "point_id": "a857o92h",
        "point_name": "恵比寿駅西口",
        "remark": "11話"
      },
      "type": "Feature"
    },
    {
      "geometry": {
        "coordinates": [
          139.709291,
          35.646918
        ],
        "type": "Point"
      },
      "properties": {
        "bangumi_id": 11577,
        "bangumi_title": "偶像大师",
        "ep_cut": 11,
        "image_url": "https://w.junreimap.com/images/points/11577/a857o957_1755581527620.jpg",
        "location": "",
        "point_id": "a857o957",
        "point_name": "恵比寿駅西口",
        "remark": "11話"
      },
      "type": "Feature"
    },
    {
      "geometry": {
        "coordinates": [
          139.709436,
          35.64705
        ],
        "type": "Point"
      },
      "properties": {
        "bangumi_id": 11577,
        "bangumi_title": "偶像大师",
        "ep_cut": 11,
        "image_url": "https://w.junreimap.com/images/points/11577/a857o9hs_1755581545620.jpg",
        "location": "",
        "point_id": "a857o9hs",
        "point_name": "恵比寿駅西口",
        "remark": "11話"
      },
      "type": "Feature"
    },
    {
      "geometry": {
        "coordinates": [
          139.699498,
          35.659386
        ],
        "type": "Point"
      },
      "properties": {
        "bangumi_id": 11577,
        "bangumi_title": "偶像大师",
        "ep_cut": 12,
        "image_url": "https://w.junreimap.com/images/points/11577/a857o900_1717935611476.jpg",
        "location": "",
        "point_id": "a857o900",
        "point_name": "渋谷109",
        "remark": "12話"
      },
      "type": "Feature"
    },
    {
      "geometry": {
        "coordinates": [
          139.698825,
          35.660271
        ],
        "type": "Point"
      },
      "properties": {
        "bangumi_id": 11577,
        "bangumi_title": "偶像大师",
        "ep_cut": 12,
        "image_url": "https://w.junreimap.com/images/points/11577/a857o9bl_1754035844666.jpg",
        "location": "",
        "point_id": "a857o9bl",
        "point_name": "バーガーキング渋谷センター街店",
        "remark": "12話"
      },
      "type": "Feature"
    },
    {
      "geometry": {
        "coordinates": [
          139.755074,
          35.702714
        ],
        "type": "Point"
      },
      "properties": {
        "bangumi_id": 11577,
        "bangumi_title": "偶像大师",
        "ep_cut": 12,
        "image_url": "https://w.junreimap.com/images/points/11577/a857o8ve_1717936095374.jpg",
        "location": "",
        "point_id": "a857o8ve",
        "point_name": "「水道橋」交差点",
        "remark": "12話"
      },
      "type": "Feature"
    },
    {
      "geometry": {
        "coordinates": [
          139.695818,
          35.671304
        ],
        "type": "Point"
      },
      "properties": {
        "bangumi_id": 11577,
        "bangumi_title": "偶像大师",
        "ep_cut": 12,
        "image_url": "",
        "location": "",
        "point_id": "a857o9ep",
        "point_name": "代々木公園",
        "remark": "12話"
      },
      "type": "Feature"
    },
    {
      "geometry": {
        "coordinates": [
          139.754135,
          35.703402
        ],
        "type": "Point"
      },
      "properties": {
        "bangumi_id": 11577,
        "bangumi_title": "偶像大师",
        "ep_cut": 13,
        "image_url": "https://w.junreimap.com/images/points/11577/a857o8vf_1717936048008.jpg",
        "location": "",
        "point_id": "a857o8vf",
        "point_name": "東京ドームシティホール",
        "remark": "13話、24話"
      },
      "type": "Feature"
    },
    {
      "geometry": {
        "coordinates": [
          139.754417,
          35.703389
        ],
        "type": "Point"
      },
      "properties": {
        "bangumi_id": 11577,
        "bangumi_title": "偶像大师",
        "ep_cut": 13,
        "image_url": "https://w.junreimap.com/images/points/11577/388w1m4_1754039385513.jpg",
        "location": "",
        "point_id": "388w1m4",
        "point_name": "東京ドームシティホール内",
        "remark": ""
      },
      "type": "Feature"
    },
    {
      "geometry": {
        "coordinates": [
          139.701743,
          35.657983
        ],
        "type": "Point"
      },
      "properties": {
        "bangumi_id": 11577,
        "bangumi_title": "偶像大师",
        "ep_cut": 14,
        "image_url": "https://w.junreimap.com/images/points/11577/a857o8xn_1754035999760.jpg",
        "location": "",
        "point_id": "a857o8xn",
        "point_name": "渋谷駅（２番線）",
        "remark": "14話"
      },
      "type": "Feature"
    },
    {
      "geometry": {
        "coordinates": [
          139.700617,
          35.659277
        ],
        "type": "Point"
      },
      "properties": {
        "bangumi_id": 11577,
        "bangumi_title": "偶像大师",
        "ep_cut": 14,
        "image_url": "https://w.junreimap.com/images/points/11577/a857o9c1_1754036020543.jpg",
        "location": "",
        "point_id": "a857o9c1",
        "point_name": "渋谷駅ハチ公口",
        "remark": "14話、24話"
      },
      "type": "Feature"
    },
    {
      "geometry": {
        "coordinates": [
          139.737047,
          35.672886
        ],
        "type": "Point"
      },
      "properties": {
        "bangumi_id": 11577,
        "bangumi_title": "偶像大师",
        "ep_cut": 14,
        "image_url": "https://w.junreimap.com/images/user/0/bangumi/11577/points/a857o8xw-1676900751907.jpg",
        "location": "",
        "point_id": "a857o8xw",
        "point_name": "赤坂駅１出口",
        "remark": "14話"
      },
      "type": "Feature"
    },
    {
      "geometry": {
        "coordinates": [
          139.735797,
          35.672526
        ],
        "type": "Point"
      },
      "properties": {
        "bangumi_id": 11577,
        "bangumi_title": "偶像大师",
        "ep_cut": 15,
        "image_url": "https://w.junreimap.com/images/points/11577/a857o93p_1754036749693.jpg",
        "location": "",
        "point_id": "a857o93p",
        "point_name": "ＴＢＳ前",
        "remark": "15話、23話"
      },
      "type": "Feature"
    },
    {
      "geometry": {
        "coordinates": [
          135.728826,
          35.038977
        ],
        "type": "Point"
      },
      "properties": {
        "bangumi_id": 11577,
        "bangumi_title": "偶像大师",
        "ep_cut": 19,
        "image_url": "https://w.junreimap.com/images/points/11577/a857o9h2_1717934385155.jpg",
        "location": "京都",
        "point_id": "a857o9h2",
        "point_name": "金閣寺",
        "remark": "19話（图左）"
      },
      "type": "Feature"
    },
    {
      "geometry": {
        "coordinates": [
          135.804899,
          35.022862
        ],
        "type": "Point"
      },
      "properties": {
        "bangumi_id": 11577,
        "bangumi_title": "偶像大师",
        "ep_cut": 19,
        "image_url": "https://w.junreimap.com/images/points/11577/a857o8wz_1755579993492.jpg",
        "location": "京都",
        "point_id": "a857o8wz",
        "point_name": "東山如意ケ嶽",
        "remark": "19話京都市内から東山如意ケ嶽を見ます（图右）"
      },
      "type": "Feature"
    },
    {
      "geometry": {
        "coordinates": [
          139.719097,
          35.68059
        ],
        "type": "Point"
      },
      "properties": {
        "bangumi_id": 11577,
        "bangumi_title": "偶像大师",
        "ep_cut": 20,
        "image_url": "https://w.junreimap.com/images/points/11577/a857o90t_1717934627268.jpg",
        "location": "",
        "point_id": "a857o90t",
        "point_name": "慶應義塾大学病院",
        "remark": "20話"
      },
      "type": "Feature"
    },
    {
      "geometry": {
        "coordinates": [
          139.824674,
          35.642209
        ],
        "type": "Point"
      },
      "properties": {
        "bangumi_id": 11577,
        "bangumi_title": "偶像大师",
        "ep_cut": 20,
        "image_url": "https://w.junreimap.com/images/points/11577/a857o9kg_1717936666898.jpg",
        "location": "",
        "point_id": "a857o9kg",
        "point_name": "STUDIO COAST",
        "remark": "20話"
      },
      "type": "Feature"
    },
    {
      "geometry": {
        "coordinates": [
          139.810718,
          35.710043
        ],
        "type": "Point"
      },
      "properties": {
        "bangumi_id": 11577,
        "bangumi_title": "偶像大师",
        "ep_cut": 22,
        "image_url": "https://w.junreimap.com/images/points/11577/3xv0j3s_1755588179846.jpg",
        "location": "",
        "point_id": "3xv0j3s",
        "point_name": "東京​スカイ​ツリー",
        "remark": ""
      },
      "type": "Feature"
    },
    {
      "geometry": {
        "coordinates": [
          139.735059,
          35.672125
        ],
        "type": "Point"
      },
      "properties": {
        "bangumi_id": 11577,
        "bangumi_title": "偶像大师",
        "ep_cut": 23,
        "image_url": "https://w.junreimap.com/images/points/11577/a857o95t_1755578828596.jpg",
        "location": "",
        "point_id": "a857o95t",
        "point_name": "ＴＢＳ",
        "remark": "23話、24話"
      },
      "type": "Feature"
    },
    {
      "geometry": {
        "coordinates": [
          139.731009,
          35.673093
        ],
        "type": "Point"
      },
      "properties": {
        "bangumi_id": 11577,
        "bangumi_title": "偶像大师",
        "ep_cut": 23,
        "image_url": "https://w.junreimap.com/images/points/11577/a857o9hb_1717935831552.jpg",
        "location": "",
        "point_id": "a857o9hb",
        "point_name": "パークコート赤坂ザタワー",
        "remark": "23話"
      },
      "type": "Feature"
    },
    {
      "geometry": {
        "coordinates": [
          139.732608,
          35.68164
        ],
        "type": "Point"
      },
      "properties": {
        "bangumi_id": 11577,
        "bangumi_title": "偶像大师",
        "ep_cut": 23,
        "image_url": "https://w.junreimap.com/images/points/11577/a857o94u_1717935851114.jpg",
        "location": "",
        "point_id": "a857o94u",
        "point_name": "ホテルニューオータニ",
        "remark": "23話"
      },
      "type": "Feature"
    },
    {
      "geometry": {
        "coordinates": [
          139.701907,
          35.692097
        ],
        "type": "Point"
      },
      "properties": {
        "bangumi_id": 11577,
        "bangumi_title": "偶像大师",
        "ep_cut": 23,
        "image_url": "https://w.junreimap.com/images/points/11577/a857o9cb_1717934720074.jpg",
        "location": "",
        "point_id": "a857o9cb",
        "point_name": "ABCマート新宿本店",
        "remark": "23話"
      },
      "type": "Feature"
    },
    {
      "geometry": {
        "coordinates": [
          139.701228,
          35.69245
        ],
        "type": "Point"
      },
      "properties": {
        "bangumi_id": 11577,
        "bangumi_title": "偶像大师",
        "ep_cut": 23,
        "image_url": "https://w.junreimap.com/images/points/11577/a857o8v0_1717934713422.jpg",
        "location": "",
        "point_id": "a857o8v0",
        "point_name": "新宿駅東口",
        "remark": "23話"
      },
      "type": "Feature"
    },
    {
      "geometry": {
        "coordinates": [
          139.700325,
          35.689958
        ],
        "type": "Point"
      },
      "properties": {
        "bangumi_id": 11577,
        "bangumi_title": "偶像大师",
        "ep_cut": 23,
        "image_url": "https://w.junreimap.com/images/points/11577/a857o9jg_1755579463318.jpg",
        "location": "",
        "point_id": "a857o9jg",
        "point_name": "新宿駅（11番線）",
        "remark": "23話"
      },
      "type": "Feature"
    },
    {
      "geometry": {
        "coordinates": [
          139.697272,
          35.693587
        ],
        "type": "Point"
      },
      "properties": {
        "bangumi_id": 11577,
        "bangumi_title": "偶像大师",
        "ep_cut": 23,
        "image_url": "https://w.junreimap.com/images/points/11577/a857o8v7_1755580307478.jpg",
        "location": "",
        "point_id": "a857o8v7",
        "point_name": "「新都心歩道橋下」交差点",
        "remark": "23話"
      },
      "type": "Feature"
    },
    {
      "geometry": {
        "coordinates": [
          139.697052,
          35.69299
        ],
        "type": "Point"
      },
      "properties": {
        "bangumi_id": 11577,
        "bangumi_title": "偶像大师",
        "ep_cut": 23,
        "image_url": "https://w.junreimap.com/images/points/11577/a857o8zh_1755580448397.jpg",
        "location": "",
        "point_id": "a857o8zh",
        "point_name": "「新都心歩道橋下」交差点",
        "remark": "23話"
      },
      "type": "Feature"
    },
    {
      "geometry": {
        "coordinates": [
          139.698981,
          35.664477
        ],
        "type": "Point"
      },
      "properties": {
        "bangumi_id": 11577,
        "bangumi_title": "偶像大师",
        "ep_cut": 23,
        "image_url": "https://w.junreimap.com/images/points/11577/a857o9kq_1717935881881.jpg",
        "location": "",
        "point_id": "a857o9kq",
        "point_name": "NHK",
        "remark": "23話"
      },
      "type": "Feature"
    },
    {
      "geometry": {
        "coordinates": [
          139.698328,
          35.664143
        ],
        "type": "Point"
      },
      "properties": {
        "bangumi_id": 11577,
        "bangumi_title": "偶像大师",
        "ep_cut": 23,
        "image_url": "https://w.junreimap.com/images/points/11577/3xv1q5p_1755588238933.jpg",
        "location": "",
        "point_id": "3xv1q5p",
        "point_name": "渋谷公会堂",
        "remark": ""
      },
      "type": "Feature"
    },
    {
      "geometry": {
        "coordinates": [
          139.774089,
          35.62939
        ],
        "type": "Point"
      },
      "properties": {
        "bangumi_id": 11577,
        "bangumi_title": "偶像大师",
        "ep_cut": 24,
        "image_url": "https://w.junreimap.com/images/user/1103/bangumi/11577/points/a857o9er-1717854995641.jpg",
        "location": "",
        "point_id": "a857o9er",
        "point_name": "お台場海浜公園",
        "remark": "24話"
      },
      "type": "Feature"
    },
    {
      "geometry": {
        "coordinates": [
          139.754248,
          35.703128
        ],
        "type": "Point"
      },
      "properties": {
        "bangumi_id": 11577,
        "bangumi_title": "偶像大师",
        "ep_cut": 24,
        "image_url": "https://w.junreimap.com/images/user/0/bangumi/11577/points/a857o8uu-1741591723696.jpg",
        "location": "",
        "point_id": "a857o8uu",
        "point_name": "東京ドームシティホール",
        "remark": "24話"
      },
      "type": "Feature"
    },
    {
      "geometry": {
        "coordinates": [
          139.255461,
          35.300228
        ],
        "type": "Point"
      },
      "properties": {
        "bangumi_id": 11577,
        "bangumi_title": "偶像大师",
        "ep_cut": 24,
        "image_url": "https://w.junreimap.com/images/user/0/bangumi/11577/points/tkv19mmab-1741590542772.jpg",
        "location": "",
        "point_id": "tkv19mmab",
        "point_name": "勝負前遊園地",
        "remark": ""
      },
      "type": "Feature"
    },
    {
      "geometry": {
        "coordinates": [
          139.25586,
          35.299498
        ],
        "type": "Point"
      },
      "properties": {
        "bangumi_id": 11577,
        "bangumi_title": "偶像大师",
        "ep_cut": 24,
        "image_url": "https://w.junreimap.com/images/user/0/bangumi/11577/points/tkvr1370h-1741591860741.jpg",
        "location": "",
        "point_id": "tkvr1370h",
        "point_name": "二宮町役場",
        "remark": ""
      },
      "type": "Feature"
    },
    {
      "geometry": {
        "coordinates": [
          139.258184,
          35.2986
        ],
        "type": "Point"
      },
      "properties": {
        "bangumi_id": 11577,
        "bangumi_title": "偶像大师",
        "ep_cut": 24,
        "image_url": "https://w.junreimap.com/images/user/0/bangumi/11577/points/tkvwsp3sz-1741592180647.jpg",
        "location": "",
        "point_id": "tkvwsp3sz",
        "point_name": "二宮駅南口（バス）",
        "remark": ""
      },
      "type": "Feature"
    },
    {
      "geometry": {
        "coordinates": [
          139.63666,
          35.455228
        ],
        "type": "Point"
      },
      "properties": {
        "bangumi_id": 11577,
        "bangumi_title": "偶像大师",
        "ep_cut": 8,
        "image_url": "https://w.junreimap.com/images/points/11577/3wftld1_1755502247707.jpg",
        "location": "横滨",
        "point_id": "3wftld1",
        "point_name": "よこはま​コスモ​ワールド",
        "remark": "摩天轮上"
      },
      "type": "Feature"
    },
    {
      "geometry": {
        "coordinates": [
          139.631437,
          35.45085
        ],
        "type": "Point"
      },
      "properties": {
        "bangumi_id": 11577,
        "bangumi_title": "偶像大师",
        "ep_cut": 8,
        "image_url": "https://w.junreimap.com/images/points/11577/3wfw1nn_1755502354499.jpg",
        "location": "横滨",
        "point_id": "3wfw1nn",
        "point_name": "​桜木町​駅",
        "remark": ""
      },
      "type": "Feature"
    },
    {
      "geometry": {
        "coordinates": [
          139.631603,
          35.4514
        ],
        "type": "Point"
      },
      "properties": {
        "bangumi_id": 11577,
        "bangumi_title": "偶像大师",
        "ep_cut": 8,
        "image_url": "https://w.junreimap.com/images/points/11577/3wgfbwk_1755503262351.jpg",
        "location": "横滨",
        "point_id": "3wgfbwk",
        "point_name": "タクシーのりば",
        "remark": ""
      },
      "type": "Feature"
    },
    {
      "geometry": {
        "coordinates": [
          139.631109,
          35.451192
        ],
        "type": "Point"
      },
      "properties": {
        "bangumi_id": 11577,
        "bangumi_title": "偶像大师",
        "ep_cut": 8,
        "image_url": "https://w.junreimap.com/images/points/11577/3wg947x_1755503012755.jpg",
        "location": "横滨",
        "point_id": "3wg947x",
        "point_name": "Bubby's　横浜",
        "remark": "已永久闭店"
      },
      "type": "Feature"
    },
    {
      "geometry": {
        "coordinates": [
          139.63126,
          35.451359
        ],
        "type": "Point"
      },
      "properties": {
        "bangumi_id": 11577,
        "bangumi_title": "偶像大师",
        "ep_cut": 8,
        "image_url": "https://w.junreimap.com/images/points/11577/3wgijxt_1755503378032.jpg",
        "location": "横滨",
        "point_id": "3wgijxt",
        "point_name": "​桜木町​駅前",
        "remark": ""
      },
      "type": "Feature"
    },
    {
      "geometry": {
        "coordinates": [
          139.631167,
          35.451793
        ],
        "type": "Point"
      },
      "properties": {
        "bangumi_id": 11577,
        "bangumi_title": "偶像大师",
        "ep_cut": 8,
        "image_url": "https://w.junreimap.com/images/points/11577/3wgjxc2_1755503456049.jpg",
        "location": "横滨",
        "point_id": "3wgjxc2",
        "point_name": "ヒューリックみなとみらい前",
        "remark": ""
      },
      "type": "Feature"
    },
    {
      "geometry": {
        "coordinates": [
          139.63869,
          35.453024
        ],
        "type": "Point"
      },
      "properties": {
        "bangumi_id": 11577,
        "bangumi_title": "偶像大师",
        "ep_cut": 8,
        "image_url": "https://w.junreimap.com/images/points/11577/3wgn1sj_1755503610975.jpg",
        "location": "横滨",
        "point_id": "3wgn1sj",
        "point_name": "運河パーク　ナビオス横浜前",
        "remark": ""
      },
      "type": "Feature"
    },
    {
      "geometry": {
        "coordinates": [
          139.640785,
          35.453565
        ],
        "type": "Point"
      },
      "properties": {
        "bangumi_id": 11577,
        "bangumi_title": "偶像大师",
        "ep_cut": 8,
        "image_url": "https://w.junreimap.com/images/points/11577/3wgpx75_1755503740212.jpg",
        "location": "横滨",
        "point_id": "3wgpx75",
        "point_name": "サークルウォーク前",
        "remark": ""
      },
      "type": "Feature"
    },
    {
      "geometry": {
        "coordinates": [
          139.640814,
          35.453846
        ],
        "type": "Point"
      },
      "properties": {
        "bangumi_id": 11577,
        "bangumi_title": "偶像大师",
        "ep_cut": 8,
        "image_url": "https://w.junreimap.com/images/points/11577/3wh0uqk_1755504308443.jpg",
        "location": "横滨",
        "point_id": "3wh0uqk",
        "point_name": "サークルウォーク",
        "remark": ""
      },
      "type": "Feature"
    },
    {
      "geometry": {
        "coordinates": [
          139.643256,
          35.449053
        ],
        "type": "Point"
      },
      "properties": {
        "bangumi_id": 11577,
        "bangumi_title": "偶像大师",
        "ep_cut": 8,
        "image_url": "https://w.junreimap.com/images/points/11577/3wh64vn_1755504548409.jpg",
        "location": "横滨",
        "point_id": "3wh64vn",
        "point_name": "山下臨港線プロムナード",
        "remark": ""
      },
      "type": "Feature"
    },
    {
      "geometry": {
        "coordinates": [
          139.647941,
          35.45196
        ],
        "type": "Point"
      },
      "properties": {
        "bangumi_id": 11577,
        "bangumi_title": "偶像大师",
        "ep_cut": 22,
        "image_url": "https://w.junreimap.com/images/points/11577/3whcu2h_1755504788016.jpg",
        "location": "横滨",
        "point_id": "3whcu2h",
        "point_name": "大桟橋ふ頭",
        "remark": ""
      },
      "type": "Feature"
    },
    {
      "geometry": {
        "coordinates": [
          139.649844,
          35.445862
        ],
        "type": "Point"
      },
      "properties": {
        "bangumi_id": 11577,
        "bangumi_title": "偶像大师",
        "ep_cut": 8,
        "image_url": "https://w.junreimap.com/images/points/11577/3whhzql_1755505028889.jpg",
        "location": "横滨",
        "point_id": "3whhzql",
        "point_name": "山下公園噴水",
        "remark": ""
      },
      "type": "Feature"
    },
    {
      "geometry": {
        "coordinates": [
          139.649981,
          35.445788
        ],
        "type": "Point"
      },
      "properties": {
        "bangumi_id": 11577,
        "bangumi_title": "偶像大师",
        "ep_cut": 8,
        "image_url": "https://w.junreimap.com/images/points/11577/3who9eg_1755505309831.jpg",
        "location": "横滨",
        "point_id": "3who9eg",
        "point_name": "山下公園",
        "remark": ""
      },
      "type": "Feature"
    },
    {
      "geometry": {
        "coordinates": [
          139.650072,
          35.445581
        ],
        "type": "Point"
      },
      "properties": {
        "bangumi_id": 11577,
        "bangumi_title": "偶像大师",
        "ep_cut": 8,
        "image_url": "https://w.junreimap.com/images/points/11577/3whjrtf_1755505099216.jpg",
        "location": "横滨",
        "point_id": "3whjrtf",
        "point_name": "山下公園 廊",
        "remark": ""
      },
      "type": "Feature"
    },
    {
      "geometry": {
        "coordinates": [
          139.649791,
          35.445683
        ],
        "type": "Point"
      },
      "properties": {
        "bangumi_id": 11577,
        "bangumi_title": "偶像大师",
        "ep_cut": 8,
        "image_url": "https://w.junreimap.com/images/points/11577/3whl2lu_1755505163840.jpg",
        "location": "横滨",
        "point_id": "3whl2lu",
        "point_name": "山下公園噴水",
        "remark": ""
      },
      "type": "Feature"
    },
    {
      "geometry": {
        "coordinates": [
          139.649718,
          35.445721
        ],
        "type": "Point"
      },
      "properties": {
        "bangumi_id": 11577,
        "bangumi_title": "偶像大师",
        "ep_cut": 8,
        "image_url": "https://w.junreimap.com/images/points/11577/3whmiq3_1755505231697.jpg",
        "location": "横滨",
        "point_id": "3whmiq3",
        "point_name": "山下公園噴水",
        "remark": ""
      },
      "type": "Feature"
    },
    {
      "geometry": {
        "coordinates": [
          139.64802,
          35.444055
        ],
        "type": "Point"
      },
      "properties": {
        "bangumi_id": 11577,
        "bangumi_title": "偶像大师",
        "ep_cut": 8,
        "image_url": "https://w.junreimap.com/images/points/11577/3whqadt_1755505404857.jpg",
        "location": "横滨",
        "point_id": "3whqadt",
        "point_name": "北京飯店前",
        "remark": ""
      },
      "type": "Feature"
    },
    {
      "geometry": {
        "coordinates": [
          139.647909,
          35.444041
        ],
        "type": "Point"
      },
      "properties": {
        "bangumi_id": 11577,
        "bangumi_title": "偶像大师",
        "ep_cut": 8,
        "image_url": "https://w.junreimap.com/images/points/11577/3whrkvr_1755505515281.jpg",
        "location": "横滨",
        "point_id": "3whrkvr",
        "point_name": "中華街東門",
        "remark": ""
      },
      "type": "Feature"
    },
    {
      "geometry": {
        "coordinates": [
          139.647977,
          35.444215
        ],
        "type": "Point"
      },
      "properties": {
        "bangumi_id": 11577,
        "bangumi_title": "偶像大师",
        "ep_cut": 8,
        "image_url": "https://w.junreimap.com/images/points/11577/3whulwo_1755505612199.jpg",
        "location": "横滨",
        "point_id": "3whulwo",
        "point_name": "中华街东门对面",
        "remark": ""
      },
      "type": "Feature"
    },
    {
      "geometry": {
        "coordinates": [
          139.645038,
          35.443194
        ],
        "type": "Point"
      },
      "properties": {
        "bangumi_id": 11577,
        "bangumi_title": "偶像大师",
        "ep_cut": 8,
        "image_url": "https://w.junreimap.com/images/points/11577/3whxqdu_1755505752289.jpg",
        "location": "横滨",
        "point_id": "3whxqdu",
        "point_name": "老維新號",
        "remark": ""
      },
      "type": "Feature"
    },
    {
      "geometry": {
        "coordinates": [
          139.636164,
          35.460288
        ],
        "type": "Point"
      },
      "properties": {
        "bangumi_id": 11577,
        "bangumi_title": "偶像大师",
        "ep_cut": 24,
        "image_url": "https://w.junreimap.com/images/points/11577/3xpiua0_1755578981046.jpg",
        "location": "横滨",
        "point_id": "3xpiua0",
        "point_name": "パシフィコ横浜",
        "remark": ""
      },
      "type": "Feature"
    },
    {
      "geometry": {
        "coordinates": [
          139.635205,
          35.460104
        ],
        "type": "Point"
      },
      "properties": {
        "bangumi_id": 11577,
        "bangumi_title": "偶像大师",
        "ep_cut": 25,
        "image_url": "https://w.junreimap.com/images/points/11577/3xplllw_1755579130220.jpg",
        "location": "横滨",
        "point_id": "3xplllw",
        "point_name": "パシフィコ横浜内部",
        "remark": ""
      },
      "type": "Feature"
    },
    {
      "geometry": {
        "coordinates": [
          139.558996,
          35.650252
        ],
        "type": "Point"
      },
      "properties": {
        "bangumi_id": 11577,
        "bangumi_title": "偶像大师",
        "ep_cut": 7,
        "image_url": "https://w.junreimap.com/images/points/11577/3wi8x4d_1755506311428.jpg",
        "location": "调布",
        "point_id": "3wi8x4d",
        "point_name": "国領南口前",
        "remark": ""
      },
      "type": "Feature"
    },
    {
      "geometry": {
        "coordinates": [
          139.557171,
          35.650532
        ],
        "type": "Point"
      },
      "properties": {
        "bangumi_id": 11577,
        "bangumi_title": "偶像大师",
        "ep_cut": 7,
        "image_url": "https://w.junreimap.com/images/points/11577/3wic414_1755506423747.jpg",
        "location": "调布",
        "point_id": "3wic414",
        "point_name": "国領駅入口",
        "remark": ""
      },
      "type": "Feature"
    },
    {
      "geometry": {
        "coordinates": [
          139.557351,
          35.65566
        ],
        "type": "Point"
      },
      "properties": {
        "bangumi_id": 11577,
        "bangumi_title": "偶像大师",
        "ep_cut": 7,
        "image_url": "https://w.junreimap.com/images/points/11577/3wiin7e_1755506742725.jpg",
        "location": "调布",
        "point_id": "3wiin7e",
        "point_name": "細田橋",
        "remark": ""
      },
      "type": "Feature"
    },
    {
      "geometry": {
        "coordinates": [
          139.55748,
          35.655575
        ],
        "type": "Point"
      },
      "properties": {
        "bangumi_id": 11577,
        "bangumi_title": "偶像大师",
        "ep_cut": 7,
        "image_url": "https://w.junreimap.com/images/points/11577/3wijfon_1755506758337.jpg",
        "location": "调布",
        "point_id": "3wijfon",
        "point_name": "細田橋逺景",
        "remark": ""
      },
      "type": "Feature"
    },
    {
      "geometry": {
        "coordinates": [
          139.554941,
          35.657494
        ],
        "type": "Point"
      },
      "properties": {
        "bangumi_id": 11577,
        "bangumi_title": "偶像大师",
        "ep_cut": 7,
        "image_url": "https://w.junreimap.com/images/points/11577/3wilfq1_1755506891063.jpg",
        "location": "调布",
        "point_id": "3wilfq1",
        "point_name": "大橋",
        "remark": ""
      },
      "type": "Feature"
    },
    {
      "geometry": {
        "coordinates": [
          139.554923,
          35.65744
        ],
        "type": "Point"
      },
      "properties": {
        "bangumi_id": 11577,
        "bangumi_title": "偶像大师",
        "ep_cut": 7,
        "image_url": "https://w.junreimap.com/images/points/11577/3wimip4_1755506904024.jpg",
        "location": "调布",
        "point_id": "3wimip4",
        "point_name": "大橋",
        "remark": ""
      },
      "type": "Feature"
    },
    {
      "geometry": {
        "coordinates": [
          139.555042,
          35.657624
        ],
        "type": "Point"
      },
      "properties": {
        "bangumi_id": 11577,
        "bangumi_title": "偶像大师",
        "ep_cut": 7,
        "image_url": "https://w.junreimap.com/images/points/11577/3winodq_1755506972241.jpg",
        "location": "调布",
        "point_id": "3winodq",
        "point_name": "大橋前",
        "remark": ""
      },
      "type": "Feature"
    },
    {
      "geometry": {
        "coordinates": [
          139.559439,
          35.658988
        ],
        "type": "Point"
      },
      "properties": {
        "bangumi_id": 11577,
        "bangumi_title": "偶像大师",
        "ep_cut": 7,
        "image_url": "https://w.junreimap.com/images/points/11577/3wisak7_1755507196939.jpg",
        "location": "调布",
        "point_id": "3wisak7",
        "point_name": "コーポやよい",
        "remark": "伊織が遊んでいるこの場所"
      },
      "type": "Feature"
    },
    {
      "geometry": {
        "coordinates": [
          139.558754,
          35.659366
        ],
        "type": "Point"
      },
      "properties": {
        "bangumi_id": 11577,
        "bangumi_title": "偶像大师",
        "ep_cut": 7,
        "image_url": "https://w.junreimap.com/images/points/11577/3wiymop_1755507481018.jpg",
        "location": "调布",
        "point_id": "3wiymop",
        "point_name": "佐須公園",
        "remark": ""
      },
      "type": "Feature"
    },
    {
      "geometry": {
        "coordinates": [
          139.68966,
          35.696859
        ],
        "type": "Point"
      },
      "properties": {
        "bangumi_id": 11577,
        "bangumi_title": "偶像大师",
        "ep_cut": 11,
        "image_url": "https://w.junreimap.com/images/user/2202/bangumi/11577/points/9qlvq7q-1768210322119.jpg",
        "location": "",
        "point_id": "9qlvq7q",
        "point_name": "新宿村スタジオ",
        "remark": "此建筑已被拆除重建"
      },
      "type": "Feature"
    }
  ],
  "type": "FeatureCollection"
}