{
  "features": [
    {
      "geometry": {
        "coordinates": [
          48.518345,
          34.803521
        ],
        "type": "Point"
      },
      "properties": {
        "bangumi_id": 116871,
        "bangumi_title": "亚尔斯兰战记",
        "ep_cut": 1,
        "image_url": "https://w.junreimap.com/images/user/0/bangumi/116871/points/oqqu58c02-1727946660481.jpg",
        "location": "",
        "point_id": "oqqu58c02",
        "point_name": "هگمتانه‎",
        "remark": "动画官方网站关于叶克巴达那（エクバターナ）的介绍：帕尔斯的王都。 这是一座巨大的城市，由高大坚固的城墙保护，东西长 1.6 法桑（约 8 公里），南北宽 1.2 法桑（约 6 公里），有九个城门，城门由铁门双层把守，防止外敌进入。 城市内部采用了先进的城市规划系统，形成了有序而优美的城市景观。\n其原型为位于伊朗的波斯古都埃克巴坦那。\n"
      },
      "type": "Feature"
    }
  ],
  "type": "FeatureCollection"
}