{
  "features": [
    {
      "geometry": {
        "coordinates": [
          138.994729,
          36.493785
        ],
        "type": "Point"
      },
      "properties": {
        "bangumi_id": 120495,
        "bangumi_title": "猫耳少女的道草日记",
        "ep_cut": "",
        "image_url": "",
        "location": "",
        "point_id": "51i524cdi",
        "point_name": "黒菜のおうちのモデル",
        "remark": ""
      },
      "type": "Feature"
    },
    {
      "geometry": {
        "coordinates": [
          138.998744,
          36.493259
        ],
        "type": "Point"
      },
      "properties": {
        "bangumi_id": 120495,
        "bangumi_title": "猫耳少女的道草日记",
        "ep_cut": "",
        "image_url": "",
        "location": "",
        "point_id": "51i524cio",
        "point_name": "桜のある公園のモデル",
        "remark": ""
      },
      "type": "Feature"
    },
    {
      "geometry": {
        "coordinates": [
          138.996668,
          36.491971
        ],
        "type": "Point"
      },
      "properties": {
        "bangumi_id": 120495,
        "bangumi_title": "猫耳少女的道草日记",
        "ep_cut": "",
        "image_url": "",
        "location": "",
        "point_id": "51i524cak",
        "point_name": "遊び友達宅近くのコンビニ",
        "remark": ""
      },
      "type": "Feature"
    },
    {
      "geometry": {
        "coordinates": [
          138.990907,
          36.4977
        ],
        "type": "Point"
      },
      "properties": {
        "bangumi_id": 120495,
        "bangumi_title": "猫耳少女的道草日记",
        "ep_cut": "",
        "image_url": "",
        "location": "",
        "point_id": "51i524clm",
        "point_name": "子育て地蔵堂のモデル",
        "remark": ""
      },
      "type": "Feature"
    },
    {
      "geometry": {
        "coordinates": [
          138.989582,
          36.498567
        ],
        "type": "Point"
      },
      "properties": {
        "bangumi_id": 120495,
        "bangumi_title": "猫耳少女的道草日记",
        "ep_cut": "",
        "image_url": "",
        "location": "",
        "point_id": "51i524cim",
        "point_name": "河童の棲む池",
        "remark": ""
      },
      "type": "Feature"
    },
    {
      "geometry": {
        "coordinates": [
          138.990215,
          36.501513
        ],
        "type": "Point"
      },
      "properties": {
        "bangumi_id": 120495,
        "bangumi_title": "猫耳少女的道草日记",
        "ep_cut": "",
        "image_url": "",
        "location": "",
        "point_id": "51i524ce0",
        "point_name": "化け獅子姉妹の神社",
        "remark": ""
      },
      "type": "Feature"
    },
    {
      "geometry": {
        "coordinates": [
          139.001255,
          36.497692
        ],
        "type": "Point"
      },
      "properties": {
        "bangumi_id": 120495,
        "bangumi_title": "猫耳少女的道草日记",
        "ep_cut": "",
        "image_url": "",
        "location": "",
        "point_id": "51i524cn2",
        "point_name": "扉絵風景のモデル",
        "remark": ""
      },
      "type": "Feature"
    },
    {
      "geometry": {
        "coordinates": [
          139.000692,
          36.498039
        ],
        "type": "Point"
      },
      "properties": {
        "bangumi_id": 120495,
        "bangumi_title": "猫耳少女的道草日记",
        "ep_cut": "",
        "image_url": "",
        "location": "",
        "point_id": "51i524cva",
        "point_name": "化け達磨の話の風景",
        "remark": ""
      },
      "type": "Feature"
    },
    {
      "geometry": {
        "coordinates": [
          139.010863,
          36.477706
        ],
        "type": "Point"
      },
      "properties": {
        "bangumi_id": 120495,
        "bangumi_title": "猫耳少女的道草日记",
        "ep_cut": "",
        "image_url": "",
        "location": "",
        "point_id": "51i524cup",
        "point_name": "4巻表紙の風景モデル",
        "remark": "この位置はテスラさんが発見されました。http://blog.livedoor.jp/magicmaidcompany/archives/1735837.html"
      },
      "type": "Feature"
    },
    {
      "geometry": {
        "coordinates": [
          138.994517,
          36.495835
        ],
        "type": "Point"
      },
      "properties": {
        "bangumi_id": 120495,
        "bangumi_title": "猫耳少女的道草日记",
        "ep_cut": "",
        "image_url": "",
        "location": "",
        "point_id": "51i524dfu",
        "point_name": "5巻表紙の風景",
        "remark": "第一話の扉絵が初出かな"
      },
      "type": "Feature"
    },
    {
      "geometry": {
        "coordinates": [
          138.916559,
          36.4983
        ],
        "type": "Point"
      },
      "properties": {
        "bangumi_id": 120495,
        "bangumi_title": "猫耳少女的道草日记",
        "ep_cut": "",
        "image_url": "",
        "location": "",
        "point_id": "51i524del",
        "point_name": "妖怪温泉のモデル",
        "remark": "日帰り入浴専門なので宿泊なしでも入れますよ～作中と同じく牛乳を飲みましょう♪"
      },
      "type": "Feature"
    },
    {
      "geometry": {
        "coordinates": [
          139.011705,
          36.323009
        ],
        "type": "Point"
      },
      "properties": {
        "bangumi_id": 120495,
        "bangumi_title": "猫耳少女的道草日记",
        "ep_cut": "",
        "image_url": "",
        "location": "",
        "point_id": "51i524dep",
        "point_name": "女郎蜘蛛とショッピングに来た街",
        "remark": ""
      },
      "type": "Feature"
    },
    {
      "geometry": {
        "coordinates": [
          138.780005,
          36.697376
        ],
        "type": "Point"
      },
      "properties": {
        "bangumi_id": 120495,
        "bangumi_title": "猫耳少女的道草日记",
        "ep_cut": "",
        "image_url": "",
        "location": "",
        "point_id": "51i524der",
        "point_name": "雪女がツーリングで寄ったダム",
        "remark": "6巻の雪女の話のダムです"
      },
      "type": "Feature"
    },
    {
      "geometry": {
        "coordinates": [
          138.773975,
          36.686299
        ],
        "type": "Point"
      },
      "properties": {
        "bangumi_id": 120495,
        "bangumi_title": "猫耳少女的道草日记",
        "ep_cut": "",
        "image_url": "",
        "location": "",
        "point_id": "51i524d2x",
        "point_name": "雪女がバイクを押して通った橋",
        "remark": ""
      },
      "type": "Feature"
    },
    {
      "geometry": {
        "coordinates": [
          138.774394,
          36.68537
        ],
        "type": "Point"
      },
      "properties": {
        "bangumi_id": 120495,
        "bangumi_title": "猫耳少女的道草日记",
        "ep_cut": "",
        "image_url": "",
        "location": "",
        "point_id": "51i524dl8",
        "point_name": "雪女が送り狼をおにぎりでねぎらった場所",
        "remark": ""
      },
      "type": "Feature"
    },
    {
      "geometry": {
        "coordinates": [
          138.773908,
          36.687065
        ],
        "type": "Point"
      },
      "properties": {
        "bangumi_id": 120495,
        "bangumi_title": "猫耳少女的道草日记",
        "ep_cut": "",
        "image_url": "",
        "location": "",
        "point_id": "51i524d8i",
        "point_name": "雪女が泊まった宿",
        "remark": ""
      },
      "type": "Feature"
    },
    {
      "geometry": {
        "coordinates": [
          138.773535,
          36.685473
        ],
        "type": "Point"
      },
      "properties": {
        "bangumi_id": 120495,
        "bangumi_title": "猫耳少女的道草日记",
        "ep_cut": "",
        "image_url": "",
        "location": "",
        "point_id": "51i524d6y",
        "point_name": "温泉街を俯瞰した風景",
        "remark": ""
      },
      "type": "Feature"
    },
    {
      "geometry": {
        "coordinates": [
          138.774217,
          36.686231
        ],
        "type": "Point"
      },
      "properties": {
        "bangumi_id": 120495,
        "bangumi_title": "猫耳少女的道草日记",
        "ep_cut": "",
        "image_url": "",
        "location": "",
        "point_id": "51i524dll",
        "point_name": "温泉街の風景",
        "remark": ""
      },
      "type": "Feature"
    },
    {
      "geometry": {
        "coordinates": [
          138.774201,
          36.69849
        ],
        "type": "Point"
      },
      "properties": {
        "bangumi_id": 120495,
        "bangumi_title": "猫耳少女的道草日记",
        "ep_cut": "",
        "image_url": "",
        "location": "",
        "point_id": "51i524d5c",
        "point_name": "雪女がバイクを押していたトンネル前",
        "remark": ""
      },
      "type": "Feature"
    },
    {
      "geometry": {
        "coordinates": [
          138.780724,
          36.697118
        ],
        "type": "Point"
      },
      "properties": {
        "bangumi_id": 120495,
        "bangumi_title": "猫耳少女的道草日记",
        "ep_cut": "",
        "image_url": "",
        "location": "",
        "point_id": "51i524d2p",
        "point_name": "雪女が二人で眺めていた場所",
        "remark": ""
      },
      "type": "Feature"
    },
    {
      "geometry": {
        "coordinates": [
          139.00011,
          36.491333
        ],
        "type": "Point"
      },
      "properties": {
        "bangumi_id": 120495,
        "bangumi_title": "猫耳少女的道草日记",
        "ep_cut": "",
        "image_url": "",
        "location": "",
        "point_id": "51i524eau",
        "point_name": "くろなが渡っていた歩道橋",
        "remark": ""
      },
      "type": "Feature"
    },
    {
      "geometry": {
        "coordinates": [
          139.003873,
          36.492316
        ],
        "type": "Point"
      },
      "properties": {
        "bangumi_id": 120495,
        "bangumi_title": "猫耳少女的道草日记",
        "ep_cut": "",
        "image_url": "",
        "location": "",
        "point_id": "51i524dz4",
        "point_name": "銭湯子宝湯モデルの銭湯？",
        "remark": ""
      },
      "type": "Feature"
    },
    {
      "geometry": {
        "coordinates": [
          139.001378,
          36.494585
        ],
        "type": "Point"
      },
      "properties": {
        "bangumi_id": 120495,
        "bangumi_title": "猫耳少女的道草日记",
        "ep_cut": "",
        "image_url": "",
        "location": "",
        "point_id": "51i524e8i",
        "point_name": "6巻表紙",
        "remark": ""
      },
      "type": "Feature"
    },
    {
      "geometry": {
        "coordinates": [
          139.010487,
          36.323636
        ],
        "type": "Point"
      },
      "properties": {
        "bangumi_id": 120495,
        "bangumi_title": "猫耳少女的道草日记",
        "ep_cut": "",
        "image_url": "",
        "location": "",
        "point_id": "51i524dvp",
        "point_name": "第34話扉絵",
        "remark": ""
      },
      "type": "Feature"
    },
    {
      "geometry": {
        "coordinates": [
          139.050926,
          36.397369
        ],
        "type": "Point"
      },
      "properties": {
        "bangumi_id": 120495,
        "bangumi_title": "猫耳少女的道草日记",
        "ep_cut": "",
        "image_url": "",
        "location": "14巻登場場所",
        "point_id": "51i524enw",
        "point_name": "第80話ｐ25　山中うどん",
        "remark": "山田うどん大渡店"
      },
      "type": "Feature"
    },
    {
      "geometry": {
        "coordinates": [
          139.054411,
          36.396021
        ],
        "type": "Point"
      },
      "properties": {
        "bangumi_id": 120495,
        "bangumi_title": "猫耳少女的道草日记",
        "ep_cut": "",
        "image_url": "",
        "location": "14巻登場場所",
        "point_id": "51i524eky",
        "point_name": "第80話ｐ28　利根川近くのシーン",
        "remark": ""
      },
      "type": "Feature"
    },
    {
      "geometry": {
        "coordinates": [
          139.056057,
          36.396708
        ],
        "type": "Point"
      },
      "properties": {
        "bangumi_id": 120495,
        "bangumi_title": "猫耳少女的道草日记",
        "ep_cut": "",
        "image_url": "",
        "location": "14巻登場場所",
        "point_id": "51i524etj",
        "point_name": "第80話ｐ25　中央大橋を望むシーン",
        "remark": ""
      },
      "type": "Feature"
    },
    {
      "geometry": {
        "coordinates": [
          139.052587,
          36.394547
        ],
        "type": "Point"
      },
      "properties": {
        "bangumi_id": 120495,
        "bangumi_title": "猫耳少女的道草日记",
        "ep_cut": "",
        "image_url": "",
        "location": "14巻登場場所",
        "point_id": "51i524evo",
        "point_name": "第80話ｐ24　左折すると～の交差点",
        "remark": ""
      },
      "type": "Feature"
    },
    {
      "geometry": {
        "coordinates": [
          139.052155,
          36.394394
        ],
        "type": "Point"
      },
      "properties": {
        "bangumi_id": 120495,
        "bangumi_title": "猫耳少女的道草日记",
        "ep_cut": "",
        "image_url": "",
        "location": "14巻登場場所",
        "point_id": "51i524fai",
        "point_name": "第80話ｐ24 車のシーン",
        "remark": ""
      },
      "type": "Feature"
    },
    {
      "geometry": {
        "coordinates": [
          139.051246,
          36.397416
        ],
        "type": "Point"
      },
      "properties": {
        "bangumi_id": 120495,
        "bangumi_title": "猫耳少女的道草日记",
        "ep_cut": "",
        "image_url": "",
        "location": "14巻登場場所",
        "point_id": "51i524es0",
        "point_name": "第80話ｐ28　うどん店の帰り道",
        "remark": ""
      },
      "type": "Feature"
    },
    {
      "geometry": {
        "coordinates": [
          139.043931,
          36.392496
        ],
        "type": "Point"
      },
      "properties": {
        "bangumi_id": 120495,
        "bangumi_title": "猫耳少女的道草日记",
        "ep_cut": "",
        "image_url": "",
        "location": "14巻登場場所",
        "point_id": "51i524f88",
        "point_name": "第80話ｐ6　ホテルバイキング",
        "remark": ""
      },
      "type": "Feature"
    },
    {
      "geometry": {
        "coordinates": [
          139.010787,
          36.476795
        ],
        "type": "Point"
      },
      "properties": {
        "bangumi_id": 120495,
        "bangumi_title": "猫耳少女的道草日记",
        "ep_cut": "",
        "image_url": "",
        "location": "14巻登場場所",
        "point_id": "51i524f1o",
        "point_name": "第14巻 巻頭カラー",
        "remark": ""
      },
      "type": "Feature"
    },
    {
      "geometry": {
        "coordinates": [
          139.025199,
          36.467716
        ],
        "type": "Point"
      },
      "properties": {
        "bangumi_id": 120495,
        "bangumi_title": "猫耳少女的道草日记",
        "ep_cut": "",
        "image_url": "",
        "location": "14巻登場場所",
        "point_id": "51i524f0s",
        "point_name": "第85話ｐ138 小川沿い",
        "remark": ""
      },
      "type": "Feature"
    },
    {
      "geometry": {
        "coordinates": [
          139.008482,
          36.473151
        ],
        "type": "Point"
      },
      "properties": {
        "bangumi_id": 120495,
        "bangumi_title": "猫耳少女的道草日记",
        "ep_cut": "",
        "image_url": "",
        "location": "14巻登場場所",
        "point_id": "51i524f1t",
        "point_name": "第85話ｐ138 銀行前",
        "remark": ""
      },
      "type": "Feature"
    },
    {
      "geometry": {
        "coordinates": [
          139.03015,
          36.465331
        ],
        "type": "Point"
      },
      "properties": {
        "bangumi_id": 120495,
        "bangumi_title": "猫耳少女的道草日记",
        "ep_cut": "",
        "image_url": "",
        "location": "14巻登場場所",
        "point_id": "51i524eua",
        "point_name": "第85話ｐ139　道路",
        "remark": ""
      },
      "type": "Feature"
    },
    {
      "geometry": {
        "coordinates": [
          139.031405,
          36.464833
        ],
        "type": "Point"
      },
      "properties": {
        "bangumi_id": 120495,
        "bangumi_title": "猫耳少女的道草日记",
        "ep_cut": "",
        "image_url": "",
        "location": "14巻登場場所",
        "point_id": "51i524fjk",
        "point_name": "第85話ｐ138 道路標識",
        "remark": ""
      },
      "type": "Feature"
    },
    {
      "geometry": {
        "coordinates": [
          139.037274,
          36.464233
        ],
        "type": "Point"
      },
      "properties": {
        "bangumi_id": 120495,
        "bangumi_title": "猫耳少女的道草日记",
        "ep_cut": "",
        "image_url": "",
        "location": "14巻登場場所",
        "point_id": "51i524ffj",
        "point_name": "第85話ｐ143　坂東橋 東端",
        "remark": ""
      },
      "type": "Feature"
    },
    {
      "geometry": {
        "coordinates": [
          139.037435,
          36.463625
        ],
        "type": "Point"
      },
      "properties": {
        "bangumi_id": 120495,
        "bangumi_title": "猫耳少女的道草日记",
        "ep_cut": "",
        "image_url": "",
        "location": "14巻登場場所",
        "point_id": "51i524fpr",
        "point_name": "第85話ｐ144 駐車場所",
        "remark": ""
      },
      "type": "Feature"
    },
    {
      "geometry": {
        "coordinates": [
          139.002349,
          36.508282
        ],
        "type": "Point"
      },
      "properties": {
        "bangumi_id": 120495,
        "bangumi_title": "猫耳少女的道草日记",
        "ep_cut": "",
        "image_url": "",
        "location": "14巻登場場所",
        "point_id": "51i524fi1",
        "point_name": "第84話ｐ111",
        "remark": ""
      },
      "type": "Feature"
    },
    {
      "geometry": {
        "coordinates": [
          139.00303,
          36.507596
        ],
        "type": "Point"
      },
      "properties": {
        "bangumi_id": 120495,
        "bangumi_title": "猫耳少女的道草日记",
        "ep_cut": "",
        "image_url": "",
        "location": "14巻登場場所",
        "point_id": "51i524fni",
        "point_name": "第84話ｐ110 化け鼠ちゃん休憩",
        "remark": ""
      },
      "type": "Feature"
    },
    {
      "geometry": {
        "coordinates": [
          139.002403,
          36.505322
        ],
        "type": "Point"
      },
      "properties": {
        "bangumi_id": 120495,
        "bangumi_title": "猫耳少女的道草日记",
        "ep_cut": "",
        "image_url": "",
        "location": "14巻登場場所",
        "point_id": "51i524fgx",
        "point_name": "第84話ｐ111線路沿いシーン",
        "remark": ""
      },
      "type": "Feature"
    },
    {
      "geometry": {
        "coordinates": [
          139.003545,
          36.494797
        ],
        "type": "Point"
      },
      "properties": {
        "bangumi_id": 120495,
        "bangumi_title": "猫耳少女的道草日记",
        "ep_cut": "",
        "image_url": "",
        "location": "14巻登場場所",
        "point_id": "51i524fho",
        "point_name": "第85話ｐ119 化け鼠娘とすべり台",
        "remark": ""
      },
      "type": "Feature"
    }
  ],
  "type": "FeatureCollection"
}