{
  "features": [
    {
      "geometry": {
        "coordinates": [
          135.746416,
          35.032408
        ],
        "type": "Point"
      },
      "properties": {
        "bangumi_id": 138886,
        "bangumi_title": "偶像大师 灰姑娘女孩 星光舞台",
        "ep_cut": "",
        "image_url": "https://w.junreimap.com/images/user/0/bangumi/138886/points/3vo9pb7-1755455975230.jpg",
        "location": "",
        "point_id": "3vo9pb7",
        "point_name": "北向山 雨宝院 大聖歓喜寺（西陣聖天）",
        "remark": "[花舞うまほろば]小早川紗枝"
      },
      "type": "Feature"
    },
    {
      "geometry": {
        "coordinates": [
          135.785954,
          35.046077
        ],
        "type": "Point"
      },
      "properties": {
        "bangumi_id": 138886,
        "bangumi_title": "偶像大师 灰姑娘女孩 星光舞台",
        "ep_cut": "",
        "image_url": "https://w.junreimap.com/images/points/138886/3zg3jvg_1755684112102.jpg",
        "location": "",
        "point_id": "3zg3jvg",
        "point_name": "天天有 一乗寺本店",
        "remark": "［羽衣小町］塩見周子"
      },
      "type": "Feature"
    },
    {
      "geometry": {
        "coordinates": [
          135.763089,
          35.121599
        ],
        "type": "Point"
      },
      "properties": {
        "bangumi_id": 138886,
        "bangumi_title": "偶像大师 灰姑娘女孩 星光舞台",
        "ep_cut": "",
        "image_url": "https://w.junreimap.com/images/points/138886/3zg5hcs_1755684217557.jpg",
        "location": "",
        "point_id": "3zg5hcs",
        "point_name": "貴船神社",
        "remark": "［羽衣小町］小早川紗枝+"
      },
      "type": "Feature"
    },
    {
      "geometry": {
        "coordinates": [
          135.763047,
          35.121597
        ],
        "type": "Point"
      },
      "properties": {
        "bangumi_id": 138886,
        "bangumi_title": "偶像大师 灰姑娘女孩 星光舞台",
        "ep_cut": "",
        "image_url": "https://w.junreimap.com/images/points/138886/3zg67ee_1755684224524.jpg",
        "location": "",
        "point_id": "3zg67ee",
        "point_name": "貴船神社",
        "remark": "［羽衣小町］塩見周子+"
      },
      "type": "Feature"
    },
    {
      "geometry": {
        "coordinates": [
          135.782436,
          35.015953
        ],
        "type": "Point"
      },
      "properties": {
        "bangumi_id": 138886,
        "bangumi_title": "偶像大师 灰姑娘女孩 星光舞台",
        "ep_cut": "",
        "image_url": "https://w.junreimap.com/images/points/138886/3zfzfwl_1755683964068.jpg",
        "location": "",
        "point_id": "3zfzfwl",
        "point_name": "平安神宮",
        "remark": "［美に入り彩を穿つ］塩見周子+"
      },
      "type": "Feature"
    },
    {
      "geometry": {
        "coordinates": [
          135.782457,
          35.015953
        ],
        "type": "Point"
      },
      "properties": {
        "bangumi_id": 138886,
        "bangumi_title": "偶像大师 灰姑娘女孩 星光舞台",
        "ep_cut": "",
        "image_url": "https://w.junreimap.com/images/points/138886/3zfzgpa_1755683879653.jpg",
        "location": "",
        "point_id": "3zfzgpa",
        "point_name": "平安神宮",
        "remark": "［美に入り彩を穿つ］小早川紗枝+"
      },
      "type": "Feature"
    },
    {
      "geometry": {
        "coordinates": [
          135.808615,
          35.063378
        ],
        "type": "Point"
      },
      "properties": {
        "bangumi_id": 138886,
        "bangumi_title": "偶像大师 灰姑娘女孩 星光舞台",
        "ep_cut": "",
        "image_url": "https://w.junreimap.com/images/points/138886/3zg2g3k_1755684007731.jpg",
        "location": "",
        "point_id": "3zg2g3k",
        "point_name": "光明寺瑠璃光院",
        "remark": "［深紅の心化粧］小早川紗枝+\n现实无法还原该角度"
      },
      "type": "Feature"
    },
    {
      "geometry": {
        "coordinates": [
          135.759099,
          34.986583
        ],
        "type": "Point"
      },
      "properties": {
        "bangumi_id": 138886,
        "bangumi_title": "偶像大师 灰姑娘女孩 星光舞台",
        "ep_cut": "",
        "image_url": "https://w.junreimap.com/images/points/138886/40ul0aa_1755768856655.jpg",
        "location": "",
        "point_id": "40ul0aa",
        "point_name": "京都駅",
        "remark": "［美に入り彩を穿つ］小早川紗枝"
      },
      "type": "Feature"
    },
    {
      "geometry": {
        "coordinates": [
          135.74585,
          34.984544
        ],
        "type": "Point"
      },
      "properties": {
        "bangumi_id": 138886,
        "bangumi_title": "偶像大师 灰姑娘女孩 星光舞台",
        "ep_cut": "",
        "image_url": "https://w.junreimap.com/images/points/138886/40vt69v_1755770920957.jpg",
        "location": "",
        "point_id": "40vt69v",
        "point_name": "六孫王神社",
        "remark": "［シンデレラガール］塩見周子"
      },
      "type": "Feature"
    },
    {
      "geometry": {
        "coordinates": [
          135.77029,
          35.004159
        ],
        "type": "Point"
      },
      "properties": {
        "bangumi_id": 138886,
        "bangumi_title": "偶像大师 灰姑娘女孩 星光舞台",
        "ep_cut": "",
        "image_url": "https://w.junreimap.com/images/points/138886/40vw95r_1755771058338.jpg",
        "location": "",
        "point_id": "40vw95r",
        "point_name": "喫茶ソワレ",
        "remark": "［蝶のはなむけ］塩見周子"
      },
      "type": "Feature"
    }
  ],
  "type": "FeatureCollection"
}