{
  "features": [
    {
      "geometry": {
        "coordinates": [
          140.334377,
          40.730739
        ],
        "type": "Point"
      },
      "properties": {
        "bangumi_id": 141799,
        "bangumi_title": "飞翔的魔女",
        "ep_cut": "",
        "image_url": "https://w.junreimap.com/images/points/141799/3ia3gyg7.jpg",
        "location": "",
        "point_id": "3ia3gyg7",
        "point_name": "巌鬼山神社",
        "remark": ""
      },
      "type": "Feature"
    },
    {
      "geometry": {
        "coordinates": [
          140.468166,
          40.60738
        ],
        "type": "Point"
      },
      "properties": {
        "bangumi_id": 141799,
        "bangumi_title": "飞翔的魔女",
        "ep_cut": "",
        "image_url": "https://w.junreimap.com/images/points/141799/3ia3gysf.jpg",
        "location": "",
        "point_id": "3ia3gysf",
        "point_name": "弘前城追手門前",
        "remark": ""
      },
      "type": "Feature"
    },
    {
      "geometry": {
        "coordinates": [
          140.467672,
          40.607192
        ],
        "type": "Point"
      },
      "properties": {
        "bangumi_id": 141799,
        "bangumi_title": "飞翔的魔女",
        "ep_cut": "",
        "image_url": "https://w.junreimap.com/images/points/141799/3ia3gynb.jpg",
        "location": "",
        "point_id": "3ia3gynb",
        "point_name": "弘前城追手門前",
        "remark": ""
      },
      "type": "Feature"
    },
    {
      "geometry": {
        "coordinates": [
          140.467136,
          40.607266
        ],
        "type": "Point"
      },
      "properties": {
        "bangumi_id": 141799,
        "bangumi_title": "飞翔的魔女",
        "ep_cut": "",
        "image_url": "https://w.junreimap.com/images/points/141799/3ia3gyp4.jpg",
        "location": "",
        "point_id": "3ia3gyp4",
        "point_name": "弘前城内（追手門付近）",
        "remark": ""
      },
      "type": "Feature"
    },
    {
      "geometry": {
        "coordinates": [
          140.463531,
          40.606606
        ],
        "type": "Point"
      },
      "properties": {
        "bangumi_id": 141799,
        "bangumi_title": "飞翔的魔女",
        "ep_cut": "",
        "image_url": "https://w.junreimap.com/images/points/141799/3ia3gz4j.jpg",
        "location": "",
        "point_id": "3ia3gz4j",
        "point_name": "弘前城内（南内門付近）",
        "remark": ""
      },
      "type": "Feature"
    },
    {
      "geometry": {
        "coordinates": [
          140.466664,
          40.610984
        ],
        "type": "Point"
      },
      "properties": {
        "bangumi_id": 141799,
        "bangumi_title": "飞翔的魔女",
        "ep_cut": "",
        "image_url": "https://w.junreimap.com/images/points/141799/3ia3gyma.jpg",
        "location": "",
        "point_id": "3ia3gyma",
        "point_name": "弘前城内（四の丸）",
        "remark": ""
      },
      "type": "Feature"
    },
    {
      "geometry": {
        "coordinates": [
          140.463456,
          40.610035
        ],
        "type": "Point"
      },
      "properties": {
        "bangumi_id": 141799,
        "bangumi_title": "飞翔的魔女",
        "ep_cut": "",
        "image_url": "https://w.junreimap.com/images/points/141799/3ia3gyfs.jpg",
        "location": "",
        "point_id": "3ia3gyfs",
        "point_name": "弘前城内（波祢橋）",
        "remark": ""
      },
      "type": "Feature"
    },
    {
      "geometry": {
        "coordinates": [
          140.463215,
          40.610096
        ],
        "type": "Point"
      },
      "properties": {
        "bangumi_id": 141799,
        "bangumi_title": "飞翔的魔女",
        "ep_cut": "",
        "image_url": "https://w.junreimap.com/images/points/141799/3ia3gyx7.jpg",
        "location": "",
        "point_id": "3ia3gyx7",
        "point_name": "弘前城内（波祢橋付近）",
        "remark": ""
      },
      "type": "Feature"
    },
    {
      "geometry": {
        "coordinates": [
          140.462679,
          40.610059
        ],
        "type": "Point"
      },
      "properties": {
        "bangumi_id": 141799,
        "bangumi_title": "飞翔的魔女",
        "ep_cut": "",
        "image_url": "https://w.junreimap.com/images/points/141799/3ia3gyvv.jpg",
        "location": "",
        "point_id": "3ia3gyvv",
        "point_name": "弘前城内（春陽橋）",
        "remark": ""
      },
      "type": "Feature"
    },
    {
      "geometry": {
        "coordinates": [
          140.413929,
          40.588659
        ],
        "type": "Point"
      },
      "properties": {
        "bangumi_id": 141799,
        "bangumi_title": "飞翔的魔女",
        "ep_cut": "",
        "image_url": "https://w.junreimap.com/images/points/141799/3ia3gyt6.jpg",
        "location": "",
        "point_id": "3ia3gyt6",
        "point_name": "ローソン弘前湯口店",
        "remark": ""
      },
      "type": "Feature"
    },
    {
      "geometry": {
        "coordinates": [
          140.435722,
          40.593637
        ],
        "type": "Point"
      },
      "properties": {
        "bangumi_id": 141799,
        "bangumi_title": "飞翔的魔女",
        "ep_cut": 1,
        "image_url": "https://w.junreimap.com/images/user/2173/bangumi/141799/points/3ia3gz7r-1785738758191.webp",
        "location": "",
        "point_id": "3ia3gz7r",
        "point_name": "国道２８号線悪戸付近",
        "remark": ""
      },
      "type": "Feature"
    },
    {
      "geometry": {
        "coordinates": [
          140.420291,
          40.58772
        ],
        "type": "Point"
      },
      "properties": {
        "bangumi_id": 141799,
        "bangumi_title": "飞翔的魔女",
        "ep_cut": 1,
        "image_url": "https://w.junreimap.com/images/user/2173/bangumi/141799/points/3ia3gzi6-1785738779910.webp",
        "location": "",
        "point_id": "3ia3gzi6",
        "point_name": "下湯口バス停",
        "remark": ""
      },
      "type": "Feature"
    },
    {
      "geometry": {
        "coordinates": [
          140.485053,
          40.599095
        ],
        "type": "Point"
      },
      "properties": {
        "bangumi_id": 141799,
        "bangumi_title": "飞翔的魔女",
        "ep_cut": 1,
        "image_url": "https://w.junreimap.com/images/user/2173/bangumi/141799/points/3ia3gzfx-1785738791096.webp",
        "location": "",
        "point_id": "3ia3gzfx",
        "point_name": "弘前駅",
        "remark": ""
      },
      "type": "Feature"
    },
    {
      "geometry": {
        "coordinates": [
          140.484425,
          40.598674
        ],
        "type": "Point"
      },
      "properties": {
        "bangumi_id": 141799,
        "bangumi_title": "飞翔的魔女",
        "ep_cut": 1,
        "image_url": "https://w.junreimap.com/images/user/2173/bangumi/141799/points/3ia3gzlv-1785738816678.webp",
        "location": "",
        "point_id": "3ia3gzlv",
        "point_name": "弘前駅前バスプール",
        "remark": ""
      },
      "type": "Feature"
    },
    {
      "geometry": {
        "coordinates": [
          140.483841,
          40.598205
        ],
        "type": "Point"
      },
      "properties": {
        "bangumi_id": 141799,
        "bangumi_title": "飞翔的魔女",
        "ep_cut": 1,
        "image_url": "https://w.junreimap.com/images/user/2173/bangumi/141799/points/3ia3gzk9-1785738829871.webp",
        "location": "",
        "point_id": "3ia3gzk9",
        "point_name": "ホテルナクアシティ弘前前",
        "remark": ""
      },
      "type": "Feature"
    },
    {
      "geometry": {
        "coordinates": [
          140.448151,
          40.610141
        ],
        "type": "Point"
      },
      "properties": {
        "bangumi_id": 141799,
        "bangumi_title": "飞翔的魔女",
        "ep_cut": 1,
        "image_url": "https://w.junreimap.com/images/user/2173/bangumi/141799/points/3ia3gzm4-1785738837268.webp",
        "location": "",
        "point_id": "3ia3gzm4",
        "point_name": "ふじみ橋北詰",
        "remark": ""
      },
      "type": "Feature"
    },
    {
      "geometry": {
        "coordinates": [
          140.420181,
          40.587788
        ],
        "type": "Point"
      },
      "properties": {
        "bangumi_id": 141799,
        "bangumi_title": "飞翔的魔女",
        "ep_cut": 1,
        "image_url": "https://w.junreimap.com/images/user/2173/bangumi/141799/points/3ia3gzo5-1785738864068.webp",
        "location": "",
        "point_id": "3ia3gzo5",
        "point_name": "下湯口バス停前",
        "remark": ""
      },
      "type": "Feature"
    },
    {
      "geometry": {
        "coordinates": [
          140.444112,
          40.602615
        ],
        "type": "Point"
      },
      "properties": {
        "bangumi_id": 141799,
        "bangumi_title": "飞翔的魔女",
        "ep_cut": 1,
        "image_url": "https://w.junreimap.com/images/user/2173/bangumi/141799/points/3ia3gzri-1785738879367.webp",
        "location": "",
        "point_id": "3ia3gzri",
        "point_name": "イオンタウン弘前樋の口店",
        "remark": ""
      },
      "type": "Feature"
    },
    {
      "geometry": {
        "coordinates": [
          140.391809,
          40.582842
        ],
        "type": "Point"
      },
      "properties": {
        "bangumi_id": 141799,
        "bangumi_title": "飞翔的魔女",
        "ep_cut": 1,
        "image_url": "https://w.junreimap.com/images/user/2173/bangumi/141799/points/3ia3gzhl-1785738885740.webp",
        "location": "",
        "point_id": "3ia3gzhl",
        "point_name": "紙漉澤橋（かみすきさわばし）",
        "remark": "OP・第一話："
      },
      "type": "Feature"
    },
    {
      "geometry": {
        "coordinates": [
          140.466905,
          40.612263
        ],
        "type": "Point"
      },
      "properties": {
        "bangumi_id": 141799,
        "bangumi_title": "飞翔的魔女",
        "ep_cut": 1,
        "image_url": "https://w.junreimap.com/images/user/2173/bangumi/141799/points/3ia3gzsw-1785738916960.webp",
        "location": "",
        "point_id": "3ia3gzsw",
        "point_name": "石場家",
        "remark": ""
      },
      "type": "Feature"
    },
    {
      "geometry": {
        "coordinates": [
          140.470473,
          40.571564
        ],
        "type": "Point"
      },
      "properties": {
        "bangumi_id": 141799,
        "bangumi_title": "飞翔的魔女",
        "ep_cut": 1,
        "image_url": "https://w.junreimap.com/images/user/2173/bangumi/141799/points/3ia3gzrm-1785738920242.webp",
        "location": "",
        "point_id": "3ia3gzrm",
        "point_name": "弘前学院聖愛中学高等学校",
        "remark": ""
      },
      "type": "Feature"
    },
    {
      "geometry": {
        "coordinates": [
          140.461117,
          40.569518
        ],
        "type": "Point"
      },
      "properties": {
        "bangumi_id": 141799,
        "bangumi_title": "飞翔的魔女",
        "ep_cut": 1,
        "image_url": "https://w.junreimap.com/images/user/2173/bangumi/141799/points/3ia3gzk8-1785738923832.webp",
        "location": "",
        "point_id": "3ia3gzk8",
        "point_name": "陸上自衛隊弘前駐屯地付近",
        "remark": ""
      },
      "type": "Feature"
    },
    {
      "geometry": {
        "coordinates": [
          140.420895,
          40.587596
        ],
        "type": "Point"
      },
      "properties": {
        "bangumi_id": 141799,
        "bangumi_title": "飞翔的魔女",
        "ep_cut": 1,
        "image_url": "https://w.junreimap.com/images/user/2173/bangumi/141799/points/3ia3gzt6-1785738962897.webp",
        "location": "",
        "point_id": "3ia3gzt6",
        "point_name": "下湯口三叉路",
        "remark": "OP・第二、五話"
      },
      "type": "Feature"
    },
    {
      "geometry": {
        "coordinates": [
          140.417333,
          40.588305
        ],
        "type": "Point"
      },
      "properties": {
        "bangumi_id": 141799,
        "bangumi_title": "飞翔的魔女",
        "ep_cut": 3,
        "image_url": "https://w.junreimap.com/images/user/2173/bangumi/141799/points/3ia3gzqj-1785738965615.webp",
        "location": "",
        "point_id": "3ia3gzqj",
        "point_name": "神明宮",
        "remark": "OP・第三話"
      },
      "type": "Feature"
    },
    {
      "geometry": {
        "coordinates": [
          140.461417,
          40.60358
        ],
        "type": "Point"
      },
      "properties": {
        "bangumi_id": 141799,
        "bangumi_title": "飞翔的魔女",
        "ep_cut": 7,
        "image_url": "https://w.junreimap.com/images/points/141799/3ia3gzmk.jpg",
        "location": "",
        "point_id": "3ia3gzmk",
        "point_name": "藤田記念庭園・大正浪漫喫茶室",
        "remark": ""
      },
      "type": "Feature"
    },
    {
      "geometry": {
        "coordinates": [
          140.441762,
          40.588818
        ],
        "type": "Point"
      },
      "properties": {
        "bangumi_id": 141799,
        "bangumi_title": "飞翔的魔女",
        "ep_cut": 2,
        "image_url": "https://w.junreimap.com/images/user/2173/bangumi/141799/points/3ia3gzx8-1785738969429.webp",
        "location": "",
        "point_id": "3ia3gzx8",
        "point_name": "りんご公園",
        "remark": ""
      },
      "type": "Feature"
    },
    {
      "geometry": {
        "coordinates": [
          140.340675,
          40.621852
        ],
        "type": "Point"
      },
      "properties": {
        "bangumi_id": 141799,
        "bangumi_title": "飞翔的魔女",
        "ep_cut": 2,
        "image_url": "https://w.junreimap.com/images/user/2173/bangumi/141799/points/3ia3gztl-1785739000115.webp",
        "location": "",
        "point_id": "3ia3gztl",
        "point_name": "岩木山神社",
        "remark": ""
      },
      "type": "Feature"
    },
    {
      "geometry": {
        "coordinates": [
          140.464271,
          40.607103
        ],
        "type": "Point"
      },
      "properties": {
        "bangumi_id": 141799,
        "bangumi_title": "飞翔的魔女",
        "ep_cut": 2,
        "image_url": "https://w.junreimap.com/images/user/2173/bangumi/141799/points/3ia3gz5w-1785739002850.webp",
        "location": "",
        "point_id": "3ia3gz5w",
        "point_name": "弘前城（下乗橋より）",
        "remark": ""
      },
      "type": "Feature"
    },
    {
      "geometry": {
        "coordinates": [
          140.466707,
          40.603867
        ],
        "type": "Point"
      },
      "properties": {
        "bangumi_id": 141799,
        "bangumi_title": "飞翔的魔女",
        "ep_cut": 2,
        "image_url": "https://w.junreimap.com/images/user/2173/bangumi/141799/points/3ia3gzh9-1785739009846.webp",
        "location": "",
        "point_id": "3ia3gzh9",
        "point_name": "弘前城植物園",
        "remark": ""
      },
      "type": "Feature"
    },
    {
      "geometry": {
        "coordinates": [
          140.468659,
          40.596375
        ],
        "type": "Point"
      },
      "properties": {
        "bangumi_id": 141799,
        "bangumi_title": "飞翔的魔女",
        "ep_cut": 2,
        "image_url": "https://w.junreimap.com/images/user/2173/bangumi/141799/points/3ia3gz7a-1785739038319.webp",
        "location": "",
        "point_id": "3ia3gz7a",
        "point_name": "最勝院",
        "remark": ""
      },
      "type": "Feature"
    },
    {
      "geometry": {
        "coordinates": [
          140.425551,
          40.590989
        ],
        "type": "Point"
      },
      "properties": {
        "bangumi_id": 141799,
        "bangumi_title": "飞翔的魔女",
        "ep_cut": 2,
        "image_url": "https://w.junreimap.com/images/user/2173/bangumi/141799/points/3ia3h0ov-1785739042106.webp",
        "location": "",
        "point_id": "3ia3h0ov",
        "point_name": "青柳小学校付近",
        "remark": ""
      },
      "type": "Feature"
    },
    {
      "geometry": {
        "coordinates": [
          140.417199,
          40.58448
        ],
        "type": "Point"
      },
      "properties": {
        "bangumi_id": 141799,
        "bangumi_title": "飞翔的魔女",
        "ep_cut": 7,
        "image_url": "https://w.junreimap.com/images/user/2173/bangumi/141799/points/3ia3h0lc-1785739045422.webp",
        "location": "",
        "point_id": "3ia3h0lc",
        "point_name": "下湯口奥三叉路",
        "remark": "第二・七話"
      },
      "type": "Feature"
    },
    {
      "geometry": {
        "coordinates": [
          140.417467,
          40.58705
        ],
        "type": "Point"
      },
      "properties": {
        "bangumi_id": 141799,
        "bangumi_title": "飞翔的魔女",
        "ep_cut": 5,
        "image_url": "https://w.junreimap.com/images/user/2173/bangumi/141799/points/3ia3h08z-1785739078487.webp",
        "location": "",
        "point_id": "3ia3h08z",
        "point_name": "神明宮付近（チトが歩く道路）",
        "remark": ""
      },
      "type": "Feature"
    },
    {
      "geometry": {
        "coordinates": [
          140.417097,
          40.58728
        ],
        "type": "Point"
      },
      "properties": {
        "bangumi_id": 141799,
        "bangumi_title": "飞翔的魔女",
        "ep_cut": 5,
        "image_url": "https://w.junreimap.com/images/user/2173/bangumi/141799/points/3ia3h089-1785739081431.webp",
        "location": "",
        "point_id": "3ia3h089",
        "point_name": "神明宮付近（人面の木戸）",
        "remark": ""
      },
      "type": "Feature"
    },
    {
      "geometry": {
        "coordinates": [
          140.418392,
          40.587561
        ],
        "type": "Point"
      },
      "properties": {
        "bangumi_id": 141799,
        "bangumi_title": "飞翔的魔女",
        "ep_cut": 5,
        "image_url": "https://w.junreimap.com/images/user/2173/bangumi/141799/points/3ia3h02b-1785739086118.webp",
        "location": "",
        "point_id": "3ia3h02b",
        "point_name": "下湯口バス停付近（犬を飼われていたところ）",
        "remark": ""
      },
      "type": "Feature"
    },
    {
      "geometry": {
        "coordinates": [
          140.454959,
          40.594908
        ],
        "type": "Point"
      },
      "properties": {
        "bangumi_id": 141799,
        "bangumi_title": "飞翔的魔女",
        "ep_cut": 5,
        "image_url": "",
        "location": "",
        "point_id": "3ia3h0cj",
        "point_name": "寺沢川茂森新町緑地",
        "remark": ""
      },
      "type": "Feature"
    },
    {
      "geometry": {
        "coordinates": [
          140.420323,
          40.58801
        ],
        "type": "Point"
      },
      "properties": {
        "bangumi_id": 141799,
        "bangumi_title": "飞翔的魔女",
        "ep_cut": 5,
        "image_url": "https://w.junreimap.com/images/user/2173/bangumi/141799/points/3ia3h02k-1785739851418.webp",
        "location": "",
        "point_id": "3ia3h02k",
        "point_name": "下湯口農業研修会館",
        "remark": ""
      },
      "type": "Feature"
    },
    {
      "geometry": {
        "coordinates": [
          140.41476,
          40.58881
        ],
        "type": "Point"
      },
      "properties": {
        "bangumi_id": 141799,
        "bangumi_title": "飞翔的魔女",
        "ep_cut": 5,
        "image_url": "https://w.junreimap.com/images/user/2173/bangumi/141799/points/3ia3gzzx-1785739498550.webp",
        "location": "",
        "point_id": "3ia3gzzx",
        "point_name": "とちない橋",
        "remark": ""
      },
      "type": "Feature"
    },
    {
      "geometry": {
        "coordinates": [
          140.39014,
          40.583231
        ],
        "type": "Point"
      },
      "properties": {
        "bangumi_id": 141799,
        "bangumi_title": "飞翔的魔女",
        "ep_cut": 5,
        "image_url": "https://w.junreimap.com/images/user/2173/bangumi/141799/points/3ia3h0c9-1785739501626.webp",
        "location": "",
        "point_id": "3ia3h0c9",
        "point_name": "紙漉澤排水処理施設前の東屋",
        "remark": ""
      },
      "type": "Feature"
    },
    {
      "geometry": {
        "coordinates": [
          140.420978,
          40.58745
        ],
        "type": "Point"
      },
      "properties": {
        "bangumi_id": 141799,
        "bangumi_title": "飞翔的魔女",
        "ep_cut": 5,
        "image_url": "https://w.junreimap.com/images/user/2173/bangumi/141799/points/3ia3h0iw-1785739504814.webp",
        "location": "",
        "point_id": "3ia3h0iw",
        "point_name": "下湯口三叉路（酒の届け先）",
        "remark": ""
      },
      "type": "Feature"
    },
    {
      "geometry": {
        "coordinates": [
          140.391472,
          40.58128
        ],
        "type": "Point"
      },
      "properties": {
        "bangumi_id": 141799,
        "bangumi_title": "飞翔的魔女",
        "ep_cut": 7,
        "image_url": "https://w.junreimap.com/images/user/2173/bangumi/141799/points/3ia3h07o-1785739532160.webp",
        "location": "",
        "point_id": "3ia3h07o",
        "point_name": "弘前市立相馬中学校",
        "remark": "图中建筑为相馬こども園，在河对岸"
      },
      "type": "Feature"
    },
    {
      "geometry": {
        "coordinates": [
          140.278115,
          40.581725
        ],
        "type": "Point"
      },
      "properties": {
        "bangumi_id": 141799,
        "bangumi_title": "飞翔的魔女",
        "ep_cut": 7,
        "image_url": "https://w.junreimap.com/images/user/2173/bangumi/141799/points/3ia3h0bd-1785739536460.webp",
        "location": "",
        "point_id": "3ia3h0bd",
        "point_name": "西目屋村下大秋入口",
        "remark": ""
      },
      "type": "Feature"
    },
    {
      "geometry": {
        "coordinates": [
          140.426254,
          40.595705
        ],
        "type": "Point"
      },
      "properties": {
        "bangumi_id": 141799,
        "bangumi_title": "飞翔的魔女",
        "ep_cut": 11,
        "image_url": "https://w.junreimap.com/images/user/2173/bangumi/141799/points/3ia3h0m7-1785739539207.webp",
        "location": "",
        "point_id": "3ia3h0m7",
        "point_name": "１２９号線悪戸付近",
        "remark": ""
      },
      "type": "Feature"
    },
    {
      "geometry": {
        "coordinates": [
          140.47273,
          40.598246
        ],
        "type": "Point"
      },
      "properties": {
        "bangumi_id": 141799,
        "bangumi_title": "飞翔的魔女",
        "ep_cut": 12,
        "image_url": "https://w.junreimap.com/images/user/2173/bangumi/141799/points/3ia3h00h-1785739855209.webp",
        "location": "",
        "point_id": "3ia3h00h",
        "point_name": "吉井酒造煉瓦倉庫",
        "remark": ""
      },
      "type": "Feature"
    },
    {
      "geometry": {
        "coordinates": [
          140.471499,
          40.598554
        ],
        "type": "Point"
      },
      "properties": {
        "bangumi_id": 141799,
        "bangumi_title": "飞翔的魔女",
        "ep_cut": 12,
        "image_url": "https://w.junreimap.com/images/user/2173/bangumi/141799/points/3ia3h005-1785739864167.webp",
        "location": "",
        "point_id": "3ia3h005",
        "point_name": "たそがれ橋",
        "remark": ""
      },
      "type": "Feature"
    },
    {
      "geometry": {
        "coordinates": [
          140.472272,
          40.603708
        ],
        "type": "Point"
      },
      "properties": {
        "bangumi_id": 141799,
        "bangumi_title": "飞翔的魔女",
        "ep_cut": 12,
        "image_url": "https://w.junreimap.com/images/user/2173/bangumi/141799/points/3ia3gzy9-1785739893103.webp",
        "location": "",
        "point_id": "3ia3gzy9",
        "point_name": "しまや",
        "remark": ""
      },
      "type": "Feature"
    },
    {
      "geometry": {
        "coordinates": [
          139.649545,
          35.445891
        ],
        "type": "Point"
      },
      "properties": {
        "bangumi_id": 141799,
        "bangumi_title": "飞翔的魔女",
        "ep_cut": 2,
        "image_url": "https://w.junreimap.com/images/user/2173/bangumi/141799/points/3ia3h08t-1785739896357.webp",
        "location": "",
        "point_id": "3ia3h08t",
        "point_name": "横浜市・山下公園",
        "remark": ""
      },
      "type": "Feature"
    },
    {
      "geometry": {
        "coordinates": [
          139.647081,
          35.647658
        ],
        "type": "Point"
      },
      "properties": {
        "bangumi_id": 141799,
        "bangumi_title": "飞翔的魔女",
        "ep_cut": "",
        "image_url": "https://w.junreimap.com/images/points/141799/shhkhtkp2_1738508468249.jpg",
        "location": "",
        "point_id": "shhkhtkp2",
        "point_name": "豪徳寺",
        "remark": "10巻"
      },
      "type": "Feature"
    },
    {
      "geometry": {
        "coordinates": [
          140.461328,
          40.603578
        ],
        "type": "Point"
      },
      "properties": {
        "bangumi_id": 141799,
        "bangumi_title": "飞翔的魔女",
        "ep_cut": "",
        "image_url": "https://w.junreimap.com/images/user/2173/bangumi/141799/points/hsilamf-1785739943500.webp",
        "location": "",
        "point_id": "hsilamf",
        "point_name": "大正浪漫喫茶室",
        "remark": ""
      },
      "type": "Feature"
    },
    {
      "geometry": {
        "coordinates": [
          140.392,
          40.582776
        ],
        "type": "Point"
      },
      "properties": {
        "bangumi_id": 141799,
        "bangumi_title": "飞翔的魔女",
        "ep_cut": "",
        "image_url": "https://w.junreimap.com/images/user/2173/bangumi/141799/points/hsimsmj-1785740004813.webp",
        "location": "",
        "point_id": "hsimsmj",
        "point_name": "紙漉澤橋（かみすきさわばし）",
        "remark": ""
      },
      "type": "Feature"
    },
    {
      "geometry": {
        "coordinates": [
          140.461392,
          40.60344
        ],
        "type": "Point"
      },
      "properties": {
        "bangumi_id": 141799,
        "bangumi_title": "飞翔的魔女",
        "ep_cut": 7,
        "image_url": "https://w.junreimap.com/images/user/2173/bangumi/141799/points/hsivuqg-1785740444509.webp",
        "location": "",
        "point_id": "hsivuqg",
        "point_name": "大正浪漫喫茶室",
        "remark": ""
      },
      "type": "Feature"
    },
    {
      "geometry": {
        "coordinates": [
          140.461436,
          40.603421
        ],
        "type": "Point"
      },
      "properties": {
        "bangumi_id": 141799,
        "bangumi_title": "飞翔的魔女",
        "ep_cut": 7,
        "image_url": "https://w.junreimap.com/images/user/2173/bangumi/141799/points/hsiwy3i-1785740482842.webp",
        "location": "",
        "point_id": "hsiwy3i",
        "point_name": "大正浪漫喫茶室",
        "remark": ""
      },
      "type": "Feature"
    },
    {
      "geometry": {
        "coordinates": [
          140.461417,
          40.603547
        ],
        "type": "Point"
      },
      "properties": {
        "bangumi_id": 141799,
        "bangumi_title": "飞翔的魔女",
        "ep_cut": 7,
        "image_url": "https://w.junreimap.com/images/user/2173/bangumi/141799/points/hsix4ki-1785740500257.webp",
        "location": "",
        "point_id": "hsix4ki",
        "point_name": "大正浪漫喫茶室",
        "remark": ""
      },
      "type": "Feature"
    },
    {
      "geometry": {
        "coordinates": [
          140.461436,
          40.603628
        ],
        "type": "Point"
      },
      "properties": {
        "bangumi_id": 141799,
        "bangumi_title": "飞翔的魔女",
        "ep_cut": 7,
        "image_url": "https://w.junreimap.com/images/user/2173/bangumi/141799/points/hsixz5l-1785740547553.webp",
        "location": "",
        "point_id": "hsixz5l",
        "point_name": "大正浪漫喫茶室",
        "remark": ""
      },
      "type": "Feature"
    },
    {
      "geometry": {
        "coordinates": [
          140.461378,
          40.603616
        ],
        "type": "Point"
      },
      "properties": {
        "bangumi_id": 141799,
        "bangumi_title": "飞翔的魔女",
        "ep_cut": 7,
        "image_url": "https://w.junreimap.com/images/user/2173/bangumi/141799/points/hsiy3bl-1785740572303.webp",
        "location": "",
        "point_id": "hsiy3bl",
        "point_name": "大正浪漫喫茶室",
        "remark": ""
      },
      "type": "Feature"
    },
    {
      "geometry": {
        "coordinates": [
          140.461325,
          40.603602
        ],
        "type": "Point"
      },
      "properties": {
        "bangumi_id": 141799,
        "bangumi_title": "飞翔的魔女",
        "ep_cut": 7,
        "image_url": "https://w.junreimap.com/images/user/2173/bangumi/141799/points/hsizi9z-1785740634320.webp",
        "location": "",
        "point_id": "hsizi9z",
        "point_name": "大正浪漫喫茶室",
        "remark": ""
      },
      "type": "Feature"
    },
    {
      "geometry": {
        "coordinates": [
          140.461314,
          40.603563
        ],
        "type": "Point"
      },
      "properties": {
        "bangumi_id": 141799,
        "bangumi_title": "飞翔的魔女",
        "ep_cut": 7,
        "image_url": "https://w.junreimap.com/images/user/2173/bangumi/141799/points/hsizrea-1785740638262.webp",
        "location": "",
        "point_id": "hsizrea",
        "point_name": "大正浪漫喫茶室",
        "remark": ""
      },
      "type": "Feature"
    },
    {
      "geometry": {
        "coordinates": [
          140.485451,
          40.599133
        ],
        "type": "Point"
      },
      "properties": {
        "bangumi_id": 141799,
        "bangumi_title": "飞翔的魔女",
        "ep_cut": 1,
        "image_url": "https://w.junreimap.com/images/user/2173/bangumi/141799/points/hsj9y8g-1785741091634.webp",
        "location": "",
        "point_id": "hsj9y8g",
        "point_name": "JR弘前駅東西自由通路 あずましろ〜ど",
        "remark": ""
      },
      "type": "Feature"
    },
    {
      "geometry": {
        "coordinates": [
          140.485472,
          40.598824
        ],
        "type": "Point"
      },
      "properties": {
        "bangumi_id": 141799,
        "bangumi_title": "飞翔的魔女",
        "ep_cut": 1,
        "image_url": "https://w.junreimap.com/images/user/2173/bangumi/141799/points/hsjcdvk-1785741208207.webp",
        "location": "",
        "point_id": "hsjcdvk",
        "point_name": "弘前駅",
        "remark": ""
      },
      "type": "Feature"
    },
    {
      "geometry": {
        "coordinates": [
          140.485342,
          40.599043
        ],
        "type": "Point"
      },
      "properties": {
        "bangumi_id": 141799,
        "bangumi_title": "飞翔的魔女",
        "ep_cut": 1,
        "image_url": "https://w.junreimap.com/images/user/2173/bangumi/141799/points/hsjcpky-1785741218811.webp",
        "location": "",
        "point_id": "hsjcpky",
        "point_name": "弘前駅",
        "remark": ""
      },
      "type": "Feature"
    },
    {
      "geometry": {
        "coordinates": [
          140.484962,
          40.599033
        ],
        "type": "Point"
      },
      "properties": {
        "bangumi_id": 141799,
        "bangumi_title": "飞翔的魔女",
        "ep_cut": 1,
        "image_url": "https://w.junreimap.com/images/user/2173/bangumi/141799/points/hsjbv3x-1785741200283.webp",
        "location": "",
        "point_id": "hsjbv3x",
        "point_name": "弘前駅",
        "remark": ""
      },
      "type": "Feature"
    },
    {
      "geometry": {
        "coordinates": [
          140.48479,
          40.598968
        ],
        "type": "Point"
      },
      "properties": {
        "bangumi_id": 141799,
        "bangumi_title": "飞翔的魔女",
        "ep_cut": 1,
        "image_url": "https://w.junreimap.com/images/user/2173/bangumi/141799/points/hsje6gy-1785741281508.webp",
        "location": "",
        "point_id": "hsje6gy",
        "point_name": "弘前駅",
        "remark": ""
      },
      "type": "Feature"
    },
    {
      "geometry": {
        "coordinates": [
          140.484738,
          40.599048
        ],
        "type": "Point"
      },
      "properties": {
        "bangumi_id": 141799,
        "bangumi_title": "飞翔的魔女",
        "ep_cut": 1,
        "image_url": "https://w.junreimap.com/images/user/2173/bangumi/141799/points/hsjecee-1785741288606.webp",
        "location": "",
        "point_id": "hsjecee",
        "point_name": "弘前駅",
        "remark": ""
      },
      "type": "Feature"
    },
    {
      "geometry": {
        "coordinates": [
          140.420334,
          40.587759
        ],
        "type": "Point"
      },
      "properties": {
        "bangumi_id": 141799,
        "bangumi_title": "飞翔的魔女",
        "ep_cut": 1,
        "image_url": "https://w.junreimap.com/images/user/2173/bangumi/141799/points/hsjgmoy-1785741396883.webp",
        "location": "",
        "point_id": "hsjgmoy",
        "point_name": "下湯口バス停",
        "remark": ""
      },
      "type": "Feature"
    },
    {
      "geometry": {
        "coordinates": [
          140.420409,
          40.587718
        ],
        "type": "Point"
      },
      "properties": {
        "bangumi_id": 141799,
        "bangumi_title": "飞翔的魔女",
        "ep_cut": 1,
        "image_url": "https://w.junreimap.com/images/user/2173/bangumi/141799/points/hsjh22j-1785741469447.webp",
        "location": "",
        "point_id": "hsjh22j",
        "point_name": "弘前〜西目屋村役場線：公園経由〔弘南バス〕",
        "remark": ""
      },
      "type": "Feature"
    },
    {
      "geometry": {
        "coordinates": [
          140.443885,
          40.602881
        ],
        "type": "Point"
      },
      "properties": {
        "bangumi_id": 141799,
        "bangumi_title": "飞翔的魔女",
        "ep_cut": 1,
        "image_url": "https://w.junreimap.com/images/user/2173/bangumi/141799/points/hsjlt5f-1785741664354.webp",
        "location": "",
        "point_id": "hsjlt5f",
        "point_name": "misterdonut（ミスタードーナツ イオンタウン弘前樋の口ショップ）",
        "remark": ""
      },
      "type": "Feature"
    },
    {
      "geometry": {
        "coordinates": [
          140.445718,
          40.602883
        ],
        "type": "Point"
      },
      "properties": {
        "bangumi_id": 141799,
        "bangumi_title": "飞翔的魔女",
        "ep_cut": 1,
        "image_url": "https://w.junreimap.com/images/user/2173/bangumi/141799/points/hsjq8bw-1785741843700.webp",
        "location": "",
        "point_id": "hsjq8bw",
        "point_name": "DCM 弘前樋の口店",
        "remark": ""
      },
      "type": "Feature"
    },
    {
      "geometry": {
        "coordinates": [
          140.417333,
          40.587549
        ],
        "type": "Point"
      },
      "properties": {
        "bangumi_id": 141799,
        "bangumi_title": "飞翔的魔女",
        "ep_cut": 3,
        "image_url": "https://w.junreimap.com/images/user/2173/bangumi/141799/points/hskdu40-1785742972033.webp",
        "location": "",
        "point_id": "hskdu40",
        "point_name": "神明宮",
        "remark": ""
      },
      "type": "Feature"
    },
    {
      "geometry": {
        "coordinates": [
          140.426344,
          40.595674
        ],
        "type": "Point"
      },
      "properties": {
        "bangumi_id": 141799,
        "bangumi_title": "飞翔的魔女",
        "ep_cut": 11,
        "image_url": "https://w.junreimap.com/images/user/2173/bangumi/141799/points/hskpie1-1785743491654.webp",
        "location": "",
        "point_id": "hskpie1",
        "point_name": "１２９号線悪戸付近",
        "remark": ""
      },
      "type": "Feature"
    },
    {
      "geometry": {
        "coordinates": [
          140.441808,
          40.588837
        ],
        "type": "Point"
      },
      "properties": {
        "bangumi_id": 141799,
        "bangumi_title": "飞翔的魔女",
        "ep_cut": 2,
        "image_url": "https://w.junreimap.com/images/user/2173/bangumi/141799/points/hskr2ii-1785743562458.webp",
        "location": "",
        "point_id": "hskr2ii",
        "point_name": "りんご公園",
        "remark": ""
      },
      "type": "Feature"
    },
    {
      "geometry": {
        "coordinates": [
          140.463118,
          40.610048
        ],
        "type": "Point"
      },
      "properties": {
        "bangumi_id": 141799,
        "bangumi_title": "飞翔的魔女",
        "ep_cut": 2,
        "image_url": "https://w.junreimap.com/images/user/2173/bangumi/141799/points/hskway1-1785743810246.webp",
        "location": "",
        "point_id": "hskway1",
        "point_name": "春陽橋",
        "remark": ""
      },
      "type": "Feature"
    },
    {
      "geometry": {
        "coordinates": [
          140.424856,
          40.590275
        ],
        "type": "Point"
      },
      "properties": {
        "bangumi_id": 141799,
        "bangumi_title": "飞翔的魔女",
        "ep_cut": 2,
        "image_url": "https://w.junreimap.com/images/user/2173/bangumi/141799/points/hslc23p-1785744661993.webp",
        "location": "",
        "point_id": "hslc23p",
        "point_name": "青柳バス停付近",
        "remark": ""
      },
      "type": "Feature"
    },
    {
      "geometry": {
        "coordinates": [
          140.424936,
          40.590293
        ],
        "type": "Point"
      },
      "properties": {
        "bangumi_id": 141799,
        "bangumi_title": "飞翔的魔女",
        "ep_cut": 2,
        "image_url": "https://w.junreimap.com/images/user/2173/bangumi/141799/points/hslf4b8-1785744684427.webp",
        "location": "",
        "point_id": "hslf4b8",
        "point_name": "青柳バス停付近",
        "remark": ""
      },
      "type": "Feature"
    },
    {
      "geometry": {
        "coordinates": [
          140.464594,
          40.603355
        ],
        "type": "Point"
      },
      "properties": {
        "bangumi_id": 141799,
        "bangumi_title": "飞翔的魔女",
        "ep_cut": 4,
        "image_url": "https://w.junreimap.com/images/user/2173/bangumi/141799/points/hsnh1o9-1785748188605.webp",
        "location": "",
        "point_id": "hsnh1o9",
        "point_name": "弘前城追手門前",
        "remark": ""
      },
      "type": "Feature"
    },
    {
      "geometry": {
        "coordinates": [
          140.464704,
          40.603546
        ],
        "type": "Point"
      },
      "properties": {
        "bangumi_id": 141799,
        "bangumi_title": "飞翔的魔女",
        "ep_cut": 4,
        "image_url": "https://w.junreimap.com/images/user/2173/bangumi/141799/points/hsnioqv-1785748216658.webp",
        "location": "",
        "point_id": "hsnioqv",
        "point_name": "弘前城追手門前",
        "remark": ""
      },
      "type": "Feature"
    },
    {
      "geometry": {
        "coordinates": [
          140.46425,
          40.60376
        ],
        "type": "Point"
      },
      "properties": {
        "bangumi_id": 141799,
        "bangumi_title": "飞翔的魔女",
        "ep_cut": 4,
        "image_url": "https://w.junreimap.com/images/user/2173/bangumi/141799/points/hsniy26-1785748228775.webp",
        "location": "",
        "point_id": "hsniy26",
        "point_name": "弘前城追手門",
        "remark": ""
      },
      "type": "Feature"
    },
    {
      "geometry": {
        "coordinates": [
          140.464139,
          40.604347
        ],
        "type": "Point"
      },
      "properties": {
        "bangumi_id": 141799,
        "bangumi_title": "飞翔的魔女",
        "ep_cut": 4,
        "image_url": "https://w.junreimap.com/images/user/2173/bangumi/141799/points/hsny4af-1785748937520.webp",
        "location": "",
        "point_id": "hsny4af",
        "point_name": "弘前城内（追手門付近）",
        "remark": ""
      },
      "type": "Feature"
    },
    {
      "geometry": {
        "coordinates": [
          140.464097,
          40.606598
        ],
        "type": "Point"
      },
      "properties": {
        "bangumi_id": 141799,
        "bangumi_title": "飞翔的魔女",
        "ep_cut": 4,
        "image_url": "https://w.junreimap.com/images/user/2173/bangumi/141799/points/hso2l2x-1785749144035.webp",
        "location": "",
        "point_id": "hso2l2x",
        "point_name": "弘前城内",
        "remark": ""
      },
      "type": "Feature"
    },
    {
      "geometry": {
        "coordinates": [
          140.464302,
          40.607097
        ],
        "type": "Point"
      },
      "properties": {
        "bangumi_id": 141799,
        "bangumi_title": "飞翔的魔女",
        "ep_cut": 4,
        "image_url": "https://w.junreimap.com/images/user/2173/bangumi/141799/points/hso3ci2-1785749199452.webp",
        "location": "",
        "point_id": "hso3ci2",
        "point_name": "下乗橋",
        "remark": ""
      },
      "type": "Feature"
    },
    {
      "geometry": {
        "coordinates": [
          140.464347,
          40.607037
        ],
        "type": "Point"
      },
      "properties": {
        "bangumi_id": 141799,
        "bangumi_title": "飞翔的魔女",
        "ep_cut": 4,
        "image_url": "https://w.junreimap.com/images/user/2173/bangumi/141799/points/hso3xe8-1785749204579.webp",
        "location": "",
        "point_id": "hso3xe8",
        "point_name": "下乗橋",
        "remark": ""
      },
      "type": "Feature"
    },
    {
      "geometry": {
        "coordinates": [
          140.466638,
          40.611038
        ],
        "type": "Point"
      },
      "properties": {
        "bangumi_id": 141799,
        "bangumi_title": "飞翔的魔女",
        "ep_cut": 4,
        "image_url": "https://w.junreimap.com/images/user/2173/bangumi/141799/points/hso4qlv-1785749240440.webp",
        "location": "",
        "point_id": "hso4qlv",
        "point_name": "弘前城内",
        "remark": ""
      },
      "type": "Feature"
    },
    {
      "geometry": {
        "coordinates": [
          140.463567,
          40.610087
        ],
        "type": "Point"
      },
      "properties": {
        "bangumi_id": 141799,
        "bangumi_title": "飞翔的魔女",
        "ep_cut": 4,
        "image_url": "https://w.junreimap.com/images/user/2173/bangumi/141799/points/hso5mbc-1785749301970.webp",
        "location": "",
        "point_id": "hso5mbc",
        "point_name": "弘前城内",
        "remark": ""
      },
      "type": "Feature"
    },
    {
      "geometry": {
        "coordinates": [
          140.463603,
          40.610591
        ],
        "type": "Point"
      },
      "properties": {
        "bangumi_id": 141799,
        "bangumi_title": "飞翔的魔女",
        "ep_cut": 4,
        "image_url": "https://w.junreimap.com/images/user/2173/bangumi/141799/points/hso6gy7-1785749367153.webp",
        "location": "",
        "point_id": "hso6gy7",
        "point_name": "弘前城内",
        "remark": ""
      },
      "type": "Feature"
    },
    {
      "geometry": {
        "coordinates": [
          140.463549,
          40.61073
        ],
        "type": "Point"
      },
      "properties": {
        "bangumi_id": 141799,
        "bangumi_title": "飞翔的魔女",
        "ep_cut": 4,
        "image_url": "https://w.junreimap.com/images/user/2173/bangumi/141799/points/hso6nii-1785749372605.webp",
        "location": "",
        "point_id": "hso6nii",
        "point_name": "弘前城内",
        "remark": ""
      },
      "type": "Feature"
    },
    {
      "geometry": {
        "coordinates": [
          140.463605,
          40.610622
        ],
        "type": "Point"
      },
      "properties": {
        "bangumi_id": 141799,
        "bangumi_title": "飞翔的魔女",
        "ep_cut": 4,
        "image_url": "https://w.junreimap.com/images/user/2173/bangumi/141799/points/hso786d-1785749390064.webp",
        "location": "",
        "point_id": "hso786d",
        "point_name": "弘前城内",
        "remark": ""
      },
      "type": "Feature"
    },
    {
      "geometry": {
        "coordinates": [
          140.463528,
          40.610579
        ],
        "type": "Point"
      },
      "properties": {
        "bangumi_id": 141799,
        "bangumi_title": "飞翔的魔女",
        "ep_cut": 4,
        "image_url": "https://w.junreimap.com/images/user/2173/bangumi/141799/points/hso7fqu-1785749396610.webp",
        "location": "",
        "point_id": "hso7fqu",
        "point_name": "弘前城内",
        "remark": ""
      },
      "type": "Feature"
    },
    {
      "geometry": {
        "coordinates": [
          140.463513,
          40.610508
        ],
        "type": "Point"
      },
      "properties": {
        "bangumi_id": 141799,
        "bangumi_title": "飞翔的魔女",
        "ep_cut": 4,
        "image_url": "https://w.junreimap.com/images/user/2173/bangumi/141799/points/hso7ju8-1785749402939.webp",
        "location": "",
        "point_id": "hso7ju8",
        "point_name": "弘前城内",
        "remark": ""
      },
      "type": "Feature"
    },
    {
      "geometry": {
        "coordinates": [
          140.462982,
          40.610081
        ],
        "type": "Point"
      },
      "properties": {
        "bangumi_id": 141799,
        "bangumi_title": "飞翔的魔女",
        "ep_cut": 4,
        "image_url": "https://w.junreimap.com/images/user/2173/bangumi/141799/points/hso9hld-1785749468299.webp",
        "location": "",
        "point_id": "hso9hld",
        "point_name": "春陽橋",
        "remark": ""
      },
      "type": "Feature"
    },
    {
      "geometry": {
        "coordinates": [
          140.46776,
          40.603624
        ],
        "type": "Point"
      },
      "properties": {
        "bangumi_id": 141799,
        "bangumi_title": "飞翔的魔女",
        "ep_cut": "",
        "image_url": "https://w.junreimap.com/images/user/2173/bangumi/141799/points/hsop2wd-1785750218964.webp",
        "location": "",
        "point_id": "hsop2wd",
        "point_name": "弘前ねぷたまつり",
        "remark": "每年8月举办的弘前睡魔祭，共两条线路，此处为土手町コース起点，详情可见官网：https://www.hirosaki-kanko.or.jp/edit.html?id=cat02_summer_neputa_past\n\n另外青森睡魔之家有永久睡魔祭花车展示，错过祭典时间可到那里参观"
      },
      "type": "Feature"
    },
    {
      "geometry": {
        "coordinates": [
          140.478372,
          40.600567
        ],
        "type": "Point"
      },
      "properties": {
        "bangumi_id": 141799,
        "bangumi_title": "飞翔的魔女",
        "ep_cut": "",
        "image_url": "https://w.junreimap.com/images/user/2173/bangumi/141799/points/hsowndd-1785750572235.webp",
        "location": "",
        "point_id": "hsowndd",
        "point_name": "弘前ねぷたまつり",
        "remark": "每年8月举办的弘前睡魔祭，共两条线路，此处为駅前コース起点，详情可见官网：https://www.hirosaki-kanko.or.jp/edit.html?id=cat02_summer_neputa_past\n\n另外青森睡魔之家有永久睡魔祭花车展示，错过祭典时间可到那里参观"
      },
      "type": "Feature"
    },
    {
      "geometry": {
        "coordinates": [
          140.735931,
          40.82946
        ],
        "type": "Point"
      },
      "properties": {
        "bangumi_id": 141799,
        "bangumi_title": "飞翔的魔女",
        "ep_cut": "",
        "image_url": "https://w.junreimap.com/images/user/2173/bangumi/141799/points/hsozonf-1785750708507.webp",
        "location": "",
        "point_id": "hsozonf",
        "point_name": "弘前ねぷたまつり",
        "remark": "错过弘前睡魔祭可在此处参观睡魔祭花车"
      },
      "type": "Feature"
    }
  ],
  "type": "FeatureCollection"
}