{
  "features": [
    {
      "geometry": {
        "coordinates": [
          139.535227,
          35.632628
        ],
        "type": "Point"
      },
      "properties": {
        "bangumi_id": 143120,
        "bangumi_title": "孤独的美食家 第五季",
        "ep_cut": 1,
        "image_url": "https://w.junreimap.com/images/points/143120/a87b861d_1741501490139.jpg",
        "location": "シーズン5",
        "point_id": "a87b861d",
        "point_name": "炭火焼肉寿苑",
        "remark": "神奈川県川崎市稲田堤"
      },
      "type": "Feature"
    },
    {
      "geometry": {
        "coordinates": [
          139.803507,
          35.68102
        ],
        "type": "Point"
      },
      "properties": {
        "bangumi_id": 143120,
        "bangumi_title": "孤独的美食家 第五季",
        "ep_cut": 2,
        "image_url": "https://w.junreimap.com/images/points/143120/00aff296_1741501651870.jpg",
        "location": "シーズン5",
        "point_id": "00aff296",
        "point_name": "三好２丁目１７−９",
        "remark": "東京都江東区清澄白河"
      },
      "type": "Feature"
    },
    {
      "geometry": {
        "coordinates": [
          139.59706,
          35.703493
        ],
        "type": "Point"
      },
      "properties": {
        "bangumi_id": 143120,
        "bangumi_title": "孤独的美食家 第五季",
        "ep_cut": 3,
        "image_url": "https://w.junreimap.com/images/points/143120/b33a6da4_1741501805647.jpg",
        "location": "シーズン5",
        "point_id": "b33a6da4",
        "point_name": "北斗参番館 1f",
        "remark": "東京都杉並区西荻窪"
      },
      "type": "Feature"
    },
    {
      "geometry": {
        "coordinates": [
          121.652356,
          24.668192
        ],
        "type": "Point"
      },
      "properties": {
        "bangumi_id": 143120,
        "bangumi_title": "孤独的美食家 第五季",
        "ep_cut": 4,
        "image_url": "https://w.junreimap.com/images/points/143120/a5e90b8e_1741501941758.jpg",
        "location": "シーズン5",
        "point_id": "a5e90b8e",
        "point_name": "三星青葱文化館",
        "remark": "三星葱炒腊肉和红糟排骨"
      },
      "type": "Feature"
    },
    {
      "geometry": {
        "coordinates": [
          121.510383,
          25.054342
        ],
        "type": "Point"
      },
      "properties": {
        "bangumi_id": 143120,
        "bangumi_title": "孤独的美食家 第五季",
        "ep_cut": 5,
        "image_url": "https://w.junreimap.com/images/points/143120/d586c231_1741502030800.jpg",
        "location": "シーズン5",
        "point_id": "d586c231",
        "point_name": "No. 20, Lane 233, Nanjing W Rd",
        "remark": "大同区南京西路233巷20号， 推荐五郎特餐和担担面"
      },
      "type": "Feature"
    },
    {
      "geometry": {
        "coordinates": [
          139.684707,
          35.608088
        ],
        "type": "Point"
      },
      "properties": {
        "bangumi_id": 143120,
        "bangumi_title": "孤独的美食家 第五季",
        "ep_cut": 6,
        "image_url": "https://w.junreimap.com/images/points/143120/02346282_1741502201951.jpg",
        "location": "シーズン5",
        "point_id": "02346282",
        "point_name": "シュロス大岡山",
        "remark": "東京都目黒区大岡山"
      },
      "type": "Feature"
    },
    {
      "geometry": {
        "coordinates": [
          139.622956,
          35.645406
        ],
        "type": "Point"
      },
      "properties": {
        "bangumi_id": 143120,
        "bangumi_title": "孤独的美食家 第五季",
        "ep_cut": 7,
        "image_url": "https://w.junreimap.com/images/points/143120/665628b8_1741502381383.jpg",
        "location": "シーズン5",
        "point_id": "665628b8",
        "point_name": "桜丘２丁目２４−２０",
        "remark": "東京都世田谷区千歳船橋"
      },
      "type": "Feature"
    },
    {
      "geometry": {
        "coordinates": [
          139.682568,
          35.668457
        ],
        "type": "Point"
      },
      "properties": {
        "bangumi_id": 143120,
        "bangumi_title": "孤独的美食家 第五季",
        "ep_cut": 8,
        "image_url": "https://w.junreimap.com/images/points/143120/3d37a512_1742127555179.jpg",
        "location": "シーズン5",
        "point_id": "3d37a512",
        "point_name": "1 3f",
        "remark": "東京都渋谷区代々木上原"
      },
      "type": "Feature"
    },
    {
      "geometry": {
        "coordinates": [
          140.390636,
          35.249918
        ],
        "type": "Point"
      },
      "properties": {
        "bangumi_id": 143120,
        "bangumi_title": "孤独的美食家 第五季",
        "ep_cut": 9,
        "image_url": "https://w.junreimap.com/images/points/143120/a2624073_1741502554886.jpg",
        "location": "シーズン5",
        "point_id": "a2624073",
        "point_name": "大原８７０１−２",
        "remark": "千葉県いすみ市大原"
      },
      "type": "Feature"
    },
    {
      "geometry": {
        "coordinates": [
          139.819809,
          35.701615
        ],
        "type": "Point"
      },
      "properties": {
        "bangumi_id": 143120,
        "bangumi_title": "孤独的美食家 第五季",
        "ep_cut": 10,
        "image_url": "https://w.junreimap.com/images/points/143120/149c26c8_1741502610830.jpg",
        "location": "シーズン5",
        "point_id": "149c26c8",
        "point_name": "飯沼ビル",
        "remark": "東京都江東区亀戸"
      },
      "type": "Feature"
    },
    {
      "geometry": {
        "coordinates": [
          139.769855,
          35.937634
        ],
        "type": "Point"
      },
      "properties": {
        "bangumi_id": 143120,
        "bangumi_title": "孤独的美食家 第五季",
        "ep_cut": 11,
        "image_url": "https://w.junreimap.com/images/points/143120/51d98a3a_1741502726238.jpg",
        "location": "シーズン5",
        "point_id": "51d98a3a",
        "point_name": "千間台西１丁目２３−１６",
        "remark": "埼玉県越谷市千間台"
      },
      "type": "Feature"
    },
    {
      "geometry": {
        "coordinates": [
          139.728803,
          35.744144
        ],
        "type": "Point"
      },
      "properties": {
        "bangumi_id": 143120,
        "bangumi_title": "孤独的美食家 第五季",
        "ep_cut": 12,
        "image_url": "https://w.junreimap.com/images/points/143120/c058683c_1741502758319.jpg",
        "location": "シーズン5",
        "point_id": "c058683c",
        "point_name": "西巣鴨４丁目１３−１５",
        "remark": "東京都豊島区西巣鴨"
      },
      "type": "Feature"
    }
  ],
  "type": "FeatureCollection"
}