{
  "features": [
    {
      "geometry": {
        "coordinates": [
          139.64286,
          35.452616
        ],
        "type": "Point"
      },
      "properties": {
        "bangumi_id": 144357,
        "bangumi_title": "文豪野犬",
        "ep_cut": 9,
        "image_url": "https://w.junreimap.com/images/user/0/bangumi/144357/points/55emti6ur-1726460339606.jpg",
        "location": "",
        "point_id": "55emti6ur",
        "point_name": "横浜​赤​レンガ​倉庫​2号館",
        "remark": ""
      },
      "type": "Feature"
    },
    {
      "geometry": {
        "coordinates": [
          139.642226,
          35.450992
        ],
        "type": "Point"
      },
      "properties": {
        "bangumi_id": 144357,
        "bangumi_title": "文豪野犬",
        "ep_cut": 8,
        "image_url": "https://w.junreimap.com/images/user/0/bangumi/144357/points/0.jpg",
        "location": "",
        "point_id": "55eodabzg",
        "point_name": "新港橋",
        "remark": ""
      },
      "type": "Feature"
    },
    {
      "geometry": {
        "coordinates": [
          139.642623,
          35.450534
        ],
        "type": "Point"
      },
      "properties": {
        "bangumi_id": 144357,
        "bangumi_title": "文豪野犬",
        "ep_cut": 19,
        "image_url": "https://w.junreimap.com/images/user/0/bangumi/144357/points/6.jpg",
        "location": "",
        "point_id": "55epg28if",
        "point_name": "象の鼻パーク",
        "remark": ""
      },
      "type": "Feature"
    },
    {
      "geometry": {
        "coordinates": [
          139.643577,
          35.448875
        ],
        "type": "Point"
      },
      "properties": {
        "bangumi_id": 144357,
        "bangumi_title": "文豪野犬",
        "ep_cut": "",
        "image_url": "https://w.junreimap.com/images/user/0/bangumi/144357/points/9.jpg",
        "location": "",
        "point_id": "55erwfuxm",
        "point_name": "象の鼻パーク",
        "remark": "文豪野犬DEAD APPLE 剧场版画面？待转移"
      },
      "type": "Feature"
    },
    {
      "geometry": {
        "coordinates": [
          139.643839,
          35.448452
        ],
        "type": "Point"
      },
      "properties": {
        "bangumi_id": 144357,
        "bangumi_title": "文豪野犬",
        "ep_cut": 4,
        "image_url": "https://w.junreimap.com/images/user/0/bangumi/144357/points/4.jpg",
        "location": "",
        "point_id": "55eswg0cj",
        "point_name": "象の鼻パーク",
        "remark": ""
      },
      "type": "Feature"
    },
    {
      "geometry": {
        "coordinates": [
          139.644117,
          35.448463
        ],
        "type": "Point"
      },
      "properties": {
        "bangumi_id": 144357,
        "bangumi_title": "文豪野犬",
        "ep_cut": 4,
        "image_url": "https://w.junreimap.com/images/user/0/bangumi/144357/points/3.jpg",
        "location": "",
        "point_id": "55etuvr9k",
        "point_name": "象の鼻パーク",
        "remark": ""
      },
      "type": "Feature"
    },
    {
      "geometry": {
        "coordinates": [
          139.644019,
          35.448778
        ],
        "type": "Point"
      },
      "properties": {
        "bangumi_id": 144357,
        "bangumi_title": "文豪野犬",
        "ep_cut": 2,
        "image_url": "https://w.junreimap.com/images/user/0/bangumi/144357/points/8.jpg",
        "location": "",
        "point_id": "55eucweym",
        "point_name": "象の鼻パーク",
        "remark": ""
      },
      "type": "Feature"
    },
    {
      "geometry": {
        "coordinates": [
          139.642282,
          35.449426
        ],
        "type": "Point"
      },
      "properties": {
        "bangumi_id": 144357,
        "bangumi_title": "文豪野犬",
        "ep_cut": 9,
        "image_url": "https://w.junreimap.com/images/user/0/bangumi/144357/points/7.jpg",
        "location": "",
        "point_id": "55evp38gq",
        "point_name": "横浜税関",
        "remark": ""
      },
      "type": "Feature"
    },
    {
      "geometry": {
        "coordinates": [
          139.643884,
          35.448703
        ],
        "type": "Point"
      },
      "properties": {
        "bangumi_id": 144357,
        "bangumi_title": "文豪野犬",
        "ep_cut": 8,
        "image_url": "https://w.junreimap.com/images/user/0/bangumi/144357/points/2.jpg",
        "location": "",
        "point_id": "55ewg411k",
        "point_name": "山下臨港線プロムナード",
        "remark": ""
      },
      "type": "Feature"
    },
    {
      "geometry": {
        "coordinates": [
          139.646167,
          35.449749
        ],
        "type": "Point"
      },
      "properties": {
        "bangumi_id": 144357,
        "bangumi_title": "文豪野犬",
        "ep_cut": 9,
        "image_url": "https://w.junreimap.com/images/user/0/bangumi/144357/points/5.jpg",
        "location": "",
        "point_id": "55exzdj02",
        "point_name": "横浜大桟橋",
        "remark": ""
      },
      "type": "Feature"
    },
    {
      "geometry": {
        "coordinates": [
          139.650479,
          35.445884
        ],
        "type": "Point"
      },
      "properties": {
        "bangumi_id": 144357,
        "bangumi_title": "文豪野犬",
        "ep_cut": 6,
        "image_url": "https://w.junreimap.com/images/user/0/bangumi/144357/points/hozkwxmod-1708060318759.jpg",
        "location": "",
        "point_id": "hozkwxmod",
        "point_name": "山下公园",
        "remark": ""
      },
      "type": "Feature"
    },
    {
      "geometry": {
        "coordinates": [
          139.631534,
          35.454625
        ],
        "type": "Point"
      },
      "properties": {
        "bangumi_id": 144357,
        "bangumi_title": "文豪野犬",
        "ep_cut": 10,
        "image_url": "https://w.junreimap.com/images/user/0/bangumi/144357/points/iggzcv3nm-1710214028473.jpg",
        "location": "",
        "point_id": "iggzcv3nm",
        "point_name": "横浜​ランドマーク​タワー",
        "remark": ""
      },
      "type": "Feature"
    },
    {
      "geometry": {
        "coordinates": [
          139.622663,
          35.466194
        ],
        "type": "Point"
      },
      "properties": {
        "bangumi_id": 144357,
        "bangumi_title": "文豪野犬",
        "ep_cut": 8,
        "image_url": "https://w.junreimap.com/images/user/0/bangumi/144357/points/iggxy3cfi-1710213934778.jpg",
        "location": "",
        "point_id": "iggxy3cfi",
        "point_name": "横浜駅",
        "remark": ""
      },
      "type": "Feature"
    },
    {
      "geometry": {
        "coordinates": [
          139.636893,
          35.455083
        ],
        "type": "Point"
      },
      "properties": {
        "bangumi_id": 144357,
        "bangumi_title": "文豪野犬",
        "ep_cut": 9,
        "image_url": "https://w.junreimap.com/images/user/0/bangumi/144357/points/iggwp8dns-1710213850795.jpg",
        "location": "",
        "point_id": "iggwp8dns",
        "point_name": "よこはま​コスモ​ワールド",
        "remark": ""
      },
      "type": "Feature"
    },
    {
      "geometry": {
        "coordinates": [
          139.649547,
          35.445932
        ],
        "type": "Point"
      },
      "properties": {
        "bangumi_id": 144357,
        "bangumi_title": "文豪野犬",
        "ep_cut": 5,
        "image_url": "https://w.junreimap.com/images/user/0/bangumi/144357/points/iggw2owsl-1710213814467.jpg",
        "location": "",
        "point_id": "iggw2owsl",
        "point_name": "山下公園",
        "remark": ""
      },
      "type": "Feature"
    },
    {
      "geometry": {
        "coordinates": [
          139.653802,
          35.439801
        ],
        "type": "Point"
      },
      "properties": {
        "bangumi_id": 144357,
        "bangumi_title": "文豪野犬",
        "ep_cut": 9,
        "image_url": "https://w.junreimap.com/images/user/0/bangumi/144357/points/iggvh1fvh-1710213778496.jpg",
        "location": "",
        "point_id": "iggvh1fvh",
        "point_name": "港の見える丘公園前",
        "remark": ""
      },
      "type": "Feature"
    },
    {
      "geometry": {
        "coordinates": [
          139.653379,
          35.44135
        ],
        "type": "Point"
      },
      "properties": {
        "bangumi_id": 144357,
        "bangumi_title": "文豪野犬",
        "ep_cut": 9,
        "image_url": "https://w.junreimap.com/images/user/0/bangumi/144357/points/iggufyd42-1710213720164.jpg",
        "location": "",
        "point_id": "iggufyd42",
        "point_name": "横浜外国人墓地",
        "remark": "能进去，有风车。"
      },
      "type": "Feature"
    },
    {
      "geometry": {
        "coordinates": [
          139.654603,
          35.440381
        ],
        "type": "Point"
      },
      "properties": {
        "bangumi_id": 144357,
        "bangumi_title": "文豪野犬",
        "ep_cut": 9,
        "image_url": "https://w.junreimap.com/images/user/0/bangumi/144357/points/iggtq8xet-1710213672630.jpg",
        "location": "",
        "point_id": "iggtq8xet",
        "point_name": "港​の​見える​丘​公園",
        "remark": ""
      },
      "type": "Feature"
    },
    {
      "geometry": {
        "coordinates": [
          139.650481,
          35.441325
        ],
        "type": "Point"
      },
      "properties": {
        "bangumi_id": 144357,
        "bangumi_title": "文豪野犬",
        "ep_cut": 2,
        "image_url": "https://w.junreimap.com/images/user/0/bangumi/144357/points/iggrldcoh-1710213589217.jpg",
        "location": "",
        "point_id": "iggrldcoh",
        "point_name": "横浜元町ショッピングストリート",
        "remark": "路中间拍摄，危险"
      },
      "type": "Feature"
    },
    {
      "geometry": {
        "coordinates": [
          139.636287,
          35.449106
        ],
        "type": "Point"
      },
      "properties": {
        "bangumi_id": 144357,
        "bangumi_title": "文豪野犬",
        "ep_cut": 9,
        "image_url": "https://w.junreimap.com/images/user/0/bangumi/144357/points/iggoi09aw-1710213360087.jpg",
        "location": "",
        "point_id": "iggoi09aw",
        "point_name": "県立歴史博物館",
        "remark": ""
      },
      "type": "Feature"
    },
    {
      "geometry": {
        "coordinates": [
          139.641249,
          35.44726
        ],
        "type": "Point"
      },
      "properties": {
        "bangumi_id": 144357,
        "bangumi_title": "文豪野犬",
        "ep_cut": 9,
        "image_url": "https://w.junreimap.com/images/user/0/bangumi/144357/points/iggnczk3w-1710213286672.jpg",
        "location": "",
        "point_id": "iggnczk3w",
        "point_name": "開港記念会館",
        "remark": ""
      },
      "type": "Feature"
    },
    {
      "geometry": {
        "coordinates": [
          139.640138,
          35.443422
        ],
        "type": "Point"
      },
      "properties": {
        "bangumi_id": 144357,
        "bangumi_title": "文豪野犬",
        "ep_cut": 9,
        "image_url": "https://w.junreimap.com/images/user/0/bangumi/144357/points/iggmvdoiu-1710213256037.jpg",
        "location": "",
        "point_id": "iggmvdoiu",
        "point_name": "横浜スタジアム",
        "remark": ""
      },
      "type": "Feature"
    },
    {
      "geometry": {
        "coordinates": [
          139.64401,
          35.443073
        ],
        "type": "Point"
      },
      "properties": {
        "bangumi_id": 144357,
        "bangumi_title": "文豪野犬",
        "ep_cut": 9,
        "image_url": "https://w.junreimap.com/images/user/0/bangumi/144357/points/iggmgv584-1710213238776.jpg",
        "location": "",
        "point_id": "iggmgv584",
        "point_name": "中華街",
        "remark": ""
      },
      "type": "Feature"
    },
    {
      "geometry": {
        "coordinates": [
          139.762877,
          35.671399
        ],
        "type": "Point"
      },
      "properties": {
        "bangumi_id": 144357,
        "bangumi_title": "文豪野犬",
        "ep_cut": "第二季第一集",
        "image_url": "https://w.junreimap.com/images/user/0/bangumi/144357/points/ln8fkpdl5-1719207537780.jpg",
        "location": "",
        "point_id": "ln8fkpdl5",
        "point_name": "Bar Lupin",
        "remark": "待转移到二期"
      },
      "type": "Feature"
    },
    {
      "geometry": {
        "coordinates": [
          139.647335,
          35.445826
        ],
        "type": "Point"
      },
      "properties": {
        "bangumi_id": 144357,
        "bangumi_title": "文豪野犬",
        "ep_cut": "",
        "image_url": "https://w.junreimap.com/images/user/0/bangumi/144357/points/qp73p0v9w-1733466669578.jpg",
        "location": "",
        "point_id": "qp73p0v9w",
        "point_name": "県立県民ホール",
        "remark": ""
      },
      "type": "Feature"
    }
  ],
  "type": "FeatureCollection"
}