{
  "features": [
    {
      "geometry": {
        "coordinates": [
          132.474033,
          34.244528
        ],
        "type": "Point"
      },
      "properties": {
        "bangumi_id": 144843,
        "bangumi_title": "高校舰队",
        "ep_cut": 1,
        "image_url": "https://w.junreimap.com/images/points/144843/51i52vhk2_1675697956914.jpg",
        "location": "",
        "point_id": "51i52vhk2",
        "point_name": "海上自衛隊第1術科学校",
        "remark": ""
      },
      "type": "Feature"
    },
    {
      "geometry": {
        "coordinates": [
          132.473682,
          34.245139
        ],
        "type": "Point"
      },
      "properties": {
        "bangumi_id": 144843,
        "bangumi_title": "高校舰队",
        "ep_cut": 1,
        "image_url": "https://w.junreimap.com/images/points/144843/680xe5ecw_1675698868600.jpg",
        "location": "",
        "point_id": "680xe5ecw",
        "point_name": "海上自衛隊第1術科学校",
        "remark": ""
      },
      "type": "Feature"
    },
    {
      "geometry": {
        "coordinates": [
          132.560288,
          34.236969
        ],
        "type": "Point"
      },
      "properties": {
        "bangumi_id": 144843,
        "bangumi_title": "高校舰队",
        "ep_cut": 1,
        "image_url": "https://w.junreimap.com/images/points/144843/51i52vhxm_1675698899651.jpg",
        "location": "",
        "point_id": "51i52vhxm",
        "point_name": "旧呉鎮守府庁舎",
        "remark": ""
      },
      "type": "Feature"
    },
    {
      "geometry": {
        "coordinates": [
          139.656234,
          35.284141
        ],
        "type": "Point"
      },
      "properties": {
        "bangumi_id": 144843,
        "bangumi_title": "高校舰队",
        "ep_cut": 2,
        "image_url": "https://w.junreimap.com/images/points/144843/51i52vil4_1675696336641.jpg",
        "location": "",
        "point_id": "51i52vil4",
        "point_name": "JR横須賀駅",
        "remark": ""
      },
      "type": "Feature"
    },
    {
      "geometry": {
        "coordinates": [
          139.665497,
          35.280693
        ],
        "type": "Point"
      },
      "properties": {
        "bangumi_id": 144843,
        "bangumi_title": "高校舰队",
        "ep_cut": 2,
        "image_url": "https://w.junreimap.com/images/points/144843/51i52via0_1725434842854.jpg",
        "location": "诹访大神社",
        "point_id": "51i52via0",
        "point_name": "諏訪大神社",
        "remark": ""
      },
      "type": "Feature"
    },
    {
      "geometry": {
        "coordinates": [
          139.666497,
          35.281463
        ],
        "type": "Point"
      },
      "properties": {
        "bangumi_id": 144843,
        "bangumi_title": "高校舰队",
        "ep_cut": 2,
        "image_url": "https://w.junreimap.com/images/points/144843/51i52vid7_1725434860133.jpg",
        "location": "诹访大神社",
        "point_id": "51i52vid7",
        "point_name": "諏訪大神社の門",
        "remark": ""
      },
      "type": "Feature"
    },
    {
      "geometry": {
        "coordinates": [
          139.66554,
          35.280694
        ],
        "type": "Point"
      },
      "properties": {
        "bangumi_id": 144843,
        "bangumi_title": "高校舰队",
        "ep_cut": 2,
        "image_url": "https://w.junreimap.com/images/points/144843/6807q4m56_1725434883923.jpg",
        "location": "诹访大神社",
        "point_id": "6807q4m56",
        "point_name": "",
        "remark": ""
      },
      "type": "Feature"
    },
    {
      "geometry": {
        "coordinates": [
          139.665635,
          35.280702
        ],
        "type": "Point"
      },
      "properties": {
        "bangumi_id": 144843,
        "bangumi_title": "高校舰队",
        "ep_cut": 2,
        "image_url": "https://w.junreimap.com/images/points/144843/68138kolq_1675699189524.jpg",
        "location": "诹访大神社",
        "point_id": "68138kolq",
        "point_name": 12,
        "remark": ""
      },
      "type": "Feature"
    },
    {
      "geometry": {
        "coordinates": [
          139.665668,
          35.28075
        ],
        "type": "Point"
      },
      "properties": {
        "bangumi_id": 144843,
        "bangumi_title": "高校舰队",
        "ep_cut": 2,
        "image_url": "https://w.junreimap.com/images/points/144843/6809n3ygi_1725434901172.jpg",
        "location": "诹访大神社",
        "point_id": "6809n3ygi",
        "point_name": "",
        "remark": ""
      },
      "type": "Feature"
    },
    {
      "geometry": {
        "coordinates": [
          139.665401,
          35.28069
        ],
        "type": "Point"
      },
      "properties": {
        "bangumi_id": 144843,
        "bangumi_title": "高校舰队",
        "ep_cut": 2,
        "image_url": "https://w.junreimap.com/images/points/144843/68101gm1g_1675699411390.jpg",
        "location": "诹访大神社",
        "point_id": "68101gm1g",
        "point_name": "諏訪大神社",
        "remark": ""
      },
      "type": "Feature"
    },
    {
      "geometry": {
        "coordinates": [
          139.79101,
          10.019412
        ],
        "type": "Point"
      },
      "properties": {
        "bangumi_id": 144843,
        "bangumi_title": "高校舰队",
        "ep_cut": 7,
        "image_url": "https://w.junreimap.com/images/user/0/bangumi/144843/points/kwwrv33xo-1717144475080.jpg",
        "location": "",
        "point_id": "kwwrv33xo",
        "point_name": "Falalop",
        "remark": "被救援船汇报位置时提及，具体方位见截图"
      },
      "type": "Feature"
    },
    {
      "geometry": {
        "coordinates": [
          145.404152,
          19.691362
        ],
        "type": "Point"
      },
      "properties": {
        "bangumi_id": 144843,
        "bangumi_title": "高校舰队",
        "ep_cut": 2,
        "image_url": "https://w.junreimap.com/images/user/0/bangumi/144843/points/kwx2vk143-1717145139566.jpg",
        "location": "",
        "point_id": "kwx2vk143",
        "point_name": "Asuncion Island",
        "remark": "武藏号第一次求救汇报方位时提及，属于北马里亚纳群岛，无人岛，正常情况下无法登岛"
      },
      "type": "Feature"
    },
    {
      "geometry": {
        "coordinates": [
          151.858957,
          7.443053
        ],
        "type": "Point"
      },
      "properties": {
        "bangumi_id": 144843,
        "bangumi_title": "高校舰队",
        "ep_cut": 8,
        "image_url": "https://w.junreimap.com/images/user/0/bangumi/144843/points/kwxabclln-1717145580802.jpg",
        "location": "",
        "point_id": "kwxabclln",
        "point_name": "Weno",
        "remark": "仅台词提及，特鲁克群岛为旧称，1990年修改为丘克(Chuuk)，丘克群岛属于丘克州，是密克罗尼西亚联邦的一个州，首府为韦诺"
      },
      "type": "Feature"
    },
    {
      "geometry": {
        "coordinates": [
          140.879124,
          27.244054
        ],
        "type": "Point"
      },
      "properties": {
        "bangumi_id": 144843,
        "bangumi_title": "高校舰队",
        "ep_cut": 8,
        "image_url": "https://w.junreimap.com/images/user/0/bangumi/144843/points/kwxeo5tyo-1717145822078.jpg",
        "location": "",
        "point_id": "kwxeo5tyo",
        "point_name": "西之島",
        "remark": "仅地图和台词提及，具体内容见截图。新岛仅存在于2013年火山喷发后，且已和西之岛连为一体。"
      },
      "type": "Feature"
    },
    {
      "geometry": {
        "coordinates": [
          147.278996,
          -2.033451
        ],
        "type": "Point"
      },
      "properties": {
        "bangumi_id": 144843,
        "bangumi_title": "高校舰队",
        "ep_cut": 9,
        "image_url": "https://w.junreimap.com/images/user/0/bangumi/144843/points/kwy2h2gsb-1717147256937.jpg",
        "location": "",
        "point_id": "kwy2h2gsb",
        "point_name": "Lorengau",
        "remark": "施佩伯爵号的大致位置，仅在台词里提及且距离非常远（200海里大约是370公里）。属于巴布亚新几内亚，洛伦高为该群岛首府。"
      },
      "type": "Feature"
    },
    {
      "geometry": {
        "coordinates": [
          147.372944,
          -2.040383
        ],
        "type": "Point"
      },
      "properties": {
        "bangumi_id": 144843,
        "bangumi_title": "高校舰队",
        "ep_cut": 9,
        "image_url": "https://w.junreimap.com/images/user/0/bangumi/144843/points/kwymdkfc3-1717148461765.jpg",
        "location": "",
        "point_id": "kwymdkfc3",
        "point_name": "Lombrum Naval Base",
        "remark": "夺回施佩伯爵号后准备前往此处进行补给，仅台词提及。该地属于巴布亚新几内亚马努斯岛，曾是德国殖民地，二战时美军在此建立过海军基地。战后交由澳大利亚皇家海军使用，先归还巴布亚新几内亚国防军使用（Lombrum Naval Base）。"
      },
      "type": "Feature"
    },
    {
      "geometry": {
        "coordinates": [
          127.408825,
          0.013111
        ],
        "type": "Point"
      },
      "properties": {
        "bangumi_id": 144843,
        "bangumi_title": "高校舰队",
        "ep_cut": 10,
        "image_url": "https://w.junreimap.com/images/user/0/bangumi/144843/points/kwz4h7qd0-1717149599804.jpg",
        "location": "",
        "point_id": "kwz4h7qd0",
        "point_name": "Guruapin",
        "remark": "根据地图的坐标得出正确位置应该是0°00'00.0\"N 127°18'10.0\"E附近，但由于现实中这里没有任何岛礁，故选取了距离最近的大城镇。该地位于马鲁古群岛，属于印度尼西亚。"
      },
      "type": "Feature"
    },
    {
      "geometry": {
        "coordinates": [
          138.119855,
          9.51582
        ],
        "type": "Point"
      },
      "properties": {
        "bangumi_id": 144843,
        "bangumi_title": "高校舰队",
        "ep_cut": 10,
        "image_url": "https://w.junreimap.com/images/user/0/bangumi/144843/points/kwzabcff5-1717149927972.jpg",
        "location": "",
        "point_id": "kwzabcff5",
        "point_name": "Colonia",
        "remark": "地图中提到，是武藏号最后的被目击到地点。科洛尼亚是密克罗尼西亚联邦的雅浦州首府，位于雅浦岛。"
      },
      "type": "Feature"
    },
    {
      "geometry": {
        "coordinates": [
          139.69588,
          35.285404
        ],
        "type": "Point"
      },
      "properties": {
        "bangumi_id": 144843,
        "bangumi_title": "高校舰队",
        "ep_cut": 1,
        "image_url": "https://w.junreimap.com/images/user/0/bangumi/144843/points/o8at6l6f6-1726500973299.jpg",
        "location": "",
        "point_id": "o8at6l6f6",
        "point_name": "猿島",
        "remark": "虚构港口"
      },
      "type": "Feature"
    }
  ],
  "type": "FeatureCollection"
}