{
  "features": [
    {
      "geometry": {
        "coordinates": [
          -77.033137,
          38.888846
        ],
        "type": "Point"
      },
      "properties": {
        "bangumi_id": 1451,
        "bangumi_title": "东之伊甸",
        "ep_cut": 1,
        "image_url": "https://w.junreimap.com/images/points/1451/kpx6ohd7q_1735414775699.jpg",
        "location": "Untitled layer",
        "point_id": "kpx6ohd7q",
        "point_name": "01 After getting of the taxi",
        "remark": "Scene 2:35 from ep1 ワシントン記念塔のふもと。ここからホワイトハウスまで、歩くと軽く10分くらいかかった…ｗ スーツケース引っ張って歩くにはちょっと遠いかも"
      },
      "type": "Feature"
    },
    {
      "geometry": {
        "coordinates": [
          -77.036546,
          38.891951
        ],
        "type": "Point"
      },
      "properties": {
        "bangumi_id": 1451,
        "bangumi_title": "东之伊甸",
        "ep_cut": 1,
        "image_url": "https://w.junreimap.com/images/points/1451/kpx6ohdg2_1735908130086.jpg",
        "location": "Untitled layer",
        "point_id": "kpx6ohdg2",
        "point_name": "02 Center of the world",
        "remark": "Scene 2:46 from ep1"
      },
      "type": "Feature"
    },
    {
      "geometry": {
        "coordinates": [
          -77.036326,
          38.896469
        ],
        "type": "Point"
      },
      "properties": {
        "bangumi_id": 1451,
        "bangumi_title": "东之伊甸",
        "ep_cut": 1,
        "image_url": "https://w.junreimap.com/images/points/1451/kpx6ohdp8_1735409921194.jpg",
        "location": "Untitled layer",
        "point_id": "kpx6ohdp8",
        "point_name": "03 White House",
        "remark": "Scene 3:00 from ep1"
      },
      "type": "Feature"
    },
    {
      "geometry": {
        "coordinates": [
          -77.036581,
          38.895113
        ],
        "type": "Point"
      },
      "properties": {
        "bangumi_id": 1451,
        "bangumi_title": "东之伊甸",
        "ep_cut": 1,
        "image_url": "https://w.junreimap.com/images/points/1451/re0gqng50_1735411337374.jpg",
        "location": "",
        "point_id": "re0gqng50",
        "point_name": "Zero Milestone",
        "remark": "滝沢目線。"
      },
      "type": "Feature"
    },
    {
      "geometry": {
        "coordinates": [
          -77.039459,
          38.895388
        ],
        "type": "Point"
      },
      "properties": {
        "bangumi_id": 1451,
        "bangumi_title": "东之伊甸",
        "ep_cut": "",
        "image_url": "",
        "location": "Untitled layer",
        "point_id": "kpx6ohdyn",
        "point_name": "03 Entrance 1 to White House E st.",
        "remark": "blocked as usual, no unauthorized vehicle access."
      },
      "type": "Feature"
    },
    {
      "geometry": {
        "coordinates": [
          -77.036659,
          38.897504
        ],
        "type": "Point"
      },
      "properties": {
        "bangumi_id": 1451,
        "bangumi_title": "东之伊甸",
        "ep_cut": "",
        "image_url": "",
        "location": "Untitled layer",
        "point_id": "kpx6ohebg",
        "point_name": "03 White House",
        "remark": "I am pretty sure sniper over here can shoot down anyone with a pistol, & naked."
      },
      "type": "Feature"
    },
    {
      "geometry": {
        "coordinates": [
          -77.033743,
          38.895475
        ],
        "type": "Point"
      },
      "properties": {
        "bangumi_id": 1451,
        "bangumi_title": "东之伊甸",
        "ep_cut": 1,
        "image_url": "https://w.junreimap.com/images/points/1451/kpx6ohepk_1735411237021.jpg",
        "location": "Untitled layer",
        "point_id": "kpx6ohepk",
        "point_name": "04 Entrance 2 to White House E st.",
        "remark": "scene 7:00+ from ep1 ポリスから隠れつつ、ジュイスたんと初交信。"
      },
      "type": "Feature"
    },
    {
      "geometry": {
        "coordinates": [
          -77.02299,
          38.891818
        ],
        "type": "Point"
      },
      "properties": {
        "bangumi_id": 1451,
        "bangumi_title": "东之伊甸",
        "ep_cut": 1,
        "image_url": "https://w.junreimap.com/images/points/1451/kpx6oher5_1735908196063.jpg",
        "location": "Untitled layer",
        "point_id": "kpx6oher5",
        "point_name": "05 Home, or not",
        "remark": "Scene 8:11 from ep1 手机上标记的地点"
      },
      "type": "Feature"
    },
    {
      "geometry": {
        "coordinates": [
          -77.033451,
          38.895342
        ],
        "type": "Point"
      },
      "properties": {
        "bangumi_id": 1451,
        "bangumi_title": "东之伊甸",
        "ep_cut": 1,
        "image_url": "https://w.junreimap.com/images/points/1451/kpx6ohfmf_1735412459817.jpg",
        "location": "Untitled layer",
        "point_id": "kpx6ohfmf",
        "point_name": "06 The red zebra crossing",
        "remark": "Scene 8:41 from ep1 走る滝沢シリーズ。"
      },
      "type": "Feature"
    },
    {
      "geometry": {
        "coordinates": [
          -77.030447,
          38.896114
        ],
        "type": "Point"
      },
      "properties": {
        "bangumi_id": 1451,
        "bangumi_title": "东之伊甸",
        "ep_cut": 1,
        "image_url": "https://w.junreimap.com/images/points/1451/kpx6ohfc3_1735411793909.jpg",
        "location": "Untitled layer",
        "point_id": "kpx6ohfc3",
        "point_name": "07 National Theatre",
        "remark": "Scene 8:43 from ep1 走る滝沢シリーズ。"
      },
      "type": "Feature"
    },
    {
      "geometry": {
        "coordinates": [
          -77.030366,
          38.895371
        ],
        "type": "Point"
      },
      "properties": {
        "bangumi_id": 1451,
        "bangumi_title": "东之伊甸",
        "ep_cut": 1,
        "image_url": "https://w.junreimap.com/images/points/1451/kpx6ohfdv_1735411777942.jpg",
        "location": "Untitled layer",
        "point_id": "kpx6ohfdv",
        "point_name": "08 Department of ?",
        "remark": "Scene 8:52 from ep1 なんか政府系の建物だった記憶。キモヲタが写り込んでるのはスルーで…"
      },
      "type": "Feature"
    },
    {
      "geometry": {
        "coordinates": [
          -77.029476,
          38.895521
        ],
        "type": "Point"
      },
      "properties": {
        "bangumi_id": 1451,
        "bangumi_title": "东之伊甸",
        "ep_cut": 1,
        "image_url": "https://w.junreimap.com/images/points/1451/kpx6ohfqa_1735410008060.jpg",
        "location": "Untitled layer",
        "point_id": "kpx6ohfqa",
        "point_name": "09 CVS/Pharmacy",
        "remark": "Scene 9:12 from ep1 おっさんにズボンをもらったCVS前。"
      },
      "type": "Feature"
    },
    {
      "geometry": {
        "coordinates": [
          -77.029964,
          38.895738
        ],
        "type": "Point"
      },
      "properties": {
        "bangumi_id": 1451,
        "bangumi_title": "东之伊甸",
        "ep_cut": 1,
        "image_url": "https://w.junreimap.com/images/points/1451/kpx6ohgel_1735908258653.jpg",
        "location": "Untitled layer",
        "point_id": "kpx6ohgel",
        "point_name": "10 Freedom Plaza/Statue of Kazimierz Pułaski",
        "remark": "Scene 9:25 from ep1"
      },
      "type": "Feature"
    },
    {
      "geometry": {
        "coordinates": [
          -77.028204,
          38.896135
        ],
        "type": "Point"
      },
      "properties": {
        "bangumi_id": 1451,
        "bangumi_title": "东之伊甸",
        "ep_cut": 1,
        "image_url": "https://w.junreimap.com/images/points/1451/kpx6ohg2u_1735413142472.jpg",
        "location": "Untitled layer",
        "point_id": "kpx6ohg2u",
        "point_name": "10.5 Path",
        "remark": "Scene 9:30 from ep1, exact location unknown パーキングメーターもしっかり巡礼。"
      },
      "type": "Feature"
    },
    {
      "geometry": {
        "coordinates": [
          -77.023961,
          38.897083
        ],
        "type": "Point"
      },
      "properties": {
        "bangumi_id": 1451,
        "bangumi_title": "东之伊甸",
        "ep_cut": 1,
        "image_url": "https://w.junreimap.com/images/points/1451/kpx6ohgdv_1735412099663.jpg",
        "location": "Untitled layer",
        "point_id": "kpx6ohgdv",
        "point_name": "11 International Spy Museum",
        "remark": "Scene 9:40+ from ep1 割と有名なスポットらしいです。看板は角度と壁の色が微妙に違ったけど、たぶんここ。ミュージアムにカフェとショップが併設されてます"
      },
      "type": "Feature"
    },
    {
      "geometry": {
        "coordinates": [
          -77.023969,
          38.897222
        ],
        "type": "Point"
      },
      "properties": {
        "bangumi_id": 1451,
        "bangumi_title": "东之伊甸",
        "ep_cut": 1,
        "image_url": "https://w.junreimap.com/images/points/1451/re1ca9jx2_1735413240264.jpg",
        "location": "",
        "point_id": "re1ca9jx2",
        "point_name": "9th St NW",
        "remark": "SPY CITY CAFE → SHAKE SHARK"
      },
      "type": "Feature"
    },
    {
      "geometry": {
        "coordinates": [
          -77.020179,
          38.897279
        ],
        "type": "Point"
      },
      "properties": {
        "bangumi_id": 1451,
        "bangumi_title": "东之伊甸",
        "ep_cut": 1,
        "image_url": "https://w.junreimap.com/images/points/1451/kpx6ohgvi_1735413990993.jpg",
        "location": "Untitled layer",
        "point_id": "kpx6ohgvi",
        "point_name": "12 Target Lost",
        "remark": "Possible Scene 9:55+ from ep1 ようやく到着。交差点の向こう側の建物なんかは違いますね…"
      },
      "type": "Feature"
    },
    {
      "geometry": {
        "coordinates": [
          -77.019958,
          38.897045
        ],
        "type": "Point"
      },
      "properties": {
        "bangumi_id": 1451,
        "bangumi_title": "东之伊甸",
        "ep_cut": 1,
        "image_url": "https://w.junreimap.com/images/points/1451/re1qt7um8_1735414132025.jpg",
        "location": "",
        "point_id": "re1qt7um8",
        "point_name": "6th St NW",
        "remark": "ちなみに、ドアには鍵がかかってて入れませんでした…"
      },
      "type": "Feature"
    },
    {
      "geometry": {
        "coordinates": [
          -77.022995,
          38.896243
        ],
        "type": "Point"
      },
      "properties": {
        "bangumi_id": 1451,
        "bangumi_title": "东之伊甸",
        "ep_cut": "",
        "image_url": "",
        "location": "Untitled layer",
        "point_id": "kpx6ohh40",
        "point_name": "12 Target Lost?",
        "remark": "Possible Scene 9:55+ from ep1"
      },
      "type": "Feature"
    },
    {
      "geometry": {
        "coordinates": [
          -77.447777,
          38.953402
        ],
        "type": "Point"
      },
      "properties": {
        "bangumi_id": 1451,
        "bangumi_title": "东之伊甸",
        "ep_cut": 1,
        "image_url": "https://w.junreimap.com/images/points/1451/kpx6ohh0v_1735908299959.jpg",
        "location": "Untitled layer",
        "point_id": "kpx6ohh0v",
        "point_name": "Washington Dulles International Airport",
        "remark": "Scene 16:38+ from ep1"
      },
      "type": "Feature"
    },
    {
      "geometry": {
        "coordinates": [
          -77.447893,
          38.951715
        ],
        "type": "Point"
      },
      "properties": {
        "bangumi_id": 1451,
        "bangumi_title": "东之伊甸",
        "ep_cut": 11,
        "image_url": "https://w.junreimap.com/images/user/0/bangumi/1451/points/j56mxtwrh-1712150874155.jpg",
        "location": "Untitled layer",
        "point_id": "j56mxtwrh",
        "point_name": "Dulles Airport？",
        "remark": "Scene 16:38+ from ep1"
      },
      "type": "Feature"
    }
  ],
  "type": "FeatureCollection"
}