{
  "features": [
    {
      "geometry": {
        "coordinates": [
          139.507643,
          35.603803
        ],
        "type": "Point"
      },
      "properties": {
        "bangumi_id": 14724,
        "bangumi_title": "铁道少女漫画",
        "ep_cut": "",
        "image_url": "https://w.junreimap.com/images/points/14724/73otx4m_1762470938746.jpg",
        "location": "",
        "point_id": "73otx4m",
        "point_name": "新百合ヶ丘",
        "remark": ""
      },
      "type": "Feature"
    },
    {
      "geometry": {
        "coordinates": [
          139.507509,
          35.603764
        ],
        "type": "Point"
      },
      "properties": {
        "bangumi_id": 14724,
        "bangumi_title": "铁道少女漫画",
        "ep_cut": "",
        "image_url": "https://w.junreimap.com/images/points/14724/73ou4g4_1762470944494.jpg",
        "location": "",
        "point_id": "73ou4g4",
        "point_name": "新百合ヶ丘",
        "remark": ""
      },
      "type": "Feature"
    },
    {
      "geometry": {
        "coordinates": [
          139.10351,
          35.233219
        ],
        "type": "Point"
      },
      "properties": {
        "bangumi_id": 14724,
        "bangumi_title": "铁道少女漫画",
        "ep_cut": "",
        "image_url": "https://w.junreimap.com/images/points/14724/73orh55_1762470831607.jpg",
        "location": "",
        "point_id": "73orh55",
        "point_name": "箱根湯本",
        "remark": "男女主们乘坐的列车为浪漫特快 相模75号及箱根37号"
      },
      "type": "Feature"
    },
    {
      "geometry": {
        "coordinates": [
          139.121116,
          35.240896
        ],
        "type": "Point"
      },
      "properties": {
        "bangumi_id": 14724,
        "bangumi_title": "铁道少女漫画",
        "ep_cut": "",
        "image_url": "https://w.junreimap.com/images/points/14724/73oz61m_1762471188185.jpg",
        "location": "",
        "point_id": "73oz61m",
        "point_name": "入生田站",
        "remark": ""
      },
      "type": "Feature"
    },
    {
      "geometry": {
        "coordinates": [
          139.121129,
          35.240908
        ],
        "type": "Point"
      },
      "properties": {
        "bangumi_id": 14724,
        "bangumi_title": "铁道少女漫画",
        "ep_cut": "",
        "image_url": "https://w.junreimap.com/images/points/14724/73p1a7u_1762471278953.jpg",
        "location": "",
        "point_id": "73p1a7u",
        "point_name": "入生田站",
        "remark": ""
      },
      "type": "Feature"
    },
    {
      "geometry": {
        "coordinates": [
          139.12115,
          35.240911
        ],
        "type": "Point"
      },
      "properties": {
        "bangumi_id": 14724,
        "bangumi_title": "铁道少女漫画",
        "ep_cut": "",
        "image_url": "https://w.junreimap.com/images/points/14724/73ozxt0_1762471215068.jpg",
        "location": "",
        "point_id": "73ozxt0",
        "point_name": "入生田站",
        "remark": ""
      },
      "type": "Feature"
    },
    {
      "geometry": {
        "coordinates": [
          139.121094,
          35.240878
        ],
        "type": "Point"
      },
      "properties": {
        "bangumi_id": 14724,
        "bangumi_title": "铁道少女漫画",
        "ep_cut": "",
        "image_url": "https://w.junreimap.com/images/points/14724/73pa5if_1762471695852.jpg",
        "location": "",
        "point_id": "73pa5if",
        "point_name": "入生田站",
        "remark": ""
      },
      "type": "Feature"
    },
    {
      "geometry": {
        "coordinates": [
          139.121096,
          35.240909
        ],
        "type": "Point"
      },
      "properties": {
        "bangumi_id": 14724,
        "bangumi_title": "铁道少女漫画",
        "ep_cut": "",
        "image_url": "https://w.junreimap.com/images/points/14724/73pa5wc_1762471706192.jpg",
        "location": "",
        "point_id": "73pa5wc",
        "point_name": "入生田站",
        "remark": ""
      },
      "type": "Feature"
    },
    {
      "geometry": {
        "coordinates": [
          139.121064,
          35.240873
        ],
        "type": "Point"
      },
      "properties": {
        "bangumi_id": 14724,
        "bangumi_title": "铁道少女漫画",
        "ep_cut": "",
        "image_url": "https://w.junreimap.com/images/points/14724/73pbruy_1762471767771.jpg",
        "location": "",
        "point_id": "73pbruy",
        "point_name": "入生田",
        "remark": ""
      },
      "type": "Feature"
    },
    {
      "geometry": {
        "coordinates": [
          139.121047,
          35.240947
        ],
        "type": "Point"
      },
      "properties": {
        "bangumi_id": 14724,
        "bangumi_title": "铁道少女漫画",
        "ep_cut": "",
        "image_url": "https://w.junreimap.com/images/points/14724/73pdlk4_1762471853791.jpg",
        "location": "",
        "point_id": "73pdlk4",
        "point_name": "入生田",
        "remark": ""
      },
      "type": "Feature"
    },
    {
      "geometry": {
        "coordinates": [
          139.121088,
          35.240888
        ],
        "type": "Point"
      },
      "properties": {
        "bangumi_id": 14724,
        "bangumi_title": "铁道少女漫画",
        "ep_cut": "",
        "image_url": "https://w.junreimap.com/images/points/14724/73pojkj_1762472365044.jpg",
        "location": "",
        "point_id": "73pojkj",
        "point_name": "入生田駅",
        "remark": ""
      },
      "type": "Feature"
    },
    {
      "geometry": {
        "coordinates": [
          139.377897,
          35.443066
        ],
        "type": "Point"
      },
      "properties": {
        "bangumi_id": 14724,
        "bangumi_title": "铁道少女漫画",
        "ep_cut": "",
        "image_url": "https://w.junreimap.com/images/points/14724/73prwki_1762472528783.jpg",
        "location": "",
        "point_id": "73prwki",
        "point_name": "厚木站 相模线",
        "remark": ""
      },
      "type": "Feature"
    },
    {
      "geometry": {
        "coordinates": [
          139.377859,
          35.44306
        ],
        "type": "Point"
      },
      "properties": {
        "bangumi_id": 14724,
        "bangumi_title": "铁道少女漫画",
        "ep_cut": "",
        "image_url": "https://w.junreimap.com/images/points/14724/73q0h4g_1762472921153.jpg",
        "location": "",
        "point_id": "73q0h4g",
        "point_name": "厚木站 相模线",
        "remark": ""
      },
      "type": "Feature"
    },
    {
      "geometry": {
        "coordinates": [
          139.37783,
          35.443018
        ],
        "type": "Point"
      },
      "properties": {
        "bangumi_id": 14724,
        "bangumi_title": "铁道少女漫画",
        "ep_cut": "",
        "image_url": "https://w.junreimap.com/images/points/14724/73q1rv3_1762472981441.jpg",
        "location": "",
        "point_id": "73q1rv3",
        "point_name": "厚木站 相模线",
        "remark": ""
      },
      "type": "Feature"
    },
    {
      "geometry": {
        "coordinates": [
          139.37776,
          35.443046
        ],
        "type": "Point"
      },
      "properties": {
        "bangumi_id": 14724,
        "bangumi_title": "铁道少女漫画",
        "ep_cut": "",
        "image_url": "https://w.junreimap.com/images/points/14724/73q66sk_1762473189247.jpg",
        "location": "",
        "point_id": "73q66sk",
        "point_name": "厚木站 相模线",
        "remark": ""
      },
      "type": "Feature"
    },
    {
      "geometry": {
        "coordinates": [
          139.377819,
          35.443051
        ],
        "type": "Point"
      },
      "properties": {
        "bangumi_id": 14724,
        "bangumi_title": "铁道少女漫画",
        "ep_cut": "",
        "image_url": "https://w.junreimap.com/images/points/14724/73q5ocv_1762473162985.jpg",
        "location": "",
        "point_id": "73q5ocv",
        "point_name": "厚木站 相模线",
        "remark": ""
      },
      "type": "Feature"
    }
  ],
  "type": "FeatureCollection"
}