{
  "features": [
    {
      "geometry": {
        "coordinates": [
          137.831072,
          36.703535
        ],
        "type": "Point"
      },
      "properties": {
        "bangumi_id": 14761,
        "bangumi_title": "镰鼬之夜",
        "ep_cut": "",
        "image_url": "https://w.junreimap.com/images/points/14761/oubjpxs60_1728226736978.jpg",
        "location": "",
        "point_id": "oubjpxs60",
        "point_name": "白馬八方尾根スキー場",
        "remark": ""
      },
      "type": "Feature"
    },
    {
      "geometry": {
        "coordinates": [
          137.824217,
          36.701606
        ],
        "type": "Point"
      },
      "properties": {
        "bangumi_id": 14761,
        "bangumi_title": "镰鼬之夜",
        "ep_cut": "",
        "image_url": "https://w.junreimap.com/images/points/14761/oubxi88in_1728226803627.jpg",
        "location": "",
        "point_id": "oubxi88in",
        "point_name": "白馬八方尾根スキー場",
        "remark": ""
      },
      "type": "Feature"
    },
    {
      "geometry": {
        "coordinates": [
          137.826639,
          36.703621
        ],
        "type": "Point"
      },
      "properties": {
        "bangumi_id": 14761,
        "bangumi_title": "镰鼬之夜",
        "ep_cut": "",
        "image_url": "https://w.junreimap.com/images/points/14761/ouby8w84u_1728226815549.jpg",
        "location": "",
        "point_id": "ouby8w84u",
        "point_name": "白馬八方尾根スキー場",
        "remark": ""
      },
      "type": "Feature"
    },
    {
      "geometry": {
        "coordinates": [
          137.831434,
          36.71651
        ],
        "type": "Point"
      },
      "properties": {
        "bangumi_id": 14761,
        "bangumi_title": "镰鼬之夜",
        "ep_cut": "",
        "image_url": "https://w.junreimap.com/images/points/14761/oud094ano_1728229115369.jpg",
        "location": "",
        "point_id": "oud094ano",
        "point_name": "ペンション クヌルプ",
        "remark": ""
      },
      "type": "Feature"
    },
    {
      "geometry": {
        "coordinates": [
          137.831569,
          36.716666
        ],
        "type": "Point"
      },
      "properties": {
        "bangumi_id": 14761,
        "bangumi_title": "镰鼬之夜",
        "ep_cut": "",
        "image_url": "https://w.junreimap.com/images/points/14761/oubkh63ke_1728226221931.jpg",
        "location": "",
        "point_id": "oubkh63ke",
        "point_name": "ペンション クヌルプ",
        "remark": ""
      },
      "type": "Feature"
    },
    {
      "geometry": {
        "coordinates": [
          137.831649,
          36.716761
        ],
        "type": "Point"
      },
      "properties": {
        "bangumi_id": 14761,
        "bangumi_title": "镰鼬之夜",
        "ep_cut": "",
        "image_url": "https://w.junreimap.com/images/points/14761/oubs0d1f5_1728226724312.jpg",
        "location": "",
        "point_id": "oubs0d1f5",
        "point_name": "クヌルプ玄関のドア",
        "remark": ""
      },
      "type": "Feature"
    },
    {
      "geometry": {
        "coordinates": [
          137.831651,
          36.716749
        ],
        "type": "Point"
      },
      "properties": {
        "bangumi_id": 14761,
        "bangumi_title": "镰鼬之夜",
        "ep_cut": "",
        "image_url": "https://w.junreimap.com/images/points/14761/ouczw9zic_1728229099451.jpg",
        "location": "",
        "point_id": "ouczw9zic",
        "point_name": "クヌルプ室外",
        "remark": ""
      },
      "type": "Feature"
    },
    {
      "geometry": {
        "coordinates": [
          137.831647,
          36.716773
        ],
        "type": "Point"
      },
      "properties": {
        "bangumi_id": 14761,
        "bangumi_title": "镰鼬之夜",
        "ep_cut": "",
        "image_url": "https://w.junreimap.com/images/points/14761/oucxr63ks_1728229014254.jpg",
        "location": "",
        "point_id": "oucxr63ks",
        "point_name": "クヌルプ地下室",
        "remark": ""
      },
      "type": "Feature"
    },
    {
      "geometry": {
        "coordinates": [
          137.831633,
          36.716777
        ],
        "type": "Point"
      },
      "properties": {
        "bangumi_id": 14761,
        "bangumi_title": "镰鼬之夜",
        "ep_cut": "",
        "image_url": "https://w.junreimap.com/images/points/14761/oucyrpqz9_1728229023260.jpg",
        "location": "",
        "point_id": "oucyrpqz9",
        "point_name": "クヌルプ地下室",
        "remark": ""
      },
      "type": "Feature"
    },
    {
      "geometry": {
        "coordinates": [
          137.831637,
          36.716771
        ],
        "type": "Point"
      },
      "properties": {
        "bangumi_id": 14761,
        "bangumi_title": "镰鼬之夜",
        "ep_cut": "",
        "image_url": "https://w.junreimap.com/images/points/14761/oucyv32lt_1728229029397.jpg",
        "location": "",
        "point_id": "oucyv32lt",
        "point_name": "クヌルプ地下室",
        "remark": ""
      },
      "type": "Feature"
    },
    {
      "geometry": {
        "coordinates": [
          137.831663,
          36.716766
        ],
        "type": "Point"
      },
      "properties": {
        "bangumi_id": 14761,
        "bangumi_title": "镰鼬之夜",
        "ep_cut": "",
        "image_url": "https://w.junreimap.com/images/points/14761/oubyj4sjq_1728226860650.jpg",
        "location": "",
        "point_id": "oubyj4sjq",
        "point_name": "クヌルプ談話室",
        "remark": ""
      },
      "type": "Feature"
    },
    {
      "geometry": {
        "coordinates": [
          137.831661,
          36.716773
        ],
        "type": "Point"
      },
      "properties": {
        "bangumi_id": 14761,
        "bangumi_title": "镰鼬之夜",
        "ep_cut": "",
        "image_url": "https://w.junreimap.com/images/points/14761/ouc2v3hcf_1728227094715.jpg",
        "location": "",
        "point_id": "ouc2v3hcf",
        "point_name": "クヌルプ玄関",
        "remark": ""
      },
      "type": "Feature"
    },
    {
      "geometry": {
        "coordinates": [
          137.831665,
          36.716782
        ],
        "type": "Point"
      },
      "properties": {
        "bangumi_id": 14761,
        "bangumi_title": "镰鼬之夜",
        "ep_cut": "",
        "image_url": "https://w.junreimap.com/images/points/14761/ouc382z59_1728227121393.jpg",
        "location": "",
        "point_id": "ouc382z59",
        "point_name": "クヌルプ談話室のフロント",
        "remark": ""
      },
      "type": "Feature"
    },
    {
      "geometry": {
        "coordinates": [
          137.831653,
          36.716773
        ],
        "type": "Point"
      },
      "properties": {
        "bangumi_id": 14761,
        "bangumi_title": "镰鼬之夜",
        "ep_cut": "",
        "image_url": "https://w.junreimap.com/images/points/14761/ouc12r90b_1728227195790.jpg",
        "location": "",
        "point_id": "ouc12r90b",
        "point_name": "クヌルプ談話室",
        "remark": ""
      },
      "type": "Feature"
    },
    {
      "geometry": {
        "coordinates": [
          137.831668,
          36.716772
        ],
        "type": "Point"
      },
      "properties": {
        "bangumi_id": 14761,
        "bangumi_title": "镰鼬之夜",
        "ep_cut": "",
        "image_url": "https://w.junreimap.com/images/points/14761/oucc4192d_1728227652848.jpg",
        "location": "",
        "point_id": "oucc4192d",
        "point_name": "クヌルプ談話室",
        "remark": ""
      },
      "type": "Feature"
    },
    {
      "geometry": {
        "coordinates": [
          137.831654,
          36.716791
        ],
        "type": "Point"
      },
      "properties": {
        "bangumi_id": 14761,
        "bangumi_title": "镰鼬之夜",
        "ep_cut": "",
        "image_url": "https://w.junreimap.com/images/points/14761/ouc2d77z6_1728227065080.jpg",
        "location": "",
        "point_id": "ouc2d77z6",
        "point_name": "クヌルプ窓",
        "remark": ""
      },
      "type": "Feature"
    },
    {
      "geometry": {
        "coordinates": [
          137.831808,
          36.716841
        ],
        "type": "Point"
      },
      "properties": {
        "bangumi_id": 14761,
        "bangumi_title": "镰鼬之夜",
        "ep_cut": "",
        "image_url": "https://w.junreimap.com/images/points/14761/oubmq2pj5_1728226411912.jpg",
        "location": "",
        "point_id": "oubmq2pj5",
        "point_name": "クヌルプ裏口",
        "remark": ""
      },
      "type": "Feature"
    },
    {
      "geometry": {
        "coordinates": [
          137.831765,
          36.716858
        ],
        "type": "Point"
      },
      "properties": {
        "bangumi_id": 14761,
        "bangumi_title": "镰鼬之夜",
        "ep_cut": "",
        "image_url": "https://w.junreimap.com/images/points/14761/oubroucn8_1728228072915.jpg",
        "location": "",
        "point_id": "oubroucn8",
        "point_name": "クヌルプ裏口",
        "remark": ""
      },
      "type": "Feature"
    },
    {
      "geometry": {
        "coordinates": [
          137.831742,
          36.716872
        ],
        "type": "Point"
      },
      "properties": {
        "bangumi_id": 14761,
        "bangumi_title": "镰鼬之夜",
        "ep_cut": "",
        "image_url": "https://w.junreimap.com/images/points/14761/oucr59ww8_1728228605290.jpg",
        "location": "",
        "point_id": "oucr59ww8",
        "point_name": "小林夫妻の部屋",
        "remark": ""
      },
      "type": "Feature"
    },
    {
      "geometry": {
        "coordinates": [
          137.831739,
          36.716854
        ],
        "type": "Point"
      },
      "properties": {
        "bangumi_id": 14761,
        "bangumi_title": "镰鼬之夜",
        "ep_cut": "",
        "image_url": "https://w.junreimap.com/images/points/14761/ouctu8b29_1728228934381.jpg",
        "location": "",
        "point_id": "ouctu8b29",
        "point_name": "クヌルプ 乾燥室",
        "remark": ""
      },
      "type": "Feature"
    },
    {
      "geometry": {
        "coordinates": [
          137.831786,
          36.716807
        ],
        "type": "Point"
      },
      "properties": {
        "bangumi_id": 14761,
        "bangumi_title": "镰鼬之夜",
        "ep_cut": "",
        "image_url": "https://w.junreimap.com/images/points/14761/oucdxyafz_1728227771509.jpg",
        "location": "",
        "point_id": "oucdxyafz",
        "point_name": "クヌルプスタッフルーム",
        "remark": ""
      },
      "type": "Feature"
    },
    {
      "geometry": {
        "coordinates": [
          137.831739,
          36.716793
        ],
        "type": "Point"
      },
      "properties": {
        "bangumi_id": 14761,
        "bangumi_title": "镰鼬之夜",
        "ep_cut": "",
        "image_url": "https://w.junreimap.com/images/points/14761/oucedsgcn_1728227801957.jpg",
        "location": "",
        "point_id": "oucedsgcn",
        "point_name": "クヌルプ一階廊下",
        "remark": ""
      },
      "type": "Feature"
    },
    {
      "geometry": {
        "coordinates": [
          137.831714,
          36.716739
        ],
        "type": "Point"
      },
      "properties": {
        "bangumi_id": 14761,
        "bangumi_title": "镰鼬之夜",
        "ep_cut": "",
        "image_url": "https://w.junreimap.com/images/points/14761/oucclhj81_1728227711471.jpg",
        "location": "",
        "point_id": "oucclhj81",
        "point_name": "クヌルプ食堂",
        "remark": ""
      },
      "type": "Feature"
    },
    {
      "geometry": {
        "coordinates": [
          137.831717,
          36.716741
        ],
        "type": "Point"
      },
      "properties": {
        "bangumi_id": 14761,
        "bangumi_title": "镰鼬之夜",
        "ep_cut": "",
        "image_url": "https://w.junreimap.com/images/points/14761/oucd8rwop_1728227721320.jpg",
        "location": "",
        "point_id": "oucd8rwop",
        "point_name": "クヌルプ食堂",
        "remark": ""
      },
      "type": "Feature"
    },
    {
      "geometry": {
        "coordinates": [
          137.831714,
          36.716741
        ],
        "type": "Point"
      },
      "properties": {
        "bangumi_id": 14761,
        "bangumi_title": "镰鼬之夜",
        "ep_cut": "",
        "image_url": "https://w.junreimap.com/images/points/14761/oucdbiyj9_1728227729920.jpg",
        "location": "",
        "point_id": "oucdbiyj9",
        "point_name": "クヌルプ食堂",
        "remark": ""
      },
      "type": "Feature"
    },
    {
      "geometry": {
        "coordinates": [
          137.831662,
          36.716776
        ],
        "type": "Point"
      },
      "properties": {
        "bangumi_id": 14761,
        "bangumi_title": "镰鼬之夜",
        "ep_cut": "",
        "image_url": "https://w.junreimap.com/images/points/14761/ouc21hf4x_1728227043945.jpg",
        "location": "",
        "point_id": "ouc21hf4x",
        "point_name": "クヌルプ階段",
        "remark": ""
      },
      "type": "Feature"
    },
    {
      "geometry": {
        "coordinates": [
          137.831695,
          36.716797
        ],
        "type": "Point"
      },
      "properties": {
        "bangumi_id": 14761,
        "bangumi_title": "镰鼬之夜",
        "ep_cut": "",
        "image_url": "https://w.junreimap.com/images/points/14761/ouck2e9eu_1728228137945.jpg",
        "location": "",
        "point_id": "ouck2e9eu",
        "point_name": "クヌルプ階段",
        "remark": ""
      },
      "type": "Feature"
    },
    {
      "geometry": {
        "coordinates": [
          137.831701,
          36.716794
        ],
        "type": "Point"
      },
      "properties": {
        "bangumi_id": 14761,
        "bangumi_title": "镰鼬之夜",
        "ep_cut": "",
        "image_url": "https://w.junreimap.com/images/points/14761/oucnvkrsh_1728228380015.jpg",
        "location": "",
        "point_id": "oucnvkrsh",
        "point_name": "クヌルプ階段",
        "remark": ""
      },
      "type": "Feature"
    },
    {
      "geometry": {
        "coordinates": [
          137.831704,
          36.716789
        ],
        "type": "Point"
      },
      "properties": {
        "bangumi_id": 14761,
        "bangumi_title": "镰鼬之夜",
        "ep_cut": "",
        "image_url": "https://w.junreimap.com/images/points/14761/ouceukxws_1728227822438.jpg",
        "location": "",
        "point_id": "ouceukxws",
        "point_name": "クヌルプ二階廊下",
        "remark": ""
      },
      "type": "Feature"
    },
    {
      "geometry": {
        "coordinates": [
          137.831751,
          36.716831
        ],
        "type": "Point"
      },
      "properties": {
        "bangumi_id": 14761,
        "bangumi_title": "镰鼬之夜",
        "ep_cut": "",
        "image_url": "https://w.junreimap.com/images/points/14761/oucjfqs3d_1728228115493.jpg",
        "location": "",
        "point_id": "oucjfqs3d",
        "point_name": "クヌルプ二階廊下",
        "remark": ""
      },
      "type": "Feature"
    },
    {
      "geometry": {
        "coordinates": [
          137.831766,
          36.716846
        ],
        "type": "Point"
      },
      "properties": {
        "bangumi_id": 14761,
        "bangumi_title": "镰鼬之夜",
        "ep_cut": "",
        "image_url": "https://w.junreimap.com/images/points/14761/oucgcumz4_1728228085655.jpg",
        "location": "",
        "point_id": "oucgcumz4",
        "point_name": "クヌルプ二階廊下物置",
        "remark": ""
      },
      "type": "Feature"
    },
    {
      "geometry": {
        "coordinates": [
          137.831771,
          36.71685
        ],
        "type": "Point"
      },
      "properties": {
        "bangumi_id": 14761,
        "bangumi_title": "镰鼬之夜",
        "ep_cut": "",
        "image_url": "https://w.junreimap.com/images/points/14761/oucfunjdx_1728227901383.jpg",
        "location": "",
        "point_id": "oucfunjdx",
        "point_name": "クヌルプ二階廊下物置",
        "remark": ""
      },
      "type": "Feature"
    },
    {
      "geometry": {
        "coordinates": [
          137.831722,
          36.716813
        ],
        "type": "Point"
      },
      "properties": {
        "bangumi_id": 14761,
        "bangumi_title": "镰鼬之夜",
        "ep_cut": "",
        "image_url": "https://w.junreimap.com/images/points/14761/oud1pt5lz_1728229247196.jpg",
        "location": "",
        "point_id": "oud1pt5lz",
        "point_name": "",
        "remark": ""
      },
      "type": "Feature"
    },
    {
      "geometry": {
        "coordinates": [
          137.83172,
          36.716811
        ],
        "type": "Point"
      },
      "properties": {
        "bangumi_id": 14761,
        "bangumi_title": "镰鼬之夜",
        "ep_cut": "",
        "image_url": "https://w.junreimap.com/images/points/14761/oud522qzk_1728229403163.jpg",
        "location": "",
        "point_id": "oud522qzk",
        "point_name": "",
        "remark": ""
      },
      "type": "Feature"
    },
    {
      "geometry": {
        "coordinates": [
          137.831695,
          36.716818
        ],
        "type": "Point"
      },
      "properties": {
        "bangumi_id": 14761,
        "bangumi_title": "镰鼬之夜",
        "ep_cut": "",
        "image_url": "https://w.junreimap.com/images/points/14761/oud0ulsuw_1728229191137.jpg",
        "location": "",
        "point_id": "oud0ulsuw",
        "point_name": "田中房间",
        "remark": ""
      },
      "type": "Feature"
    },
    {
      "geometry": {
        "coordinates": [
          137.831721,
          36.716838
        ],
        "type": "Point"
      },
      "properties": {
        "bangumi_id": 14761,
        "bangumi_title": "镰鼬之夜",
        "ep_cut": "",
        "image_url": "https://w.junreimap.com/images/points/14761/oud2lq3v8_1728229266992.jpg",
        "location": "",
        "point_id": "oud2lq3v8",
        "point_name": "",
        "remark": ""
      },
      "type": "Feature"
    },
    {
      "geometry": {
        "coordinates": [
          137.831713,
          36.716836
        ],
        "type": "Point"
      },
      "properties": {
        "bangumi_id": 14761,
        "bangumi_title": "镰鼬之夜",
        "ep_cut": "",
        "image_url": "https://w.junreimap.com/images/points/14761/oud3n6ebf_1728229329415.jpg",
        "location": "",
        "point_id": "oud3n6ebf",
        "point_name": "",
        "remark": ""
      },
      "type": "Feature"
    },
    {
      "geometry": {
        "coordinates": [
          137.831722,
          36.716837
        ],
        "type": "Point"
      },
      "properties": {
        "bangumi_id": 14761,
        "bangumi_title": "镰鼬之夜",
        "ep_cut": "",
        "image_url": "https://w.junreimap.com/images/points/14761/oud2x0ctl_1728229276042.jpg",
        "location": "",
        "point_id": "oud2x0ctl",
        "point_name": "",
        "remark": ""
      },
      "type": "Feature"
    }
  ],
  "type": "FeatureCollection"
}