{
  "features": [
    {
      "geometry": {
        "coordinates": [
          116.970676,
          24.60912
        ],
        "type": "Point"
      },
      "properties": {
        "bangumi_id": 14830,
        "bangumi_title": "大鱼·海棠",
        "ep_cut": "",
        "image_url": "https://w.junreimap.com/images/points/14830/kte0yiamu_1716870275218.jpg",
        "location": "",
        "point_id": "kte0yiamu",
        "point_name": "衍香楼",
        "remark": ""
      },
      "type": "Feature"
    },
    {
      "geometry": {
        "coordinates": [
          116.970591,
          24.609117
        ],
        "type": "Point"
      },
      "properties": {
        "bangumi_id": 14830,
        "bangumi_title": "大鱼·海棠",
        "ep_cut": "",
        "image_url": "https://w.junreimap.com/images/points/14830/ktf1qjt3j_1716870756164.jpg",
        "location": "",
        "point_id": "ktf1qjt3j",
        "point_name": "衍香楼天井",
        "remark": ""
      },
      "type": "Feature"
    },
    {
      "geometry": {
        "coordinates": [
          116.971157,
          24.608649
        ],
        "type": "Point"
      },
      "properties": {
        "bangumi_id": 14830,
        "bangumi_title": "大鱼·海棠",
        "ep_cut": "",
        "image_url": "https://w.junreimap.com/images/points/14830/kte1oz6m4_1716870323026.jpg",
        "location": "",
        "point_id": "kte1oz6m4",
        "point_name": "衍香楼后的废墟",
        "remark": ""
      },
      "type": "Feature"
    },
    {
      "geometry": {
        "coordinates": [
          116.96989,
          24.608103
        ],
        "type": "Point"
      },
      "properties": {
        "bangumi_id": 14830,
        "bangumi_title": "大鱼·海棠",
        "ep_cut": "",
        "image_url": "https://w.junreimap.com/images/points/14830/kte4amah1_1716870329463.jpg",
        "location": "",
        "point_id": "kte4amah1",
        "point_name": "济行桥",
        "remark": ""
      },
      "type": "Feature"
    },
    {
      "geometry": {
        "coordinates": [
          117.004282,
          24.663511
        ],
        "type": "Point"
      },
      "properties": {
        "bangumi_id": 14830,
        "bangumi_title": "大鱼·海棠",
        "ep_cut": "",
        "image_url": "https://w.junreimap.com/images/points/14830/kte669rlh_1716870601669.jpg",
        "location": "",
        "point_id": "kte669rlh",
        "point_name": "承启楼",
        "remark": ""
      },
      "type": "Feature"
    },
    {
      "geometry": {
        "coordinates": [
          117.088083,
          24.664272
        ],
        "type": "Point"
      },
      "properties": {
        "bangumi_id": 14830,
        "bangumi_title": "大鱼·海棠",
        "ep_cut": "",
        "image_url": "https://w.junreimap.com/images/points/14830/kte6u3oax_1716870714111.jpg",
        "location": "",
        "point_id": "kte6u3oax",
        "point_name": "云水谣古道",
        "remark": ""
      },
      "type": "Feature"
    },
    {
      "geometry": {
        "coordinates": [
          117.088573,
          24.66103
        ],
        "type": "Point"
      },
      "properties": {
        "bangumi_id": 14830,
        "bangumi_title": "大鱼·海棠",
        "ep_cut": "",
        "image_url": "https://w.junreimap.com/images/points/14830/kte7f47a2_1716870618131.jpg",
        "location": "",
        "point_id": "kte7f47a2",
        "point_name": "和贵楼",
        "remark": ""
      },
      "type": "Feature"
    },
    {
      "geometry": {
        "coordinates": [
          117.055907,
          24.586956
        ],
        "type": "Point"
      },
      "properties": {
        "bangumi_id": 14830,
        "bangumi_title": "大鱼·海棠",
        "ep_cut": "",
        "image_url": "https://w.junreimap.com/images/points/14830/kte8kx2ee_1716870627274.jpg",
        "location": "",
        "point_id": "kte8kx2ee",
        "point_name": "田螺坑土楼群",
        "remark": ""
      },
      "type": "Feature"
    },
    {
      "geometry": {
        "coordinates": [
          117.04601,
          24.480822
        ],
        "type": "Point"
      },
      "properties": {
        "bangumi_id": 14830,
        "bangumi_title": "大鱼·海棠",
        "ep_cut": "",
        "image_url": "https://w.junreimap.com/images/points/14830/kteb5oenv_1716870647029.jpg",
        "location": "",
        "point_id": "kteb5oenv",
        "point_name": "绳武楼",
        "remark": ""
      },
      "type": "Feature"
    },
    {
      "geometry": {
        "coordinates": [
          117.054937,
          24.039598
        ],
        "type": "Point"
      },
      "properties": {
        "bangumi_id": 14830,
        "bangumi_title": "大鱼·海棠",
        "ep_cut": "",
        "image_url": "https://w.junreimap.com/images/points/14830/ktf3uh1q8_1716870994497.jpg",
        "location": "",
        "point_id": "ktf3uh1q8",
        "point_name": "朝源楼（存疑）",
        "remark": "详情不明，无实地照片。"
      },
      "type": "Feature"
    }
  ],
  "type": "FeatureCollection"
}