{
  "features": [
    {
      "geometry": {
        "coordinates": [
          139.71953,
          35.679656
        ],
        "type": "Point"
      },
      "properties": {
        "bangumi_id": 160209,
        "bangumi_title": "你的名字",
        "ep_cut": "",
        "image_url": "https://w.junreimap.com/images/points/160209/3ik9kj0e.jpg",
        "location": "新宿",
        "point_id": "3ik9kj0e",
        "point_name": "信濃町歩道橋",
        "remark": ""
      },
      "type": "Feature"
    },
    {
      "geometry": {
        "coordinates": [
          139.700931,
          35.693609
        ],
        "type": "Point"
      },
      "properties": {
        "bangumi_id": 160209,
        "bangumi_title": "你的名字",
        "ep_cut": "",
        "image_url": "https://w.junreimap.com/images/points/160209/3ik9kjew.jpg",
        "location": "新宿",
        "point_id": "3ik9kjew",
        "point_name": "LABI新宿東口館前",
        "remark": ""
      },
      "type": "Feature"
    },
    {
      "geometry": {
        "coordinates": [
          140.499061,
          35.888554
        ],
        "type": "Point"
      },
      "properties": {
        "bangumi_id": 160209,
        "bangumi_title": "你的名字",
        "ep_cut": "",
        "image_url": "https://w.junreimap.com/images/points/160209/3ik9kjfp.jpg",
        "location": "",
        "point_id": "3ik9kjfp",
        "point_name": "蜷川家具店",
        "remark": "中川精肉店のモデル      中川精肉店原型"
      },
      "type": "Feature"
    },
    {
      "geometry": {
        "coordinates": [
          138.122617,
          36.054128
        ],
        "type": "Point"
      },
      "properties": {
        "bangumi_id": 160209,
        "bangumi_title": "你的名字",
        "ep_cut": "",
        "image_url": "https://w.junreimap.com/images/user/0/bangumi/160209/points/mlw8dfms1-1721923541791.jpg",
        "location": "",
        "point_id": "mlw8dfms1",
        "point_name": "立石公園",
        "remark": "山高路陡，建议有条件的开车前往，也可租附近的电单车"
      },
      "type": "Feature"
    },
    {
      "geometry": {
        "coordinates": [
          137.886337,
          35.520116
        ],
        "type": "Point"
      },
      "properties": {
        "bangumi_id": 160209,
        "bangumi_title": "你的名字",
        "ep_cut": "",
        "image_url": "https://w.junreimap.com/images/points/160209/3ik9kji0.jpg",
        "location": "",
        "point_id": "3ik9kji0",
        "point_name": "藤ノ木橋",
        "remark": "糸守の橋のモデル?"
      },
      "type": "Feature"
    },
    {
      "geometry": {
        "coordinates": [
          130.97088,
          30.546651
        ],
        "type": "Point"
      },
      "properties": {
        "bangumi_id": 160209,
        "bangumi_title": "你的名字",
        "ep_cut": "",
        "image_url": "https://w.junreimap.com/images/points/160209/3ik9kjdk.jpg",
        "location": "",
        "point_id": "3ik9kjdk",
        "point_name": "アイSHOP 石堂店",
        "remark": ""
      },
      "type": "Feature"
    },
    {
      "geometry": {
        "coordinates": [
          138.512194,
          36.195906
        ],
        "type": "Point"
      },
      "properties": {
        "bangumi_id": 160209,
        "bangumi_title": "你的名字",
        "ep_cut": "",
        "image_url": "https://w.junreimap.com/images/points/160209/3ik9kj7v.jpg",
        "location": "",
        "point_id": "3ik9kj7v",
        "point_name": "新海三社神社 神楽殿",
        "remark": ""
      },
      "type": "Feature"
    },
    {
      "geometry": {
        "coordinates": [
          139.700679,
          35.689259
        ],
        "type": "Point"
      },
      "properties": {
        "bangumi_id": 160209,
        "bangumi_title": "你的名字",
        "ep_cut": "",
        "image_url": "https://w.junreimap.com/images/points/160209/3ik9kj50.jpg",
        "location": "新宿",
        "point_id": "3ik9kj50",
        "point_name": "新宿駅南口",
        "remark": ""
      },
      "type": "Feature"
    },
    {
      "geometry": {
        "coordinates": [
          139.699903,
          35.689044
        ],
        "type": "Point"
      },
      "properties": {
        "bangumi_id": 160209,
        "bangumi_title": "你的名字",
        "ep_cut": "",
        "image_url": "https://w.junreimap.com/images/points/160209/3ik9kj6d.jpg",
        "location": "新宿",
        "point_id": "3ik9kj6d",
        "point_name": "新宿駅南口歩道橋",
        "remark": ""
      },
      "type": "Feature"
    },
    {
      "geometry": {
        "coordinates": [
          139.700223,
          35.693834
        ],
        "type": "Point"
      },
      "properties": {
        "bangumi_id": 160209,
        "bangumi_title": "你的名字",
        "ep_cut": "",
        "image_url": "https://w.junreimap.com/images/points/160209/3ik9kiwd.jpg",
        "location": "新宿",
        "point_id": "3ik9kiwd",
        "point_name": "YUNIKA VISION",
        "remark": ""
      },
      "type": "Feature"
    },
    {
      "geometry": {
        "coordinates": [
          139.700833,
          35.68933
        ],
        "type": "Point"
      },
      "properties": {
        "bangumi_id": 160209,
        "bangumi_title": "你的名字",
        "ep_cut": "",
        "image_url": "https://w.junreimap.com/images/points/160209/3ik9kjf5.jpg",
        "location": "新宿",
        "point_id": "3ik9kjf5",
        "point_name": "Ladurée新宿店前",
        "remark": ""
      },
      "type": "Feature"
    },
    {
      "geometry": {
        "coordinates": [
          139.699867,
          35.688986
        ],
        "type": "Point"
      },
      "properties": {
        "bangumi_id": 160209,
        "bangumi_title": "你的名字",
        "ep_cut": "",
        "image_url": "https://w.junreimap.com/images/points/160209/3ik9kjdw.jpg",
        "location": "新宿",
        "point_id": "3ik9kjdw",
        "point_name": "新宿駅南口",
        "remark": ""
      },
      "type": "Feature"
    },
    {
      "geometry": {
        "coordinates": [
          132.459728,
          34.404097
        ],
        "type": "Point"
      },
      "properties": {
        "bangumi_id": 160209,
        "bangumi_title": "你的名字",
        "ep_cut": "",
        "image_url": "https://w.junreimap.com/images/points/160209/3ik9kjmm.jpg",
        "location": "",
        "point_id": "3ik9kjmm",
        "point_name": "基町高校",
        "remark": "都立神宮高校のモデル       都立神宮高校原型"
      },
      "type": "Feature"
    },
    {
      "geometry": {
        "coordinates": [
          139.712746,
          35.687451
        ],
        "type": "Point"
      },
      "properties": {
        "bangumi_id": 160209,
        "bangumi_title": "你的名字",
        "ep_cut": "",
        "image_url": "https://w.junreimap.com/images/points/160209/3ik9kjly.jpg",
        "location": "新宿",
        "point_id": "3ik9kjly",
        "point_name": "Café La Boheme新宿御苑",
        "remark": ""
      },
      "type": "Feature"
    },
    {
      "geometry": {
        "coordinates": [
          137.261333,
          36.133125
        ],
        "type": "Point"
      },
      "properties": {
        "bangumi_id": 160209,
        "bangumi_title": "你的名字",
        "ep_cut": "",
        "image_url": "https://w.junreimap.com/images/user/0/bangumi/160209/points/igqhj1y2x-1710234703037.jpg",
        "location": "飛騨高山",
        "point_id": "igqhj1y2x",
        "point_name": "日枝神社",
        "remark": ""
      },
      "type": "Feature"
    },
    {
      "geometry": {
        "coordinates": [
          139.693989,
          35.692678
        ],
        "type": "Point"
      },
      "properties": {
        "bangumi_id": 160209,
        "bangumi_title": "你的名字",
        "ep_cut": "",
        "image_url": "https://w.junreimap.com/images/points/160209/3ik9kj20.jpg",
        "location": "新宿",
        "point_id": "3ik9kj20",
        "point_name": "新宿警察署裏交差点",
        "remark": ""
      },
      "type": "Feature"
    },
    {
      "geometry": {
        "coordinates": [
          139.725903,
          35.681637
        ],
        "type": "Point"
      },
      "properties": {
        "bangumi_id": 160209,
        "bangumi_title": "你的名字",
        "ep_cut": "",
        "image_url": "https://w.junreimap.com/images/points/160209/3ik9kjkg.jpg",
        "location": "新宿",
        "point_id": "3ik9kjkg",
        "point_name": "瀧の自宅付近",
        "remark": ""
      },
      "type": "Feature"
    },
    {
      "geometry": {
        "coordinates": [
          139.729783,
          35.685348
        ],
        "type": "Point"
      },
      "properties": {
        "bangumi_id": 160209,
        "bangumi_title": "你的名字",
        "ep_cut": "",
        "image_url": "https://w.junreimap.com/images/points/160209/3ik9kjlm.jpg",
        "location": "千代田",
        "point_id": "3ik9kjlm",
        "point_name": "四ツ谷駅赤坂口広場前",
        "remark": ""
      },
      "type": "Feature"
    },
    {
      "geometry": {
        "coordinates": [
          139.700165,
          35.694133
        ],
        "type": "Point"
      },
      "properties": {
        "bangumi_id": 160209,
        "bangumi_title": "你的名字",
        "ep_cut": "",
        "image_url": "https://w.junreimap.com/images/points/160209/3ik9kixw.jpg",
        "location": "新宿",
        "point_id": "3ik9kixw",
        "point_name": "YUNIKA VISION",
        "remark": ""
      },
      "type": "Feature"
    },
    {
      "geometry": {
        "coordinates": [
          139.700413,
          35.659783
        ],
        "type": "Point"
      },
      "properties": {
        "bangumi_id": 160209,
        "bangumi_title": "你的名字",
        "ep_cut": "",
        "image_url": "https://w.junreimap.com/images/points/160209/3ik9kjfc.jpg",
        "location": "涩谷",
        "point_id": "3ik9kjfc",
        "point_name": "Starbucks SHIBUYA TSUTAYA店",
        "remark": ""
      },
      "type": "Feature"
    },
    {
      "geometry": {
        "coordinates": [
          139.725714,
          35.681781
        ],
        "type": "Point"
      },
      "properties": {
        "bangumi_id": 160209,
        "bangumi_title": "你的名字",
        "ep_cut": "",
        "image_url": "https://w.junreimap.com/images/points/160209/3ik9kjia.jpg",
        "location": "新宿",
        "point_id": "3ik9kjia",
        "point_name": "瀧の自宅付近",
        "remark": ""
      },
      "type": "Feature"
    },
    {
      "geometry": {
        "coordinates": [
          139.731771,
          35.681003
        ],
        "type": "Point"
      },
      "properties": {
        "bangumi_id": 160209,
        "bangumi_title": "你的名字",
        "ep_cut": "",
        "image_url": "https://w.junreimap.com/images/points/160209/3ik9kjek.jpg",
        "location": "千代田",
        "point_id": "3ik9kjek",
        "point_name": "四ツ谷駅遠景",
        "remark": ""
      },
      "type": "Feature"
    },
    {
      "geometry": {
        "coordinates": [
          139.729576,
          35.685383
        ],
        "type": "Point"
      },
      "properties": {
        "bangumi_id": 160209,
        "bangumi_title": "你的名字",
        "ep_cut": "",
        "image_url": "https://w.junreimap.com/images/points/160209/3ik9kjfn.jpg",
        "location": "千代田",
        "point_id": "3ik9kjfn",
        "point_name": "四ツ谷駅赤坂口広場前",
        "remark": ""
      },
      "type": "Feature"
    },
    {
      "geometry": {
        "coordinates": [
          139.730126,
          35.685364
        ],
        "type": "Point"
      },
      "properties": {
        "bangumi_id": 160209,
        "bangumi_title": "你的名字",
        "ep_cut": "",
        "image_url": "https://w.junreimap.com/images/points/160209/3ik9kj3z.jpg",
        "location": "千代田",
        "point_id": "3ik9kj3z",
        "point_name": "四ツ谷駅赤坂口",
        "remark": ""
      },
      "type": "Feature"
    },
    {
      "geometry": {
        "coordinates": [
          139.729224,
          35.660493
        ],
        "type": "Point"
      },
      "properties": {
        "bangumi_id": 160209,
        "bangumi_title": "你的名字",
        "ep_cut": "",
        "image_url": "https://w.junreimap.com/images/points/160209/3ik9kj7l.jpg",
        "location": "港区",
        "point_id": "3ik9kj7l",
        "point_name": "六本木ヒルズ展望台",
        "remark": ""
      },
      "type": "Feature"
    },
    {
      "geometry": {
        "coordinates": [
          139.72627,
          35.665242
        ],
        "type": "Point"
      },
      "properties": {
        "bangumi_id": 160209,
        "bangumi_title": "你的名字",
        "ep_cut": "",
        "image_url": "https://w.junreimap.com/images/points/160209/3ik9kjcj.jpg",
        "location": "港区",
        "point_id": "3ik9kjcj",
        "point_name": "国立新美術館",
        "remark": "图中是位于美术馆内部的2F咖啡馆和餐厅，美术馆大部分展厅不需要买门票。不定期会有部分特殊展馆需要购买门票，如2025-宝格丽万花筒。"
      },
      "type": "Feature"
    },
    {
      "geometry": {
        "coordinates": [
          139.730469,
          35.662822
        ],
        "type": "Point"
      },
      "properties": {
        "bangumi_id": 160209,
        "bangumi_title": "你的名字",
        "ep_cut": "",
        "image_url": "https://w.junreimap.com/images/points/160209/3ik9kjbk.jpg",
        "location": "港区",
        "point_id": "3ik9kjbk",
        "point_name": "六本木ヒルズ",
        "remark": ""
      },
      "type": "Feature"
    },
    {
      "geometry": {
        "coordinates": [
          139.719749,
          35.679522
        ],
        "type": "Point"
      },
      "properties": {
        "bangumi_id": 160209,
        "bangumi_title": "你的名字",
        "ep_cut": "",
        "image_url": "https://w.junreimap.com/images/points/160209/3ik9kj7p.jpg",
        "location": "新宿",
        "point_id": "3ik9kj7p",
        "point_name": "道路標識案内板",
        "remark": ""
      },
      "type": "Feature"
    },
    {
      "geometry": {
        "coordinates": [
          139.719834,
          35.679564
        ],
        "type": "Point"
      },
      "properties": {
        "bangumi_id": 160209,
        "bangumi_title": "你的名字",
        "ep_cut": "",
        "image_url": "https://w.junreimap.com/images/points/160209/3ik9kj8m.jpg",
        "location": "新宿",
        "point_id": "3ik9kj8m",
        "point_name": "信濃町歩道橋",
        "remark": ""
      },
      "type": "Feature"
    },
    {
      "geometry": {
        "coordinates": [
          139.719962,
          35.678811
        ],
        "type": "Point"
      },
      "properties": {
        "bangumi_id": 160209,
        "bangumi_title": "你的名字",
        "ep_cut": "",
        "image_url": "https://w.junreimap.com/images/points/160209/3ik9kjh1.jpg",
        "location": "新宿",
        "point_id": "3ik9kjh1",
        "point_name": "首都高出口信号機",
        "remark": ""
      },
      "type": "Feature"
    },
    {
      "geometry": {
        "coordinates": [
          139.719746,
          35.679499
        ],
        "type": "Point"
      },
      "properties": {
        "bangumi_id": 160209,
        "bangumi_title": "你的名字",
        "ep_cut": "",
        "image_url": "https://w.junreimap.com/images/points/160209/3ik9kizz.jpg",
        "location": "新宿",
        "point_id": "3ik9kizz",
        "point_name": "信濃町歩道橋からの遠景",
        "remark": ""
      },
      "type": "Feature"
    },
    {
      "geometry": {
        "coordinates": [
          139.71974,
          35.679787
        ],
        "type": "Point"
      },
      "properties": {
        "bangumi_id": 160209,
        "bangumi_title": "你的名字",
        "ep_cut": "",
        "image_url": "https://w.junreimap.com/images/points/160209/3ik9kjeo.jpg",
        "location": "新宿",
        "point_id": "3ik9kjeo",
        "point_name": "信濃町駅前ドコモタワー遠景",
        "remark": ""
      },
      "type": "Feature"
    },
    {
      "geometry": {
        "coordinates": [
          139.719534,
          35.6795
        ],
        "type": "Point"
      },
      "properties": {
        "bangumi_id": 160209,
        "bangumi_title": "你的名字",
        "ep_cut": "",
        "image_url": "https://w.junreimap.com/images/user/0/bangumi/160209/points/3ik9kj3m-1697208876734.jpg",
        "location": "新宿",
        "point_id": "3ik9kj3m",
        "point_name": "信濃町歩道橋",
        "remark": ""
      },
      "type": "Feature"
    },
    {
      "geometry": {
        "coordinates": [
          139.719588,
          35.675023
        ],
        "type": "Point"
      },
      "properties": {
        "bangumi_id": 160209,
        "bangumi_title": "你的名字",
        "ep_cut": "",
        "image_url": "https://w.junreimap.com/images/points/160209/3ik9kj5n.jpg",
        "location": "港区",
        "point_id": "3ik9kj5n",
        "point_name": "明治神宮外苑",
        "remark": ""
      },
      "type": "Feature"
    },
    {
      "geometry": {
        "coordinates": [
          139.700672,
          35.657152
        ],
        "type": "Point"
      },
      "properties": {
        "bangumi_id": 160209,
        "bangumi_title": "你的名字",
        "ep_cut": "",
        "image_url": "https://w.junreimap.com/images/points/160209/3ik9kixn.jpg",
        "location": "涩谷",
        "point_id": "3ik9kixn",
        "point_name": "渋谷駅西口歩道橋",
        "remark": "渋谷駅西口歩道橋架替工事已完成"
      },
      "type": "Feature"
    },
    {
      "geometry": {
        "coordinates": [
          139.764124,
          35.681096
        ],
        "type": "Point"
      },
      "properties": {
        "bangumi_id": 160209,
        "bangumi_title": "你的名字",
        "ep_cut": "",
        "image_url": "https://w.junreimap.com/images/points/160209/3ik9kjlq.jpg",
        "location": "千代田",
        "point_id": "3ik9kjlq",
        "point_name": "東京駅",
        "remark": ""
      },
      "type": "Feature"
    },
    {
      "geometry": {
        "coordinates": [
          136.881507,
          35.170893
        ],
        "type": "Point"
      },
      "properties": {
        "bangumi_id": 160209,
        "bangumi_title": "你的名字",
        "ep_cut": "",
        "image_url": "https://w.junreimap.com/images/points/160209/3ik9kja4.jpg",
        "location": "",
        "point_id": "3ik9kja4",
        "point_name": "名古屋駅北通路 10·11番線入口",
        "remark": ""
      },
      "type": "Feature"
    },
    {
      "geometry": {
        "coordinates": [
          136.881409,
          35.17111
        ],
        "type": "Point"
      },
      "properties": {
        "bangumi_id": 160209,
        "bangumi_title": "你的名字",
        "ep_cut": "",
        "image_url": "https://w.junreimap.com/images/points/160209/3ik9kjb0.jpg",
        "location": "",
        "point_id": "3ik9kjb0",
        "point_name": "名古屋駅11番線",
        "remark": ""
      },
      "type": "Feature"
    },
    {
      "geometry": {
        "coordinates": [
          137.18891,
          36.237298
        ],
        "type": "Point"
      },
      "properties": {
        "bangumi_id": 160209,
        "bangumi_title": "你的名字",
        "ep_cut": "",
        "image_url": "https://w.junreimap.com/images/points/160209/3ik9kjfi.jpg",
        "location": "飛騨高山",
        "point_id": "3ik9kjfi",
        "point_name": "飛騨古川駅西北側跨線橋",
        "remark": "停靠在2号站台的一天只有一班，早上9:57发车，想拍的记得看准时间"
      },
      "type": "Feature"
    },
    {
      "geometry": {
        "coordinates": [
          137.189856,
          36.236706
        ],
        "type": "Point"
      },
      "properties": {
        "bangumi_id": 160209,
        "bangumi_title": "你的名字",
        "ep_cut": "",
        "image_url": "https://w.junreimap.com/images/points/160209/3ik9kjaa.jpg",
        "location": "飛騨高山",
        "point_id": "3ik9kjaa",
        "point_name": "飛騨古川駅構内跨線橋",
        "remark": ""
      },
      "type": "Feature"
    },
    {
      "geometry": {
        "coordinates": [
          137.189615,
          36.236676
        ],
        "type": "Point"
      },
      "properties": {
        "bangumi_id": 160209,
        "bangumi_title": "你的名字",
        "ep_cut": "",
        "image_url": "https://w.junreimap.com/images/points/160209/3ik9kjli.jpg",
        "location": "飛騨高山",
        "point_id": "3ik9kjli",
        "point_name": "飛騨古川駅",
        "remark": ""
      },
      "type": "Feature"
    },
    {
      "geometry": {
        "coordinates": [
          137.189328,
          36.236719
        ],
        "type": "Point"
      },
      "properties": {
        "bangumi_id": 160209,
        "bangumi_title": "你的名字",
        "ep_cut": "",
        "image_url": "https://w.junreimap.com/images/points/160209/3ik9kj2o.jpg",
        "location": "飛騨高山",
        "point_id": "3ik9kj2o",
        "point_name": "飛騨古川駅タクシーロータリー",
        "remark": ""
      },
      "type": "Feature"
    },
    {
      "geometry": {
        "coordinates": [
          137.196003,
          36.239164
        ],
        "type": "Point"
      },
      "properties": {
        "bangumi_id": 160209,
        "bangumi_title": "你的名字",
        "ep_cut": "",
        "image_url": "https://w.junreimap.com/images/points/160209/3ik9kiyj.jpg",
        "location": "飛騨高山",
        "point_id": "3ik9kiyj",
        "point_name": "氣多若宮神社参道",
        "remark": ""
      },
      "type": "Feature"
    },
    {
      "geometry": {
        "coordinates": [
          137.251363,
          36.14104
        ],
        "type": "Point"
      },
      "properties": {
        "bangumi_id": 160209,
        "bangumi_title": "你的名字",
        "ep_cut": "",
        "image_url": "https://w.junreimap.com/images/points/160209/6dniv2e2d_1726826529321_c16v9.jpg",
        "location": "飛騨高山",
        "point_id": "6dniv2e2d",
        "point_name": "JR龍瑠駅",
        "remark": "根据铁路街道及河流走向推测车站地图来自高山市高山站，右侧观光指南标有高山市内的动画《冰菓》圣地，温泉乡巴士总站等场所。"
      },
      "type": "Feature"
    },
    {
      "geometry": {
        "coordinates": [
          137.196996,
          36.237879
        ],
        "type": "Point"
      },
      "properties": {
        "bangumi_id": 160209,
        "bangumi_title": "你的名字",
        "ep_cut": "",
        "image_url": "https://w.junreimap.com/images/points/160209/3ik9kjbn.jpg",
        "location": "飛騨高山",
        "point_id": "3ik9kjbn",
        "point_name": "古川町",
        "remark": ""
      },
      "type": "Feature"
    },
    {
      "geometry": {
        "coordinates": [
          137.185247,
          36.235727
        ],
        "type": "Point"
      },
      "properties": {
        "bangumi_id": 160209,
        "bangumi_title": "你的名字",
        "ep_cut": "",
        "image_url": "https://w.junreimap.com/images/points/160209/3ik9kj9r.jpg",
        "location": "飛騨高山",
        "point_id": "3ik9kj9r",
        "point_name": "味処古川",
        "remark": ""
      },
      "type": "Feature"
    },
    {
      "geometry": {
        "coordinates": [
          137.112404,
          36.303434
        ],
        "type": "Point"
      },
      "properties": {
        "bangumi_id": 160209,
        "bangumi_title": "你的名字",
        "ep_cut": "",
        "image_url": "https://w.junreimap.com/images/points/160209/3ik9kjic.jpg",
        "location": "飛騨高山",
        "point_id": "3ik9kjic",
        "point_name": "宮川落合のバス停",
        "remark": ""
      },
      "type": "Feature"
    },
    {
      "geometry": {
        "coordinates": [
          137.185762,
          36.237637
        ],
        "type": "Point"
      },
      "properties": {
        "bangumi_id": 160209,
        "bangumi_title": "你的名字",
        "ep_cut": "",
        "image_url": "https://w.junreimap.com/images/points/160209/3ik9kize.jpg",
        "location": "飛騨高山",
        "point_id": "3ik9kize",
        "point_name": "飛騨市図書館",
        "remark": ""
      },
      "type": "Feature"
    },
    {
      "geometry": {
        "coordinates": [
          137.185528,
          36.238009
        ],
        "type": "Point"
      },
      "properties": {
        "bangumi_id": 160209,
        "bangumi_title": "你的名字",
        "ep_cut": "",
        "image_url": "https://w.junreimap.com/images/user/2111/bangumi/160209/points/oyotcvqsl-1728568419973.jpg",
        "location": "飛騨高山",
        "point_id": "oyotcvqsl",
        "point_name": "飞驒市图书馆",
        "remark": "此处拍摄需事先征得许可，并遵守相关规则，下午5点后禁止拍照。馆内并无完全一致的拍摄点位，16-18书架之间可能比较相似。"
      },
      "type": "Feature"
    },
    {
      "geometry": {
        "coordinates": [
          138.146252,
          35.151677
        ],
        "type": "Point"
      },
      "properties": {
        "bangumi_id": 160209,
        "bangumi_title": "你的名字",
        "ep_cut": "",
        "image_url": "https://w.junreimap.com/images/points/160209/3ik9kjid.jpg",
        "location": "",
        "point_id": "3ik9kjid",
        "point_name": "民宿奥大井",
        "remark": ""
      },
      "type": "Feature"
    },
    {
      "geometry": {
        "coordinates": [
          140.402491,
          40.050685
        ],
        "type": "Point"
      },
      "properties": {
        "bangumi_id": 160209,
        "bangumi_title": "你的名字",
        "ep_cut": "",
        "image_url": "https://w.junreimap.com/images/points/160209/3ik9kjnm.jpg",
        "location": "",
        "point_id": "3ik9kjnm",
        "point_name": "前田南駅",
        "remark": ""
      },
      "type": "Feature"
    },
    {
      "geometry": {
        "coordinates": [
          139.766881,
          35.681196
        ],
        "type": "Point"
      },
      "properties": {
        "bangumi_id": 160209,
        "bangumi_title": "你的名字",
        "ep_cut": "",
        "image_url": "https://w.junreimap.com/images/points/160209/3ik9kji7.jpg",
        "location": "千代田",
        "point_id": "3ik9kji7",
        "point_name": "東京駅",
        "remark": ""
      },
      "type": "Feature"
    },
    {
      "geometry": {
        "coordinates": [
          139.711928,
          35.665608
        ],
        "type": "Point"
      },
      "properties": {
        "bangumi_id": 160209,
        "bangumi_title": "你的名字",
        "ep_cut": "",
        "image_url": "https://w.junreimap.com/images/points/160209/3ik9kiwz.jpg",
        "location": "港区",
        "point_id": "3ik9kiwz",
        "point_name": "表参道",
        "remark": ""
      },
      "type": "Feature"
    },
    {
      "geometry": {
        "coordinates": [
          139.72338,
          35.685108
        ],
        "type": "Point"
      },
      "properties": {
        "bangumi_id": 160209,
        "bangumi_title": "你的名字",
        "ep_cut": "",
        "image_url": "https://w.junreimap.com/images/points/160209/3ik9kj0a.jpg",
        "location": "新宿",
        "point_id": "3ik9kj0a",
        "point_name": "須賀神社男坂",
        "remark": ""
      },
      "type": "Feature"
    },
    {
      "geometry": {
        "coordinates": [
          139.701942,
          35.684903
        ],
        "type": "Point"
      },
      "properties": {
        "bangumi_id": 160209,
        "bangumi_title": "你的名字",
        "ep_cut": "",
        "image_url": "https://w.junreimap.com/images/points/160209/3ik9kiw5.jpg",
        "location": "涩谷",
        "point_id": "3ik9kiw5",
        "point_name": "代々木駅 三葉ベンチ",
        "remark": ""
      },
      "type": "Feature"
    },
    {
      "geometry": {
        "coordinates": [
          139.701956,
          35.68483
        ],
        "type": "Point"
      },
      "properties": {
        "bangumi_id": 160209,
        "bangumi_title": "你的名字",
        "ep_cut": "",
        "image_url": "https://w.junreimap.com/images/user/1065/bangumi/160209/points/7ayn8m5-1762910683656.jpg",
        "location": "涩谷",
        "point_id": "7ayn8m5",
        "point_name": "代々木駅",
        "remark": ""
      },
      "type": "Feature"
    },
    {
      "geometry": {
        "coordinates": [
          139.726181,
          35.68153
        ],
        "type": "Point"
      },
      "properties": {
        "bangumi_id": 160209,
        "bangumi_title": "你的名字",
        "ep_cut": "",
        "image_url": "https://w.junreimap.com/images/points/160209/3ik9kjbs.jpg",
        "location": "新宿",
        "point_id": "3ik9kjbs",
        "point_name": "朝日橋",
        "remark": ""
      },
      "type": "Feature"
    },
    {
      "geometry": {
        "coordinates": [
          139.731142,
          35.686679
        ],
        "type": "Point"
      },
      "properties": {
        "bangumi_id": 160209,
        "bangumi_title": "你的名字",
        "ep_cut": "",
        "image_url": "https://w.junreimap.com/images/points/160209/3ik9kj9a.jpg",
        "location": "千代田",
        "point_id": "3ik9kj9a",
        "point_name": "四ツ谷駅",
        "remark": ""
      },
      "type": "Feature"
    },
    {
      "geometry": {
        "coordinates": [
          135.503663,
          34.296702
        ],
        "type": "Point"
      },
      "properties": {
        "bangumi_id": 160209,
        "bangumi_title": "你的名字",
        "ep_cut": "",
        "image_url": "https://w.junreimap.com/images/points/160209/3ik9kiwl.jpg",
        "location": "",
        "point_id": "3ik9kiwl",
        "point_name": "かつらぎ町役場",
        "remark": "糸守町役場のモデル"
      },
      "type": "Feature"
    },
    {
      "geometry": {
        "coordinates": [
          139.699197,
          35.69382
        ],
        "type": "Point"
      },
      "properties": {
        "bangumi_id": 160209,
        "bangumi_title": "你的名字",
        "ep_cut": "",
        "image_url": "https://w.junreimap.com/images/points/160209/3ik9kjg2.jpg",
        "location": "新宿",
        "point_id": "3ik9kjg2",
        "point_name": "新宿大ガード西",
        "remark": ""
      },
      "type": "Feature"
    },
    {
      "geometry": {
        "coordinates": [
          139.702079,
          35.683964
        ],
        "type": "Point"
      },
      "properties": {
        "bangumi_id": 160209,
        "bangumi_title": "你的名字",
        "ep_cut": "",
        "image_url": "https://w.junreimap.com/images/points/160209/3ik9kj1d.jpg",
        "location": "涩谷",
        "point_id": "3ik9kj1d",
        "point_name": "代々木駅",
        "remark": ""
      },
      "type": "Feature"
    },
    {
      "geometry": {
        "coordinates": [
          139.730089,
          35.685447
        ],
        "type": "Point"
      },
      "properties": {
        "bangumi_id": 160209,
        "bangumi_title": "你的名字",
        "ep_cut": "",
        "image_url": "https://w.junreimap.com/images/points/160209/3ik9kiwa.jpg",
        "location": "千代田",
        "point_id": "3ik9kiwa",
        "point_name": "四ツ谷駅赤坂口",
        "remark": ""
      },
      "type": "Feature"
    },
    {
      "geometry": {
        "coordinates": [
          139.736344,
          35.679044
        ],
        "type": "Point"
      },
      "properties": {
        "bangumi_id": 160209,
        "bangumi_title": "你的名字",
        "ep_cut": "",
        "image_url": "https://w.junreimap.com/images/points/160209/3ik9kjei.jpg",
        "location": "千代田",
        "point_id": "3ik9kjei",
        "point_name": "弁慶橋",
        "remark": ""
      },
      "type": "Feature"
    },
    {
      "geometry": {
        "coordinates": [
          139.736485,
          35.678624
        ],
        "type": "Point"
      },
      "properties": {
        "bangumi_id": 160209,
        "bangumi_title": "你的名字",
        "ep_cut": "",
        "image_url": "https://w.junreimap.com/images/points/160209/3ik9kj8y.jpg",
        "location": "千代田",
        "point_id": "3ik9kj8y",
        "point_name": "赤坂見附交差点北",
        "remark": ""
      },
      "type": "Feature"
    },
    {
      "geometry": {
        "coordinates": [
          139.737061,
          35.677662
        ],
        "type": "Point"
      },
      "properties": {
        "bangumi_id": 160209,
        "bangumi_title": "你的名字",
        "ep_cut": "",
        "image_url": "https://w.junreimap.com/images/points/160209/3ik9kjbc.jpg",
        "location": "千代田",
        "point_id": "3ik9kjbc",
        "point_name": "東急プラザ赤坂前歩道橋",
        "remark": ""
      },
      "type": "Feature"
    },
    {
      "geometry": {
        "coordinates": [
          139.737083,
          35.677967
        ],
        "type": "Point"
      },
      "properties": {
        "bangumi_id": 160209,
        "bangumi_title": "你的名字",
        "ep_cut": "",
        "image_url": "https://w.junreimap.com/images/points/160209/3ik9kj3i.jpg",
        "location": "千代田",
        "point_id": "3ik9kj3i",
        "point_name": "東急プラザ赤坂前",
        "remark": ""
      },
      "type": "Feature"
    },
    {
      "geometry": {
        "coordinates": [
          139.732771,
          35.679381
        ],
        "type": "Point"
      },
      "properties": {
        "bangumi_id": 160209,
        "bangumi_title": "你的名字",
        "ep_cut": "",
        "image_url": "https://w.junreimap.com/images/points/160209/3ik9kjn5.jpg",
        "location": "千代田",
        "point_id": "3ik9kjn5",
        "point_name": "首都高高架下",
        "remark": ""
      },
      "type": "Feature"
    },
    {
      "geometry": {
        "coordinates": [
          139.736178,
          35.678814
        ],
        "type": "Point"
      },
      "properties": {
        "bangumi_id": 160209,
        "bangumi_title": "你的名字",
        "ep_cut": "",
        "image_url": "https://w.junreimap.com/images/points/160209/3ik9kjgm.jpg",
        "location": "千代田",
        "point_id": "3ik9kjgm",
        "point_name": "弁慶橋からの遠景",
        "remark": ""
      },
      "type": "Feature"
    },
    {
      "geometry": {
        "coordinates": [
          139.731576,
          35.680891
        ],
        "type": "Point"
      },
      "properties": {
        "bangumi_id": 160209,
        "bangumi_title": "你的名字",
        "ep_cut": "",
        "image_url": "https://w.junreimap.com/images/points/160209/3ik9kj0l.jpg",
        "location": "千代田",
        "point_id": "3ik9kj0l",
        "point_name": "紀之国坂交差点",
        "remark": ""
      },
      "type": "Feature"
    },
    {
      "geometry": {
        "coordinates": [
          139.700504,
          35.693873
        ],
        "type": "Point"
      },
      "properties": {
        "bangumi_id": 160209,
        "bangumi_title": "你的名字",
        "ep_cut": "",
        "image_url": "https://w.junreimap.com/images/points/160209/3ik9kj6n.jpg",
        "location": "新宿",
        "point_id": "3ik9kj6n",
        "point_name": "YUNIKA VISION",
        "remark": ""
      },
      "type": "Feature"
    },
    {
      "geometry": {
        "coordinates": [
          139.70022,
          35.688221
        ],
        "type": "Point"
      },
      "properties": {
        "bangumi_id": 160209,
        "bangumi_title": "你的名字",
        "ep_cut": "",
        "image_url": "https://w.junreimap.com/images/points/160209/3ik9kj25.jpg",
        "location": "新宿",
        "point_id": "3ik9kj25",
        "point_name": "Starbucks新宿サザンテラス店 前",
        "remark": ""
      },
      "type": "Feature"
    },
    {
      "geometry": {
        "coordinates": [
          139.697734,
          35.693695
        ],
        "type": "Point"
      },
      "properties": {
        "bangumi_id": 160209,
        "bangumi_title": "你的名字",
        "ep_cut": "",
        "image_url": "https://w.junreimap.com/images/points/160209/3ik9kjgi.jpg",
        "location": "新宿",
        "point_id": "3ik9kjgi",
        "point_name": "新都心歩道橋遠景",
        "remark": ""
      },
      "type": "Feature"
    },
    {
      "geometry": {
        "coordinates": [
          139.697329,
          35.69337
        ],
        "type": "Point"
      },
      "properties": {
        "bangumi_id": 160209,
        "bangumi_title": "你的名字",
        "ep_cut": "",
        "image_url": "https://w.junreimap.com/images/points/160209/3ik9kjix.jpg",
        "location": "新宿",
        "point_id": "3ik9kjix",
        "point_name": "新都心歩道橋",
        "remark": ""
      },
      "type": "Feature"
    },
    {
      "geometry": {
        "coordinates": [
          139.705095,
          35.67891
        ],
        "type": "Point"
      },
      "properties": {
        "bangumi_id": 160209,
        "bangumi_title": "你的名字",
        "ep_cut": "",
        "image_url": "https://w.junreimap.com/images/points/160209/3ik9kjb8.jpg",
        "location": "涩谷",
        "point_id": "3ik9kjb8",
        "point_name": "北参道駅",
        "remark": ""
      },
      "type": "Feature"
    },
    {
      "geometry": {
        "coordinates": [
          139.711075,
          35.680966
        ],
        "type": "Point"
      },
      "properties": {
        "bangumi_id": 160209,
        "bangumi_title": "你的名字",
        "ep_cut": "",
        "image_url": "https://w.junreimap.com/images/points/160209/3ik9kj5p.jpg",
        "location": "涩谷",
        "point_id": "3ik9kj5p",
        "point_name": "千駄ヶ谷駅",
        "remark": "千駄ヶ谷駅改良工事中"
      },
      "type": "Feature"
    },
    {
      "geometry": {
        "coordinates": [
          139.701146,
          35.689362
        ],
        "type": "Point"
      },
      "properties": {
        "bangumi_id": 160209,
        "bangumi_title": "你的名字",
        "ep_cut": "",
        "image_url": "https://w.junreimap.com/images/points/160209/3ik9kjcb.jpg",
        "location": "新宿",
        "point_id": "3ik9kjcb",
        "point_name": "新宿LUMINE2前",
        "remark": ""
      },
      "type": "Feature"
    },
    {
      "geometry": {
        "coordinates": [
          139.719474,
          35.68029
        ],
        "type": "Point"
      },
      "properties": {
        "bangumi_id": 160209,
        "bangumi_title": "你的名字",
        "ep_cut": "",
        "image_url": "https://w.junreimap.com/images/points/160209/3ik9kjj8.jpg",
        "location": "新宿",
        "point_id": "3ik9kjj8",
        "point_name": "信濃町駅前交差点",
        "remark": ""
      },
      "type": "Feature"
    },
    {
      "geometry": {
        "coordinates": [
          139.722795,
          35.687356
        ],
        "type": "Point"
      },
      "properties": {
        "bangumi_id": 160209,
        "bangumi_title": "你的名字",
        "ep_cut": "",
        "image_url": "https://w.junreimap.com/images/points/160209/3ik9kjai.jpg",
        "location": "新宿",
        "point_id": "3ik9kjai",
        "point_name": "円通寺坂",
        "remark": ""
      },
      "type": "Feature"
    },
    {
      "geometry": {
        "coordinates": [
          139.723807,
          35.685746
        ],
        "type": "Point"
      },
      "properties": {
        "bangumi_id": 160209,
        "bangumi_title": "你的名字",
        "ep_cut": "",
        "image_url": "https://w.junreimap.com/images/points/160209/3ik9kiyi.jpg",
        "location": "新宿",
        "point_id": "3ik9kiyi",
        "point_name": "須賀神社入口",
        "remark": ""
      },
      "type": "Feature"
    },
    {
      "geometry": {
        "coordinates": [
          139.724892,
          35.687265
        ],
        "type": "Point"
      },
      "properties": {
        "bangumi_id": 160209,
        "bangumi_title": "你的名字",
        "ep_cut": "",
        "image_url": "https://w.junreimap.com/images/points/160209/3ik9kiws.jpg",
        "location": "新宿",
        "point_id": "3ik9kiws",
        "point_name": "四谷二丁目交差点南",
        "remark": ""
      },
      "type": "Feature"
    },
    {
      "geometry": {
        "coordinates": [
          139.722563,
          35.686587
        ],
        "type": "Point"
      },
      "properties": {
        "bangumi_id": 160209,
        "bangumi_title": "你的名字",
        "ep_cut": "",
        "image_url": "https://w.junreimap.com/images/points/160209/3ik9kjl1.jpg",
        "location": "新宿",
        "point_id": "3ik9kjl1",
        "point_name": "円通寺坂ポスト",
        "remark": ""
      },
      "type": "Feature"
    },
    {
      "geometry": {
        "coordinates": [
          139.724029,
          35.686071
        ],
        "type": "Point"
      },
      "properties": {
        "bangumi_id": 160209,
        "bangumi_title": "你的名字",
        "ep_cut": "",
        "image_url": "https://w.junreimap.com/images/points/160209/3ik9kj2f.jpg",
        "location": "新宿",
        "point_id": "3ik9kj2f",
        "point_name": "東福院坂",
        "remark": ""
      },
      "type": "Feature"
    },
    {
      "geometry": {
        "coordinates": [
          139.730434,
          35.68559
        ],
        "type": "Point"
      },
      "properties": {
        "bangumi_id": 160209,
        "bangumi_title": "你的名字",
        "ep_cut": "",
        "image_url": "https://w.junreimap.com/images/points/160209/3ik9kj2l.jpg",
        "location": "千代田",
        "point_id": "3ik9kj2l",
        "point_name": "四谷見附橋",
        "remark": ""
      },
      "type": "Feature"
    },
    {
      "geometry": {
        "coordinates": [
          139.71591,
          35.687703
        ],
        "type": "Point"
      },
      "properties": {
        "bangumi_id": 160209,
        "bangumi_title": "你的名字",
        "ep_cut": "",
        "image_url": "https://w.junreimap.com/images/points/160209/3ik9kjax.jpg",
        "location": "新宿",
        "point_id": "3ik9kjax",
        "point_name": "四谷四丁目交差点",
        "remark": "正对红绿灯向上看视角"
      },
      "type": "Feature"
    },
    {
      "geometry": {
        "coordinates": [
          139.723656,
          35.6855
        ],
        "type": "Point"
      },
      "properties": {
        "bangumi_id": 160209,
        "bangumi_title": "你的名字",
        "ep_cut": "",
        "image_url": "https://w.junreimap.com/images/points/160209/3ik9kjdy.jpg",
        "location": "新宿",
        "point_id": "3ik9kjdy",
        "point_name": "須賀神社入口",
        "remark": ""
      },
      "type": "Feature"
    },
    {
      "geometry": {
        "coordinates": [
          139.701122,
          35.661885
        ],
        "type": "Point"
      },
      "properties": {
        "bangumi_id": 160209,
        "bangumi_title": "你的名字",
        "ep_cut": "",
        "image_url": "https://w.junreimap.com/images/user/1065/bangumi/160209/points/7b6sp0r-1762924380529.jpg",
        "location": "涩谷",
        "point_id": "7b6sp0r",
        "point_name": "タワーレコード 渋谷店",
        "remark": ""
      },
      "type": "Feature"
    },
    {
      "geometry": {
        "coordinates": [
          139.696425,
          35.690911
        ],
        "type": "Point"
      },
      "properties": {
        "bangumi_id": 160209,
        "bangumi_title": "你的名字",
        "ep_cut": "",
        "image_url": "https://w.junreimap.com/images/user/1065/bangumi/160209/points/7b6h2pw-1762923840053.jpg",
        "location": "新宿",
        "point_id": "7b6h2pw",
        "point_name": "新宿センタービル",
        "remark": ""
      },
      "type": "Feature"
    },
    {
      "geometry": {
        "coordinates": [
          139.726055,
          35.681957
        ],
        "type": "Point"
      },
      "properties": {
        "bangumi_id": 160209,
        "bangumi_title": "你的名字",
        "ep_cut": "",
        "image_url": "https://w.junreimap.com/images/user/0/bangumi/160209/points/2wza4k3-1753358199451.jpg",
        "location": "新宿",
        "point_id": "2wza4k3",
        "point_name": "離宮ハイム",
        "remark": ""
      },
      "type": "Feature"
    },
    {
      "geometry": {
        "coordinates": [
          139.725532,
          35.681666
        ],
        "type": "Point"
      },
      "properties": {
        "bangumi_id": 160209,
        "bangumi_title": "你的名字",
        "ep_cut": 1,
        "image_url": "https://w.junreimap.com/images/points/160209/al3yeri_1770054618536.jpg",
        "location": "",
        "point_id": "al3yeri",
        "point_name": "マンション桂",
        "remark": ""
      },
      "type": "Feature"
    },
    {
      "geometry": {
        "coordinates": [
          139.699787,
          35.692388
        ],
        "type": "Point"
      },
      "properties": {
        "bangumi_id": 160209,
        "bangumi_title": "你的名字",
        "ep_cut": "",
        "image_url": "https://w.junreimap.com/images/user/1065/bangumi/160209/points/7b0zia7-1762914636500.jpg",
        "location": "新宿",
        "point_id": "7b0zia7",
        "point_name": "新宿駅 远景",
        "remark": "所标位置的新宿站远景，应该是附近大楼上拍摄的，个人巡礼可能很难拍摄这处场景\n从这个角度的楼上向东南拍，为正确视角，因不知哪家店铺视角正好，故无更详细的信息"
      },
      "type": "Feature"
    },
    {
      "geometry": {
        "coordinates": [
          139.700923,
          35.689329
        ],
        "type": "Point"
      },
      "properties": {
        "bangumi_id": 160209,
        "bangumi_title": "你的名字",
        "ep_cut": "",
        "image_url": "https://w.junreimap.com/images/user/0/bangumi/160209/points/35vbiyz-1753895645377.jpg",
        "location": "新宿",
        "point_id": "35vbiyz",
        "point_name": "Ladurée新宿店前",
        "remark": ""
      },
      "type": "Feature"
    },
    {
      "geometry": {
        "coordinates": [
          139.730033,
          35.685382
        ],
        "type": "Point"
      },
      "properties": {
        "bangumi_id": 160209,
        "bangumi_title": "你的名字",
        "ep_cut": "",
        "image_url": "https://w.junreimap.com/images/user/0/bangumi/160209/points/35buf06-1753862949197.jpg",
        "location": "千代田",
        "point_id": "35buf06",
        "point_name": "四ツ谷駅赤坂口",
        "remark": ""
      },
      "type": "Feature"
    },
    {
      "geometry": {
        "coordinates": [
          139.73005,
          35.685438
        ],
        "type": "Point"
      },
      "properties": {
        "bangumi_id": 160209,
        "bangumi_title": "你的名字",
        "ep_cut": "",
        "image_url": "https://w.junreimap.com/images/user/0/bangumi/160209/points/35bvmen-1753863003470.jpg",
        "location": "千代田",
        "point_id": "35bvmen",
        "point_name": "四ツ谷駅赤坂口",
        "remark": ""
      },
      "type": "Feature"
    },
    {
      "geometry": {
        "coordinates": [
          139.730021,
          35.685342
        ],
        "type": "Point"
      },
      "properties": {
        "bangumi_id": 160209,
        "bangumi_title": "你的名字",
        "ep_cut": "",
        "image_url": "https://w.junreimap.com/images/user/0/bangumi/160209/points/35bsnel-1753862892737.jpg",
        "location": "千代田",
        "point_id": "35bsnel",
        "point_name": "四ツ谷駅赤坂口",
        "remark": ""
      },
      "type": "Feature"
    },
    {
      "geometry": {
        "coordinates": [
          139.767141,
          35.679152
        ],
        "type": "Point"
      },
      "properties": {
        "bangumi_id": 160209,
        "bangumi_title": "你的名字",
        "ep_cut": "",
        "image_url": "https://w.junreimap.com/images/user/1065/bangumi/160209/points/7b191rb-1762915095799.jpg",
        "location": "千代田",
        "point_id": "7b191rb",
        "point_name": "東京駅 新干线站台",
        "remark": "所标位置西侧大楼上KITTE Garden观景台可以拍摄"
      },
      "type": "Feature"
    },
    {
      "geometry": {
        "coordinates": [
          138.455792,
          36.052413
        ],
        "type": "Point"
      },
      "properties": {
        "bangumi_id": 160209,
        "bangumi_title": "你的名字",
        "ep_cut": "",
        "image_url": "https://w.junreimap.com/images/user/0/bangumi/160209/points/3ik9kjf9-1727713899280.jpg",
        "location": "",
        "point_id": "3ik9kjf9",
        "point_name": "松原湖、大月湖",
        "remark": "糸守湖の最初期のイメージ"
      },
      "type": "Feature"
    },
    {
      "geometry": {
        "coordinates": [
          139.696236,
          35.691513
        ],
        "type": "Point"
      },
      "properties": {
        "bangumi_id": 160209,
        "bangumi_title": "你的名字",
        "ep_cut": "",
        "image_url": "https://w.junreimap.com/images/user/1065/bangumi/160209/points/7b2ptos-1762917546033.jpg",
        "location": "新宿",
        "point_id": "7b2ptos",
        "point_name": "新宿センタービル",
        "remark": "所标位置拍摄"
      },
      "type": "Feature"
    },
    {
      "geometry": {
        "coordinates": [
          139.732817,
          35.679259
        ],
        "type": "Point"
      },
      "properties": {
        "bangumi_id": 160209,
        "bangumi_title": "你的名字",
        "ep_cut": "",
        "image_url": "https://w.junreimap.com/images/user/0/bangumi/160209/points/35breqh-1753862798742.jpg",
        "location": "千代田",
        "point_id": "35breqh",
        "point_name": "首都高速4号新宿線高架下",
        "remark": ""
      },
      "type": "Feature"
    },
    {
      "geometry": {
        "coordinates": [
          139.733003,
          35.678942
        ],
        "type": "Point"
      },
      "properties": {
        "bangumi_id": 160209,
        "bangumi_title": "你的名字",
        "ep_cut": "",
        "image_url": "https://w.junreimap.com/images/user/0/bangumi/160209/points/35bcdwd-1753862140677.jpg",
        "location": "千代田",
        "point_id": "35bcdwd",
        "point_name": "首都高速4号新宿線高架下",
        "remark": ""
      },
      "type": "Feature"
    },
    {
      "geometry": {
        "coordinates": [
          139.732862,
          35.679133
        ],
        "type": "Point"
      },
      "properties": {
        "bangumi_id": 160209,
        "bangumi_title": "你的名字",
        "ep_cut": "",
        "image_url": "https://w.junreimap.com/images/user/0/bangumi/160209/points/35bnvjb-1753862640750.jpg",
        "location": "千代田",
        "point_id": "35bnvjb",
        "point_name": "首都高速4号新宿線高架下",
        "remark": ""
      },
      "type": "Feature"
    },
    {
      "geometry": {
        "coordinates": [
          139.697328,
          35.693339
        ],
        "type": "Point"
      },
      "properties": {
        "bangumi_id": 160209,
        "bangumi_title": "你的名字",
        "ep_cut": "",
        "image_url": "https://w.junreimap.com/images/user/0/bangumi/160209/points/35v80c1-1753895476079.jpg",
        "location": "新宿",
        "point_id": "35v80c1",
        "point_name": "新都心歩道橋",
        "remark": ""
      },
      "type": "Feature"
    },
    {
      "geometry": {
        "coordinates": [
          139.71345,
          35.642053
        ],
        "type": "Point"
      },
      "properties": {
        "bangumi_id": 160209,
        "bangumi_title": "你的名字",
        "ep_cut": "",
        "image_url": "https://w.junreimap.com/images/user/1065/bangumi/160209/points/7ay12gr-1762909948632.jpg",
        "location": "",
        "point_id": "7ay12gr",
        "point_name": "惠比寿花园广场展望台",
        "remark": "38楼有免费展望台"
      },
      "type": "Feature"
    },
    {
      "geometry": {
        "coordinates": [
          139.700322,
          35.689308
        ],
        "type": "Point"
      },
      "properties": {
        "bangumi_id": 160209,
        "bangumi_title": "你的名字",
        "ep_cut": "",
        "image_url": "https://w.junreimap.com/images/user/1065/bangumi/160209/points/7b307zt-1762918013147.jpg",
        "location": "新宿",
        "point_id": "7b307zt",
        "point_name": "新宿駅南口券壳機横",
        "remark": ""
      },
      "type": "Feature"
    },
    {
      "geometry": {
        "coordinates": [
          139.723359,
          35.685082
        ],
        "type": "Point"
      },
      "properties": {
        "bangumi_id": 160209,
        "bangumi_title": "你的名字",
        "ep_cut": "",
        "image_url": "https://w.junreimap.com/images/points/160209/3ik9kjn3.jpg",
        "location": "新宿",
        "point_id": "3ik9kjn3",
        "point_name": "須賀神社男坂",
        "remark": ""
      },
      "type": "Feature"
    },
    {
      "geometry": {
        "coordinates": [
          139.72331,
          35.685025
        ],
        "type": "Point"
      },
      "properties": {
        "bangumi_id": 160209,
        "bangumi_title": "你的名字",
        "ep_cut": "",
        "image_url": "https://w.junreimap.com/images/points/160209/3ik9kj22.jpg",
        "location": "新宿",
        "point_id": "3ik9kj22",
        "point_name": "須賀神社男坂上",
        "remark": ""
      },
      "type": "Feature"
    },
    {
      "geometry": {
        "coordinates": [
          139.700948,
          35.693729
        ],
        "type": "Point"
      },
      "properties": {
        "bangumi_id": 160209,
        "bangumi_title": "你的名字",
        "ep_cut": "",
        "image_url": "https://w.junreimap.com/images/user/1065/bangumi/160209/points/7b79p9z-1762925170420.jpg",
        "location": "新宿",
        "point_id": "7b79p9z",
        "point_name": "LABI新宿東口館前",
        "remark": ""
      },
      "type": "Feature"
    },
    {
      "geometry": {
        "coordinates": [
          139.72326,
          35.684975
        ],
        "type": "Point"
      },
      "properties": {
        "bangumi_id": 160209,
        "bangumi_title": "你的名字",
        "ep_cut": "",
        "image_url": "https://w.junreimap.com/images/user/1065/bangumi/160209/points/7b7hryy-1762925546286.jpg",
        "location": "新宿",
        "point_id": "7b7hryy",
        "point_name": "須賀神社男坂上",
        "remark": ""
      },
      "type": "Feature"
    },
    {
      "geometry": {
        "coordinates": [
          139.703118,
          35.684372
        ],
        "type": "Point"
      },
      "properties": {
        "bangumi_id": 160209,
        "bangumi_title": "你的名字",
        "ep_cut": "",
        "image_url": "https://w.junreimap.com/images/user/0/bangumi/160209/points/s2ov98ga7-1737345398222.jpg",
        "location": "涩谷",
        "point_id": "s2ov98ga7",
        "point_name": "NTT​ドコモ​代々木​ビル",
        "remark": ""
      },
      "type": "Feature"
    },
    {
      "geometry": {
        "coordinates": [
          138.120325,
          36.047661
        ],
        "type": "Point"
      },
      "properties": {
        "bangumi_id": 160209,
        "bangumi_title": "你的名字",
        "ep_cut": "",
        "image_url": "https://w.junreimap.com/images/user/0/bangumi/160209/points/oswv2pmim-1728115790646.jpg",
        "location": "",
        "point_id": "oswv2pmim",
        "point_name": "上諏訪変電所",
        "remark": "应该只是原型，实际并不是很像"
      },
      "type": "Feature"
    },
    {
      "geometry": {
        "coordinates": [
          137.252235,
          36.344308
        ],
        "type": "Point"
      },
      "properties": {
        "bangumi_id": 160209,
        "bangumi_title": "你的名字",
        "ep_cut": "",
        "image_url": "https://w.junreimap.com/images/user/0/bangumi/160209/points/p400zwhda-1728984672718.jpg",
        "location": "",
        "point_id": "p400zwhda",
        "point_name": "36°20'43.3\"N 137°15'08.0\"E",
        "remark": "为想要在特定游戏中复原糸守镇的朋友们做参考"
      },
      "type": "Feature"
    },
    {
      "geometry": {
        "coordinates": [
          139.723278,
          35.685004
        ],
        "type": "Point"
      },
      "properties": {
        "bangumi_id": 160209,
        "bangumi_title": "你的名字",
        "ep_cut": "",
        "image_url": "https://w.junreimap.com/images/user/0/bangumi/160209/points/9ywpt3w-1768712213389.jpg",
        "location": "",
        "point_id": "9ywpt3w",
        "point_name": "須賀神社男坂上",
        "remark": ""
      },
      "type": "Feature"
    },
    {
      "geometry": {
        "coordinates": [
          139.702455,
          35.685946
        ],
        "type": "Point"
      },
      "properties": {
        "bangumi_id": 160209,
        "bangumi_title": "你的名字",
        "ep_cut": "",
        "image_url": "https://w.junreimap.com/images/user/0/bangumi/160209/points/ck8niwg-1774355612822.jpg",
        "location": "",
        "point_id": "ck8niwg",
        "point_name": "ニトリ",
        "remark": "原片应是航拍所得的角度"
      },
      "type": "Feature"
    },
    {
      "geometry": {
        "coordinates": [
          139.714065,
          35.666299
        ],
        "type": "Point"
      },
      "properties": {
        "bangumi_id": 160209,
        "bangumi_title": "你的名字",
        "ep_cut": "",
        "image_url": "https://w.junreimap.com/images/user/0/bangumi/160209/points/ck8rzyc-1774355811039.jpg",
        "location": "",
        "point_id": "ck8rzyc",
        "point_name": "新青山東急ビル",
        "remark": "该楼楼顶向东看可得原片画面，但该楼应为私人场地，进入难度大"
      },
      "type": "Feature"
    }
  ],
  "type": "FeatureCollection"
}