{
  "features": [
    {
      "geometry": {
        "coordinates": [
          142.356432,
          43.768189
        ],
        "type": "Point"
      },
      "properties": {
        "bangumi_id": 160547,
        "bangumi_title": "孤独的美食家新春SP：严冬之北海道·旭川出差篇",
        "ep_cut": "",
        "image_url": "https://w.junreimap.com/images/points/160547/63149cbf_1741372483157.jpg",
        "location": "北海道旭川市的新子烧",
        "point_id": "63149cbf",
        "point_name": "５丁目",
        "remark": "〒070-0032北海道旭川市2条通5丁目左7"
      },
      "type": "Feature"
    },
    {
      "geometry": {
        "coordinates": [
          142.362084,
          43.770301
        ],
        "type": "Point"
      },
      "properties": {
        "bangumi_id": 160547,
        "bangumi_title": "孤独的美食家新春SP：严冬之北海道·旭川出差篇",
        "ep_cut": "",
        "image_url": "https://w.junreimap.com/images/points/160547/3bdc0685_1741372496222.jpg",
        "location": "北海道旭川市的蟹肉奶油炸薯饼",
        "point_id": "3bdc0685",
        "point_name": "８丁目",
        "remark": "〒070-0035北海道旭川市5条通8丁目左2"
      },
      "type": "Feature"
    }
  ],
  "type": "FeatureCollection"
}