{
  "features": [
    {
      "geometry": {
        "coordinates": [
          139.611164,
          35.739518
        ],
        "type": "Point"
      },
      "properties": {
        "bangumi_id": 16235,
        "bangumi_title": "未来日记",
        "ep_cut": 2,
        "image_url": "https://w.junreimap.com/images/points/16235/9s09qho_1768359921976.jpg",
        "location": "",
        "point_id": "9s09qho",
        "point_name": "都営南田中 アパート21号棟",
        "remark": ""
      },
      "type": "Feature"
    },
    {
      "geometry": {
        "coordinates": [
          139.520201,
          35.624761
        ],
        "type": "Point"
      },
      "properties": {
        "bangumi_id": 16235,
        "bangumi_title": "未来日记",
        "ep_cut": 3,
        "image_url": "https://w.junreimap.com/images/points/16235/9s0ftm9_1768359937156.jpg",
        "location": "",
        "point_id": "9s0ftm9",
        "point_name": "よみうりランド",
        "remark": ""
      },
      "type": "Feature"
    },
    {
      "geometry": {
        "coordinates": [
          139.51745,
          35.62553
        ],
        "type": "Point"
      },
      "properties": {
        "bangumi_id": 16235,
        "bangumi_title": "未来日记",
        "ep_cut": 3,
        "image_url": "https://w.junreimap.com/images/points/16235/9s0jqve_1768359946437.jpg",
        "location": "",
        "point_id": "9s0jqve",
        "point_name": "よみうりランド robson fries",
        "remark": ""
      },
      "type": "Feature"
    },
    {
      "geometry": {
        "coordinates": [
          139.5183,
          35.62357
        ],
        "type": "Point"
      },
      "properties": {
        "bangumi_id": 16235,
        "bangumi_title": "未来日记",
        "ep_cut": 3,
        "image_url": "https://w.junreimap.com/images/points/16235/9s0m42w_1768359954879.jpg",
        "location": "",
        "point_id": "9s0m42w",
        "point_name": "スターバックス​コーヒー​よみうり​ランドグッジョバ​!​!​店",
        "remark": ""
      },
      "type": "Feature"
    },
    {
      "geometry": {
        "coordinates": [
          139.549271,
          35.71705
        ],
        "type": "Point"
      },
      "properties": {
        "bangumi_id": 16235,
        "bangumi_title": "未来日记",
        "ep_cut": 3,
        "image_url": "https://w.junreimap.com/images/points/16235/9s0p34a_1768359966994.jpg",
        "location": "",
        "point_id": "9s0p34a",
        "point_name": "武蔵野大学駐車場",
        "remark": ""
      },
      "type": "Feature"
    },
    {
      "geometry": {
        "coordinates": [
          139.54877,
          35.71658
        ],
        "type": "Point"
      },
      "properties": {
        "bangumi_id": 16235,
        "bangumi_title": "未来日记",
        "ep_cut": 3,
        "image_url": "https://w.junreimap.com/images/points/16235/9s0qzgp_1768359974419.jpg",
        "location": "",
        "point_id": "9s0qzgp",
        "point_name": "武蔵野大学駐車場",
        "remark": ""
      },
      "type": "Feature"
    },
    {
      "geometry": {
        "coordinates": [
          139.54942,
          35.7167
        ],
        "type": "Point"
      },
      "properties": {
        "bangumi_id": 16235,
        "bangumi_title": "未来日记",
        "ep_cut": 3,
        "image_url": "https://w.junreimap.com/images/points/16235/9s0sdm1_1768359984405.jpg",
        "location": "",
        "point_id": "9s0sdm1",
        "point_name": "武蔵野大学前",
        "remark": ""
      },
      "type": "Feature"
    },
    {
      "geometry": {
        "coordinates": [
          139.54959,
          35.71635
        ],
        "type": "Point"
      },
      "properties": {
        "bangumi_id": 16235,
        "bangumi_title": "未来日记",
        "ep_cut": 3,
        "image_url": "https://w.junreimap.com/images/points/16235/9s0ulwa_1768359991859.jpg",
        "location": "",
        "point_id": "9s0ulwa",
        "point_name": "タンパ喫茶",
        "remark": ""
      },
      "type": "Feature"
    },
    {
      "geometry": {
        "coordinates": [
          139.37086,
          35.58138
        ],
        "type": "Point"
      },
      "properties": {
        "bangumi_id": 16235,
        "bangumi_title": "未来日记",
        "ep_cut": 6,
        "image_url": "https://w.junreimap.com/images/points/16235/9s0wifd_1768360015505.jpg",
        "location": "",
        "point_id": "9s0wifd",
        "point_name": "相模原駅",
        "remark": ""
      },
      "type": "Feature"
    },
    {
      "geometry": {
        "coordinates": [
          139.370742,
          35.58
        ],
        "type": "Point"
      },
      "properties": {
        "bangumi_id": 16235,
        "bangumi_title": "未来日记",
        "ep_cut": 6,
        "image_url": "https://w.junreimap.com/images/points/16235/9s1xxor_1768360021820.jpg",
        "location": "",
        "point_id": "9s1xxor",
        "point_name": "三菱​UFJ​銀行​相模原​支店",
        "remark": ""
      },
      "type": "Feature"
    },
    {
      "geometry": {
        "coordinates": [
          139.37044,
          35.57965
        ],
        "type": "Point"
      },
      "properties": {
        "bangumi_id": 16235,
        "bangumi_title": "未来日记",
        "ep_cut": 6,
        "image_url": "https://w.junreimap.com/images/points/16235/9s1zzab_1768360028036.jpg",
        "location": "",
        "point_id": "9s1zzab",
        "point_name": "和食 とらし",
        "remark": ""
      },
      "type": "Feature"
    },
    {
      "geometry": {
        "coordinates": [
          139.558071,
          35.717371
        ],
        "type": "Point"
      },
      "properties": {
        "bangumi_id": 16235,
        "bangumi_title": "未来日记",
        "ep_cut": 8,
        "image_url": "https://w.junreimap.com/images/points/16235/9s230qb_1768360038698.jpg",
        "location": "",
        "point_id": "9s230qb",
        "point_name": "武蔵野中央公園",
        "remark": ""
      },
      "type": "Feature"
    },
    {
      "geometry": {
        "coordinates": [
          139.56508,
          35.72284
        ],
        "type": "Point"
      },
      "properties": {
        "bangumi_id": 16235,
        "bangumi_title": "未来日记",
        "ep_cut": 8,
        "image_url": "https://w.junreimap.com/images/points/16235/9s24npv_1768360046571.jpg",
        "location": "",
        "point_id": "9s24npv",
        "point_name": "東伏見四丁目　歩道橋",
        "remark": ""
      },
      "type": "Feature"
    },
    {
      "geometry": {
        "coordinates": [
          139.56548,
          35.722931
        ],
        "type": "Point"
      },
      "properties": {
        "bangumi_id": 16235,
        "bangumi_title": "未来日记",
        "ep_cut": 8,
        "image_url": "https://w.junreimap.com/images/points/16235/9s28idm_1768360053088.jpg",
        "location": "",
        "point_id": "9s28idm",
        "point_name": "Jaguar's",
        "remark": ""
      },
      "type": "Feature"
    },
    {
      "geometry": {
        "coordinates": [
          139.44489,
          35.54285
        ],
        "type": "Point"
      },
      "properties": {
        "bangumi_id": 16235,
        "bangumi_title": "未来日记",
        "ep_cut": 18,
        "image_url": "https://w.junreimap.com/images/points/16235/9s2cnvo_1768360064461.jpg",
        "location": "",
        "point_id": "9s2cnvo",
        "point_name": "町田マルイ",
        "remark": ""
      },
      "type": "Feature"
    },
    {
      "geometry": {
        "coordinates": [
          139.37064,
          35.57986
        ],
        "type": "Point"
      },
      "properties": {
        "bangumi_id": 16235,
        "bangumi_title": "未来日记",
        "ep_cut": 26,
        "image_url": "https://w.junreimap.com/images/points/16235/9s210ne_1768360074660.jpg",
        "location": "",
        "point_id": "9s210ne",
        "point_name": "ローソン\n相模原​2丁目​店",
        "remark": ""
      },
      "type": "Feature"
    },
    {
      "geometry": {
        "coordinates": [
          139.70692,
          36.81708
        ],
        "type": "Point"
      },
      "properties": {
        "bangumi_id": 16235,
        "bangumi_title": "未来日记",
        "ep_cut": 13,
        "image_url": "https://w.junreimap.com/images/points/16235/9t34gm1_1768361719525.jpg",
        "location": "鬼怒川",
        "point_id": "9t34gm1",
        "point_name": "古釜の滝 駐車場",
        "remark": ""
      },
      "type": "Feature"
    },
    {
      "geometry": {
        "coordinates": [
          139.719565,
          36.830068
        ],
        "type": "Point"
      },
      "properties": {
        "bangumi_id": 16235,
        "bangumi_title": "未来日记",
        "ep_cut": 13,
        "image_url": "https://w.junreimap.com/images/points/16235/9t36r8v_1768361728870.jpg",
        "location": "鬼怒川",
        "point_id": "9t36r8v",
        "point_name": "大江戸温泉物語 ホテル鬼怒川御苑",
        "remark": ""
      },
      "type": "Feature"
    },
    {
      "geometry": {
        "coordinates": [
          139.71347,
          36.840588
        ],
        "type": "Point"
      },
      "properties": {
        "bangumi_id": 16235,
        "bangumi_title": "未来日记",
        "ep_cut": 13,
        "image_url": "https://w.junreimap.com/images/points/16235/9t37okm_1768361750537.jpg",
        "location": "鬼怒川",
        "point_id": "9t37okm",
        "point_name": "おさるの山",
        "remark": ""
      },
      "type": "Feature"
    },
    {
      "geometry": {
        "coordinates": [
          139.71986,
          36.83339
        ],
        "type": "Point"
      },
      "properties": {
        "bangumi_id": 16235,
        "bangumi_title": "未来日记",
        "ep_cut": 13,
        "image_url": "https://w.junreimap.com/images/points/16235/9t3ak20_1768361759439.jpg",
        "location": "鬼怒川",
        "point_id": "9t3ak20",
        "point_name": "くろがね橋前",
        "remark": ""
      },
      "type": "Feature"
    },
    {
      "geometry": {
        "coordinates": [
          139.71997,
          36.83116
        ],
        "type": "Point"
      },
      "properties": {
        "bangumi_id": 16235,
        "bangumi_title": "未来日记",
        "ep_cut": 13,
        "image_url": "https://w.junreimap.com/images/points/16235/9t3cvmh_1768361768691.jpg",
        "location": "鬼怒川",
        "point_id": "9t3cvmh",
        "point_name": "鬼怒川御苑前",
        "remark": ""
      },
      "type": "Feature"
    },
    {
      "geometry": {
        "coordinates": [
          139.72141,
          36.836
        ],
        "type": "Point"
      },
      "properties": {
        "bangumi_id": 16235,
        "bangumi_title": "未来日记",
        "ep_cut": 13,
        "image_url": "https://w.junreimap.com/images/points/16235/9t3g0qg_1768361778415.jpg",
        "location": "鬼怒川",
        "point_id": "9t3g0qg",
        "point_name": "鬼怒の風穴　廃墟",
        "remark": ""
      },
      "type": "Feature"
    },
    {
      "geometry": {
        "coordinates": [
          139.72208,
          36.83676
        ],
        "type": "Point"
      },
      "properties": {
        "bangumi_id": 16235,
        "bangumi_title": "未来日记",
        "ep_cut": 13,
        "image_url": "https://w.junreimap.com/images/points/16235/9t3iw4n_1768361788176.jpg",
        "location": "鬼怒川",
        "point_id": "9t3iw4n",
        "point_name": "鬼怒の風穴",
        "remark": ""
      },
      "type": "Feature"
    },
    {
      "geometry": {
        "coordinates": [
          139.72114,
          36.8357
        ],
        "type": "Point"
      },
      "properties": {
        "bangumi_id": 16235,
        "bangumi_title": "未来日记",
        "ep_cut": 13,
        "image_url": "https://w.junreimap.com/images/points/16235/9t3me1y_1768361797349.jpg",
        "location": "鬼怒川",
        "point_id": "9t3me1y",
        "point_name": "鬼怒の風穴",
        "remark": ""
      },
      "type": "Feature"
    },
    {
      "geometry": {
        "coordinates": [
          139.718801,
          36.83406
        ],
        "type": "Point"
      },
      "properties": {
        "bangumi_id": 16235,
        "bangumi_title": "未来日记",
        "ep_cut": 13,
        "image_url": "https://w.junreimap.com/images/points/16235/9t3pc08_1768361805038.jpg",
        "location": "鬼怒川",
        "point_id": "9t3pc08",
        "point_name": "はきもの​やま​も​と",
        "remark": ""
      },
      "type": "Feature"
    },
    {
      "geometry": {
        "coordinates": [
          139.718608,
          36.829839
        ],
        "type": "Point"
      },
      "properties": {
        "bangumi_id": 16235,
        "bangumi_title": "未来日记",
        "ep_cut": 13,
        "image_url": "https://w.junreimap.com/images/points/16235/9t3qz1d_1768361811861.jpg",
        "location": "鬼怒川",
        "point_id": "9t3qz1d",
        "point_name": "ふれあい橋",
        "remark": ""
      },
      "type": "Feature"
    },
    {
      "geometry": {
        "coordinates": [
          139.719291,
          36.835709
        ],
        "type": "Point"
      },
      "properties": {
        "bangumi_id": 16235,
        "bangumi_title": "未来日记",
        "ep_cut": 13,
        "image_url": "https://w.junreimap.com/images/points/16235/9t3rxem_1768361820366.jpg",
        "location": "鬼怒川",
        "point_id": "9t3rxem",
        "point_name": "鬼怒川温泉 あさや",
        "remark": ""
      },
      "type": "Feature"
    }
  ],
  "type": "FeatureCollection"
}