{
  "features": [
    {
      "geometry": {
        "coordinates": [
          139.226697,
          35.908491
        ],
        "type": "Point"
      },
      "properties": {
        "bangumi_id": 165972,
        "bangumi_title": "斯特拉的魔法",
        "ep_cut": 3,
        "image_url": "https://w.junreimap.com/images/points/165972/7168fd73_1753085837397.jpg",
        "location": "",
        "point_id": "7168fd73",
        "point_name": "西武秩父線 吾野駅",
        "remark": "#01「スタート地点」、#02「たのしい創作」"
      },
      "type": "Feature"
    },
    {
      "geometry": {
        "coordinates": [
          139.579895,
          35.703139
        ],
        "type": "Point"
      },
      "properties": {
        "bangumi_id": 165972,
        "bangumi_title": "斯特拉的魔法",
        "ep_cut": 1,
        "image_url": "https://w.junreimap.com/images/points/165972/0b8a2b37_1753086487000.jpg",
        "location": "",
        "point_id": "0b8a2b37",
        "point_name": "JR吉祥寺駅",
        "remark": "#01、#02、#10、#OVA"
      },
      "type": "Feature"
    },
    {
      "geometry": {
        "coordinates": [
          139.5728,
          35.71058
        ],
        "type": "Point"
      },
      "properties": {
        "bangumi_id": 165972,
        "bangumi_title": "斯特拉的魔法",
        "ep_cut": 9,
        "image_url": "https://w.junreimap.com/images/points/165972/d89201b3_1753085884172.jpg",
        "location": "",
        "point_id": "d89201b3",
        "point_name": "成蹊大学",
        "remark": "#01、#04、#05、#07、#08、#10、#11、#12、#OVA"
      },
      "type": "Feature"
    },
    {
      "geometry": {
        "coordinates": [
          139.805051,
          35.748952
        ],
        "type": "Point"
      },
      "properties": {
        "bangumi_id": 165972,
        "bangumi_title": "斯特拉的魔法",
        "ep_cut": 1,
        "image_url": "https://w.junreimap.com/images/points/165972/14bf2463_1753085894841.jpg",
        "location": "",
        "point_id": "14bf2463",
        "point_name": "つくばエクスプレス 北千住駅",
        "remark": "#01"
      },
      "type": "Feature"
    },
    {
      "geometry": {
        "coordinates": [
          139.690234,
          35.785798
        ],
        "type": "Point"
      },
      "properties": {
        "bangumi_id": 165972,
        "bangumi_title": "斯特拉的魔法",
        "ep_cut": "",
        "image_url": "",
        "location": "",
        "point_id": "bab91b1c",
        "point_name": "新河岸橋",
        "remark": ""
      },
      "type": "Feature"
    },
    {
      "geometry": {
        "coordinates": [
          139.567989,
          35.70915
        ],
        "type": "Point"
      },
      "properties": {
        "bangumi_id": 165972,
        "bangumi_title": "斯特拉的魔法",
        "ep_cut": 2,
        "image_url": "https://w.junreimap.com/images/points/165972/32af3f5b_1753085921643.jpg",
        "location": "",
        "point_id": "32af3f5b",
        "point_name": "中町 交差点",
        "remark": "#02、#08、#OVA"
      },
      "type": "Feature"
    },
    {
      "geometry": {
        "coordinates": [
          139.581124,
          35.704436
        ],
        "type": "Point"
      },
      "properties": {
        "bangumi_id": 165972,
        "bangumi_title": "斯特拉的魔法",
        "ep_cut": 2,
        "image_url": "https://w.junreimap.com/images/points/165972/3796bc7c_1753085936676.jpg",
        "location": "",
        "point_id": "3796bc7c",
        "point_name": "ガスト吉祥寺店",
        "remark": "#02、#04"
      },
      "type": "Feature"
    },
    {
      "geometry": {
        "coordinates": [
          139.260347,
          35.892345
        ],
        "type": "Point"
      },
      "properties": {
        "bangumi_id": 165972,
        "bangumi_title": "斯特拉的魔法",
        "ep_cut": 1,
        "image_url": "https://w.junreimap.com/images/points/165972/dd0d64c0_1753085845643.jpg",
        "location": "",
        "point_id": "dd0d64c0",
        "point_name": "西武池袋線 東吾野駅",
        "remark": "#03"
      },
      "type": "Feature"
    },
    {
      "geometry": {
        "coordinates": [
          139.690108,
          35.589591
        ],
        "type": "Point"
      },
      "properties": {
        "bangumi_id": 165972,
        "bangumi_title": "斯特拉的魔法",
        "ep_cut": 3,
        "image_url": "https://w.junreimap.com/images/points/165972/5fedf2b2_1753085958019.jpg",
        "location": "",
        "point_id": "5fedf2b2",
        "point_name": "明神湯",
        "remark": "#03"
      },
      "type": "Feature"
    },
    {
      "geometry": {
        "coordinates": [
          139.952464,
          35.893923
        ],
        "type": "Point"
      },
      "properties": {
        "bangumi_id": 165972,
        "bangumi_title": "斯特拉的魔法",
        "ep_cut": 4,
        "image_url": "https://w.junreimap.com/images/points/165972/00102b85_1753086050356.jpg",
        "location": "",
        "point_id": "00102b85",
        "point_name": "柏の葉キャンパス駅 西口",
        "remark": ""
      },
      "type": "Feature"
    },
    {
      "geometry": {
        "coordinates": [
          139.773733,
          35.698471
        ],
        "type": "Point"
      },
      "properties": {
        "bangumi_id": 165972,
        "bangumi_title": "斯特拉的魔法",
        "ep_cut": 6,
        "image_url": "https://w.junreimap.com/images/points/165972/0c43346d_1753085995570.jpg",
        "location": "",
        "point_id": "0c43346d",
        "point_name": "JR秋葉原駅",
        "remark": ""
      },
      "type": "Feature"
    },
    {
      "geometry": {
        "coordinates": [
          139.773799,
          35.699837
        ],
        "type": "Point"
      },
      "properties": {
        "bangumi_id": 165972,
        "bangumi_title": "斯特拉的魔法",
        "ep_cut": 6,
        "image_url": "https://w.junreimap.com/images/points/165972/85f58f83_1753086003987.jpg",
        "location": "",
        "point_id": "85f58f83",
        "point_name": "秋葉原UDX",
        "remark": ""
      },
      "type": "Feature"
    },
    {
      "geometry": {
        "coordinates": [
          139.579832,
          35.703782
        ],
        "type": "Point"
      },
      "properties": {
        "bangumi_id": 165972,
        "bangumi_title": "斯特拉的魔法",
        "ep_cut": "OVA2",
        "image_url": "https://w.junreimap.com/images/points/165972/29edcfbe_1753086111411.jpg",
        "location": "",
        "point_id": "29edcfbe",
        "point_name": "吉祥寺サンロード商店街",
        "remark": ""
      },
      "type": "Feature"
    },
    {
      "geometry": {
        "coordinates": [
          139.58049,
          35.70334
        ],
        "type": "Point"
      },
      "properties": {
        "bangumi_id": 165972,
        "bangumi_title": "斯特拉的魔法",
        "ep_cut": "OVA2",
        "image_url": "https://w.junreimap.com/images/points/165972/952dfeae_1753086323299.jpg",
        "location": "",
        "point_id": "952dfeae",
        "point_name": "吉祥寺駅東口交番",
        "remark": ""
      },
      "type": "Feature"
    },
    {
      "geometry": {
        "coordinates": [
          139.580408,
          35.703532
        ],
        "type": "Point"
      },
      "properties": {
        "bangumi_id": 165972,
        "bangumi_title": "斯特拉的魔法",
        "ep_cut": 10,
        "image_url": "https://w.junreimap.com/images/points/165972/084feb50_1753086331202.jpg",
        "location": "",
        "point_id": "084feb50",
        "point_name": "吉祥寺駅北口駅前広場",
        "remark": ""
      },
      "type": "Feature"
    },
    {
      "geometry": {
        "coordinates": [
          139.793545,
          35.630455
        ],
        "type": "Point"
      },
      "properties": {
        "bangumi_id": 165972,
        "bangumi_title": "斯特拉的魔法",
        "ep_cut": "",
        "image_url": "",
        "location": "",
        "point_id": "1e0c3ce9",
        "point_name": "東京ビッグサイト",
        "remark": "#12"
      },
      "type": "Feature"
    },
    {
      "geometry": {
        "coordinates": [
          139.580106,
          35.70376
        ],
        "type": "Point"
      },
      "properties": {
        "bangumi_id": 165972,
        "bangumi_title": "斯特拉的魔法",
        "ep_cut": "OVA2",
        "image_url": "https://w.junreimap.com/images/points/165972/f16b82ee_1753086245514.jpg",
        "location": "",
        "point_id": "f16b82ee",
        "point_name": "三菱UFJ銀行 吉祥寺駅前支店",
        "remark": ""
      },
      "type": "Feature"
    },
    {
      "geometry": {
        "coordinates": [
          139.579082,
          35.703369
        ],
        "type": "Point"
      },
      "properties": {
        "bangumi_id": 165972,
        "bangumi_title": "斯特拉的魔法",
        "ep_cut": "OVA2",
        "image_url": "https://w.junreimap.com/images/points/165972/03d92e6e_1753086176003.jpg",
        "location": "",
        "point_id": "03d92e6e",
        "point_name": "平和通り",
        "remark": ""
      },
      "type": "Feature"
    },
    {
      "geometry": {
        "coordinates": [
          139.57687,
          35.70446
        ],
        "type": "Point"
      },
      "properties": {
        "bangumi_id": 165972,
        "bangumi_title": "斯特拉的魔法",
        "ep_cut": "OVA2",
        "image_url": "https://w.junreimap.com/images/points/165972/cbb1a66d_1753086198737.jpg",
        "location": "",
        "point_id": "cbb1a66d",
        "point_name": "サウンドクルー吉祥寺",
        "remark": ""
      },
      "type": "Feature"
    },
    {
      "geometry": {
        "coordinates": [
          139.580781,
          35.705682
        ],
        "type": "Point"
      },
      "properties": {
        "bangumi_id": 165972,
        "bangumi_title": "斯特拉的魔法",
        "ep_cut": "OVA2",
        "image_url": "https://w.junreimap.com/images/points/165972/1886f216_1753086207856.jpg",
        "location": "",
        "point_id": "1886f216",
        "point_name": "雲洞山 天暁院 月窓寺",
        "remark": ""
      },
      "type": "Feature"
    },
    {
      "geometry": {
        "coordinates": [
          139.258106,
          35.78918
        ],
        "type": "Point"
      },
      "properties": {
        "bangumi_id": 165972,
        "bangumi_title": "斯特拉的魔法",
        "ep_cut": 6,
        "image_url": "https://w.junreimap.com/images/user/0/bangumi/165972/points/79tcgxl-1762841386566.jpg",
        "location": "",
        "point_id": "79tcgxl",
        "point_name": "橋伝理容所",
        "remark": "青梅站附近正在开发中，路两旁的建筑和店铺都被拆完了。"
      },
      "type": "Feature"
    }
  ],
  "type": "FeatureCollection"
}