{
  "features": [
    {
      "geometry": {
        "coordinates": [
          139.761994,
          35.668279
        ],
        "type": "Point"
      },
      "properties": {
        "bangumi_id": 1731,
        "bangumi_title": "大正野球娘。",
        "ep_cut": "",
        "image_url": "https://w.junreimap.com/images/points/1731/kpx6oid52_1734254529306.jpg",
        "location": "",
        "point_id": "kpx6oid52",
        "point_name": "銀座中央通り",
        "remark": ""
      },
      "type": "Feature"
    },
    {
      "geometry": {
        "coordinates": [
          139.774461,
          35.683967
        ],
        "type": "Point"
      },
      "properties": {
        "bangumi_id": 1731,
        "bangumi_title": "大正野球娘。",
        "ep_cut": "",
        "image_url": "https://w.junreimap.com/images/points/1731/kpx6oie5p_1734254338653.jpg",
        "location": "",
        "point_id": "kpx6oie5p",
        "point_name": "日本橋",
        "remark": ""
      },
      "type": "Feature"
    },
    {
      "geometry": {
        "coordinates": [
          139.749076,
          35.664653
        ],
        "type": "Point"
      },
      "properties": {
        "bangumi_id": 1731,
        "bangumi_title": "大正野球娘。",
        "ep_cut": "",
        "image_url": "",
        "location": "",
        "point_id": "kpx6oidsi",
        "point_name": "愛宕山",
        "remark": ""
      },
      "type": "Feature"
    },
    {
      "geometry": {
        "coordinates": [
          139.754902,
          35.673369
        ],
        "type": "Point"
      },
      "properties": {
        "bangumi_id": 1731,
        "bangumi_title": "大正野球娘。",
        "ep_cut": "",
        "image_url": "https://w.junreimap.com/images/points/1731/kpx6oidww_1734254320448.jpg",
        "location": "",
        "point_id": "kpx6oidww",
        "point_name": "日比谷公園",
        "remark": ""
      },
      "type": "Feature"
    },
    {
      "geometry": {
        "coordinates": [
          139.750621,
          35.672202
        ],
        "type": "Point"
      },
      "properties": {
        "bangumi_id": 1731,
        "bangumi_title": "大正野球娘。",
        "ep_cut": "",
        "image_url": "https://w.junreimap.com/images/points/1731/kpx6oierh_1734254395026.jpg",
        "location": "",
        "point_id": "kpx6oierh",
        "point_name": "両議院",
        "remark": "第2次臨時国会議事堂、1891～1925"
      },
      "type": "Feature"
    },
    {
      "geometry": {
        "coordinates": [
          139.760749,
          35.676437
        ],
        "type": "Point"
      },
      "properties": {
        "bangumi_id": 1731,
        "bangumi_title": "大正野球娘。",
        "ep_cut": "",
        "image_url": "https://w.junreimap.com/images/points/1731/kpx6oiejb_1734254351072.jpg",
        "location": "",
        "point_id": "kpx6oiejb",
        "point_name": "帝国劇場",
        "remark": "いきな構えの帝劇に（初代、1911～1964）"
      },
      "type": "Feature"
    },
    {
      "geometry": {
        "coordinates": [
          139.759462,
          35.679209
        ],
        "type": "Point"
      },
      "properties": {
        "bangumi_id": 1731,
        "bangumi_title": "大正野球娘。",
        "ep_cut": "",
        "image_url": "https://w.junreimap.com/images/points/1731/kpx6oieyl_1734254417659.jpg",
        "location": "",
        "point_id": "kpx6oieyl",
        "point_name": "警視庁仮庁舎跡",
        "remark": "いかめし館は警視庁（日比谷赤煉瓦庁舎、1911～1923）"
      },
      "type": "Feature"
    },
    {
      "geometry": {
        "coordinates": [
          139.763287,
          35.678233
        ],
        "type": "Point"
      },
      "properties": {
        "bangumi_id": 1731,
        "bangumi_title": "大正野球娘。",
        "ep_cut": "",
        "image_url": "https://w.junreimap.com/images/points/1731/kpx6oieyh_1734254425979.jpg",
        "location": "",
        "point_id": "kpx6oieyh",
        "point_name": "三菱1号館",
        "remark": "諸官省ズラリ馬場先門"
      },
      "type": "Feature"
    },
    {
      "geometry": {
        "coordinates": [
          139.7629,
          35.682468
        ],
        "type": "Point"
      },
      "properties": {
        "bangumi_id": 1731,
        "bangumi_title": "大正野球娘。",
        "ep_cut": "",
        "image_url": "https://w.junreimap.com/images/points/1731/kpx6oifk3_1734254433972.jpg",
        "location": "",
        "point_id": "kpx6oifk3",
        "point_name": "東京海上ビルディング",
        "remark": "（東京海上日動ビル、1918～1966）"
      },
      "type": "Feature"
    },
    {
      "geometry": {
        "coordinates": [
          139.766114,
          35.681771
        ],
        "type": "Point"
      },
      "properties": {
        "bangumi_id": 1731,
        "bangumi_title": "大正野球娘。",
        "ep_cut": "",
        "image_url": "https://w.junreimap.com/images/points/1731/kpx6oifrv_1734254441525.jpg",
        "location": "",
        "point_id": "kpx6oifrv",
        "point_name": "東京駅",
        "remark": ""
      },
      "type": "Feature"
    },
    {
      "geometry": {
        "coordinates": [
          139.79668,
          35.714105
        ],
        "type": "Point"
      },
      "properties": {
        "bangumi_id": 1731,
        "bangumi_title": "大正野球娘。",
        "ep_cut": "",
        "image_url": "https://w.junreimap.com/images/points/1731/kpx6oif8i_1734254544262.jpg",
        "location": "",
        "point_id": "kpx6oif8i",
        "point_name": "浅草寺",
        "remark": "鳩ポッポ豆売るお婆さん"
      },
      "type": "Feature"
    },
    {
      "geometry": {
        "coordinates": [
          139.733552,
          35.656486
        ],
        "type": "Point"
      },
      "properties": {
        "bangumi_id": 1731,
        "bangumi_title": "大正野球娘。",
        "ep_cut": "",
        "image_url": "https://w.junreimap.com/images/points/1731/kpx6oifia_1734254551120.jpg",
        "location": "",
        "point_id": "kpx6oifia",
        "point_name": "麻布十番商店街",
        "remark": ""
      },
      "type": "Feature"
    },
    {
      "geometry": {
        "coordinates": [
          139.733852,
          35.657584
        ],
        "type": "Point"
      },
      "properties": {
        "bangumi_id": 1731,
        "bangumi_title": "大正野球娘。",
        "ep_cut": "",
        "image_url": "",
        "location": "",
        "point_id": "kpx6oighc",
        "point_name": "鳥居坂",
        "remark": ""
      },
      "type": "Feature"
    },
    {
      "geometry": {
        "coordinates": [
          139.734496,
          35.659354
        ],
        "type": "Point"
      },
      "properties": {
        "bangumi_id": 1731,
        "bangumi_title": "大正野球娘。",
        "ep_cut": "",
        "image_url": "https://w.junreimap.com/images/points/1731/kpx6oig6g_1734254456769.jpg",
        "location": "",
        "point_id": "kpx6oig6g",
        "point_name": "東洋英和女学院",
        "remark": "アニメの東邦星華高等女学院。"
      },
      "type": "Feature"
    },
    {
      "geometry": {
        "coordinates": [
          139.718746,
          35.710833
        ],
        "type": "Point"
      },
      "properties": {
        "bangumi_id": 1731,
        "bangumi_title": "大正野球娘。",
        "ep_cut": "",
        "image_url": "",
        "location": "",
        "point_id": "kpx6oighw",
        "point_name": "戸塚球場跡",
        "remark": "（早稲田大学野球場、1902～1987）"
      },
      "type": "Feature"
    },
    {
      "geometry": {
        "coordinates": [
          139.73511,
          35.65618
        ],
        "type": "Point"
      },
      "properties": {
        "bangumi_id": 1731,
        "bangumi_title": "大正野球娘。",
        "ep_cut": "",
        "image_url": "https://w.junreimap.com/images/points/1731/kpx6oih1o_1734254489751.jpg",
        "location": "",
        "point_id": "kpx6oih1o",
        "point_name": "浪花家総本店",
        "remark": "小梅が晶子のお見舞いに持っていったたい焼き"
      },
      "type": "Feature"
    },
    {
      "geometry": {
        "coordinates": [
          139.737693,
          35.655315
        ],
        "type": "Point"
      },
      "properties": {
        "bangumi_id": 1731,
        "bangumi_title": "大正野球娘。",
        "ep_cut": "",
        "image_url": "",
        "location": "",
        "point_id": "kpx6oih4r",
        "point_name": "一之橋",
        "remark": ""
      },
      "type": "Feature"
    },
    {
      "geometry": {
        "coordinates": [
          139.700581,
          35.659056
        ],
        "type": "Point"
      },
      "properties": {
        "bangumi_id": 1731,
        "bangumi_title": "大正野球娘。",
        "ep_cut": "",
        "image_url": "",
        "location": "",
        "point_id": "kpx6oihcg",
        "point_name": "ハチ公象",
        "remark": ""
      },
      "type": "Feature"
    }
  ],
  "type": "FeatureCollection"
}