{
  "features": [
    {
      "geometry": {
        "coordinates": [
          139.371808,
          35.445271
        ],
        "type": "Point"
      },
      "properties": {
        "bangumi_id": 1733,
        "bangumi_title": "秋之回忆2",
        "ep_cut": "",
        "image_url": "https://w.junreimap.com/images/points/1733/eea357e0_1734158452054.jpg",
        "location": "",
        "point_id": "eea357e0",
        "point_name": "（疑误）登波离桥——亚由美桥",
        "remark": "登波离桥——亚由美桥"
      },
      "type": "Feature"
    },
    {
      "geometry": {
        "coordinates": [
          139.500532,
          35.306615
        ],
        "type": "Point"
      },
      "properties": {
        "bangumi_id": 1733,
        "bangumi_title": "秋之回忆2",
        "ep_cut": "",
        "image_url": "https://w.junreimap.com/images/points/1733/a7d85fef_1734158194842.jpg",
        "location": "",
        "point_id": "a7d85fef",
        "point_name": "芦鹿岛电铁：樱峰站——江之岛电铁：镰仓高校前站",
        "remark": "芦鹿岛电铁：樱峰站——江之岛电铁：镰仓高校前站"
      },
      "type": "Feature"
    },
    {
      "geometry": {
        "coordinates": [
          139.477342,
          35.311363
        ],
        "type": "Point"
      },
      "properties": {
        "bangumi_id": 1733,
        "bangumi_title": "秋之回忆2",
        "ep_cut": "",
        "image_url": "https://w.junreimap.com/images/points/1733/9dba9827_1734158613239.jpg",
        "location": "",
        "point_id": "9dba9827",
        "point_name": "海边散步处——湘南海岸公园（疑似）",
        "remark": "海边散步处——湘南海岸公园（疑似）"
      },
      "type": "Feature"
    },
    {
      "geometry": {
        "coordinates": [
          139.550004,
          35.318839
        ],
        "type": "Point"
      },
      "properties": {
        "bangumi_id": 1733,
        "bangumi_title": "秋之回忆2",
        "ep_cut": "",
        "image_url": "https://w.junreimap.com/images/points/1733/4fe97b50_1734158335199.jpg",
        "location": "",
        "point_id": "4fe97b50",
        "point_name": "芦鹿岛电铁：澄空站——江之岛电铁：镰仓站",
        "remark": "芦鹿岛电铁：澄空站——江之岛电铁：镰仓站"
      },
      "type": "Feature"
    },
    {
      "geometry": {
        "coordinates": [
          139.547547,
          35.315775
        ],
        "type": "Point"
      },
      "properties": {
        "bangumi_id": 1733,
        "bangumi_title": "秋之回忆2",
        "ep_cut": "",
        "image_url": "https://w.junreimap.com/images/points/1733/65e36ad4_1734159354825.jpg",
        "location": "",
        "point_id": "65e36ad4",
        "point_name": "文诚堂书店——公文堂书店",
        "remark": "文诚堂书店——公文堂书店（日本神奈川県鎌倉市由比ガ浜１丁目１−１４）"
      },
      "type": "Feature"
    },
    {
      "geometry": {
        "coordinates": [
          139.476809,
          35.29874
        ],
        "type": "Point"
      },
      "properties": {
        "bangumi_id": 1733,
        "bangumi_title": "秋之回忆2",
        "ep_cut": "",
        "image_url": "https://w.junreimap.com/images/points/1733/ef47b7c2_1734158369998.jpg",
        "location": "",
        "point_id": "ef47b7c2",
        "point_name": "星恋之丘——江之岛：龍恋の鐘",
        "remark": "江之岛：龍恋の鐘（《秋之回忆》中的“星恋之丘”）"
      },
      "type": "Feature"
    },
    {
      "geometry": {
        "coordinates": [
          139.487197,
          35.311123
        ],
        "type": "Point"
      },
      "properties": {
        "bangumi_id": 1733,
        "bangumi_title": "秋之回忆2",
        "ep_cut": "",
        "image_url": "https://w.junreimap.com/images/points/1733/a965d3ee_1734158287396.jpg",
        "location": "",
        "point_id": "a965d3ee",
        "point_name": "芦鹿岛电铁：浜咲站——江之岛电铁：江之岛站",
        "remark": "芦鹿岛电铁：浜咲站——江之岛电铁：江之岛站"
      },
      "type": "Feature"
    },
    {
      "geometry": {
        "coordinates": [
          139.520871,
          35.303694
        ],
        "type": "Point"
      },
      "properties": {
        "bangumi_id": 1733,
        "bangumi_title": "秋之回忆2",
        "ep_cut": "",
        "image_url": "https://w.junreimap.com/images/points/1733/bc859a03_1734158544103.jpg",
        "location": "",
        "point_id": "bc859a03",
        "point_name": "朝凪庄——圣路加看护学校",
        "remark": "朝凪庄——圣路加看护学校"
      },
      "type": "Feature"
    },
    {
      "geometry": {
        "coordinates": [
          139.481086,
          35.302121
        ],
        "type": "Point"
      },
      "properties": {
        "bangumi_id": 1733,
        "bangumi_title": "秋之回忆2",
        "ep_cut": "",
        "image_url": "https://w.junreimap.com/images/points/1733/814d6756_1734159398545.jpg",
        "location": "",
        "point_id": "814d6756",
        "point_name": "芦鹿岛入口鸟居——江之岛入口鸟居",
        "remark": "芦鹿岛入口鸟居——江之岛入口鸟居"
      },
      "type": "Feature"
    },
    {
      "geometry": {
        "coordinates": [
          139.477275,
          35.313371
        ],
        "type": "Point"
      },
      "properties": {
        "bangumi_id": 1733,
        "bangumi_title": "秋之回忆2",
        "ep_cut": "",
        "image_url": "https://w.junreimap.com/images/points/1733/fb4a6a69_1734159525630.jpg",
        "location": "",
        "point_id": "fb4a6a69",
        "point_name": "罗萨克餐厅——J's Garden江之岛店",
        "remark": "罗萨克餐厅——J's Garden江之岛店"
      },
      "type": "Feature"
    },
    {
      "geometry": {
        "coordinates": [
          139.489616,
          35.333468
        ],
        "type": "Point"
      },
      "properties": {
        "bangumi_id": 1733,
        "bangumi_title": "秋之回忆2",
        "ep_cut": "",
        "image_url": "https://w.junreimap.com/images/points/1733/d91d4178_1734159580096.jpg",
        "location": "",
        "point_id": "d91d4178",
        "point_name": "MO2钢琴比赛场馆——藤泽市市民会馆",
        "remark": "MO2钢琴比赛场馆——藤泽市市民会馆"
      },
      "type": "Feature"
    },
    {
      "geometry": {
        "coordinates": [
          139.542227,
          35.32572
        ],
        "type": "Point"
      },
      "properties": {
        "bangumi_id": 1733,
        "bangumi_title": "秋之回忆2",
        "ep_cut": "",
        "image_url": "https://w.junreimap.com/images/points/1733/33364f29_1733386994426.jpg",
        "location": "",
        "point_id": "33364f29",
        "point_name": "澄空弁天堂——钱洗弁天宇贺福神社",
        "remark": ""
      },
      "type": "Feature"
    },
    {
      "geometry": {
        "coordinates": [
          139.551031,
          35.319381
        ],
        "type": "Point"
      },
      "properties": {
        "bangumi_id": 1733,
        "bangumi_title": "秋之回忆2",
        "ep_cut": "",
        "image_url": "https://w.junreimap.com/images/points/1733/a1adaacf_1733387549019.jpg",
        "location": "",
        "point_id": "a1adaacf",
        "point_name": "澄空站周边——江之电镰仓站周边（东出口外）",
        "remark": ""
      },
      "type": "Feature"
    },
    {
      "geometry": {
        "coordinates": [
          139.550746,
          35.318929
        ],
        "type": "Point"
      },
      "properties": {
        "bangumi_id": 1733,
        "bangumi_title": "秋之回忆2",
        "ep_cut": "",
        "image_url": "https://w.junreimap.com/images/points/1733/eb74f91b_1733389202870.jpg",
        "location": "",
        "point_id": "eb74f91b",
        "point_name": "澄空站内——江之电镰仓站内",
        "remark": ""
      },
      "type": "Feature"
    },
    {
      "geometry": {
        "coordinates": [
          139.528754,
          35.309251
        ],
        "type": "Point"
      },
      "properties": {
        "bangumi_id": 1733,
        "bangumi_title": "秋之回忆2",
        "ep_cut": "",
        "image_url": "https://w.junreimap.com/images/points/1733/6721dcf2_1733387570355.jpg",
        "location": "",
        "point_id": "6721dcf2",
        "point_name": "芦鹿电林钟寺站（站内外）——江之电极乐寺站（站内外）",
        "remark": ""
      },
      "type": "Feature"
    },
    {
      "geometry": {
        "coordinates": [
          139.483677,
          35.308819
        ],
        "type": "Point"
      },
      "properties": {
        "bangumi_id": 1733,
        "bangumi_title": "秋之回忆2",
        "ep_cut": "",
        "image_url": "https://w.junreimap.com/images/points/1733/6e511ab4_1733387080146.jpg",
        "location": "",
        "point_id": "6e511ab4",
        "point_name": "芦鹿电芦鹿岛站——小田急江之岛线片濑江之岛站",
        "remark": ""
      },
      "type": "Feature"
    },
    {
      "geometry": {
        "coordinates": [
          139.485844,
          35.307176
        ],
        "type": "Point"
      },
      "properties": {
        "bangumi_id": 1733,
        "bangumi_title": "秋之回忆2",
        "ep_cut": "",
        "image_url": "https://w.junreimap.com/images/points/1733/b3f4ae07_1733388386205.jpg",
        "location": "",
        "point_id": "b3f4ae07",
        "point_name": "芦鹿岛西北海岸——江之岛西北海岸",
        "remark": ""
      },
      "type": "Feature"
    },
    {
      "geometry": {
        "coordinates": [
          139.477729,
          35.299527
        ],
        "type": "Point"
      },
      "properties": {
        "bangumi_id": 1733,
        "bangumi_title": "秋之回忆2",
        "ep_cut": "",
        "image_url": "https://w.junreimap.com/images/points/1733/d3b23f0c_1733387116116.jpg",
        "location": "",
        "point_id": "d3b23f0c",
        "point_name": "芦鹿岛商铺——江之岛商铺（羊羹）",
        "remark": ""
      },
      "type": "Feature"
    },
    {
      "geometry": {
        "coordinates": [
          139.478673,
          35.2997
        ],
        "type": "Point"
      },
      "properties": {
        "bangumi_id": 1733,
        "bangumi_title": "秋之回忆2",
        "ep_cut": "",
        "image_url": "https://w.junreimap.com/images/points/1733/fd3b9f58_1733388155820.jpg",
        "location": "",
        "point_id": "fd3b9f58",
        "point_name": "芦鹿岛灯塔——江之岛灯塔",
        "remark": ""
      },
      "type": "Feature"
    },
    {
      "geometry": {
        "coordinates": [
          139.479604,
          35.300456
        ],
        "type": "Point"
      },
      "properties": {
        "bangumi_id": 1733,
        "bangumi_title": "秋之回忆2",
        "ep_cut": "",
        "image_url": "https://w.junreimap.com/images/points/1733/25452b8c_1733387203427.jpg",
        "location": "",
        "point_id": "25452b8c",
        "point_name": "龙境温泉郷御神木——江岛神社边津宫むすびの樹（星野浩摄）",
        "remark": ""
      },
      "type": "Feature"
    },
    {
      "geometry": {
        "coordinates": [
          139.487633,
          35.339308
        ],
        "type": "Point"
      },
      "properties": {
        "bangumi_id": 1733,
        "bangumi_title": "秋之回忆2",
        "ep_cut": "",
        "image_url": "https://w.junreimap.com/images/points/1733/bf48c29e_1733387366944.jpg",
        "location": "",
        "point_id": "bf48c29e",
        "point_name": "藤川站——ＪＲ東日本　東海道本線　「藤沢駅」。",
        "remark": ""
      },
      "type": "Feature"
    },
    {
      "geometry": {
        "coordinates": [
          139.479772,
          35.309969
        ],
        "type": "Point"
      },
      "properties": {
        "bangumi_id": 1733,
        "bangumi_title": "秋之回忆2",
        "ep_cut": "",
        "image_url": "https://w.junreimap.com/images/points/1733/1b77bc5f_1733387224041.jpg",
        "location": "",
        "point_id": "1b77bc5f",
        "point_name": "芦鹿岛水族馆——新江之岛水族馆",
        "remark": ""
      },
      "type": "Feature"
    }
  ],
  "type": "FeatureCollection"
}