{
  "features": [
    {
      "geometry": {
        "coordinates": [
          129.967441,
          33.446301
        ],
        "type": "Point"
      },
      "properties": {
        "bangumi_id": 174998,
        "bangumi_title": "冰上的尤里",
        "ep_cut": "",
        "image_url": "https://w.junreimap.com/images/points/174998/51i535udg_1672368676541.jpg",
        "location": "",
        "point_id": "51i535udg",
        "point_name": "唐津駅",
        "remark": "ホーム、改札近辺、コンコース等が登場"
      },
      "type": "Feature"
    },
    {
      "geometry": {
        "coordinates": [
          129.978822,
          33.453158
        ],
        "type": "Point"
      },
      "properties": {
        "bangumi_id": 174998,
        "bangumi_title": "冰上的尤里",
        "ep_cut": "",
        "image_url": "https://w.junreimap.com/images/points/174998/51i535tv7_1672368678675.jpg",
        "location": "",
        "point_id": "51i535tv7",
        "point_name": "唐津城二ノ丸ベンチ",
        "remark": "勇利とヴィクトルが座っていたベンチ"
      },
      "type": "Feature"
    },
    {
      "geometry": {
        "coordinates": [
          129.969411,
          33.447045
        ],
        "type": "Point"
      },
      "properties": {
        "bangumi_id": 174998,
        "bangumi_title": "冰上的尤里",
        "ep_cut": "",
        "image_url": "https://w.junreimap.com/images/points/174998/51i535ugh_1672368680139.jpg",
        "location": "",
        "point_id": "51i535ugh",
        "point_name": "京町商店街",
        "remark": "ユリオが虎トレーナに心惹かれていたアーケード商店街。アレンジが多いので完全一致の場所はないが、モデルとなっているのは疑いない。"
      },
      "type": "Feature"
    },
    {
      "geometry": {
        "coordinates": [
          129.969855,
          33.447028
        ],
        "type": "Point"
      },
      "properties": {
        "bangumi_id": 174998,
        "bangumi_title": "冰上的尤里",
        "ep_cut": "",
        "image_url": "https://w.junreimap.com/images/points/174998/51i535u15_1672368681088.jpg",
        "location": "",
        "point_id": "51i535u15",
        "point_name": "京町商店街 ポスター掲示場所",
        "remark": "「温泉 on ＩＣＥ」のポスターが貼ってあった場所"
      },
      "type": "Feature"
    },
    {
      "geometry": {
        "coordinates": [
          129.967479,
          33.446413
        ],
        "type": "Point"
      },
      "properties": {
        "bangumi_id": 174998,
        "bangumi_title": "冰上的尤里",
        "ep_cut": "",
        "image_url": "https://w.junreimap.com/images/points/174998/51i535utv_1672368682455.jpg",
        "location": "",
        "point_id": "51i535utv",
        "point_name": "唐津駅北口",
        "remark": "帰省した勇利とミナコさんが歩いていた場所。"
      },
      "type": "Feature"
    },
    {
      "geometry": {
        "coordinates": [
          129.967872,
          33.446665
        ],
        "type": "Point"
      },
      "properties": {
        "bangumi_id": 174998,
        "bangumi_title": "冰上的尤里",
        "ep_cut": "",
        "image_url": "https://w.junreimap.com/images/points/174998/51i535uli_1672368683817.jpg",
        "location": "",
        "point_id": "51i535uli",
        "point_name": "唐津曳山像 赤獅子",
        "remark": "唐津駅前にあるシンボル的な銅像。作中ではイカの様なオブジェに変わっている。"
      },
      "type": "Feature"
    },
    {
      "geometry": {
        "coordinates": [
          129.967991,
          33.446607
        ],
        "type": "Point"
      },
      "properties": {
        "bangumi_id": 174998,
        "bangumi_title": "冰上的尤里",
        "ep_cut": "",
        "image_url": "https://w.junreimap.com/images/points/174998/51i535v5n_1672368685203.jpg",
        "location": "",
        "point_id": "51i535v5n",
        "point_name": "唐津駅北口唐津焼曳山像撮影スポット",
        "remark": "イカに変更されているオブジェのオススメ撮影位置を知らせる陶板です。"
      },
      "type": "Feature"
    },
    {
      "geometry": {
        "coordinates": [
          129.971463,
          33.448014
        ],
        "type": "Point"
      },
      "properties": {
        "bangumi_id": 174998,
        "bangumi_title": "冰上的尤里",
        "ep_cut": "",
        "image_url": "https://w.junreimap.com/images/points/174998/51i535v45_1672368686041.jpg",
        "location": "",
        "point_id": "51i535v45",
        "point_name": "「スナック花中」のモデル",
        "remark": "スナック花中のモデル。内部が一致するかは未確認。"
      },
      "type": "Feature"
    },
    {
      "geometry": {
        "coordinates": [
          129.974098,
          33.454852
        ],
        "type": "Point"
      },
      "properties": {
        "bangumi_id": 174998,
        "bangumi_title": "冰上的尤里",
        "ep_cut": "",
        "image_url": "",
        "location": "",
        "point_id": "51i535v22",
        "point_name": "西ノ浜１",
        "remark": "勇利が夜、走っていたのは、前後のカットからもこの辺りの海岸沿いの舗装された通路と思われる。"
      },
      "type": "Feature"
    },
    {
      "geometry": {
        "coordinates": [
          129.975804,
          33.454583
        ],
        "type": "Point"
      },
      "properties": {
        "bangumi_id": 174998,
        "bangumi_title": "冰上的尤里",
        "ep_cut": "",
        "image_url": "https://w.junreimap.com/images/points/174998/51i535upq_1746374381576.jpg",
        "location": "",
        "point_id": "51i535upq",
        "point_name": "西ノ浜２",
        "remark": "勇利が夜走っていた海岸。奥に唐津城が見えていたころから、この辺りと思われる。"
      },
      "type": "Feature"
    },
    {
      "geometry": {
        "coordinates": [
          129.977768,
          33.45274
        ],
        "type": "Point"
      },
      "properties": {
        "bangumi_id": 174998,
        "bangumi_title": "冰上的尤里",
        "ep_cut": "",
        "image_url": "https://w.junreimap.com/images/points/174998/51i535vgo_1672368687798.jpg",
        "location": "",
        "point_id": "51i535vgo",
        "point_name": "唐津城 小田商店前",
        "remark": "軒先から駐車場側をみたカット。"
      },
      "type": "Feature"
    },
    {
      "geometry": {
        "coordinates": [
          129.978181,
          33.453567
        ],
        "type": "Point"
      },
      "properties": {
        "bangumi_id": 174998,
        "bangumi_title": "冰上的尤里",
        "ep_cut": "",
        "image_url": "https://w.junreimap.com/images/points/174998/51i535vo5_1672368688747.jpg",
        "location": "",
        "point_id": "51i535vo5",
        "point_name": "唐津城 天守閣",
        "remark": "長谷津城"
      },
      "type": "Feature"
    },
    {
      "geometry": {
        "coordinates": [
          129.978229,
          33.453303
        ],
        "type": "Point"
      },
      "properties": {
        "bangumi_id": 174998,
        "bangumi_title": "冰上的尤里",
        "ep_cut": "",
        "image_url": "https://w.junreimap.com/images/points/174998/51i535vll_1672368689688.jpg",
        "location": "",
        "point_id": "51i535vll",
        "point_name": "唐津城 二ノ丸",
        "remark": "ヴィクトルが記念撮影していた場所。"
      },
      "type": "Feature"
    },
    {
      "geometry": {
        "coordinates": [
          129.979656,
          33.451639
        ],
        "type": "Point"
      },
      "properties": {
        "bangumi_id": 174998,
        "bangumi_title": "冰上的尤里",
        "ep_cut": "",
        "image_url": "https://w.junreimap.com/images/points/174998/51i535vow_1672368690975.jpg",
        "location": "",
        "point_id": "51i535vow",
        "point_name": "舞鶴橋１",
        "remark": ""
      },
      "type": "Feature"
    },
    {
      "geometry": {
        "coordinates": [
          129.978685,
          33.452019
        ],
        "type": "Point"
      },
      "properties": {
        "bangumi_id": 174998,
        "bangumi_title": "冰上的尤里",
        "ep_cut": "",
        "image_url": "https://w.junreimap.com/images/points/174998/51i535vsu_1672368692158.jpg",
        "location": "",
        "point_id": "51i535vsu",
        "point_name": "舞鶴橋２",
        "remark": ""
      },
      "type": "Feature"
    },
    {
      "geometry": {
        "coordinates": [
          129.980621,
          33.451137
        ],
        "type": "Point"
      },
      "properties": {
        "bangumi_id": 174998,
        "bangumi_title": "冰上的尤里",
        "ep_cut": "",
        "image_url": "https://w.junreimap.com/images/points/174998/51i535vkp_1672368693526.jpg",
        "location": "",
        "point_id": "51i535vkp",
        "point_name": "舞鶴橋３",
        "remark": ""
      },
      "type": "Feature"
    },
    {
      "geometry": {
        "coordinates": [
          130.017279,
          33.436504
        ],
        "type": "Point"
      },
      "properties": {
        "bangumi_id": 174998,
        "bangumi_title": "冰上的尤里",
        "ep_cut": "",
        "image_url": "https://w.junreimap.com/images/points/174998/51i535vbc_1672368695263.jpg",
        "location": "",
        "point_id": "51i535vbc",
        "point_name": "鏡山温泉美人の湯１",
        "remark": "「ゆーとぴあ かつき」のモデル"
      },
      "type": "Feature"
    },
    {
      "geometry": {
        "coordinates": [
          130.017294,
          33.436838
        ],
        "type": "Point"
      },
      "properties": {
        "bangumi_id": 174998,
        "bangumi_title": "冰上的尤里",
        "ep_cut": "",
        "image_url": "https://w.junreimap.com/images/points/174998/51i535vz5_1672368696657.jpg",
        "location": "",
        "point_id": "51i535vz5",
        "point_name": "鏡山温泉美人の湯２",
        "remark": ""
      },
      "type": "Feature"
    },
    {
      "geometry": {
        "coordinates": [
          130.034833,
          33.450547
        ],
        "type": "Point"
      },
      "properties": {
        "bangumi_id": 174998,
        "bangumi_title": "冰上的尤里",
        "ep_cut": "",
        "image_url": "https://w.junreimap.com/images/points/174998/51i535vtd_1672368698057.jpg",
        "location": "",
        "point_id": "51i535vtd",
        "point_name": "虹ノ松原　浜崎海岸",
        "remark": "ヴィクトルと勇利が座って語り合っていた浜辺。具体的な位置までは言えないが、海岸の様子を見る限り、虹の松原海岸のどこかと思われる。"
      },
      "type": "Feature"
    },
    {
      "geometry": {
        "coordinates": [
          130.035429,
          33.450775
        ],
        "type": "Point"
      },
      "properties": {
        "bangumi_id": 174998,
        "bangumi_title": "冰上的尤里",
        "ep_cut": "",
        "image_url": "https://w.junreimap.com/images/points/174998/51i535vvh_1672368699675.jpg",
        "location": "",
        "point_id": "51i535vvh",
        "point_name": "虹ノ松原 浜崎海岸無料シャワー",
        "remark": "ＥＤでヴィクトルと勇利がシャワーを浴びている場所。もう少し東にもう１か所同様のシャワーあり。"
      },
      "type": "Feature"
    },
    {
      "geometry": {
        "coordinates": [
          129.902076,
          33.287194
        ],
        "type": "Point"
      },
      "properties": {
        "bangumi_id": 174998,
        "bangumi_title": "冰上的尤里",
        "ep_cut": "",
        "image_url": "https://w.junreimap.com/images/points/174998/51i535vo4_1746374962596.jpg",
        "location": "",
        "point_id": "51i535vo4",
        "point_name": "ドライブイン鳥",
        "remark": "唐津ではなく、伊万里市にある焼き鳥店「ドライブイン 鳥」。串ではなく網でセルフ焼きのスタイル。伊万里市民のソウルフードとのこと。"
      },
      "type": "Feature"
    },
    {
      "geometry": {
        "coordinates": [
          130.705718,
          33.643983
        ],
        "type": "Point"
      },
      "properties": {
        "bangumi_id": 174998,
        "bangumi_title": "冰上的尤里",
        "ep_cut": "",
        "image_url": "https://w.junreimap.com/images/points/174998/51i535vdv_1746374500037.jpg",
        "location": "",
        "point_id": "51i535vdv",
        "point_name": "飯塚アイスパレス",
        "remark": "劇中では「アイスキャッスル」。"
      },
      "type": "Feature"
    },
    {
      "geometry": {
        "coordinates": [
          133.926907,
          34.642455
        ],
        "type": "Point"
      },
      "properties": {
        "bangumi_id": 174998,
        "bangumi_title": "冰上的尤里",
        "ep_cut": "第五集",
        "image_url": "https://w.junreimap.com/images/user/0/bangumi/174998/points/51i535w0i-1728961003403.jpg",
        "location": "",
        "point_id": "51i535w0i",
        "point_name": "岡山国際スケートリンク",
        "remark": "5話に登場した中四国九州選手権大会の会場となった場所。"
      },
      "type": "Feature"
    },
    {
      "geometry": {
        "coordinates": [
          39.958371,
          43.407414
        ],
        "type": "Point"
      },
      "properties": {
        "bangumi_id": 174998,
        "bangumi_title": "冰上的尤里",
        "ep_cut": 1,
        "image_url": "https://w.junreimap.com/images/user/0/bangumi/174998/points/891nma926-1681421030548.jpg",
        "location": "海外",
        "point_id": "891nma926",
        "point_name": "アイスバーグ・スケート・パレス",
        "remark": "第1话开头的比赛地"
      },
      "type": "Feature"
    },
    {
      "geometry": {
        "coordinates": [
          100.595998,
          13.650314
        ],
        "type": "Point"
      },
      "properties": {
        "bangumi_id": 174998,
        "bangumi_title": "冰上的尤里",
        "ep_cut": 1,
        "image_url": "https://w.junreimap.com/images/user/0/bangumi/174998/points/8927fa98e-1681422262601.jpg",
        "location": "海外",
        "point_id": "8927fa98e",
        "point_name": "Imperial World Samrong",
        "remark": "披集出场时训练冰场的所在地"
      },
      "type": "Feature"
    },
    {
      "geometry": {
        "coordinates": [
          139.69924,
          35.667207
        ],
        "type": "Point"
      },
      "properties": {
        "bangumi_id": 174998,
        "bangumi_title": "冰上的尤里",
        "ep_cut": 1,
        "image_url": "https://w.junreimap.com/images/user/0/bangumi/174998/points/jvbl7lkf5-1714198924786.jpg",
        "location": "",
        "point_id": "jvbl7lkf5",
        "point_name": "国立代々木競技場 ",
        "remark": ""
      },
      "type": "Feature"
    },
    {
      "geometry": {
        "coordinates": [
          139.699938,
          35.667756
        ],
        "type": "Point"
      },
      "properties": {
        "bangumi_id": 174998,
        "bangumi_title": "冰上的尤里",
        "ep_cut": 1,
        "image_url": "https://w.junreimap.com/images/user/0/bangumi/174998/points/51i535vq0-1714193646813.jpg",
        "location": "",
        "point_id": "51i535vq0",
        "point_name": "国立代々木競技場",
        "remark": "1話に登場。"
      },
      "type": "Feature"
    },
    {
      "geometry": {
        "coordinates": [
          11.255534,
          43.773133
        ],
        "type": "Point"
      },
      "properties": {
        "bangumi_id": 174998,
        "bangumi_title": "冰上的尤里",
        "ep_cut": 1,
        "image_url": "https://w.junreimap.com/images/user/0/bangumi/174998/points/897gy66ek-1681433722938.jpg",
        "location": "海外",
        "point_id": "897gy66ek",
        "point_name": "Santa Maria del Fiore",
        "remark": "ED01"
      },
      "type": "Feature"
    },
    {
      "geometry": {
        "coordinates": [
          103.854288,
          1.294909
        ],
        "type": "Point"
      },
      "properties": {
        "bangumi_id": 174998,
        "bangumi_title": "冰上的尤里",
        "ep_cut": 1,
        "image_url": "https://w.junreimap.com/images/user/0/bangumi/174998/points/89866yndf-1681435215534.jpg",
        "location": "海外",
        "point_id": "89866yndf",
        "point_name": "ラッフルズ・ホテル",
        "remark": "ED01"
      },
      "type": "Feature"
    },
    {
      "geometry": {
        "coordinates": [
          76.94557,
          43.250877
        ],
        "type": "Point"
      },
      "properties": {
        "bangumi_id": 174998,
        "bangumi_title": "冰上的尤里",
        "ep_cut": 1,
        "image_url": "https://w.junreimap.com/images/user/0/bangumi/174998/points/897xo09zy-1681434935411.jpg",
        "location": "海外",
        "point_id": "897xo09zy",
        "point_name": "ст.Алмалы",
        "remark": "ED01"
      },
      "type": "Feature"
    },
    {
      "geometry": {
        "coordinates": [
          30.332206,
          59.938485
        ],
        "type": "Point"
      },
      "properties": {
        "bangumi_id": 174998,
        "bangumi_title": "冰上的尤里",
        "ep_cut": 1,
        "image_url": "https://w.junreimap.com/images/user/0/bangumi/174998/points/897nucs5s-1681434127607.jpg",
        "location": "海外",
        "point_id": "897nucs5s",
        "point_name": "Государственный Русский Музей",
        "remark": "ED01"
      },
      "type": "Feature"
    },
    {
      "geometry": {
        "coordinates": [
          45.1908,
          54.17768
        ],
        "type": "Point"
      },
      "properties": {
        "bangumi_id": 174998,
        "bangumi_title": "冰上的尤里",
        "ep_cut": 2,
        "image_url": "https://w.junreimap.com/images/user/0/bangumi/174998/points/8942kjfvr-1681426334022.jpg",
        "location": "海外",
        "point_id": "8942kjfvr",
        "point_name": "Ледовый дворец",
        "remark": "第2话尤里的训练基地"
      },
      "type": "Feature"
    },
    {
      "geometry": {
        "coordinates": [
          37.540559,
          55.795033
        ],
        "type": "Point"
      },
      "properties": {
        "bangumi_id": 174998,
        "bangumi_title": "冰上的尤里",
        "ep_cut": 4,
        "image_url": "https://w.junreimap.com/images/user/0/bangumi/174998/points/893tyokk8-1681425944717.jpg",
        "location": "海外",
        "point_id": "893tyokk8",
        "point_name": "CSKA Бассейн",
        "remark": "第4话尤里训练基地的外形原型"
      },
      "type": "Feature"
    },
    {
      "geometry": {
        "coordinates": [
          30.285552,
          59.948856
        ],
        "type": "Point"
      },
      "properties": {
        "bangumi_id": 174998,
        "bangumi_title": "冰上的尤里",
        "ep_cut": 4,
        "image_url": "https://w.junreimap.com/images/user/0/bangumi/174998/points/8939k5jbo-1681424713574.jpg",
        "location": "海外",
        "point_id": "8939k5jbo",
        "point_name": "Тучков мост",
        "remark": "第4话尤里训练基地旁边的河桥，横跨小涅瓦河"
      },
      "type": "Feature"
    },
    {
      "geometry": {
        "coordinates": [
          -83.291513,
          42.607511
        ],
        "type": "Point"
      },
      "properties": {
        "bangumi_id": 174998,
        "bangumi_title": "冰上的尤里",
        "ep_cut": 4,
        "image_url": "https://w.junreimap.com/images/user/0/bangumi/174998/points/89591cxqi-1681428902957.jpg",
        "location": "海外",
        "point_id": "89591cxqi",
        "point_name": "Detroit Skating Club",
        "remark": "勇利曾经在美国的训练基地"
      },
      "type": "Feature"
    },
    {
      "geometry": {
        "coordinates": [
          116.321171,
          39.938816
        ],
        "type": "Point"
      },
      "properties": {
        "bangumi_id": 174998,
        "bangumi_title": "冰上的尤里",
        "ep_cut": 6,
        "image_url": "https://w.junreimap.com/images/user/0/bangumi/174998/points/892fwf5lu-1681422768973.jpg",
        "location": "海外",
        "point_id": "892fwf5lu",
        "point_name": "首都体育馆",
        "remark": "第6话勇利一行赴中国比赛的场地"
      },
      "type": "Feature"
    },
    {
      "geometry": {
        "coordinates": [
          37.400388,
          55.975479
        ],
        "type": "Point"
      },
      "properties": {
        "bangumi_id": 174998,
        "bangumi_title": "冰上的尤里",
        "ep_cut": 8,
        "image_url": "https://w.junreimap.com/images/user/0/bangumi/174998/points/892mu8mdl-1681423138820.jpg",
        "location": "海外",
        "point_id": "892mu8mdl",
        "point_name": "シェレメーチエヴォ​国際​空港",
        "remark": "莫斯科的国际交通枢纽，第8话出现"
      },
      "type": "Feature"
    },
    {
      "geometry": {
        "coordinates": [
          37.546607,
          55.790332
        ],
        "type": "Point"
      },
      "properties": {
        "bangumi_id": 174998,
        "bangumi_title": "冰上的尤里",
        "ep_cut": 8,
        "image_url": "https://w.junreimap.com/images/user/0/bangumi/174998/points/892v71qkg-1681423674030.jpg",
        "location": "海外",
        "point_id": "892v71qkg",
        "point_name": "Aerostar Hotel",
        "remark": "第8话各国花滑运动员赴莫斯科比赛的下榻处"
      },
      "type": "Feature"
    },
    {
      "geometry": {
        "coordinates": [
          37.549303,
          55.718306
        ],
        "type": "Point"
      },
      "properties": {
        "bangumi_id": 174998,
        "bangumi_title": "冰上的尤里",
        "ep_cut": 8,
        "image_url": "https://w.junreimap.com/images/user/0/bangumi/174998/points/8932i0gpd-1681424199312.jpg",
        "location": "海外",
        "point_id": "8932i0gpd",
        "point_name": "Лужники Малая спортивная арена",
        "remark": "第8话花滑大赛俄罗斯站的比赛场地"
      },
      "type": "Feature"
    },
    {
      "geometry": {
        "coordinates": [
          14.218188,
          40.828046
        ],
        "type": "Point"
      },
      "properties": {
        "bangumi_id": 174998,
        "bangumi_title": "冰上的尤里",
        "ep_cut": 9,
        "image_url": "https://w.junreimap.com/images/user/0/bangumi/174998/points/894nj1i3o-1681427781420.jpg",
        "location": "海外",
        "point_id": "894nj1i3o",
        "point_name": "Belvedere di Sant'Antonio a Posillipo",
        "remark": "第9话意大利花滑兄妹告别的场景，山下是那波利湾"
      },
      "type": "Feature"
    },
    {
      "geometry": {
        "coordinates": [
          2.218592,
          41.410853
        ],
        "type": "Point"
      },
      "properties": {
        "bangumi_id": 174998,
        "bangumi_title": "冰上的尤里",
        "ep_cut": 10,
        "image_url": "https://w.junreimap.com/images/user/0/bangumi/174998/points/895gwa5f0-1681429360279.jpg",
        "location": "海外",
        "point_id": "895gwa5f0",
        "point_name": "Hotel Barcelona Princess",
        "remark": "第10话勇利一行人赴西班牙比赛的下榻处"
      },
      "type": "Feature"
    },
    {
      "geometry": {
        "coordinates": [
          2.174403,
          41.403477
        ],
        "type": "Point"
      },
      "properties": {
        "bangumi_id": 174998,
        "bangumi_title": "冰上的尤里",
        "ep_cut": 10,
        "image_url": "https://w.junreimap.com/images/user/0/bangumi/174998/points/895rfirwo-1681429946103.jpg",
        "location": "海外",
        "point_id": "895rfirwo",
        "point_name": "サグラダ・ファミリア",
        "remark": ""
      },
      "type": "Feature"
    },
    {
      "geometry": {
        "coordinates": [
          2.1528,
          41.413731
        ],
        "type": "Point"
      },
      "properties": {
        "bangumi_id": 174998,
        "bangumi_title": "冰上的尤里",
        "ep_cut": 10,
        "image_url": "https://w.junreimap.com/images/user/0/bangumi/174998/points/8967dqsto-1681430954523.jpg",
        "location": "海外",
        "point_id": "8967dqsto",
        "point_name": "Park Guell",
        "remark": ""
      },
      "type": "Feature"
    },
    {
      "geometry": {
        "coordinates": [
          2.153629,
          41.368346
        ],
        "type": "Point"
      },
      "properties": {
        "bangumi_id": 174998,
        "bangumi_title": "冰上的尤里",
        "ep_cut": 10,
        "image_url": "https://w.junreimap.com/images/user/0/bangumi/174998/points/896rs0xks-1681432149509.jpg",
        "location": "海外",
        "point_id": "896rs0xks",
        "point_name": "カタルーニャ美術館",
        "remark": ""
      },
      "type": "Feature"
    },
    {
      "geometry": {
        "coordinates": [
          2.152681,
          41.413821
        ],
        "type": "Point"
      },
      "properties": {
        "bangumi_id": 174998,
        "bangumi_title": "冰上的尤里",
        "ep_cut": 10,
        "image_url": "https://w.junreimap.com/images/user/0/bangumi/174998/points/896c96mbz-1681431228328.jpg",
        "location": "海外",
        "point_id": "896c96mbz",
        "point_name": "Park Guell",
        "remark": ""
      },
      "type": "Feature"
    },
    {
      "geometry": {
        "coordinates": [
          2.17581,
          41.384639
        ],
        "type": "Point"
      },
      "properties": {
        "bangumi_id": 174998,
        "bangumi_title": "冰上的尤里",
        "ep_cut": 10,
        "image_url": "https://w.junreimap.com/images/user/0/bangumi/174998/points/896xqtibc-1681432562977.jpg",
        "location": "海外",
        "point_id": "896xqtibc",
        "point_name": "Fira de Santa Llúcia",
        "remark": ""
      },
      "type": "Feature"
    },
    {
      "geometry": {
        "coordinates": [
          2.176384,
          41.383917
        ],
        "type": "Point"
      },
      "properties": {
        "bangumi_id": 174998,
        "bangumi_title": "冰上的尤里",
        "ep_cut": 10,
        "image_url": "https://w.junreimap.com/images/user/0/bangumi/174998/points/8971ajlj2-1681432718034.jpg",
        "location": "海外",
        "point_id": "8971ajlj2",
        "point_name": "Cathedral of Santa Eulalia",
        "remark": ""
      },
      "type": "Feature"
    },
    {
      "geometry": {
        "coordinates": [
          2.172403,
          41.3861
        ],
        "type": "Point"
      },
      "properties": {
        "bangumi_id": 174998,
        "bangumi_title": "冰上的尤里",
        "ep_cut": 10,
        "image_url": "https://w.junreimap.com/images/user/0/bangumi/174998/points/897b9y97h-1681433386181.jpg",
        "location": "海外",
        "point_id": "897b9y97h",
        "point_name": "Portal De l'Angel",
        "remark": ""
      },
      "type": "Feature"
    }
  ],
  "type": "FeatureCollection"
}