{
  "features": [
    {
      "geometry": {
        "coordinates": [
          139.702909,
          35.658486
        ],
        "type": "Point"
      },
      "properties": {
        "bangumi_id": 1773,
        "bangumi_title": "死亡笔记",
        "ep_cut": 1,
        "image_url": "https://w.junreimap.com/images/points/1773/kysm1rtng_1717292592086.jpg",
        "location": "",
        "point_id": "kysm1rtng",
        "point_name": "渋谷駅東口バス停",
        "remark": "左侧建筑物现已改建为大楼。"
      },
      "type": "Feature"
    },
    {
      "geometry": {
        "coordinates": [
          139.701157,
          35.659289
        ],
        "type": "Point"
      },
      "properties": {
        "bangumi_id": 1773,
        "bangumi_title": "死亡笔记",
        "ep_cut": 1,
        "image_url": "https://w.junreimap.com/images/points/1773/kysocn6vl_1717292592804.jpg",
        "location": "",
        "point_id": "kysocn6vl",
        "point_name": "渋谷スクランブル交差点（京王井の頭線とJR線の連絡通路から撮影）",
        "remark": ""
      },
      "type": "Feature"
    },
    {
      "geometry": {
        "coordinates": [
          139.700928,
          35.659591
        ],
        "type": "Point"
      },
      "properties": {
        "bangumi_id": 1773,
        "bangumi_title": "死亡笔记",
        "ep_cut": 1,
        "image_url": "https://w.junreimap.com/images/points/1773/kysqvnw6u_1717292593421.jpg",
        "location": "",
        "point_id": "kysqvnw6u",
        "point_name": "109フォーラムビジョン",
        "remark": ""
      },
      "type": "Feature"
    },
    {
      "geometry": {
        "coordinates": [
          139.698666,
          35.690177
        ],
        "type": "Point"
      },
      "properties": {
        "bangumi_id": 1773,
        "bangumi_title": "死亡笔记",
        "ep_cut": 5,
        "image_url": "https://w.junreimap.com/images/points/1773/kysrjrtdr_1717292594265.jpg",
        "location": "",
        "point_id": "kysrjrtdr",
        "point_name": "小田急エース 南館",
        "remark": ""
      },
      "type": "Feature"
    },
    {
      "geometry": {
        "coordinates": [
          139.698494,
          35.690418
        ],
        "type": "Point"
      },
      "properties": {
        "bangumi_id": 1773,
        "bangumi_title": "死亡笔记",
        "ep_cut": 5,
        "image_url": "https://w.junreimap.com/images/points/1773/kystg6qdl_1717292594983.jpg",
        "location": "",
        "point_id": "kystg6qdl",
        "point_name": "ロッテリア 新宿小田急エース",
        "remark": ""
      },
      "type": "Feature"
    },
    {
      "geometry": {
        "coordinates": [
          139.699148,
          35.690239
        ],
        "type": "Point"
      },
      "properties": {
        "bangumi_id": 1773,
        "bangumi_title": "死亡笔记",
        "ep_cut": 5,
        "image_url": "https://w.junreimap.com/images/points/1773/kysspl28c_1717292595690.jpg",
        "location": "",
        "point_id": "kysspl28c",
        "point_name": "とんかつ新宿さぼてん 本店小田急エース南館店",
        "remark": ""
      },
      "type": "Feature"
    },
    {
      "geometry": {
        "coordinates": [
          139.757584,
          35.672472
        ],
        "type": "Point"
      },
      "properties": {
        "bangumi_id": 1773,
        "bangumi_title": "死亡笔记",
        "ep_cut": 5,
        "image_url": "https://w.junreimap.com/images/points/1773/fc7fc4b0_1717290038537.jpg",
        "location": "",
        "point_id": "fc7fc4b0",
        "point_name": "帝国ホテル",
        "remark": "搜查本部"
      },
      "type": "Feature"
    },
    {
      "geometry": {
        "coordinates": [
          139.751177,
          35.675324
        ],
        "type": "Point"
      },
      "properties": {
        "bangumi_id": 1773,
        "bangumi_title": "死亡笔记",
        "ep_cut": 6,
        "image_url": "https://w.junreimap.com/images/user/0/bangumi/1773/points/bi45aipxs-1690595077309.jpg",
        "location": "",
        "point_id": "bi45aipxs",
        "point_name": "中央合同庁舎第2号館 警察庁・国家公安委員会",
        "remark": ""
      },
      "type": "Feature"
    },
    {
      "geometry": {
        "coordinates": [
          139.751308,
          35.674886
        ],
        "type": "Point"
      },
      "properties": {
        "bangumi_id": 1773,
        "bangumi_title": "死亡笔记",
        "ep_cut": 6,
        "image_url": "https://w.junreimap.com/images/points/1773/ff3d9fc6_1717290017354.jpg",
        "location": "",
        "point_id": "ff3d9fc6",
        "point_name": "中央合同庁舎第2号館 交差点角",
        "remark": ""
      },
      "type": "Feature"
    },
    {
      "geometry": {
        "coordinates": [
          139.751368,
          35.674765
        ],
        "type": "Point"
      },
      "properties": {
        "bangumi_id": 1773,
        "bangumi_title": "死亡笔记",
        "ep_cut": 6,
        "image_url": "https://w.junreimap.com/images/points/1773/kyrez73i6_1717290019997.jpg",
        "location": "",
        "point_id": "kyrez73i6",
        "point_name": "霞が関1丁目交差点から東京高等裁判所",
        "remark": ""
      },
      "type": "Feature"
    },
    {
      "geometry": {
        "coordinates": [
          139.750321,
          35.673369
        ],
        "type": "Point"
      },
      "properties": {
        "bangumi_id": 1773,
        "bangumi_title": "死亡笔记",
        "ep_cut": 6,
        "image_url": "https://w.junreimap.com/images/points/1773/eb3c805e_1717290022224.jpg",
        "location": "",
        "point_id": "eb3c805e",
        "point_name": "霞が関2丁目交差点",
        "remark": ""
      },
      "type": "Feature"
    },
    {
      "geometry": {
        "coordinates": [
          139.750746,
          35.673174
        ],
        "type": "Point"
      },
      "properties": {
        "bangumi_id": 1773,
        "bangumi_title": "死亡笔记",
        "ep_cut": 6,
        "image_url": "https://w.junreimap.com/images/points/1773/kyrapvggm_1717290023746.jpg",
        "location": "",
        "point_id": "kyrapvggm",
        "point_name": "霞が関2丁目交差点から経済産業省庁舎",
        "remark": ""
      },
      "type": "Feature"
    },
    {
      "geometry": {
        "coordinates": [
          139.751759,
          35.672716
        ],
        "type": "Point"
      },
      "properties": {
        "bangumi_id": 1773,
        "bangumi_title": "死亡笔记",
        "ep_cut": 6,
        "image_url": "https://w.junreimap.com/images/points/1773/3c46171c_1717290027847.jpg",
        "location": "",
        "point_id": "3c46171c",
        "point_name": "中央合同庁舎第1号館水産庁前",
        "remark": ""
      },
      "type": "Feature"
    },
    {
      "geometry": {
        "coordinates": [
          139.751943,
          35.672568
        ],
        "type": "Point"
      },
      "properties": {
        "bangumi_id": 1773,
        "bangumi_title": "死亡笔记",
        "ep_cut": 6,
        "image_url": "https://w.junreimap.com/images/points/1773/kyr4p9muu_1717290030841.jpg",
        "location": "",
        "point_id": "kyr4p9muu",
        "point_name": "都バス23区の「経済産業省前」バス停留所",
        "remark": ""
      },
      "type": "Feature"
    },
    {
      "geometry": {
        "coordinates": [
          139.752563,
          35.672419
        ],
        "type": "Point"
      },
      "properties": {
        "bangumi_id": 1773,
        "bangumi_title": "死亡笔记",
        "ep_cut": 6,
        "image_url": "https://w.junreimap.com/images/points/1773/9bfcd22c_1717290032840.jpg",
        "location": "",
        "point_id": "9bfcd22c",
        "point_name": "中央合同庁舎第5号館別館前",
        "remark": ""
      },
      "type": "Feature"
    },
    {
      "geometry": {
        "coordinates": [
          139.752861,
          35.67204
        ],
        "type": "Point"
      },
      "properties": {
        "bangumi_id": 1773,
        "bangumi_title": "死亡笔记",
        "ep_cut": 6,
        "image_url": "https://w.junreimap.com/images/points/1773/kyritswm6_1717290034335.jpg",
        "location": "",
        "point_id": "kyritswm6",
        "point_name": "西幸門前交差点",
        "remark": ""
      },
      "type": "Feature"
    },
    {
      "geometry": {
        "coordinates": [
          139.753336,
          35.672193
        ],
        "type": "Point"
      },
      "properties": {
        "bangumi_id": 1773,
        "bangumi_title": "死亡笔记",
        "ep_cut": 6,
        "image_url": "https://w.junreimap.com/images/points/1773/ed1e4896_1717290036728.jpg",
        "location": "",
        "point_id": "ed1e4896",
        "point_name": "日比谷公園 カモメの噴水",
        "remark": ""
      },
      "type": "Feature"
    },
    {
      "geometry": {
        "coordinates": [
          139.751434,
          35.674707
        ],
        "type": "Point"
      },
      "properties": {
        "bangumi_id": 1773,
        "bangumi_title": "死亡笔记",
        "ep_cut": 6,
        "image_url": "https://w.junreimap.com/images/points/1773/kyrmka9s7_1717290039598.jpg",
        "location": "",
        "point_id": "bi478z6xv",
        "point_name": "霞ケ関駅A2出入口",
        "remark": ""
      },
      "type": "Feature"
    },
    {
      "geometry": {
        "coordinates": [
          139.759393,
          35.712896
        ],
        "type": "Point"
      },
      "properties": {
        "bangumi_id": 1773,
        "bangumi_title": "死亡笔记",
        "ep_cut": 9,
        "image_url": "https://w.junreimap.com/images/points/1773/kyrt5q2np_1717292597724.jpg",
        "location": "",
        "point_id": "kyrt5q2np",
        "point_name": "東京大学正門前",
        "remark": ""
      },
      "type": "Feature"
    },
    {
      "geometry": {
        "coordinates": [
          139.703025,
          35.671572
        ],
        "type": "Point"
      },
      "properties": {
        "bangumi_id": 1773,
        "bangumi_title": "死亡笔记",
        "ep_cut": 11,
        "image_url": "https://w.junreimap.com/images/points/1773/kyrtqoizc_1717292599044.jpg",
        "location": "",
        "point_id": "kyrtqoizc",
        "point_name": "竹下通り",
        "remark": ""
      },
      "type": "Feature"
    },
    {
      "geometry": {
        "coordinates": [
          139.70494,
          35.671249
        ],
        "type": "Point"
      },
      "properties": {
        "bangumi_id": 1773,
        "bangumi_title": "死亡笔记",
        "ep_cut": 11,
        "image_url": "https://w.junreimap.com/images/points/1773/kysfe7y02_1717292600454.jpg",
        "location": "",
        "point_id": "kysfe7y02",
        "point_name": "マリオンクレープ 原宿竹下通り店",
        "remark": ""
      },
      "type": "Feature"
    },
    {
      "geometry": {
        "coordinates": [
          139.721008,
          35.671834
        ],
        "type": "Point"
      },
      "properties": {
        "bangumi_id": 1773,
        "bangumi_title": "死亡笔记",
        "ep_cut": 13,
        "image_url": "https://w.junreimap.com/images/points/1773/kyrujyi59_1717292601728.jpg",
        "location": "",
        "point_id": "kyrujyi59",
        "point_name": "神宮外苑銀杏並木",
        "remark": ""
      },
      "type": "Feature"
    },
    {
      "geometry": {
        "coordinates": [
          139.708058,
          35.661738
        ],
        "type": "Point"
      },
      "properties": {
        "bangumi_id": 1773,
        "bangumi_title": "死亡笔记",
        "ep_cut": 13,
        "image_url": "https://w.junreimap.com/images/points/1773/kyrvikeoc_1717292602774.jpg",
        "location": "",
        "point_id": "kyrvikeoc",
        "point_name": "こどもの樹",
        "remark": ""
      },
      "type": "Feature"
    },
    {
      "geometry": {
        "coordinates": [
          139.709535,
          35.66117
        ],
        "type": "Point"
      },
      "properties": {
        "bangumi_id": 1773,
        "bangumi_title": "死亡笔记",
        "ep_cut": 13,
        "image_url": "https://w.junreimap.com/images/points/1773/kyryfvf4q_1717292603925.jpg",
        "location": "",
        "point_id": "kyryfvf4q",
        "point_name": "青山学院大学",
        "remark": ""
      },
      "type": "Feature"
    },
    {
      "geometry": {
        "coordinates": [
          139.716216,
          35.661197
        ],
        "type": "Point"
      },
      "properties": {
        "bangumi_id": 1773,
        "bangumi_title": "死亡笔记",
        "ep_cut": 13,
        "image_url": "https://w.junreimap.com/images/points/1773/kyryprv1g_1717292605164.jpg",
        "location": "",
        "point_id": "kyryprv1g",
        "point_name": "BLUE NOTE TOKYO",
        "remark": ""
      },
      "type": "Feature"
    },
    {
      "geometry": {
        "coordinates": [
          139.693782,
          35.454712
        ],
        "type": "Point"
      },
      "properties": {
        "bangumi_id": 1773,
        "bangumi_title": "死亡笔记",
        "ep_cut": 37,
        "image_url": "https://w.junreimap.com/images/user/0/bangumi/1773/points/kys1i5r9b-1724728012344.jpg",
        "location": "",
        "point_id": "kys1i5r9b",
        "point_name": "大黒埠頭",
        "remark": "夜神月死亡之地为大黑埠头东南侧YB仓库。"
      },
      "type": "Feature"
    }
  ],
  "type": "FeatureCollection"
}