{
  "features": [
    {
      "geometry": {
        "coordinates": [
          135.190711,
          34.694737
        ],
        "type": "Point"
      },
      "properties": {
        "bangumi_id": 180931,
        "bangumi_title": "千恋万花",
        "ep_cut": "CHAPTER 1-1",
        "image_url": "https://w.junreimap.com/images/user/1115/bangumi/180931/points/ign12un60-1718537388475.jpg",
        "location": "神户",
        "point_id": "ign12un60",
        "point_name": "いくたじんじゃ",
        "remark": ""
      },
      "type": "Feature"
    },
    {
      "geometry": {
        "coordinates": [
          135.254505,
          34.72733
        ],
        "type": "Point"
      },
      "properties": {
        "bangumi_id": 180931,
        "bangumi_title": "千恋万花",
        "ep_cut": "",
        "image_url": "https://w.junreimap.com/images/user/1073/bangumi/180931/points/k5hbgrwpx-1714995011924.jpg",
        "location": "神户",
        "point_id": "k5hbgrwpx",
        "point_name": "蘇州​園",
        "remark": "外公的宾馆，原型是高级酒店"
      },
      "type": "Feature"
    },
    {
      "geometry": {
        "coordinates": [
          135.774962,
          35.003148
        ],
        "type": "Point"
      },
      "properties": {
        "bangumi_id": 180931,
        "bangumi_title": "千恋万花",
        "ep_cut": "",
        "image_url": "https://w.junreimap.com/images/points/180931/ipq92xwva_1714994048191.jpg",
        "location": "京都",
        "point_id": "ipq92xwva",
        "point_name": "花見小路通",
        "remark": "馬庭芦花点心店"
      },
      "type": "Feature"
    },
    {
      "geometry": {
        "coordinates": [
          135.773119,
          35.005394
        ],
        "type": "Point"
      },
      "properties": {
        "bangumi_id": 180931,
        "bangumi_title": "千恋万花",
        "ep_cut": "",
        "image_url": "https://w.junreimap.com/images/points/180931/ipqdt8rt5_1714994031727.jpg",
        "location": "京都",
        "point_id": "ipqdt8rt5",
        "point_name": "白川南通",
        "remark": "常陆茉子险些被车撞到的地方"
      },
      "type": "Feature"
    },
    {
      "geometry": {
        "coordinates": [
          135.780697,
          34.998021
        ],
        "type": "Point"
      },
      "properties": {
        "bangumi_id": 180931,
        "bangumi_title": "千恋万花",
        "ep_cut": "",
        "image_url": "https://w.junreimap.com/images/points/180931/ipqelanne_1732809840462.jpg",
        "location": "京都",
        "point_id": "ipqelanne",
        "point_name": "二年坂",
        "remark": ""
      },
      "type": "Feature"
    },
    {
      "geometry": {
        "coordinates": [
          135.780866,
          35.016347
        ],
        "type": "Point"
      },
      "properties": {
        "bangumi_id": 180931,
        "bangumi_title": "千恋万花",
        "ep_cut": "",
        "image_url": "https://w.junreimap.com/images/user/0/bangumi/180931/points/ipqi0ktki-1722938886766.jpg",
        "location": "京都",
        "point_id": "ipqi0ktki",
        "point_name": "旧武徳殿",
        "remark": "学校"
      },
      "type": "Feature"
    },
    {
      "geometry": {
        "coordinates": [
          135.787897,
          35.018709
        ],
        "type": "Point"
      },
      "properties": {
        "bangumi_id": 180931,
        "bangumi_title": "千恋万花",
        "ep_cut": "",
        "image_url": "https://w.junreimap.com/images/points/180931/ipqjtzcb4_1714994012141.jpg",
        "location": "京都",
        "point_id": "ipqjtzcb4",
        "point_name": "金戒光明寺",
        "remark": "上学小路"
      },
      "type": "Feature"
    },
    {
      "geometry": {
        "coordinates": [
          135.781032,
          34.997634
        ],
        "type": "Point"
      },
      "properties": {
        "bangumi_id": 180931,
        "bangumi_title": "千恋万花",
        "ep_cut": "",
        "image_url": "https://w.junreimap.com/images/points/180931/ipqf61txx_1732809829624.jpg",
        "location": "京都",
        "point_id": "ipqf61txx",
        "point_name": "三年坂",
        "remark": ""
      },
      "type": "Feature"
    },
    {
      "geometry": {
        "coordinates": [
          135.786934,
          35.026195
        ],
        "type": "Point"
      },
      "properties": {
        "bangumi_id": 180931,
        "bangumi_title": "千恋万花",
        "ep_cut": "",
        "image_url": "https://w.junreimap.com/images/points/180931/ipqlhwko0_1714994393446.jpg",
        "location": "京都",
        "point_id": "ipqlhwko0",
        "point_name": "吉田山",
        "remark": "后山"
      },
      "type": "Feature"
    },
    {
      "geometry": {
        "coordinates": [
          135.787148,
          35.027747
        ],
        "type": "Point"
      },
      "properties": {
        "bangumi_id": 180931,
        "bangumi_title": "千恋万花",
        "ep_cut": "",
        "image_url": "https://w.junreimap.com/images/points/180931/qgtivcfno_1732810190159.jpg",
        "location": "京都",
        "point_id": "qgtivcfno",
        "point_name": "吉田山",
        "remark": "拍摄视角位于道路西南方向"
      },
      "type": "Feature"
    }
  ],
  "type": "FeatureCollection"
}