{
  "features": [
    {
      "geometry": {
        "coordinates": [
          116.005458,
          40.360361
        ],
        "type": "Point"
      },
      "properties": {
        "bangumi_id": 1894,
        "bangumi_title": "勇者王GaoGaiGar",
        "ep_cut": "",
        "image_url": "https://w.junreimap.com/images/user/0/bangumi/1894/points/euqhkhw-1779343803873.jpg",
        "location": "",
        "point_id": "euqhkhw",
        "point_name": "八达岭长城",
        "remark": ""
      },
      "type": "Feature"
    }
  ],
  "type": "FeatureCollection"
}