{
  "features": [
    {
      "geometry": {
        "coordinates": [
          135.773104,
          35.052549
        ],
        "type": "Point"
      },
      "properties": {
        "bangumi_id": 191398,
        "bangumi_title": "魔女的夜宴",
        "ep_cut": "",
        "image_url": "https://w.junreimap.com/images/user/0/bangumi/191398/points/im0ogzhc1-1710649036208.jpg",
        "location": "",
        "point_id": "im0ogzhc1",
        "point_name": "宝ヶ池通",
        "remark": ""
      },
      "type": "Feature"
    },
    {
      "geometry": {
        "coordinates": [
          135.79387,
          35.052051
        ],
        "type": "Point"
      },
      "properties": {
        "bangumi_id": 191398,
        "bangumi_title": "魔女的夜宴",
        "ep_cut": "",
        "image_url": "https://w.junreimap.com/images/user/0/bangumi/191398/points/im0xgh1hd-1710649268045.jpg",
        "location": "",
        "point_id": "im0xgh1hd",
        "point_name": "修学院離宮道 犬塚橋",
        "remark": "住宅街\n显然拍摄点在马路对面（）"
      },
      "type": "Feature"
    },
    {
      "geometry": {
        "coordinates": [
          135.794607,
          35.054198
        ],
        "type": "Point"
      },
      "properties": {
        "bangumi_id": 191398,
        "bangumi_title": "魔女的夜宴",
        "ep_cut": "",
        "image_url": "https://w.junreimap.com/images/user/0/bangumi/191398/points/im1hrh5dc-1710650500201.jpg",
        "location": "",
        "point_id": "im1hrh5dc",
        "point_name": "修学院 山ノ鼻町周边",
        "remark": ""
      },
      "type": "Feature"
    },
    {
      "geometry": {
        "coordinates": [
          135.767385,
          35.050326
        ],
        "type": "Point"
      },
      "properties": {
        "bangumi_id": 191398,
        "bangumi_title": "魔女的夜宴",
        "ep_cut": "",
        "image_url": "https://w.junreimap.com/images/user/0/bangumi/191398/points/im1n9sozv-1710650825599.jpg",
        "location": "",
        "point_id": "im1n9sozv",
        "point_name": "京都コンサートホール",
        "remark": "姬松学院"
      },
      "type": "Feature"
    },
    {
      "geometry": {
        "coordinates": [
          135.767794,
          35.008734
        ],
        "type": "Point"
      },
      "properties": {
        "bangumi_id": 191398,
        "bangumi_title": "魔女的夜宴",
        "ep_cut": "",
        "image_url": "https://w.junreimap.com/images/user/1073/bangumi/191398/points/k5l6xl5s2-1715003426416.jpg",
        "location": "",
        "point_id": "k5l6xl5s2",
        "point_name": "三条通り商店街",
        "remark": "立顿红茶馆"
      },
      "type": "Feature"
    },
    {
      "geometry": {
        "coordinates": [
          135.758891,
          34.986168
        ],
        "type": "Point"
      },
      "properties": {
        "bangumi_id": 191398,
        "bangumi_title": "魔女的夜宴",
        "ep_cut": "",
        "image_url": "https://w.junreimap.com/images/user/1073/bangumi/191398/points/k5kze9hl3-1715003042942.jpg",
        "location": "",
        "point_id": "k5kze9hl3",
        "point_name": "京都駅烏丸中央口",
        "remark": ""
      },
      "type": "Feature"
    },
    {
      "geometry": {
        "coordinates": [
          135.190248,
          34.699841
        ],
        "type": "Point"
      },
      "properties": {
        "bangumi_id": 191398,
        "bangumi_title": "魔女的夜宴",
        "ep_cut": "",
        "image_url": "https://w.junreimap.com/images/user/1073/bangumi/191398/points/k5lb3iewj-1715003653635.jpg",
        "location": "",
        "point_id": "k5lb3iewj",
        "point_name": "スターバックス​コーヒー​神戸​北野​異人館​店",
        "remark": ""
      },
      "type": "Feature"
    },
    {
      "geometry": {
        "coordinates": [
          135.494061,
          34.702631
        ],
        "type": "Point"
      },
      "properties": {
        "bangumi_id": 191398,
        "bangumi_title": "魔女的夜宴",
        "ep_cut": "",
        "image_url": "https://w.junreimap.com/images/user/1073/bangumi/191398/points/k5ldhitnl-1715003806023.jpg",
        "location": "",
        "point_id": "k5ldhitnl",
        "point_name": "グラン​フロント​大阪​南館",
        "remark": "这里可以定位スターバックス コーヒー LUCUA 1100 2階 アトリウムガーデン店，走出商场后往扶梯方向走，即可拍出同视角图片"
      },
      "type": "Feature"
    },
    {
      "geometry": {
        "coordinates": [
          135.494134,
          34.704664
        ],
        "type": "Point"
      },
      "properties": {
        "bangumi_id": 191398,
        "bangumi_title": "魔女的夜宴",
        "ep_cut": "",
        "image_url": "https://w.junreimap.com/images/points/191398/p4srn43z5_1729047095176.jpg",
        "location": "",
        "point_id": "p4srn43z5",
        "point_name": "グラン​フロント​大阪​南館",
        "remark": "约会地点，在南北馆天桥下"
      },
      "type": "Feature"
    },
    {
      "geometry": {
        "coordinates": [
          135.494163,
          34.706066
        ],
        "type": "Point"
      },
      "properties": {
        "bangumi_id": 191398,
        "bangumi_title": "魔女的夜宴",
        "ep_cut": "",
        "image_url": "https://w.junreimap.com/images/points/191398/p4sua9ju8_1729047257008.jpg",
        "location": "",
        "point_id": "p4sua9ju8",
        "point_name": "シマノスクエア",
        "remark": "这里应该定位シマノスクエア，然后在店门口往弧形玻璃处拍，梅田的无印良品是一个有四层楼的超大店，店门口走一圈都可以绕商场大半圈了，根本找不到具体位置\n在softbank前面的机位拍有8成像——2026.8.2"
      },
      "type": "Feature"
    }
  ],
  "type": "FeatureCollection"
}