{
  "features": [
    {
      "geometry": {
        "coordinates": [
          139.549992,
          35.319209
        ],
        "type": "Point"
      },
      "properties": {
        "bangumi_id": 191956,
        "bangumi_title": "亚人酱有话要说",
        "ep_cut": 2,
        "image_url": "https://w.junreimap.com/images/points/191956/51i53n0zb_1672373565087.jpg",
        "location": "",
        "point_id": "51i53n0zb",
        "point_name": "時計台",
        "remark": ""
      },
      "type": "Feature"
    },
    {
      "geometry": {
        "coordinates": [
          139.549627,
          35.319135
        ],
        "type": "Point"
      },
      "properties": {
        "bangumi_id": 191956,
        "bangumi_title": "亚人酱有话要说",
        "ep_cut": 2,
        "image_url": "https://w.junreimap.com/images/points/191956/51i53n1bq_1672373566029.jpg",
        "location": "",
        "point_id": "51i53n1bq",
        "point_name": "鎌倉駅西口の道路",
        "remark": ""
      },
      "type": "Feature"
    },
    {
      "geometry": {
        "coordinates": [
          139.552672,
          35.3208
        ],
        "type": "Point"
      },
      "properties": {
        "bangumi_id": 191956,
        "bangumi_title": "亚人酱有话要说",
        "ep_cut": 2,
        "image_url": "https://w.junreimap.com/images/points/191956/51i53n1xx_1672373566890.jpg",
        "location": "",
        "point_id": "51i53n1xx",
        "point_name": "ステンドグラスDANSHAKU",
        "remark": ""
      },
      "type": "Feature"
    },
    {
      "geometry": {
        "coordinates": [
          139.552071,
          35.321037
        ],
        "type": "Point"
      },
      "properties": {
        "bangumi_id": 191956,
        "bangumi_title": "亚人酱有话要说",
        "ep_cut": 2,
        "image_url": "https://w.junreimap.com/images/points/191956/51i53n1nf_1672373585677.jpg",
        "location": "",
        "point_id": "51i53n1nf",
        "point_name": "小町通り",
        "remark": ""
      },
      "type": "Feature"
    },
    {
      "geometry": {
        "coordinates": [
          139.528966,
          35.309386
        ],
        "type": "Point"
      },
      "properties": {
        "bangumi_id": 191956,
        "bangumi_title": "亚人酱有话要说",
        "ep_cut": 3,
        "image_url": "https://w.junreimap.com/images/points/191956/51i53n1to_1672373597089.jpg",
        "location": "",
        "point_id": "51i53n1to",
        "point_name": "極楽寺駅",
        "remark": ""
      },
      "type": "Feature"
    },
    {
      "geometry": {
        "coordinates": [
          139.52906,
          35.309634
        ],
        "type": "Point"
      },
      "properties": {
        "bangumi_id": 191956,
        "bangumi_title": "亚人酱有话要说",
        "ep_cut": 3,
        "image_url": "https://w.junreimap.com/images/points/191956/51i53n1h0_1672373597883.jpg",
        "location": "",
        "point_id": "51i53n1h0",
        "point_name": "極楽寺駅",
        "remark": ""
      },
      "type": "Feature"
    },
    {
      "geometry": {
        "coordinates": [
          139.502107,
          35.30667
        ],
        "type": "Point"
      },
      "properties": {
        "bangumi_id": 191956,
        "bangumi_title": "亚人酱有话要说",
        "ep_cut": 3,
        "image_url": "https://w.junreimap.com/images/points/191956/51i53n1wx_1672373598764.jpg",
        "location": "",
        "point_id": "51i53n1wx",
        "point_name": "鎌倉高校前踏切",
        "remark": ""
      },
      "type": "Feature"
    },
    {
      "geometry": {
        "coordinates": [
          139.544966,
          35.337009
        ],
        "type": "Point"
      },
      "properties": {
        "bangumi_id": 191956,
        "bangumi_title": "亚人酱有话要说",
        "ep_cut": 7,
        "image_url": "https://w.junreimap.com/images/points/191956/51i53n2s0_1672373599648.jpg",
        "location": "",
        "point_id": "51i53n2s0",
        "point_name": "北鎌倉駅前信号",
        "remark": ""
      },
      "type": "Feature"
    },
    {
      "geometry": {
        "coordinates": [
          139.54452,
          35.337438
        ],
        "type": "Point"
      },
      "properties": {
        "bangumi_id": 191956,
        "bangumi_title": "亚人酱有话要说",
        "ep_cut": 7,
        "image_url": "https://w.junreimap.com/images/points/191956/51i53n2p3_1672373600925.jpg",
        "location": "",
        "point_id": "51i53n2p3",
        "point_name": "北鎌倉駅前道路",
        "remark": ""
      },
      "type": "Feature"
    },
    {
      "geometry": {
        "coordinates": [
          139.521279,
          35.303233
        ],
        "type": "Point"
      },
      "properties": {
        "bangumi_id": 191956,
        "bangumi_title": "亚人酱有话要说",
        "ep_cut": 11,
        "image_url": "",
        "location": "",
        "point_id": "51i53n292",
        "point_name": "稲村ケ崎",
        "remark": ""
      },
      "type": "Feature"
    }
  ],
  "type": "FeatureCollection"
}