{
  "features": [
    {
      "geometry": {
        "coordinates": [
          139.379722,
          35.613333
        ],
        "type": "Point"
      },
      "properties": {
        "bangumi_id": 1925,
        "bangumi_title": "死神剧场版 无人的回忆",
        "ep_cut": "1",
        "image_url": "https://w.junreimap.com/images/user/0/bangumi/1925/points/9plr719-1768150081953.jpg",
        "location": "",
        "point_id": "9plr719",
        "point_name": "田中屋商店イトーヨーカドー 南大沢店",
        "remark": ""
      },
      "type": "Feature"
    },
    {
      "geometry": {
        "coordinates": [
          139.378545,
          35.61213
        ],
        "type": "Point"
      },
      "properties": {
        "bangumi_id": 1925,
        "bangumi_title": "死神剧场版 无人的回忆",
        "ep_cut": "1",
        "image_url": "https://w.junreimap.com/images/user/0/bangumi/1925/points/9pmfizu-1768150970805.jpg",
        "location": "",
        "point_id": "9pmfizu",
        "point_name": "南大沢駅入口西南大沢輪舞步道橋",
        "remark": ""
      },
      "type": "Feature"
    },
    {
      "geometry": {
        "coordinates": [
          139.378748,
          35.612286
        ],
        "type": "Point"
      },
      "properties": {
        "bangumi_id": 1925,
        "bangumi_title": "死神剧场版 无人的回忆",
        "ep_cut": "1",
        "image_url": "https://w.junreimap.com/images/user/0/bangumi/1925/points/9pmpf1i-1768151401845.jpg",
        "location": "",
        "point_id": "9pmpf1i",
        "point_name": "南大沢第2駐車場",
        "remark": ""
      },
      "type": "Feature"
    },
    {
      "geometry": {
        "coordinates": [
          139.380365,
          35.613142
        ],
        "type": "Point"
      },
      "properties": {
        "bangumi_id": 1925,
        "bangumi_title": "死神剧场版 无人的回忆",
        "ep_cut": "1",
        "image_url": "https://w.junreimap.com/images/user/0/bangumi/1925/points/9pmz8wc-1768151771044.jpg",
        "location": "",
        "point_id": "9pmz8wc",
        "point_name": "日本東京都八王子市 ガレリアユギ ",
        "remark": ""
      },
      "type": "Feature"
    },
    {
      "geometry": {
        "coordinates": [
          139.380431,
          35.613072
        ],
        "type": "Point"
      },
      "properties": {
        "bangumi_id": 1925,
        "bangumi_title": "死神剧场版 无人的回忆",
        "ep_cut": "1",
        "image_url": "https://w.junreimap.com/images/user/0/bangumi/1925/points/9pn4clh-1768152057027.jpg",
        "location": "",
        "point_id": "9pn4clh",
        "point_name": "南大沢警察署南大沢駅前交番",
        "remark": ""
      },
      "type": "Feature"
    },
    {
      "geometry": {
        "coordinates": [
          139.379781,
          35.613874
        ],
        "type": "Point"
      },
      "properties": {
        "bangumi_id": 1925,
        "bangumi_title": "死神剧场版 无人的回忆",
        "ep_cut": "1",
        "image_url": "https://w.junreimap.com/images/user/0/bangumi/1925/points/9pnlx16-1768153221238.jpg",
        "location": "",
        "point_id": "9pnlx16",
        "point_name": "八王子市南大沢駅",
        "remark": ""
      },
      "type": "Feature"
    },
    {
      "geometry": {
        "coordinates": [
          139.378284,
          35.614787
        ],
        "type": "Point"
      },
      "properties": {
        "bangumi_id": 1925,
        "bangumi_title": "死神剧场版 无人的回忆",
        "ep_cut": "1",
        "image_url": "https://w.junreimap.com/images/user/0/bangumi/1925/points/9poene5-1768154365810.jpg",
        "location": "",
        "point_id": "9poene5",
        "point_name": "三井​アウトレット​パーク​多摩​南大沢",
        "remark": ""
      },
      "type": "Feature"
    }
  ],
  "type": "FeatureCollection"
}