{
  "features": [
    {
      "geometry": {
        "coordinates": [
          140.053554,
          35.628017
        ],
        "type": "Point"
      },
      "properties": {
        "bangumi_id": 194261,
        "bangumi_title": "天使的3P!",
        "ep_cut": 1,
        "image_url": "https://w.junreimap.com/images/points/194261/3nzt7zh_1754991673892.jpg",
        "location": "",
        "point_id": "3nzt7zh",
        "point_name": "県立​千葉​西​高等​学校",
        "remark": "新井田西高校のモデル"
      },
      "type": "Feature"
    },
    {
      "geometry": {
        "coordinates": [
          139.956033,
          35.710578
        ],
        "type": "Point"
      },
      "properties": {
        "bangumi_id": 194261,
        "bangumi_title": "天使的3P!",
        "ep_cut": 1,
        "image_url": "https://w.junreimap.com/images/points/194261/3nzzph8_1754991909938.jpg",
        "location": "",
        "point_id": "3nzzph8",
        "point_name": "内山電気商会",
        "remark": "ピアノ教室のモデル"
      },
      "type": "Feature"
    },
    {
      "geometry": {
        "coordinates": [
          139.957044,
          35.710282
        ],
        "type": "Point"
      },
      "properties": {
        "bangumi_id": 194261,
        "bangumi_title": "天使的3P!",
        "ep_cut": 1,
        "image_url": "https://w.junreimap.com/images/points/194261/3o07ky2_1754992273972.jpg",
        "location": "",
        "point_id": "3o07ky2",
        "point_name": "勝間田公園",
        "remark": ""
      },
      "type": "Feature"
    },
    {
      "geometry": {
        "coordinates": [
          139.972325,
          35.719588
        ],
        "type": "Point"
      },
      "properties": {
        "bangumi_id": 194261,
        "bangumi_title": "天使的3P!",
        "ep_cut": 1,
        "image_url": "https://w.junreimap.com/images/points/194261/3o0a8aq_1754992377644.jpg",
        "location": "",
        "point_id": "3o0a8aq",
        "point_name": "行田公園",
        "remark": "無線電信所船橋送信所の跡地（円形）"
      },
      "type": "Feature"
    },
    {
      "geometry": {
        "coordinates": [
          129.870143,
          32.734381
        ],
        "type": "Point"
      },
      "properties": {
        "bangumi_id": 194261,
        "bangumi_title": "天使的3P!",
        "ep_cut": 1,
        "image_url": "https://w.junreimap.com/images/points/194261/3o0q7wr_1754993136316.jpg",
        "location": "",
        "point_id": "3o0q7wr",
        "point_name": "大浦天主堂",
        "remark": "リトルウィング外観"
      },
      "type": "Feature"
    },
    {
      "geometry": {
        "coordinates": [
          136.991565,
          35.341581
        ],
        "type": "Point"
      },
      "properties": {
        "bangumi_id": 194261,
        "bangumi_title": "天使的3P!",
        "ep_cut": 1,
        "image_url": "https://w.junreimap.com/images/points/194261/3o0gk61_1754992683498.jpg",
        "location": "",
        "point_id": "3o0gk61",
        "point_name": "聖ザビエル天主堂",
        "remark": "リトルウィング内観"
      },
      "type": "Feature"
    },
    {
      "geometry": {
        "coordinates": [
          138.779226,
          35.487651
        ],
        "type": "Point"
      },
      "properties": {
        "bangumi_id": 194261,
        "bangumi_title": "天使的3P!",
        "ep_cut": 6,
        "image_url": "https://w.junreimap.com/images/points/194261/3o1aswk_1754994082944.jpg",
        "location": "",
        "point_id": "3o1aswk",
        "point_name": "富士急​ハイランド",
        "remark": ""
      },
      "type": "Feature"
    },
    {
      "geometry": {
        "coordinates": [
          139.772528,
          35.698207
        ],
        "type": "Point"
      },
      "properties": {
        "bangumi_id": 194261,
        "bangumi_title": "天使的3P!",
        "ep_cut": 10,
        "image_url": "https://w.junreimap.com/images/points/194261/3o1pae2_1754994765106.jpg",
        "location": "",
        "point_id": "3o1pae2",
        "point_name": "JR秋葉原駅電気街口",
        "remark": ""
      },
      "type": "Feature"
    },
    {
      "geometry": {
        "coordinates": [
          139.771645,
          35.700496
        ],
        "type": "Point"
      },
      "properties": {
        "bangumi_id": 194261,
        "bangumi_title": "天使的3P!",
        "ep_cut": 10,
        "image_url": "https://w.junreimap.com/images/points/194261/3o297pf_1754995714650.jpg",
        "location": "",
        "point_id": "3o297pf",
        "point_name": "アニメイト秋葉原店",
        "remark": ""
      },
      "type": "Feature"
    },
    {
      "geometry": {
        "coordinates": [
          139.771623,
          35.700276
        ],
        "type": "Point"
      },
      "properties": {
        "bangumi_id": 194261,
        "bangumi_title": "天使的3P!",
        "ep_cut": 10,
        "image_url": "https://w.junreimap.com/images/points/194261/3o22la8_1754995379170.jpg",
        "location": "",
        "point_id": "3o22la8",
        "point_name": "タイトー​ステーション秋葉原店",
        "remark": ""
      },
      "type": "Feature"
    },
    {
      "geometry": {
        "coordinates": [
          139.771661,
          35.698981
        ],
        "type": "Point"
      },
      "properties": {
        "bangumi_id": 194261,
        "bangumi_title": "天使的3P!",
        "ep_cut": 10,
        "image_url": "https://w.junreimap.com/images/points/194261/3o2cx95_1754995944469.jpg",
        "location": "",
        "point_id": "3o2cx95",
        "point_name": "カラオケ パセラリゾーツ 秋葉原電気街店",
        "remark": ""
      },
      "type": "Feature"
    },
    {
      "geometry": {
        "coordinates": [
          139.961361,
          35.719672
        ],
        "type": "Point"
      },
      "properties": {
        "bangumi_id": 194261,
        "bangumi_title": "天使的3P!",
        "ep_cut": 10,
        "image_url": "https://w.junreimap.com/images/points/194261/3o2hype_1754996101359.jpg",
        "location": "",
        "point_id": "3o2hype",
        "point_name": "セブン​イレブン\n船橋​古作​3丁目​店",
        "remark": ""
      },
      "type": "Feature"
    },
    {
      "geometry": {
        "coordinates": [
          139.957657,
          35.715023
        ],
        "type": "Point"
      },
      "properties": {
        "bangumi_id": 194261,
        "bangumi_title": "天使的3P!",
        "ep_cut": 10,
        "image_url": "https://w.junreimap.com/images/points/194261/3o2lfi9_1754996277363.jpg",
        "location": "",
        "point_id": "3o2lfi9",
        "point_name": "葛羅の井 Y字路",
        "remark": ""
      },
      "type": "Feature"
    },
    {
      "geometry": {
        "coordinates": [
          139.701042,
          35.691866
        ],
        "type": "Point"
      },
      "properties": {
        "bangumi_id": 194261,
        "bangumi_title": "天使的3P!",
        "ep_cut": 10,
        "image_url": "https://w.junreimap.com/images/points/194261/3p2pmqd_1755057082168.jpg",
        "location": "",
        "point_id": "3p2pmqd",
        "point_name": "JR新宿駅東口",
        "remark": "Bパート"
      },
      "type": "Feature"
    },
    {
      "geometry": {
        "coordinates": [
          139.701028,
          35.693879
        ],
        "type": "Point"
      },
      "properties": {
        "bangumi_id": 194261,
        "bangumi_title": "天使的3P!",
        "ep_cut": 10,
        "image_url": "https://w.junreimap.com/images/points/194261/3p2qn00_1755057112716.jpg",
        "location": "",
        "point_id": "3p2qn00",
        "point_name": "歌舞伎町一番街",
        "remark": "Bパート"
      },
      "type": "Feature"
    },
    {
      "geometry": {
        "coordinates": [
          139.959247,
          35.707884
        ],
        "type": "Point"
      },
      "properties": {
        "bangumi_id": 194261,
        "bangumi_title": "天使的3P!",
        "ep_cut": 10,
        "image_url": "https://w.junreimap.com/images/points/194261/3p2utfh_1755057197192.jpg",
        "location": "",
        "point_id": "3p2utfh",
        "point_name": "​西船橋​駅",
        "remark": "Bパート"
      },
      "type": "Feature"
    }
  ],
  "type": "FeatureCollection"
}