{
  "features": [
    {
      "geometry": {
        "coordinates": [
          139.701031,
          35.693873
        ],
        "type": "Point"
      },
      "properties": {
        "bangumi_id": 197441,
        "bangumi_title": "爱丽丝与藏六",
        "ep_cut": "",
        "image_url": "",
        "location": "",
        "point_id": "51i5dyhy7",
        "point_name": "歌舞伎町一番街",
        "remark": ""
      },
      "type": "Feature"
    },
    {
      "geometry": {
        "coordinates": [
          139.703788,
          35.694881
        ],
        "type": "Point"
      },
      "properties": {
        "bangumi_id": 197441,
        "bangumi_title": "爱丽丝与藏六",
        "ep_cut": "",
        "image_url": "",
        "location": "",
        "point_id": "51i5dyi4f",
        "point_name": "上海小吃",
        "remark": ""
      },
      "type": "Feature"
    },
    {
      "geometry": {
        "coordinates": [
          139.701567,
          35.69388
        ],
        "type": "Point"
      },
      "properties": {
        "bangumi_id": 197441,
        "bangumi_title": "爱丽丝与藏六",
        "ep_cut": "",
        "image_url": "",
        "location": "",
        "point_id": "51i5dyidn",
        "point_name": "歌舞伎町",
        "remark": ""
      },
      "type": "Feature"
    },
    {
      "geometry": {
        "coordinates": [
          139.705169,
          35.693557
        ],
        "type": "Point"
      },
      "properties": {
        "bangumi_id": 197441,
        "bangumi_title": "爱丽丝与藏六",
        "ep_cut": "",
        "image_url": "",
        "location": "",
        "point_id": "51i5dyil7",
        "point_name": "花園神社",
        "remark": ""
      },
      "type": "Feature"
    }
  ],
  "type": "FeatureCollection"
}