{
  "features": [
    {
      "geometry": {
        "coordinates": [
          131.843084,
          43.073154
        ],
        "type": "Point"
      },
      "properties": {
        "bangumi_id": 204145,
        "bangumi_title": "属性咖啡厅",
        "ep_cut": 11,
        "image_url": "https://w.junreimap.com/images/points/204145/ig0giiig5_1725829316043_c16v9.jpg",
        "location": "",
        "point_id": "ig0giiig5",
        "point_name": "Маяк Токаревского",
        "remark": ""
      },
      "type": "Feature"
    },
    {
      "geometry": {
        "coordinates": [
          139.771154,
          35.69759
        ],
        "type": "Point"
      },
      "properties": {
        "bangumi_id": 204145,
        "bangumi_title": "属性咖啡厅",
        "ep_cut": 1,
        "image_url": "https://w.junreimap.com/images/points/204145/3nn9cu0_1754970523810.jpg",
        "location": "",
        "point_id": "3nn9cu0",
        "point_name": "万世橋交差点",
        "remark": ""
      },
      "type": "Feature"
    },
    {
      "geometry": {
        "coordinates": [
          139.770778,
          35.697205
        ],
        "type": "Point"
      },
      "properties": {
        "bangumi_id": 204145,
        "bangumi_title": "属性咖啡厅",
        "ep_cut": 1,
        "image_url": "https://w.junreimap.com/images/points/204145/3nnczea_1754970797880.jpg",
        "location": "",
        "point_id": "3nnczea",
        "point_name": "万世橋駅＆昌平橋",
        "remark": ""
      },
      "type": "Feature"
    },
    {
      "geometry": {
        "coordinates": [
          139.769916,
          35.701833
        ],
        "type": "Point"
      },
      "properties": {
        "bangumi_id": 204145,
        "bangumi_title": "属性咖啡厅",
        "ep_cut": 1,
        "image_url": "https://w.junreimap.com/images/points/204145/3nnisw1_1754971045411.jpg",
        "location": "",
        "point_id": "3nnisw1",
        "point_name": "芳林公園",
        "remark": ""
      },
      "type": "Feature"
    },
    {
      "geometry": {
        "coordinates": [
          139.77118,
          35.698616
        ],
        "type": "Point"
      },
      "properties": {
        "bangumi_id": 204145,
        "bangumi_title": "属性咖啡厅",
        "ep_cut": 1,
        "image_url": "https://w.junreimap.com/images/points/204145/3nnoizd_1754971219031.jpg",
        "location": "",
        "point_id": "3nnoizd",
        "point_name": "オノデン本館前",
        "remark": ""
      },
      "type": "Feature"
    },
    {
      "geometry": {
        "coordinates": [
          139.770108,
          35.69861
        ],
        "type": "Point"
      },
      "properties": {
        "bangumi_id": 204145,
        "bangumi_title": "属性咖啡厅",
        "ep_cut": 1,
        "image_url": "https://w.junreimap.com/images/points/204145/3nntvr5_1754971458626.jpg",
        "location": "",
        "point_id": "3nntvr5",
        "point_name": "アマチュア​無線​本館",
        "remark": ""
      },
      "type": "Feature"
    },
    {
      "geometry": {
        "coordinates": [
          139.771715,
          35.700258
        ],
        "type": "Point"
      },
      "properties": {
        "bangumi_id": 204145,
        "bangumi_title": "属性咖啡厅",
        "ep_cut": 1,
        "image_url": "https://w.junreimap.com/images/points/204145/3nnvm1b_1754971546370.jpg",
        "location": "",
        "point_id": "3nnvm1b",
        "point_name": "タイトー​ステーション秋葉原店",
        "remark": ""
      },
      "type": "Feature"
    },
    {
      "geometry": {
        "coordinates": [
          140.020546,
          35.691221
        ],
        "type": "Point"
      },
      "properties": {
        "bangumi_id": 204145,
        "bangumi_title": "属性咖啡厅",
        "ep_cut": 1,
        "image_url": "https://w.junreimap.com/images/user/0/bangumi/204145/points/nnfzhjkjq-1724865964110.jpg",
        "location": "",
        "point_id": "nnfzhjkjq",
        "point_name": "津田沼駅",
        "remark": ""
      },
      "type": "Feature"
    },
    {
      "geometry": {
        "coordinates": [
          139.700579,
          35.65905
        ],
        "type": "Point"
      },
      "properties": {
        "bangumi_id": 204145,
        "bangumi_title": "属性咖啡厅",
        "ep_cut": 3,
        "image_url": "https://w.junreimap.com/images/user/0/bangumi/204145/points/nng5idpxl-1724866462508.jpg",
        "location": "",
        "point_id": "nng5idpxl",
        "point_name": "忠犬ハチ公",
        "remark": ""
      },
      "type": "Feature"
    },
    {
      "geometry": {
        "coordinates": [
          139.699319,
          35.693662
        ],
        "type": "Point"
      },
      "properties": {
        "bangumi_id": 204145,
        "bangumi_title": "属性咖啡厅",
        "ep_cut": 8,
        "image_url": "https://w.junreimap.com/images/points/204145/3npbikz_1754973964057.jpg",
        "location": "",
        "point_id": "3npbikz",
        "point_name": "新宿大ガード西",
        "remark": ""
      },
      "type": "Feature"
    },
    {
      "geometry": {
        "coordinates": [
          139.700838,
          35.688012
        ],
        "type": "Point"
      },
      "properties": {
        "bangumi_id": 204145,
        "bangumi_title": "属性咖啡厅",
        "ep_cut": 8,
        "image_url": "https://w.junreimap.com/images/points/204145/3npds48_1754974510015.jpg",
        "location": "",
        "point_id": "3npds48",
        "point_name": "Suicaのペンギン広場のテラス付近",
        "remark": ""
      },
      "type": "Feature"
    },
    {
      "geometry": {
        "coordinates": [
          139.701094,
          35.688107
        ],
        "type": "Point"
      },
      "properties": {
        "bangumi_id": 204145,
        "bangumi_title": "属性咖啡厅",
        "ep_cut": 8,
        "image_url": "https://w.junreimap.com/images/points/204145/3npf7an_1754974504505.jpg",
        "location": "",
        "point_id": "3npf7an",
        "point_name": "Suicaのペンギンの像",
        "remark": ""
      },
      "type": "Feature"
    },
    {
      "geometry": {
        "coordinates": [
          139.700939,
          35.686885
        ],
        "type": "Point"
      },
      "properties": {
        "bangumi_id": 204145,
        "bangumi_title": "属性咖啡厅",
        "ep_cut": 8,
        "image_url": "https://w.junreimap.com/images/points/204145/3nplokl_1754974436498.jpg",
        "location": "",
        "point_id": "3nplokl",
        "point_name": "イーストデッキ（高島屋前の橋）",
        "remark": ""
      },
      "type": "Feature"
    },
    {
      "geometry": {
        "coordinates": [
          139.70035,
          35.687423
        ],
        "type": "Point"
      },
      "properties": {
        "bangumi_id": 204145,
        "bangumi_title": "属性咖啡厅",
        "ep_cut": 8,
        "image_url": "https://w.junreimap.com/images/points/204145/3npzfx2_1754975095746.jpg",
        "location": "",
        "point_id": "3npzfx2",
        "point_name": "新宿サザンテラス小道",
        "remark": "右边的圆柱顶建筑"
      },
      "type": "Feature"
    }
  ],
  "type": "FeatureCollection"
}