{
  "features": [
    {
      "geometry": {
        "coordinates": [
          135.522444,
          34.638198
        ],
        "type": "Point"
      },
      "properties": {
        "bangumi_id": 205180,
        "bangumi_title": "孤独的美食家 第六季",
        "ep_cut": 1,
        "image_url": "https://w.junreimap.com/images/points/205180/1f682934_1741503107376.jpg",
        "location": "シーズン6",
        "point_id": "1f682934",
        "point_name": "美章園３丁目２−４",
        "remark": "大阪府美章園"
      },
      "type": "Feature"
    },
    {
      "geometry": {
        "coordinates": [
          139.693637,
          35.70566
        ],
        "type": "Point"
      },
      "properties": {
        "bangumi_id": 205180,
        "bangumi_title": "孤独的美食家 第六季",
        "ep_cut": 2,
        "image_url": "https://w.junreimap.com/images/points/205180/21dd3ace_1741503183654.jpg",
        "location": "シーズン6",
        "point_id": "21dd3ace",
        "point_name": "東京都中央卸売市場 淀橋市場",
        "remark": "東京都新宿区淀橋市場"
      },
      "type": "Feature"
    },
    {
      "geometry": {
        "coordinates": [
          139.714235,
          35.639498
        ],
        "type": "Point"
      },
      "properties": {
        "bangumi_id": 205180,
        "bangumi_title": "孤独的美食家 第六季",
        "ep_cut": 3,
        "image_url": "https://w.junreimap.com/images/points/205180/a908e5fe_1742139209952.jpg",
        "location": "シーズン6",
        "point_id": "a908e5fe",
        "point_name": "薬膳スープカレー・シャナイア",
        "remark": "東京都目黒区三田"
      },
      "type": "Feature"
    },
    {
      "geometry": {
        "coordinates": [
          139.430697,
          35.741719
        ],
        "type": "Point"
      },
      "properties": {
        "bangumi_id": 205180,
        "bangumi_title": "孤独的美食家 第六季",
        "ep_cut": 4,
        "image_url": "https://w.junreimap.com/images/points/205180/a13d20ac_1742139235200.jpg",
        "location": "シーズン6",
        "point_id": "a13d20ac",
        "point_name": "山大ビル",
        "remark": "閉店"
      },
      "type": "Feature"
    },
    {
      "geometry": {
        "coordinates": [
          139.670292,
          35.644184
        ],
        "type": "Point"
      },
      "properties": {
        "bangumi_id": 205180,
        "bangumi_title": "孤独的美食家 第六季",
        "ep_cut": 5,
        "image_url": "https://w.junreimap.com/images/points/205180/1a38705c_1741503261311.jpg",
        "location": "シーズン6",
        "point_id": "1a38705c",
        "point_name": "太子堂４丁目２２−１２",
        "remark": "東京都世田谷区太子堂"
      },
      "type": "Feature"
    },
    {
      "geometry": {
        "coordinates": [
          139.7045,
          35.713932
        ],
        "type": "Point"
      },
      "properties": {
        "bangumi_id": 205180,
        "bangumi_title": "孤独的美食家 第六季",
        "ep_cut": 6,
        "image_url": "https://w.junreimap.com/images/points/205180/8c0240cf_1741503314882.jpg",
        "location": "シーズン6",
        "point_id": "8c0240cf",
        "point_name": "Nong Inlay ノング インレイ",
        "remark": "東京都新宿区高田馬場"
      },
      "type": "Feature"
    },
    {
      "geometry": {
        "coordinates": [
          139.697039,
          35.658104
        ],
        "type": "Point"
      },
      "properties": {
        "bangumi_id": 205180,
        "bangumi_title": "孤独的美食家 第六季",
        "ep_cut": 7,
        "image_url": "https://w.junreimap.com/images/points/205180/75691847_1741503350679.jpg",
        "location": "シーズン6",
        "point_id": "75691847",
        "point_name": "新大宗ビル2号館 3,1f",
        "remark": "東京都渋谷区道玄坂"
      },
      "type": "Feature"
    },
    {
      "geometry": {
        "coordinates": [
          139.773665,
          35.705602
        ],
        "type": "Point"
      },
      "properties": {
        "bangumi_id": 205180,
        "bangumi_title": "孤独的美食家 第六季",
        "ep_cut": 8,
        "image_url": "https://w.junreimap.com/images/points/205180/1401f420_1741503400518.jpg",
        "location": "シーズン6",
        "point_id": "1401f420",
        "point_name": "上野３丁目１２−６",
        "remark": "東京都台東区御徒町"
      },
      "type": "Feature"
    },
    {
      "geometry": {
        "coordinates": [
          139.704789,
          35.608187
        ],
        "type": "Point"
      },
      "properties": {
        "bangumi_id": 205180,
        "bangumi_title": "孤独的美食家 第六季",
        "ep_cut": 9,
        "image_url": "https://w.junreimap.com/images/points/205180/086af6ea_1741503451758.jpg",
        "location": "シーズン6",
        "point_id": "086af6ea",
        "point_name": "スペイン食堂石井",
        "remark": "東京都品川区旗の台→荏原2丁目17-19"
      },
      "type": "Feature"
    },
    {
      "geometry": {
        "coordinates": [
          139.822862,
          35.164313
        ],
        "type": "Point"
      },
      "properties": {
        "bangumi_id": 205180,
        "bangumi_title": "孤独的美食家 第六季",
        "ep_cut": 10,
        "image_url": "https://w.junreimap.com/images/points/205180/7c5b3d4a_1741503531721.jpg",
        "location": "シーズン6",
        "point_id": "7c5b3d4a",
        "point_name": "金谷３９７１",
        "remark": "千葉県富津市金谷"
      },
      "type": "Feature"
    },
    {
      "geometry": {
        "coordinates": [
          139.753666,
          35.725815
        ],
        "type": "Point"
      },
      "properties": {
        "bangumi_id": 205180,
        "bangumi_title": "孤独的美食家 第六季",
        "ep_cut": 11,
        "image_url": "https://w.junreimap.com/images/points/205180/001959e5_1741503593583.jpg",
        "location": "シーズン6",
        "point_id": "001959e5",
        "point_name": "中国料理 豊栄",
        "remark": "東京都文京区茗荷谷→本駒込3丁目1-8"
      },
      "type": "Feature"
    },
    {
      "geometry": {
        "coordinates": [
          139.7244,
          35.624735
        ],
        "type": "Point"
      },
      "properties": {
        "bangumi_id": 205180,
        "bangumi_title": "孤独的美食家 第六季",
        "ep_cut": 12,
        "image_url": "https://w.junreimap.com/images/points/205180/8d3b1677_1741503652679.jpg",
        "location": "シーズン6",
        "point_id": "8d3b1677",
        "point_name": "きになる嫁デラックス",
        "remark": "東京都品川区五反田"
      },
      "type": "Feature"
    }
  ],
  "type": "FeatureCollection"
}