{
  "features": [
    {
      "geometry": {
        "coordinates": [
          139.268599,
          35.66046
        ],
        "type": "Point"
      },
      "properties": {
        "bangumi_id": 207431,
        "bangumi_title": "死印",
        "ep_cut": "",
        "image_url": "https://w.junreimap.com/images/points/207431/p0rtov301_1728731606532.jpg",
        "location": "",
        "point_id": "p0rtov301",
        "point_name": "八王子霊園東門前の電話ボックス",
        "remark": "游戏封面。"
      },
      "type": "Feature"
    },
    {
      "geometry": {
        "coordinates": [
          140.288953,
          36.559784
        ],
        "type": "Point"
      },
      "properties": {
        "bangumi_id": 207431,
        "bangumi_title": "死印",
        "ep_cut": "",
        "image_url": "",
        "location": "",
        "point_id": "p0riis21d",
        "point_name": "伊勢畑小学校",
        "remark": "废弃的小学校，为游戏中「H小学」的原型。"
      },
      "type": "Feature"
    },
    {
      "geometry": {
        "coordinates": [
          139.253077,
          35.653058
        ],
        "type": "Point"
      },
      "properties": {
        "bangumi_id": 207431,
        "bangumi_title": "死印",
        "ep_cut": "",
        "image_url": "",
        "location": "",
        "point_id": "p0rj5cm1e",
        "point_name": "八王子城跡",
        "remark": "游戏中「H城树海」的原型之一。"
      },
      "type": "Feature"
    },
    {
      "geometry": {
        "coordinates": [
          138.626588,
          35.472621
        ],
        "type": "Point"
      },
      "properties": {
        "bangumi_id": 207431,
        "bangumi_title": "死印",
        "ep_cut": "",
        "image_url": "",
        "location": "",
        "point_id": "p0rjkizdi",
        "point_name": "青木ヶ原樹海",
        "remark": "游戏中「H城树海」的原型之一。"
      },
      "type": "Feature"
    },
    {
      "geometry": {
        "coordinates": [
          139.243714,
          35.624931
        ],
        "type": "Point"
      },
      "properties": {
        "bangumi_id": 207431,
        "bangumi_title": "死印",
        "ep_cut": "",
        "image_url": "",
        "location": "",
        "point_id": "p0rkjpbfu",
        "point_name": "高尾山",
        "remark": "游戏中「T尾山」的原型。"
      },
      "type": "Feature"
    },
    {
      "geometry": {
        "coordinates": [
          139.287574,
          35.627243
        ],
        "type": "Point"
      },
      "properties": {
        "bangumi_id": 207431,
        "bangumi_title": "死印",
        "ep_cut": "",
        "image_url": "",
        "location": "",
        "point_id": "p0rln3f3r",
        "point_name": "館ヶ丘団地",
        "remark": "游戏中「T团地」的原型。"
      },
      "type": "Feature"
    },
    {
      "geometry": {
        "coordinates": [
          139.323405,
          35.662851
        ],
        "type": "Point"
      },
      "properties": {
        "bangumi_id": 207431,
        "bangumi_title": "死印",
        "ep_cut": "",
        "image_url": "",
        "location": "",
        "point_id": "p0rnqe3z8",
        "point_name": "秋川街道",
        "remark": "游戏中「A街道」的原型。"
      },
      "type": "Feature"
    },
    {
      "geometry": {
        "coordinates": [
          139.368905,
          35.685481
        ],
        "type": "Point"
      },
      "properties": {
        "bangumi_id": 207431,
        "bangumi_title": "死印",
        "ep_cut": "",
        "image_url": "",
        "location": "",
        "point_id": "p0roct9pu",
        "point_name": "小宮町",
        "remark": "游戏中「K宫町」的原型。游戏中实际舞台为「K宮町北通り」，为虚构地名。"
      },
      "type": "Feature"
    },
    {
      "geometry": {
        "coordinates": [
          139.331044,
          35.63123
        ],
        "type": "Point"
      },
      "properties": {
        "bangumi_id": 207431,
        "bangumi_title": "死印",
        "ep_cut": "",
        "image_url": "",
        "location": "",
        "point_id": "p0rppe52k",
        "point_name": "みなみ野",
        "remark": "游戏中「M野」的原型。"
      },
      "type": "Feature"
    },
    {
      "geometry": {
        "coordinates": [
          139.446657,
          35.699239
        ],
        "type": "Point"
      },
      "properties": {
        "bangumi_id": 207431,
        "bangumi_title": "死印",
        "ep_cut": "",
        "image_url": "",
        "location": "",
        "point_id": "p0rq2htx5",
        "point_name": "国立市",
        "remark": "游戏中「K市」的原型。"
      },
      "type": "Feature"
    },
    {
      "geometry": {
        "coordinates": [
          139.277507,
          35.639718
        ],
        "type": "Point"
      },
      "properties": {
        "bangumi_id": 207431,
        "bangumi_title": "死印",
        "ep_cut": "",
        "image_url": "",
        "location": "",
        "point_id": "p0rr0woeu",
        "point_name": "浅川地下壕",
        "remark": "游戏中「H防空洞」的原型之一。"
      },
      "type": "Feature"
    },
    {
      "geometry": {
        "coordinates": [
          138.204099,
          36.545561
        ],
        "type": "Point"
      },
      "properties": {
        "bangumi_id": 207431,
        "bangumi_title": "死印",
        "ep_cut": "",
        "image_url": "",
        "location": "",
        "point_id": "p0rs94zvg",
        "point_name": "松代大本営",
        "remark": "游戏中「H防空洞」的原型之一。"
      },
      "type": "Feature"
    }
  ],
  "type": "FeatureCollection"
}