{
  "features": [
    {
      "geometry": {
        "coordinates": [
          139.599401,
          35.727738
        ],
        "type": "Point"
      },
      "properties": {
        "bangumi_id": 213329,
        "bangumi_title": "动画同好会",
        "ep_cut": 1,
        "image_url": "https://w.junreimap.com/images/points/213329/3pcl4u6_1755073674608.jpg",
        "location": "",
        "point_id": "3pcl4u6",
        "point_name": "都立井草高等学校のバス停",
        "remark": ""
      },
      "type": "Feature"
    },
    {
      "geometry": {
        "coordinates": [
          139.60661,
          35.743439
        ],
        "type": "Point"
      },
      "properties": {
        "bangumi_id": 213329,
        "bangumi_title": "动画同好会",
        "ep_cut": 1,
        "image_url": "https://w.junreimap.com/images/points/213329/3pcqjzx_1755073758591.jpg",
        "location": "",
        "point_id": "3pcqjzx",
        "point_name": "石神井公園駅南口",
        "remark": ""
      },
      "type": "Feature"
    },
    {
      "geometry": {
        "coordinates": [
          139.606413,
          35.743509
        ],
        "type": "Point"
      },
      "properties": {
        "bangumi_id": 213329,
        "bangumi_title": "动画同好会",
        "ep_cut": 1,
        "image_url": "https://w.junreimap.com/images/points/213329/3pcrz16_1755073843839.jpg",
        "location": "",
        "point_id": "3pcrz16",
        "point_name": "石神井公園駅のバス停",
        "remark": ""
      },
      "type": "Feature"
    },
    {
      "geometry": {
        "coordinates": [
          139.086243,
          36.018782
        ],
        "type": "Point"
      },
      "properties": {
        "bangumi_id": 213329,
        "bangumi_title": "动画同好会",
        "ep_cut": 6,
        "image_url": "https://w.junreimap.com/images/points/213329/3qk5po3_1755146699933.jpg",
        "location": "聖地巡礼回",
        "point_id": "3qk5po3",
        "point_name": "旧秩父橋",
        "remark": "未闻花名"
      },
      "type": "Feature"
    },
    {
      "geometry": {
        "coordinates": [
          139.502093,
          35.306744
        ],
        "type": "Point"
      },
      "properties": {
        "bangumi_id": 213329,
        "bangumi_title": "动画同好会",
        "ep_cut": 6,
        "image_url": "https://w.junreimap.com/images/points/213329/3qk8bnf_1755146857589.jpg",
        "location": "聖地巡礼回",
        "point_id": "3qk8bnf",
        "point_name": "鎌倉高校前踏切",
        "remark": ""
      },
      "type": "Feature"
    },
    {
      "geometry": {
        "coordinates": [
          133.199335,
          34.408927
        ],
        "type": "Point"
      },
      "properties": {
        "bangumi_id": 213329,
        "bangumi_title": "动画同好会",
        "ep_cut": 6,
        "image_url": "https://w.junreimap.com/images/points/213329/3qkh158_1755147233598.jpg",
        "location": "聖地巡礼回",
        "point_id": "3qkh158",
        "point_name": "尾道 山道",
        "remark": ""
      },
      "type": "Feature"
    },
    {
      "geometry": {
        "coordinates": [
          137.25794,
          36.143481
        ],
        "type": "Point"
      },
      "properties": {
        "bangumi_id": 213329,
        "bangumi_title": "动画同好会",
        "ep_cut": 6,
        "image_url": "https://w.junreimap.com/images/points/213329/3qkls7p_1755147469019.jpg",
        "location": "聖地巡礼回",
        "point_id": "3qkls7p",
        "point_name": "高山 弥生橋",
        "remark": "氷菓"
      },
      "type": "Feature"
    },
    {
      "geometry": {
        "coordinates": [
          140.573958,
          36.314988
        ],
        "type": "Point"
      },
      "properties": {
        "bangumi_id": 213329,
        "bangumi_title": "动画同好会",
        "ep_cut": 6,
        "image_url": "https://w.junreimap.com/images/points/213329/3qkpwki_1755147637109.jpg",
        "location": "聖地巡礼回",
        "point_id": "3qkpwki",
        "point_name": "肴屋",
        "remark": "少女与战车"
      },
      "type": "Feature"
    },
    {
      "geometry": {
        "coordinates": [
          140.588181,
          36.315388
        ],
        "type": "Point"
      },
      "properties": {
        "bangumi_id": 213329,
        "bangumi_title": "动画同好会",
        "ep_cut": 6,
        "image_url": "https://w.junreimap.com/images/points/213329/3qkxyey_1755148045317.jpg",
        "location": "聖地巡礼回",
        "point_id": "3qkxyey",
        "point_name": "大洗磯前神社 階段",
        "remark": "少女与战车"
      },
      "type": "Feature"
    },
    {
      "geometry": {
        "coordinates": [
          140.587422,
          36.315716
        ],
        "type": "Point"
      },
      "properties": {
        "bangumi_id": 213329,
        "bangumi_title": "动画同好会",
        "ep_cut": 6,
        "image_url": "https://w.junreimap.com/images/points/213329/3ql8cnl_1755148511910.jpg",
        "location": "聖地巡礼回",
        "point_id": "3ql8cnl",
        "point_name": "磯前神社絵馬",
        "remark": "少女与战车"
      },
      "type": "Feature"
    }
  ],
  "type": "FeatureCollection"
}