{
  "features": [
    {
      "geometry": {
        "coordinates": [
          139.781478,
          35.625128
        ],
        "type": "Point"
      },
      "properties": {
        "bangumi_id": 213816,
        "bangumi_title": "ReLIFE 完结篇",
        "ep_cut": "3",
        "image_url": "https://w.junreimap.com/images/user/2205/bangumi/213816/points/as901t0-1770486386038.jpg",
        "location": "",
        "point_id": "as901t0",
        "point_name": "青海站",
        "remark": ""
      },
      "type": "Feature"
    },
    {
      "geometry": {
        "coordinates": [
          139.780921,
          35.625337
        ],
        "type": "Point"
      },
      "properties": {
        "bangumi_id": 213816,
        "bangumi_title": "ReLIFE 完结篇",
        "ep_cut": "3",
        "image_url": "https://w.junreimap.com/images/user/2205/bangumi/213816/points/as99d1f-1770486791234.jpg",
        "location": "",
        "point_id": "as99d1f",
        "point_name": "商场二楼",
        "remark": "看视角是二楼，但不知道具体位置，后面都是在这个商场，我上传几张，其他的各位巡礼去找上传吧"
      },
      "type": "Feature"
    },
    {
      "geometry": {
        "coordinates": [
          139.779345,
          35.626987
        ],
        "type": "Point"
      },
      "properties": {
        "bangumi_id": 213816,
        "bangumi_title": "ReLIFE 完结篇",
        "ep_cut": "3",
        "image_url": "https://w.junreimap.com/images/user/2205/bangumi/213816/points/as91pe4-1770486445119.jpg",
        "location": "",
        "point_id": "as91pe4",
        "point_name": "东京电讯站",
        "remark": "谷歌街景在2016年前都有摩天轮，后面停业拆除了。就是每次去台场我都是坐这个车站，就因为摩天轮没有了，我不敢确定位置，因为前面有定位位置，找到在台场青海站，再看一遍剧情看见后面的外观和桥才确定位置，摩天轮改修卡丁车了，下次去台场又得重新来这里了"
      },
      "type": "Feature"
    },
    {
      "geometry": {
        "coordinates": [
          139.780925,
          35.625337
        ],
        "type": "Point"
      },
      "properties": {
        "bangumi_id": 213816,
        "bangumi_title": "ReLIFE 完结篇",
        "ep_cut": "3",
        "image_url": "https://w.junreimap.com/images/user/2205/bangumi/213816/points/as9bk1n-1770486907971.jpg",
        "location": "",
        "point_id": "as9bk1n",
        "point_name": "商场",
        "remark": ""
      },
      "type": "Feature"
    },
    {
      "geometry": {
        "coordinates": [
          139.780536,
          35.626248
        ],
        "type": "Point"
      },
      "properties": {
        "bangumi_id": 213816,
        "bangumi_title": "ReLIFE 完结篇",
        "ep_cut": "3",
        "image_url": "https://w.junreimap.com/images/user/2205/bangumi/213816/points/as9cu17-1770486951858.jpg",
        "location": "",
        "point_id": "as9cu17",
        "point_name": "商场前",
        "remark": "楼梯还在，这个应该不会变。就是摩天轮，哎，这也说明阳炎的取景也没有了，也是同一个取景"
      },
      "type": "Feature"
    },
    {
      "geometry": {
        "coordinates": [
          139.780599,
          35.626291
        ],
        "type": "Point"
      },
      "properties": {
        "bangumi_id": 213816,
        "bangumi_title": "ReLIFE 完结篇",
        "ep_cut": "3",
        "image_url": "https://w.junreimap.com/images/user/2205/bangumi/213816/points/as9f7sa-1770487063320.jpg",
        "location": "",
        "point_id": "as9f7sa",
        "point_name": "楼梯前",
        "remark": ""
      },
      "type": "Feature"
    },
    {
      "geometry": {
        "coordinates": [
          139.780587,
          35.626232
        ],
        "type": "Point"
      },
      "properties": {
        "bangumi_id": 213816,
        "bangumi_title": "ReLIFE 完结篇",
        "ep_cut": "3",
        "image_url": "https://w.junreimap.com/images/user/2205/bangumi/213816/points/as9lapt-1770487355136.jpg",
        "location": "",
        "point_id": "as9lapt",
        "point_name": "楼梯前",
        "remark": "在电扶梯和楼梯前，24年街景还有黑色的大屏，左面的房子没了"
      },
      "type": "Feature"
    },
    {
      "geometry": {
        "coordinates": [
          139.777638,
          35.625088
        ],
        "type": "Point"
      },
      "properties": {
        "bangumi_id": 213816,
        "bangumi_title": "ReLIFE 完结篇",
        "ep_cut": "3",
        "image_url": "https://w.junreimap.com/images/user/2205/bangumi/213816/points/asa0es8-1770488071722.jpg",
        "location": "",
        "point_id": "asa0es8",
        "point_name": "deai bridge",
        "remark": "根据左右两面都有植物花台，还有桥的围栏，可以确定。另外的一座梦都大桥围栏和植物都不满足，左面的那个高台确实找不到，这个位置正确75%吧。一想到我从会展中心走到台场用了一个小时巡礼了物语还有学生会，以及一些其他的动漫，没看出这里是relife取景还得来一次"
      },
      "type": "Feature"
    },
    {
      "geometry": {
        "coordinates": [
          139.777495,
          35.625064
        ],
        "type": "Point"
      },
      "properties": {
        "bangumi_id": 213816,
        "bangumi_title": "ReLIFE 完结篇",
        "ep_cut": "3",
        "image_url": "https://w.junreimap.com/images/user/2205/bangumi/213816/points/asa76by-1770488373948.jpg",
        "location": "",
        "point_id": "asa76by",
        "point_name": "桥",
        "remark": "这次来台场主要巡礼推子还有恋人不行，然后最后一天去终末地联动和买东西去了，导致物语的告白取景没去，主要这个位置比较远从新木场走过去要一个小时，比较费时间有公交，还有这个取景有bang,fate,失忆投捕，算是比较出名的一个公园了就是比较远"
      },
      "type": "Feature"
    },
    {
      "geometry": {
        "coordinates": [
          139.777224,
          35.62489
        ],
        "type": "Point"
      },
      "properties": {
        "bangumi_id": 213816,
        "bangumi_title": "ReLIFE 完结篇",
        "ep_cut": "3",
        "image_url": "https://w.junreimap.com/images/user/2205/bangumi/213816/points/asae297-1770488696639.jpg",
        "location": "",
        "point_id": "asae297",
        "point_name": "桥",
        "remark": "说实话，看这一张，我感觉50%正确了"
      },
      "type": "Feature"
    },
    {
      "geometry": {
        "coordinates": [
          139.77754,
          35.625008
        ],
        "type": "Point"
      },
      "properties": {
        "bangumi_id": 213816,
        "bangumi_title": "ReLIFE 完结篇",
        "ep_cut": "3",
        "image_url": "https://w.junreimap.com/images/user/2205/bangumi/213816/points/asag1xh-1770488794453.jpg",
        "location": "",
        "point_id": "asag1xh",
        "point_name": "桥",
        "remark": ""
      },
      "type": "Feature"
    },
    {
      "geometry": {
        "coordinates": [
          139.777342,
          35.62513
        ],
        "type": "Point"
      },
      "properties": {
        "bangumi_id": 213816,
        "bangumi_title": "ReLIFE 完结篇",
        "ep_cut": "3",
        "image_url": "https://w.junreimap.com/images/user/2205/bangumi/213816/points/asahlkp-1770488853716.jpg",
        "location": "",
        "point_id": "asahlkp",
        "point_name": "桥",
        "remark": ""
      },
      "type": "Feature"
    },
    {
      "geometry": {
        "coordinates": [
          139.777331,
          35.624912
        ],
        "type": "Point"
      },
      "properties": {
        "bangumi_id": 213816,
        "bangumi_title": "ReLIFE 完结篇",
        "ep_cut": "3",
        "image_url": "https://w.junreimap.com/images/user/2205/bangumi/213816/points/asaic8v-1770488887480.jpg",
        "location": "",
        "point_id": "asaic8v",
        "point_name": "桥",
        "remark": ""
      },
      "type": "Feature"
    }
  ],
  "type": "FeatureCollection"
}