{
  "features": [
    {
      "geometry": {
        "coordinates": [
          139.312966,
          35.856027
        ],
        "type": "Point"
      },
      "properties": {
        "bangumi_id": 216310,
        "bangumi_title": "向山进发 第三季",
        "ep_cut": 1,
        "image_url": "https://w.junreimap.com/images/points/216310/ly8ghwif1_1720069356586.jpg",
        "location": "",
        "point_id": "ly8ghwif1",
        "point_name": "観音寺",
        "remark": ""
      },
      "type": "Feature"
    },
    {
      "geometry": {
        "coordinates": [
          139.312315,
          35.855215
        ],
        "type": "Point"
      },
      "properties": {
        "bangumi_id": 216310,
        "bangumi_title": "向山进发 第三季",
        "ep_cut": 13,
        "image_url": "https://w.junreimap.com/images/points/216310/ly8tew5w7_1720070143457.jpg",
        "location": "",
        "point_id": "ly8tew5w7",
        "point_name": "飯能河原ステージ広場",
        "remark": "目前正在施工，预计施工时间到26年8月"
      },
      "type": "Feature"
    },
    {
      "geometry": {
        "coordinates": [
          139.309585,
          35.858669
        ],
        "type": "Point"
      },
      "properties": {
        "bangumi_id": 216310,
        "bangumi_title": "向山进发 第三季",
        "ep_cut": 1,
        "image_url": "https://w.junreimap.com/images/points/216310/ly9iks5dk_1720071750855.jpg",
        "location": "",
        "point_id": "ly9iks5dk",
        "point_name": 8,
        "remark": ""
      },
      "type": "Feature"
    },
    {
      "geometry": {
        "coordinates": [
          140.106706,
          36.225328
        ],
        "type": "Point"
      },
      "properties": {
        "bangumi_id": 216310,
        "bangumi_title": "向山进发 第三季",
        "ep_cut": 1,
        "image_url": "https://w.junreimap.com/images/user/0/bangumi/216310/points/nrne38kan-1725195528099.jpg",
        "location": "筑波山",
        "point_id": "nrne38kan",
        "point_name": "筑波山",
        "remark": ""
      },
      "type": "Feature"
    },
    {
      "geometry": {
        "coordinates": [
          140.119017,
          36.219737
        ],
        "type": "Point"
      },
      "properties": {
        "bangumi_id": 216310,
        "bangumi_title": "向山进发 第三季",
        "ep_cut": 1,
        "image_url": "https://w.junreimap.com/images/points/216310/qdeh2h5pm_1732542374171.jpg",
        "location": "筑波山",
        "point_id": "qdeh2h5pm",
        "point_name": "つつじケ丘駅",
        "remark": ""
      },
      "type": "Feature"
    },
    {
      "geometry": {
        "coordinates": [
          140.118799,
          36.220292
        ],
        "type": "Point"
      },
      "properties": {
        "bangumi_id": 216310,
        "bangumi_title": "向山进发 第三季",
        "ep_cut": 1,
        "image_url": "https://w.junreimap.com/images/points/216310/qdeu0eeab_1732543136431.jpg",
        "location": "筑波山",
        "point_id": "qdeu0eeab",
        "point_name": "筑波山登山口",
        "remark": ""
      },
      "type": "Feature"
    },
    {
      "geometry": {
        "coordinates": [
          140.11148,
          36.224371
        ],
        "type": "Point"
      },
      "properties": {
        "bangumi_id": 216310,
        "bangumi_title": "向山进发 第三季",
        "ep_cut": 1,
        "image_url": "https://w.junreimap.com/images/points/216310/qdf121jdu_1732543558607.jpg",
        "location": "筑波山",
        "point_id": "qdf121jdu",
        "point_name": "母の胎内くぐり",
        "remark": ""
      },
      "type": "Feature"
    },
    {
      "geometry": {
        "coordinates": [
          140.10885,
          36.225112
        ],
        "type": "Point"
      },
      "properties": {
        "bangumi_id": 216310,
        "bangumi_title": "向山进发 第三季",
        "ep_cut": 1,
        "image_url": "https://w.junreimap.com/images/points/216310/qdf9vkxuw_1732544145662.jpg",
        "location": "筑波山",
        "point_id": "qdf9vkxuw",
        "point_name": "北斗岩",
        "remark": ""
      },
      "type": "Feature"
    },
    {
      "geometry": {
        "coordinates": [
          139.260372,
          35.892308
        ],
        "type": "Point"
      },
      "properties": {
        "bangumi_id": 216310,
        "bangumi_title": "向山进发 第三季",
        "ep_cut": 3,
        "image_url": "https://w.junreimap.com/images/points/216310/qdfeyxori_1732544437401.jpg",
        "location": "飯能アルプス",
        "point_id": "qdfeyxori",
        "point_name": "東吾野駅",
        "remark": ""
      },
      "type": "Feature"
    },
    {
      "geometry": {
        "coordinates": [
          139.259677,
          35.893094
        ],
        "type": "Point"
      },
      "properties": {
        "bangumi_id": 216310,
        "bangumi_title": "向山进发 第三季",
        "ep_cut": 3,
        "image_url": "https://w.junreimap.com/images/points/216310/qdfm10dv7_1732544828656.jpg",
        "location": "飯能アルプス",
        "point_id": "qdfm10dv7",
        "point_name": "東吾野駅踏切前",
        "remark": ""
      },
      "type": "Feature"
    },
    {
      "geometry": {
        "coordinates": [
          139.249069,
          35.886756
        ],
        "type": "Point"
      },
      "properties": {
        "bangumi_id": 216310,
        "bangumi_title": "向山进发 第三季",
        "ep_cut": 3,
        "image_url": "https://w.junreimap.com/images/points/216310/qdg5u91mg_1732546891815.jpg",
        "location": "飯能アルプス",
        "point_id": "qdg5u91mg",
        "point_name": "天覚山",
        "remark": ""
      },
      "type": "Feature"
    },
    {
      "geometry": {
        "coordinates": [
          139.234519,
          35.895015
        ],
        "type": "Point"
      },
      "properties": {
        "bangumi_id": 216310,
        "bangumi_title": "向山进发 第三季",
        "ep_cut": 3,
        "image_url": "https://w.junreimap.com/images/points/216310/qdgpkg8ji_1732547276778.jpg",
        "location": "飯能アルプス",
        "point_id": "qdgpkg8ji",
        "point_name": "大岩",
        "remark": ""
      },
      "type": "Feature"
    },
    {
      "geometry": {
        "coordinates": [
          139.23294,
          35.898191
        ],
        "type": "Point"
      },
      "properties": {
        "bangumi_id": 216310,
        "bangumi_title": "向山进发 第三季",
        "ep_cut": 3,
        "image_url": "https://w.junreimap.com/images/points/216310/qdgrn7lr5_1732547401930.jpg",
        "location": "飯能アルプス",
        "point_id": "qdgrn7lr5",
        "point_name": "大高山",
        "remark": ""
      },
      "type": "Feature"
    },
    {
      "geometry": {
        "coordinates": [
          139.18962,
          35.907121
        ],
        "type": "Point"
      },
      "properties": {
        "bangumi_id": 216310,
        "bangumi_title": "向山进发 第三季",
        "ep_cut": 3,
        "image_url": "https://w.junreimap.com/images/points/216310/qdgw8uzaa_1732547629545.jpg",
        "location": "飯能アルプス",
        "point_id": "qdgw8uzaa",
        "point_name": "子の権現天龍寺 仁王像",
        "remark": ""
      },
      "type": "Feature"
    },
    {
      "geometry": {
        "coordinates": [
          139.189056,
          35.907348
        ],
        "type": "Point"
      },
      "properties": {
        "bangumi_id": 216310,
        "bangumi_title": "向山进发 第三季",
        "ep_cut": 3,
        "image_url": "https://w.junreimap.com/images/points/216310/qdgymhqyn_1732547852176.jpg",
        "location": "飯能アルプス",
        "point_id": "qdgymhqyn",
        "point_name": "子の権現天龍寺 本堂",
        "remark": ""
      },
      "type": "Feature"
    },
    {
      "geometry": {
        "coordinates": [
          139.188911,
          35.907233
        ],
        "type": "Point"
      },
      "properties": {
        "bangumi_id": 216310,
        "bangumi_title": "向山进发 第三季",
        "ep_cut": 3,
        "image_url": "https://w.junreimap.com/images/points/216310/qdh1ubcj0_1732547955065.jpg",
        "location": "飯能アルプス",
        "point_id": "qdh1ubcj0",
        "point_name": "子の権現天龍寺 鉄わらじ",
        "remark": ""
      },
      "type": "Feature"
    },
    {
      "geometry": {
        "coordinates": [
          139.072607,
          36.383498
        ],
        "type": "Point"
      },
      "properties": {
        "bangumi_id": 216310,
        "bangumi_title": "向山进发 第三季",
        "ep_cut": 8,
        "image_url": "https://w.junreimap.com/images/points/216310/qdhjf3shv_1732549497980.jpg",
        "location": "赤城山へ",
        "point_id": "qdhjf3shv",
        "point_name": "前橋​駅​北口",
        "remark": ""
      },
      "type": "Feature"
    },
    {
      "geometry": {
        "coordinates": [
          139.183827,
          36.546258
        ],
        "type": "Point"
      },
      "properties": {
        "bangumi_id": 216310,
        "bangumi_title": "向山进发 第三季",
        "ep_cut": 8,
        "image_url": "https://w.junreimap.com/images/points/216310/qdhmc9ba9_1732549580840.jpg",
        "location": "赤城山へ",
        "point_id": "qdhmc9ba9",
        "point_name": "赤城山大洞バス停",
        "remark": "片道1500円"
      },
      "type": "Feature"
    },
    {
      "geometry": {
        "coordinates": [
          139.184999,
          36.55168
        ],
        "type": "Point"
      },
      "properties": {
        "bangumi_id": 216310,
        "bangumi_title": "向山进发 第三季",
        "ep_cut": 8,
        "image_url": "https://w.junreimap.com/images/points/216310/qdhuw6kyj_1732549735489.jpg",
        "location": "赤城山へ",
        "point_id": "qdhuw6kyj",
        "point_name": "赤城神社 啄木鳥橋",
        "remark": "架设新桥中，无法通过"
      },
      "type": "Feature"
    },
    {
      "geometry": {
        "coordinates": [
          139.177337,
          36.540914
        ],
        "type": "Point"
      },
      "properties": {
        "bangumi_id": 216310,
        "bangumi_title": "向山进发 第三季",
        "ep_cut": 9,
        "image_url": "https://w.junreimap.com/images/points/216310/qdhzow673_1732550127667.jpg",
        "location": "赤城山へ",
        "point_id": "qdhzow673",
        "point_name": "地蔵岳（赤城山）",
        "remark": ""
      },
      "type": "Feature"
    },
    {
      "geometry": {
        "coordinates": [
          139.184851,
          36.557239
        ],
        "type": "Point"
      },
      "properties": {
        "bangumi_id": 216310,
        "bangumi_title": "向山进发 第三季",
        "ep_cut": 9,
        "image_url": "https://w.junreimap.com/images/points/216310/qdi6zmn1p_1732550636769.jpg",
        "location": "赤城山へ",
        "point_id": "qdi6zmn1p",
        "point_name": "猫岩",
        "remark": "向湖中望去"
      },
      "type": "Feature"
    },
    {
      "geometry": {
        "coordinates": [
          139.184372,
          36.551604
        ],
        "type": "Point"
      },
      "properties": {
        "bangumi_id": 216310,
        "bangumi_title": "向山进发 第三季",
        "ep_cut": 9,
        "image_url": "https://w.junreimap.com/images/points/216310/qdibg628a_1732550817345.jpg",
        "location": "赤城山へ",
        "point_id": "qdibg628a",
        "point_name": "赤城神社 鳥居",
        "remark": ""
      },
      "type": "Feature"
    },
    {
      "geometry": {
        "coordinates": [
          139.183521,
          36.552525
        ],
        "type": "Point"
      },
      "properties": {
        "bangumi_id": 216310,
        "bangumi_title": "向山进发 第三季",
        "ep_cut": 9,
        "image_url": "https://w.junreimap.com/images/points/216310/qdife6cn3_1732550966544.jpg",
        "location": "赤城山へ",
        "point_id": "qdife6cn3",
        "point_name": "赤城神社",
        "remark": ""
      },
      "type": "Feature"
    },
    {
      "geometry": {
        "coordinates": [
          139.012431,
          36.321563
        ],
        "type": "Point"
      },
      "properties": {
        "bangumi_id": 216310,
        "bangumi_title": "向山进发 第三季",
        "ep_cut": 9,
        "image_url": "https://w.junreimap.com/images/points/216310/qdiptzzrj_1732551601232.jpg",
        "location": "赤城山へ",
        "point_id": "qdiptzzrj",
        "point_name": "高崎駅3番ホーム",
        "remark": ""
      },
      "type": "Feature"
    },
    {
      "geometry": {
        "coordinates": [
          138.578347,
          35.878653
        ],
        "type": "Point"
      },
      "properties": {
        "bangumi_id": 216310,
        "bangumi_title": "向山进发 第三季",
        "ep_cut": 11,
        "image_url": "https://w.junreimap.com/images/user/0/bangumi/216310/points/po6pumcgn-1730566564097.jpg",
        "location": "瑞墙山",
        "point_id": "po6pumcgn",
        "point_name": "瑞牆山荘",
        "remark": ""
      },
      "type": "Feature"
    },
    {
      "geometry": {
        "coordinates": [
          138.587541,
          35.882474
        ],
        "type": "Point"
      },
      "properties": {
        "bangumi_id": 216310,
        "bangumi_title": "向山进发 第三季",
        "ep_cut": 11,
        "image_url": "https://w.junreimap.com/images/user/0/bangumi/216310/points/po6v4ysgn-1730566696185.jpg",
        "location": "瑞墙山",
        "point_id": "po6v4ysgn",
        "point_name": "富士見平小屋",
        "remark": ""
      },
      "type": "Feature"
    },
    {
      "geometry": {
        "coordinates": [
          138.59217,
          35.887406
        ],
        "type": "Point"
      },
      "properties": {
        "bangumi_id": 216310,
        "bangumi_title": "向山进发 第三季",
        "ep_cut": 11,
        "image_url": "https://w.junreimap.com/images/user/0/bangumi/216310/points/po6wzau7s-1730566800820.jpg",
        "location": "瑞墙山",
        "point_id": "po6wzau7s",
        "point_name": "桃太郎岩",
        "remark": ""
      },
      "type": "Feature"
    },
    {
      "geometry": {
        "coordinates": [
          138.592069,
          35.893449
        ],
        "type": "Point"
      },
      "properties": {
        "bangumi_id": 216310,
        "bangumi_title": "向山进发 第三季",
        "ep_cut": 11,
        "image_url": "https://w.junreimap.com/images/user/0/bangumi/216310/points/po6y8lbn0-1730567024976.jpg",
        "location": "瑞墙山",
        "point_id": "po6y8lbn0",
        "point_name": "瑞牆山",
        "remark": ""
      },
      "type": "Feature"
    },
    {
      "geometry": {
        "coordinates": [
          138.62479,
          35.87084
        ],
        "type": "Point"
      },
      "properties": {
        "bangumi_id": 216310,
        "bangumi_title": "向山进发 第三季",
        "ep_cut": 12,
        "image_url": "https://w.junreimap.com/images/points/216310/qdj7j7dg4_1732554074210.jpg",
        "location": "金峰山",
        "point_id": "qdj7j7dg4",
        "point_name": "金峰山 五丈岩",
        "remark": ""
      },
      "type": "Feature"
    },
    {
      "geometry": {
        "coordinates": [
          138.62143,
          35.87034
        ],
        "type": "Point"
      },
      "properties": {
        "bangumi_id": 216310,
        "bangumi_title": "向山进发 第三季",
        "ep_cut": 12,
        "image_url": "https://w.junreimap.com/images/points/216310/qdjiu4ta7_1732553383944.jpg",
        "location": "金峰山",
        "point_id": "qdjiu4ta7",
        "point_name": "金峰山 千代ノ吹上",
        "remark": ""
      },
      "type": "Feature"
    },
    {
      "geometry": {
        "coordinates": [
          138.615605,
          35.871989
        ],
        "type": "Point"
      },
      "properties": {
        "bangumi_id": 216310,
        "bangumi_title": "向山进发 第三季",
        "ep_cut": 12,
        "image_url": "https://w.junreimap.com/images/points/216310/qdjz8e9u0_1732554328537.jpg",
        "location": "金峰山",
        "point_id": "qdjz8e9u0",
        "point_name": "金峰山 砂払ノ頭",
        "remark": ""
      },
      "type": "Feature"
    },
    {
      "geometry": {
        "coordinates": [
          138.606708,
          35.880335
        ],
        "type": "Point"
      },
      "properties": {
        "bangumi_id": 216310,
        "bangumi_title": "向山进发 第三季",
        "ep_cut": 12,
        "image_url": "https://w.junreimap.com/images/points/216310/qdjrkf2tm_1732554085153.jpg",
        "location": "金峰山",
        "point_id": "qdjrkf2tm",
        "point_name": "大日岩",
        "remark": ""
      },
      "type": "Feature"
    },
    {
      "geometry": {
        "coordinates": [
          139.310978,
          35.8562
        ],
        "type": "Point"
      },
      "properties": {
        "bangumi_id": 216310,
        "bangumi_title": "向山进发 第三季",
        "ep_cut": 13,
        "image_url": "https://w.junreimap.com/images/points/216310/ly97thy6u_1720071011778.jpg",
        "location": "",
        "point_id": "ly97thy6u",
        "point_name": "飯能河原水天宮付近",
        "remark": ""
      },
      "type": "Feature"
    },
    {
      "geometry": {
        "coordinates": [
          139.324725,
          35.859171
        ],
        "type": "Point"
      },
      "properties": {
        "bangumi_id": 216310,
        "bangumi_title": "向山进发 第三季",
        "ep_cut": 13,
        "image_url": "https://w.junreimap.com/images/user/0/bangumi/216310/points/m267ner8m-1720377964402.jpg",
        "location": "",
        "point_id": "m267ner8m",
        "point_name": "聖望學園正門",
        "remark": "为作品《向山进发》中角色「仓上 日向」&「雪村 葵」所就读的高中原型"
      },
      "type": "Feature"
    },
    {
      "geometry": {
        "coordinates": [
          139.311505,
          35.855989
        ],
        "type": "Point"
      },
      "properties": {
        "bangumi_id": 216310,
        "bangumi_title": "向山进发 第三季",
        "ep_cut": 13,
        "image_url": "https://w.junreimap.com/images/points/216310/ly9ab3mqt_1720071148429.jpg",
        "location": "",
        "point_id": "ly9ab3mqt",
        "point_name": "飯能河原 北侧",
        "remark": ""
      },
      "type": "Feature"
    },
    {
      "geometry": {
        "coordinates": [
          138.916588,
          36.498194
        ],
        "type": "Point"
      },
      "properties": {
        "bangumi_id": 216310,
        "bangumi_title": "向山进发 第三季",
        "ep_cut": 8,
        "image_url": "https://w.junreimap.com/images/user/0/bangumi/216310/points/1091b82a-1748593845484.jpg",
        "location": "",
        "point_id": "1091b82a",
        "point_name": "伊香保温泉石段街",
        "remark": ""
      },
      "type": "Feature"
    },
    {
      "geometry": {
        "coordinates": [
          138.916439,
          36.498358
        ],
        "type": "Point"
      },
      "properties": {
        "bangumi_id": 216310,
        "bangumi_title": "向山进发 第三季",
        "ep_cut": "",
        "image_url": "",
        "location": "",
        "point_id": "a63bf098",
        "point_name": "石段の湯",
        "remark": ""
      },
      "type": "Feature"
    },
    {
      "geometry": {
        "coordinates": [
          138.915908,
          36.495929
        ],
        "type": "Point"
      },
      "properties": {
        "bangumi_id": 216310,
        "bangumi_title": "向山进发 第三季",
        "ep_cut": "",
        "image_url": "",
        "location": "",
        "point_id": "c95bf217",
        "point_name": "伊香保神社",
        "remark": ""
      },
      "type": "Feature"
    },
    {
      "geometry": {
        "coordinates": [
          138.914883,
          36.492059
        ],
        "type": "Point"
      },
      "properties": {
        "bangumi_id": 216310,
        "bangumi_title": "向山进发 第三季",
        "ep_cut": "",
        "image_url": "",
        "location": "",
        "point_id": "927cf8e6",
        "point_name": "河鹿橋",
        "remark": ""
      },
      "type": "Feature"
    },
    {
      "geometry": {
        "coordinates": [
          138.915398,
          36.491818
        ],
        "type": "Point"
      },
      "properties": {
        "bangumi_id": 216310,
        "bangumi_title": "向山进发 第三季",
        "ep_cut": "",
        "image_url": "",
        "location": "",
        "point_id": "e09e4786",
        "point_name": "伊香保温泉飲泉所",
        "remark": ""
      },
      "type": "Feature"
    },
    {
      "geometry": {
        "coordinates": [
          138.916042,
          36.491192
        ],
        "type": "Point"
      },
      "properties": {
        "bangumi_id": 216310,
        "bangumi_title": "向山进发 第三季",
        "ep_cut": "",
        "image_url": "",
        "location": "",
        "point_id": "2584f7c4",
        "point_name": "伊香保露天風呂",
        "remark": ""
      },
      "type": "Feature"
    },
    {
      "geometry": {
        "coordinates": [
          138.852228,
          36.458457
        ],
        "type": "Point"
      },
      "properties": {
        "bangumi_id": 216310,
        "bangumi_title": "向山进发 第三季",
        "ep_cut": "",
        "image_url": "",
        "location": "",
        "point_id": "817b32dc",
        "point_name": "榛名神社 (上野國六宮)",
        "remark": ""
      },
      "type": "Feature"
    },
    {
      "geometry": {
        "coordinates": [
          138.987951,
          36.632195
        ],
        "type": "Point"
      },
      "properties": {
        "bangumi_id": 216310,
        "bangumi_title": "向山进发 第三季",
        "ep_cut": 5,
        "image_url": "https://w.junreimap.com/images/user/0/bangumi/216310/points/6p3d6xd-1761588440325.jpg",
        "location": "",
        "point_id": "6p3d6xd",
        "point_name": "ロックハート城 駐車場",
        "remark": ""
      },
      "type": "Feature"
    },
    {
      "geometry": {
        "coordinates": [
          138.988525,
          36.6307
        ],
        "type": "Point"
      },
      "properties": {
        "bangumi_id": 216310,
        "bangumi_title": "向山进发 第三季",
        "ep_cut": "5",
        "image_url": "https://w.junreimap.com/images/user/1073/bangumi/216310/points/6poebgl-1761623790297.jpg",
        "location": "",
        "point_id": "6poebgl",
        "point_name": "ロックハート城",
        "remark": "1829年建于苏格兰爱丁堡，1988年分块迁移至群马县高山村，1993年开放"
      },
      "type": "Feature"
    }
  ],
  "type": "FeatureCollection"
}