{
  "features": [
    {
      "geometry": {
        "coordinates": [
          139.31213,
          35.856954
        ],
        "type": "Point"
      },
      "properties": {
        "bangumi_id": 216311,
        "bangumi_title": "向山进发 回忆的礼物",
        "ep_cut": "",
        "image_url": "https://w.junreimap.com/images/user/1073/bangumi/216311/points/8034pof-1764429900102.jpg",
        "location": "",
        "point_id": "8034pof",
        "point_name": "諏訪沢",
        "remark": "ここな跟随小猫向八幡神社方向去"
      },
      "type": "Feature"
    },
    {
      "geometry": {
        "coordinates": [
          139.311795,
          35.857178
        ],
        "type": "Point"
      },
      "properties": {
        "bangumi_id": 216311,
        "bangumi_title": "向山进发 回忆的礼物",
        "ep_cut": "",
        "image_url": "https://w.junreimap.com/images/user/1073/bangumi/216311/points/80397be-1764430091267.jpg",
        "location": "",
        "point_id": "80397be",
        "point_name": "飯能丹生神社",
        "remark": ""
      },
      "type": "Feature"
    },
    {
      "geometry": {
        "coordinates": [
          139.311368,
          35.857189
        ],
        "type": "Point"
      },
      "properties": {
        "bangumi_id": 216311,
        "bangumi_title": "向山进发 回忆的礼物",
        "ep_cut": "",
        "image_url": "https://w.junreimap.com/images/user/1073/bangumi/216311/points/803coss-1764430256267.jpg",
        "location": "",
        "point_id": "803coss",
        "point_name": "諏訪八幡神社前",
        "remark": "ここな找到猫妈妈"
      },
      "type": "Feature"
    },
    {
      "geometry": {
        "coordinates": [
          139.32424,
          35.86349
        ],
        "type": "Point"
      },
      "properties": {
        "bangumi_id": 216311,
        "bangumi_title": "向山进发 回忆的礼物",
        "ep_cut": "",
        "image_url": "https://w.junreimap.com/images/user/1073/bangumi/216311/points/803kv1p-1764431116092.jpg",
        "location": "",
        "point_id": "803kv1p",
        "point_name": "加治神社入口",
        "remark": "回忆"
      },
      "type": "Feature"
    },
    {
      "geometry": {
        "coordinates": [
          139.324279,
          35.864239
        ],
        "type": "Point"
      },
      "properties": {
        "bangumi_id": 216311,
        "bangumi_title": "向山进发 回忆的礼物",
        "ep_cut": "",
        "image_url": "https://w.junreimap.com/images/user/1073/bangumi/216311/points/803wtqi-1764431194577.jpg",
        "location": "",
        "point_id": "803wtqi",
        "point_name": "加治神社",
        "remark": "回忆里，小ここな和妈妈一起“哇哈哈”"
      },
      "type": "Feature"
    },
    {
      "geometry": {
        "coordinates": [
          139.324257,
          35.863849
        ],
        "type": "Point"
      },
      "properties": {
        "bangumi_id": 216311,
        "bangumi_title": "向山进发 回忆的礼物",
        "ep_cut": "",
        "image_url": "https://w.junreimap.com/images/user/1073/bangumi/216311/points/8043ahw-1764431498308.jpg",
        "location": "",
        "point_id": "8043ahw",
        "point_name": "加治神社 階段",
        "remark": ""
      },
      "type": "Feature"
    },
    {
      "geometry": {
        "coordinates": [
          139.324022,
          35.864237
        ],
        "type": "Point"
      },
      "properties": {
        "bangumi_id": 216311,
        "bangumi_title": "向山进发 回忆的礼物",
        "ep_cut": "",
        "image_url": "https://w.junreimap.com/images/user/1073/bangumi/216311/points/80488c2-1764431789898.jpg",
        "location": "",
        "point_id": "80488c2",
        "point_name": "筆塚",
        "remark": "在神社左侧"
      },
      "type": "Feature"
    }
  ],
  "type": "FeatureCollection"
}