{
  "features": [
    {
      "geometry": {
        "coordinates": [
          139.847814,
          35.766851
        ],
        "type": "Point"
      },
      "properties": {
        "bangumi_id": 2166,
        "bangumi_title": "乌龙派出所",
        "ep_cut": "",
        "image_url": "https://w.junreimap.com/images/user/0/bangumi/2166/points/kpx6ojcle-1760336372762.jpg",
        "location": "",
        "point_id": "kpx6ojcle",
        "point_name": "両津勘吉像",
        "remark": ""
      },
      "type": "Feature"
    },
    {
      "geometry": {
        "coordinates": [
          139.848112,
          35.766983
        ],
        "type": "Point"
      },
      "properties": {
        "bangumi_id": 2166,
        "bangumi_title": "乌龙派出所",
        "ep_cut": "",
        "image_url": "",
        "location": "",
        "point_id": "kpx6ojcjf",
        "point_name": "麗子像",
        "remark": ""
      },
      "type": "Feature"
    },
    {
      "geometry": {
        "coordinates": [
          139.848366,
          35.767697
        ],
        "type": "Point"
      },
      "properties": {
        "bangumi_id": 2166,
        "bangumi_title": "乌龙派出所",
        "ep_cut": "",
        "image_url": "",
        "location": "",
        "point_id": "kpx6ojdba",
        "point_name": "ダブルピース両さん像",
        "remark": ""
      },
      "type": "Feature"
    },
    {
      "geometry": {
        "coordinates": [
          139.845357,
          35.76746
        ],
        "type": "Point"
      },
      "properties": {
        "bangumi_id": 2166,
        "bangumi_title": "乌龙派出所",
        "ep_cut": "",
        "image_url": "",
        "location": "",
        "point_id": "kpx6ojddk",
        "point_name": "敬礼両さん像",
        "remark": ""
      },
      "type": "Feature"
    },
    {
      "geometry": {
        "coordinates": [
          139.847471,
          35.765967
        ],
        "type": "Point"
      },
      "properties": {
        "bangumi_id": 2166,
        "bangumi_title": "乌龙派出所",
        "ep_cut": "",
        "image_url": "",
        "location": "",
        "point_id": "kpx6ojdi0",
        "point_name": "両津勘吉祭り姿像",
        "remark": ""
      },
      "type": "Feature"
    },
    {
      "geometry": {
        "coordinates": [
          139.848586,
          35.766006
        ],
        "type": "Point"
      },
      "properties": {
        "bangumi_id": 2166,
        "bangumi_title": "乌龙派出所",
        "ep_cut": "",
        "image_url": "",
        "location": "",
        "point_id": "kpx6ojdje",
        "point_name": "中川像",
        "remark": ""
      },
      "type": "Feature"
    },
    {
      "geometry": {
        "coordinates": [
          139.851049,
          35.765462
        ],
        "type": "Point"
      },
      "properties": {
        "bangumi_id": 2166,
        "bangumi_title": "乌龙派出所",
        "ep_cut": "",
        "image_url": "",
        "location": "",
        "point_id": "kpx6ojecq",
        "point_name": "少年よ、あの星を目指せ！両さん像",
        "remark": ""
      },
      "type": "Feature"
    },
    {
      "geometry": {
        "coordinates": [
          139.848793,
          35.764106
        ],
        "type": "Point"
      },
      "properties": {
        "bangumi_id": 2166,
        "bangumi_title": "乌龙派出所",
        "ep_cut": "",
        "image_url": "",
        "location": "",
        "point_id": "kpx6ojeci",
        "point_name": "少年両さん像",
        "remark": ""
      },
      "type": "Feature"
    },
    {
      "geometry": {
        "coordinates": [
          139.847833,
          35.764798
        ],
        "type": "Point"
      },
      "properties": {
        "bangumi_id": 2166,
        "bangumi_title": "乌龙派出所",
        "ep_cut": "",
        "image_url": "",
        "location": "",
        "point_id": "kpx6oje32",
        "point_name": "サンバ両さん像",
        "remark": ""
      },
      "type": "Feature"
    },
    {
      "geometry": {
        "coordinates": [
          139.847787,
          35.762894
        ],
        "type": "Point"
      },
      "properties": {
        "bangumi_id": 2166,
        "bangumi_title": "乌龙派出所",
        "ep_cut": "",
        "image_url": "",
        "location": "",
        "point_id": "kpx6oje1s",
        "point_name": "本田像",
        "remark": ""
      },
      "type": "Feature"
    },
    {
      "geometry": {
        "coordinates": [
          139.850035,
          35.762933
        ],
        "type": "Point"
      },
      "properties": {
        "bangumi_id": 2166,
        "bangumi_title": "乌龙派出所",
        "ep_cut": "",
        "image_url": "",
        "location": "",
        "point_id": "kpx6ojffe",
        "point_name": "ワハハ両さん像",
        "remark": ""
      },
      "type": "Feature"
    },
    {
      "geometry": {
        "coordinates": [
          139.77306,
          35.718589
        ],
        "type": "Point"
      },
      "properties": {
        "bangumi_id": 2166,
        "bangumi_title": "乌龙派出所",
        "ep_cut": 2,
        "image_url": "https://w.junreimap.com/images/user/0/bangumi/2166/points/46fsnz4-1756106832544.jpg",
        "location": "台东区",
        "point_id": "46fsnz4",
        "point_name": "東京藝術大學",
        "remark": ""
      },
      "type": "Feature"
    },
    {
      "geometry": {
        "coordinates": [
          139.774852,
          35.662214
        ],
        "type": "Point"
      },
      "properties": {
        "bangumi_id": 2166,
        "bangumi_title": "乌龙派出所",
        "ep_cut": 8,
        "image_url": "https://w.junreimap.com/images/user/0/bangumi/2166/points/46g6j27-1756107476424.jpg",
        "location": "中央区",
        "point_id": "46g6j27",
        "point_name": "勝鬨橋",
        "remark": "实际视角未知"
      },
      "type": "Feature"
    },
    {
      "geometry": {
        "coordinates": [
          139.79215,
          35.69678
        ],
        "type": "Point"
      },
      "properties": {
        "bangumi_id": 2166,
        "bangumi_title": "乌龙派出所",
        "ep_cut": 9,
        "image_url": "https://w.junreimap.com/images/user/0/bangumi/2166/points/46gbflh-1756107822979.jpg",
        "location": "墨田区",
        "point_id": "46gbflh",
        "point_name": "両国国技館",
        "remark": ""
      },
      "type": "Feature"
    },
    {
      "geometry": {
        "coordinates": [
          139.767074,
          35.699304
        ],
        "type": "Point"
      },
      "properties": {
        "bangumi_id": 2166,
        "bangumi_title": "乌龙派出所",
        "ep_cut": 47,
        "image_url": "https://w.junreimap.com/images/user/0/bangumi/2166/points/484g05k-1756208745627.jpg",
        "location": "",
        "point_id": "484g05k",
        "point_name": "聖橋",
        "remark": "千代田区"
      },
      "type": "Feature"
    },
    {
      "geometry": {
        "coordinates": [
          135.777253,
          35.003746
        ],
        "type": "Point"
      },
      "properties": {
        "bangumi_id": 2166,
        "bangumi_title": "乌龙派出所",
        "ep_cut": 18,
        "image_url": "https://w.junreimap.com/images/user/0/bangumi/2166/points/484q1o1-1756209185535.jpg",
        "location": "京都",
        "point_id": "484q1o1",
        "point_name": "八坂神社",
        "remark": ""
      },
      "type": "Feature"
    },
    {
      "geometry": {
        "coordinates": [
          135.771615,
          35.00388
        ],
        "type": "Point"
      },
      "properties": {
        "bangumi_id": 2166,
        "bangumi_title": "乌龙派出所",
        "ep_cut": 18,
        "image_url": "https://w.junreimap.com/images/user/0/bangumi/2166/points/484yt7i-1756209578633.jpg",
        "location": "京都",
        "point_id": "484yt7i",
        "point_name": "鸭川",
        "remark": ""
      },
      "type": "Feature"
    },
    {
      "geometry": {
        "coordinates": [
          135.781424,
          35.004867
        ],
        "type": "Point"
      },
      "properties": {
        "bangumi_id": 2166,
        "bangumi_title": "乌龙派出所",
        "ep_cut": 18,
        "image_url": "https://w.junreimap.com/images/user/0/bangumi/2166/points/485hdlr-1756210433300.jpg",
        "location": "京都",
        "point_id": "485hdlr",
        "point_name": "三門",
        "remark": ""
      },
      "type": "Feature"
    },
    {
      "geometry": {
        "coordinates": [
          135.72884,
          35.039298
        ],
        "type": "Point"
      },
      "properties": {
        "bangumi_id": 2166,
        "bangumi_title": "乌龙派出所",
        "ep_cut": 18,
        "image_url": "https://w.junreimap.com/images/user/0/bangumi/2166/points/485mbh8-1756210685854.jpg",
        "location": "京都",
        "point_id": "485mbh8",
        "point_name": "金閣寺",
        "remark": ""
      },
      "type": "Feature"
    },
    {
      "geometry": {
        "coordinates": [
          135.751348,
          35.011923
        ],
        "type": "Point"
      },
      "properties": {
        "bangumi_id": 2166,
        "bangumi_title": "乌龙派出所",
        "ep_cut": 18,
        "image_url": "https://w.junreimap.com/images/user/0/bangumi/2166/points/485u3we-1756211067323.jpg",
        "location": "京都",
        "point_id": "485u3we",
        "point_name": "元離宮二条城",
        "remark": "推测视角，略有不同"
      },
      "type": "Feature"
    }
  ],
  "type": "FeatureCollection"
}