{
  "features": [
    {
      "geometry": {
        "coordinates": [
          134.169935,
          34.474006
        ],
        "type": "Point"
      },
      "properties": {
        "bangumi_id": 219200,
        "bangumi_title": "擅长捉弄的高木同学",
        "ep_cut": "",
        "image_url": "https://w.junreimap.com/images/points/219200/u3qz210j5_1743070350439.jpg",
        "location": "土庄町-鹿岛明神社",
        "point_id": "u3qz210j5",
        "point_name": "鹿島明神社",
        "remark": ""
      },
      "type": "Feature"
    },
    {
      "geometry": {
        "coordinates": [
          134.169983,
          34.473986
        ],
        "type": "Point"
      },
      "properties": {
        "bangumi_id": 219200,
        "bangumi_title": "擅长捉弄的高木同学",
        "ep_cut": "",
        "image_url": "https://w.junreimap.com/images/points/219200/u3qzhq37k_1743070369002.jpg",
        "location": "土庄町-鹿岛明神社",
        "point_id": "u3qzhq37k",
        "point_name": "鹿島明神社",
        "remark": ""
      },
      "type": "Feature"
    },
    {
      "geometry": {
        "coordinates": [
          134.169926,
          34.473968
        ],
        "type": "Point"
      },
      "properties": {
        "bangumi_id": 219200,
        "bangumi_title": "擅长捉弄的高木同学",
        "ep_cut": "",
        "image_url": "https://w.junreimap.com/images/points/219200/u3qzkr5xq_1743070373433.jpg",
        "location": "土庄町-鹿岛明神社",
        "point_id": "u3qzkr5xq",
        "point_name": "鹿島明神社",
        "remark": "以西南侧的绘马为参考方位"
      },
      "type": "Feature"
    },
    {
      "geometry": {
        "coordinates": [
          134.169874,
          34.473944
        ],
        "type": "Point"
      },
      "properties": {
        "bangumi_id": 219200,
        "bangumi_title": "擅长捉弄的高木同学",
        "ep_cut": "",
        "image_url": "https://w.junreimap.com/images/points/219200/u3r06xy58_1743070410919.jpg",
        "location": "土庄町-鹿岛明神社",
        "point_id": "u3r06xy58",
        "point_name": "鹿島明神社",
        "remark": ""
      },
      "type": "Feature"
    },
    {
      "geometry": {
        "coordinates": [
          134.169859,
          34.474083
        ],
        "type": "Point"
      },
      "properties": {
        "bangumi_id": 219200,
        "bangumi_title": "擅长捉弄的高木同学",
        "ep_cut": "",
        "image_url": "https://w.junreimap.com/images/points/219200/u3r0bqmno_1743070419067.jpg",
        "location": "土庄町-鹿岛明神社",
        "point_id": "u3r0bqmno",
        "point_name": "鹿島明神社",
        "remark": ""
      },
      "type": "Feature"
    },
    {
      "geometry": {
        "coordinates": [
          134.169818,
          34.474151
        ],
        "type": "Point"
      },
      "properties": {
        "bangumi_id": 219200,
        "bangumi_title": "擅长捉弄的高木同学",
        "ep_cut": "",
        "image_url": "https://w.junreimap.com/images/points/219200/u3r0giltt_1743070427200.jpg",
        "location": "土庄町-鹿岛明神社",
        "point_id": "u3r0giltt",
        "point_name": "鹿島明神社",
        "remark": ""
      },
      "type": "Feature"
    },
    {
      "geometry": {
        "coordinates": [
          134.169779,
          34.47398
        ],
        "type": "Point"
      },
      "properties": {
        "bangumi_id": 219200,
        "bangumi_title": "擅长捉弄的高木同学",
        "ep_cut": "",
        "image_url": "https://w.junreimap.com/images/points/219200/u3r0m0lv0_1743070437934.jpg",
        "location": "土庄町-鹿岛明神社",
        "point_id": "u3r0m0lv0",
        "point_name": "鹿島明神社",
        "remark": ""
      },
      "type": "Feature"
    },
    {
      "geometry": {
        "coordinates": [
          134.169896,
          34.474072
        ],
        "type": "Point"
      },
      "properties": {
        "bangumi_id": 219200,
        "bangumi_title": "擅长捉弄的高木同学",
        "ep_cut": "",
        "image_url": "https://w.junreimap.com/images/points/219200/u3r0ze3c3_1743070458547.jpg",
        "location": "土庄町-鹿岛明神社",
        "point_id": "u3r0ze3c3",
        "point_name": "鹿島明神社",
        "remark": ""
      },
      "type": "Feature"
    },
    {
      "geometry": {
        "coordinates": [
          134.170125,
          34.473879
        ],
        "type": "Point"
      },
      "properties": {
        "bangumi_id": 219200,
        "bangumi_title": "擅长捉弄的高木同学",
        "ep_cut": "",
        "image_url": "https://w.junreimap.com/images/points/219200/u3r15zfhp_1743070473945.jpg",
        "location": "土庄町-鹿岛明神社",
        "point_id": "u3r15zfhp",
        "point_name": "鹿島明神社",
        "remark": "位于神社前台阶的西侧"
      },
      "type": "Feature"
    },
    {
      "geometry": {
        "coordinates": [
          134.170186,
          34.473902
        ],
        "type": "Point"
      },
      "properties": {
        "bangumi_id": 219200,
        "bangumi_title": "擅长捉弄的高木同学",
        "ep_cut": "",
        "image_url": "https://w.junreimap.com/images/points/219200/u3r3uikkv_1743070635096.jpg",
        "location": "土庄町-鹿岛明神社",
        "point_id": "u3r3uikkv",
        "point_name": "鹿島明神社",
        "remark": ""
      },
      "type": "Feature"
    },
    {
      "geometry": {
        "coordinates": [
          134.170263,
          34.473628
        ],
        "type": "Point"
      },
      "properties": {
        "bangumi_id": 219200,
        "bangumi_title": "擅长捉弄的高木同学",
        "ep_cut": 7,
        "image_url": "https://w.junreimap.com/images/points/219200/u41l2r3rl_1743093447021.jpg",
        "location": "土庄町-鹿岛明神社",
        "point_id": "u41l2r3rl",
        "point_name": "鹿島明神社（鸟居）",
        "remark": "S03EP7"
      },
      "type": "Feature"
    },
    {
      "geometry": {
        "coordinates": [
          134.170029,
          34.473958
        ],
        "type": "Point"
      },
      "properties": {
        "bangumi_id": 219200,
        "bangumi_title": "擅长捉弄的高木同学",
        "ep_cut": "",
        "image_url": "https://w.junreimap.com/images/points/219200/u3r1k3id8_1743070501944.jpg",
        "location": "土庄町-鹿岛明神社",
        "point_id": "u3r1k3id8",
        "point_name": "鹿島明神社",
        "remark": ""
      },
      "type": "Feature"
    },
    {
      "geometry": {
        "coordinates": [
          134.170423,
          34.473662
        ],
        "type": "Point"
      },
      "properties": {
        "bangumi_id": 219200,
        "bangumi_title": "擅长捉弄的高木同学",
        "ep_cut": "",
        "image_url": "https://w.junreimap.com/images/points/219200/u3r1v1dy1_1743070512693.jpg",
        "location": "土庄町-鹿岛明神社",
        "point_id": "u3r1v1dy1",
        "point_name": "鹿島明神社",
        "remark": ""
      },
      "type": "Feature"
    },
    {
      "geometry": {
        "coordinates": [
          134.169769,
          34.474017
        ],
        "type": "Point"
      },
      "properties": {
        "bangumi_id": 219200,
        "bangumi_title": "擅长捉弄的高木同学",
        "ep_cut": "",
        "image_url": "https://w.junreimap.com/images/points/219200/u3r0qr1iv_1743070444275.jpg",
        "location": "土庄町-鹿岛明神社",
        "point_id": "u3r0qr1iv",
        "point_name": "鹿島明神社",
        "remark": ""
      },
      "type": "Feature"
    },
    {
      "geometry": {
        "coordinates": [
          134.170402,
          34.473716
        ],
        "type": "Point"
      },
      "properties": {
        "bangumi_id": 219200,
        "bangumi_title": "擅长捉弄的高木同学",
        "ep_cut": "",
        "image_url": "https://w.junreimap.com/images/points/219200/u3r3438rk_1743070587620.jpg",
        "location": "土庄町-鹿岛明神社",
        "point_id": "u3r3438rk",
        "point_name": "鹿島明神社前公园",
        "remark": ""
      },
      "type": "Feature"
    },
    {
      "geometry": {
        "coordinates": [
          134.170178,
          34.473746
        ],
        "type": "Point"
      },
      "properties": {
        "bangumi_id": 219200,
        "bangumi_title": "擅长捉弄的高木同学",
        "ep_cut": 3,
        "image_url": "https://w.junreimap.com/images/points/219200/u3r2p6n3b_1743070562271.jpg",
        "location": "土庄町-鹿岛明神社",
        "point_id": "u3r2p6n3b",
        "point_name": "鹿島明神社前公园",
        "remark": ""
      },
      "type": "Feature"
    },
    {
      "geometry": {
        "coordinates": [
          134.169963,
          34.47397
        ],
        "type": "Point"
      },
      "properties": {
        "bangumi_id": 219200,
        "bangumi_title": "擅长捉弄的高木同学",
        "ep_cut": "",
        "image_url": "https://w.junreimap.com/images/points/219200/u3r250b3y_1743070528719.jpg",
        "location": "土庄町-鹿岛明神社",
        "point_id": "u3r250b3y",
        "point_name": "鹿島明神社",
        "remark": ""
      },
      "type": "Feature"
    },
    {
      "geometry": {
        "coordinates": [
          134.170009,
          34.474032
        ],
        "type": "Point"
      },
      "properties": {
        "bangumi_id": 219200,
        "bangumi_title": "擅长捉弄的高木同学",
        "ep_cut": "",
        "image_url": "https://w.junreimap.com/images/points/219200/u3r3kwdye_1743070618177.jpg",
        "location": "土庄町-鹿岛明神社",
        "point_id": "u3r3kwdye",
        "point_name": "鹿島明神社",
        "remark": ""
      },
      "type": "Feature"
    },
    {
      "geometry": {
        "coordinates": [
          134.188648,
          34.477517
        ],
        "type": "Point"
      },
      "properties": {
        "bangumi_id": 219200,
        "bangumi_title": "擅长捉弄的高木同学",
        "ep_cut": 4,
        "image_url": "https://w.junreimap.com/images/points/219200/4w397pntq.jpg",
        "location": "土庄町-天使之路",
        "point_id": "4w397pntq",
        "point_name": "エンジェルロード",
        "remark": "HPで干潮の時間を確認しましょう"
      },
      "type": "Feature"
    },
    {
      "geometry": {
        "coordinates": [
          134.185,
          34.480391
        ],
        "type": "Point"
      },
      "properties": {
        "bangumi_id": 219200,
        "bangumi_title": "擅长捉弄的高木同学",
        "ep_cut": "",
        "image_url": "https://w.junreimap.com/images/points/219200/u3utwal52_1743078741706.jpg",
        "location": "土庄町-天使之路",
        "point_id": "u3utwal52",
        "point_name": "天空ホテル海廬",
        "remark": "天空海庐酒店门前右侧的陡峭人行台阶处，向天使之路方向拍摄。"
      },
      "type": "Feature"
    },
    {
      "geometry": {
        "coordinates": [
          134.188962,
          34.477904
        ],
        "type": "Point"
      },
      "properties": {
        "bangumi_id": 219200,
        "bangumi_title": "擅长捉弄的高木同学",
        "ep_cut": 12,
        "image_url": "https://w.junreimap.com/images/points/219200/4w397pnsq.jpg",
        "location": "土庄町-天使之路",
        "point_id": "4w397pnsq",
        "point_name": "エンジェルロードの丘(展望台)",
        "remark": "3期OP"
      },
      "type": "Feature"
    },
    {
      "geometry": {
        "coordinates": [
          134.188528,
          34.476617
        ],
        "type": "Point"
      },
      "properties": {
        "bangumi_id": 219200,
        "bangumi_title": "擅长捉弄的高木同学",
        "ep_cut": 8,
        "image_url": "https://w.junreimap.com/images/points/219200/4w397po80.jpg",
        "location": "土庄町-天使之路",
        "point_id": "4w397po80",
        "point_name": "弁天島(中与島)",
        "remark": "3期OP。島内は私有地なので注意。"
      },
      "type": "Feature"
    },
    {
      "geometry": {
        "coordinates": [
          134.343966,
          34.542567
        ],
        "type": "Point"
      },
      "properties": {
        "bangumi_id": 219200,
        "bangumi_title": "擅长捉弄的高木同学",
        "ep_cut": 12,
        "image_url": "https://w.junreimap.com/images/points/219200/tlz7wrrca_1741677766124_c16v9.jpg",
        "location": "小豆岛町-福田港",
        "point_id": "tlz7wrrca",
        "point_name": "寒霞溪路牌",
        "remark": "第三季"
      },
      "type": "Feature"
    },
    {
      "geometry": {
        "coordinates": [
          134.343711,
          34.542605
        ],
        "type": "Point"
      },
      "properties": {
        "bangumi_id": 219200,
        "bangumi_title": "擅长捉弄的高木同学",
        "ep_cut": 12,
        "image_url": "https://w.junreimap.com/images/points/219200/tlz8h4xww_1741677781118_c16v9.jpg",
        "location": "小豆岛町-福田港",
        "point_id": "tlz8h4xww",
        "point_name": "寒霞溪路牌",
        "remark": "第三季"
      },
      "type": "Feature"
    },
    {
      "geometry": {
        "coordinates": [
          134.343782,
          34.542691
        ],
        "type": "Point"
      },
      "properties": {
        "bangumi_id": 219200,
        "bangumi_title": "擅长捉弄的高木同学",
        "ep_cut": 12,
        "image_url": "https://w.junreimap.com/images/points/219200/tlzifq8ck_1741678409315.jpg",
        "location": "小豆岛町-福田港",
        "point_id": "tlzifq8ck",
        "point_name": "福田港站",
        "remark": "第三季"
      },
      "type": "Feature"
    },
    {
      "geometry": {
        "coordinates": [
          134.343824,
          34.542562
        ],
        "type": "Point"
      },
      "properties": {
        "bangumi_id": 219200,
        "bangumi_title": "擅长捉弄的高木同学",
        "ep_cut": 12,
        "image_url": "https://w.junreimap.com/images/points/219200/tlzanysdp_1741677915220_c16v9.jpg",
        "location": "小豆岛町-福田港",
        "point_id": "tlzanysdp",
        "point_name": "福田港自动贩卖机",
        "remark": "第三季"
      },
      "type": "Feature"
    },
    {
      "geometry": {
        "coordinates": [
          134.34422,
          34.542603
        ],
        "type": "Point"
      },
      "properties": {
        "bangumi_id": 219200,
        "bangumi_title": "擅长捉弄的高木同学",
        "ep_cut": 12,
        "image_url": "https://w.junreimap.com/images/points/219200/4w397po0y.jpg",
        "location": "小豆岛町-福田港",
        "point_id": "4w397po0y",
        "point_name": "福田港",
        "remark": "12話"
      },
      "type": "Feature"
    },
    {
      "geometry": {
        "coordinates": [
          134.343623,
          34.542821
        ],
        "type": "Point"
      },
      "properties": {
        "bangumi_id": 219200,
        "bangumi_title": "擅长捉弄的高木同学",
        "ep_cut": 12,
        "image_url": "https://w.junreimap.com/images/points/219200/4w397pnv7.jpg",
        "location": "小豆岛町-福田港",
        "point_id": "4w397pnv7",
        "point_name": "福田港前",
        "remark": "バス停は港に移転しました"
      },
      "type": "Feature"
    },
    {
      "geometry": {
        "coordinates": [
          134.354662,
          34.537585
        ],
        "type": "Point"
      },
      "properties": {
        "bangumi_id": 219200,
        "bangumi_title": "擅长捉弄的高木同学",
        "ep_cut": 12,
        "image_url": "https://w.junreimap.com/images/points/219200/4w397pobg.jpg",
        "location": "小豆岛町-福田港",
        "point_id": "4w397pobg",
        "point_name": "福田海岸",
        "remark": "福田海岸一带的标点均为理论大致位置，现实中不存在完全一致的取景。"
      },
      "type": "Feature"
    },
    {
      "geometry": {
        "coordinates": [
          134.35498,
          34.536908
        ],
        "type": "Point"
      },
      "properties": {
        "bangumi_id": 219200,
        "bangumi_title": "擅长捉弄的高木同学",
        "ep_cut": 12,
        "image_url": "https://w.junreimap.com/images/points/219200/xn0jin_1749044403625.jpg",
        "location": "小豆岛町-福田港",
        "point_id": "xn0jin",
        "point_name": "福田海岸",
        "remark": "福田海岸一带的标点均为理论大致位置，现实中不存在完全一致的取景。"
      },
      "type": "Feature"
    },
    {
      "geometry": {
        "coordinates": [
          134.355472,
          34.535403
        ],
        "type": "Point"
      },
      "properties": {
        "bangumi_id": 219200,
        "bangumi_title": "擅长捉弄的高木同学",
        "ep_cut": 12,
        "image_url": "https://w.junreimap.com/images/points/219200/xn1hpq_1749044437776.jpg",
        "location": "小豆岛町-福田港",
        "point_id": "xn1hpq",
        "point_name": "福田海岸",
        "remark": "理论位置，现实中不存在该公园。"
      },
      "type": "Feature"
    },
    {
      "geometry": {
        "coordinates": [
          134.173619,
          34.489314
        ],
        "type": "Point"
      },
      "properties": {
        "bangumi_id": 219200,
        "bangumi_title": "擅长捉弄的高木同学",
        "ep_cut": 21,
        "image_url": "https://w.junreimap.com/images/points/219200/4w397po2z.jpg",
        "location": "土庄町-土庄港",
        "point_id": "4w397po2z",
        "point_name": "土庄港",
        "remark": "3期キービジュアル"
      },
      "type": "Feature"
    },
    {
      "geometry": {
        "coordinates": [
          134.173121,
          34.488972
        ],
        "type": "Point"
      },
      "properties": {
        "bangumi_id": 219200,
        "bangumi_title": "擅长捉弄的高木同学",
        "ep_cut": 9,
        "image_url": "https://w.junreimap.com/images/points/219200/tm0ufbtdb_1741681277196.jpg",
        "location": "土庄町-土庄港",
        "point_id": "tm0ufbtdb",
        "point_name": "土庄港",
        "remark": ""
      },
      "type": "Feature"
    },
    {
      "geometry": {
        "coordinates": [
          134.173454,
          34.488878
        ],
        "type": "Point"
      },
      "properties": {
        "bangumi_id": 219200,
        "bangumi_title": "擅长捉弄的高木同学",
        "ep_cut": "",
        "image_url": "https://w.junreimap.com/images/points/219200/tm0xz177a_1741681491392.jpg",
        "location": "土庄町-土庄港",
        "point_id": "tm0xz177a",
        "point_name": "从土庄港向岛内街道眺望",
        "remark": ""
      },
      "type": "Feature"
    },
    {
      "geometry": {
        "coordinates": [
          134.173043,
          34.488969
        ],
        "type": "Point"
      },
      "properties": {
        "bangumi_id": 219200,
        "bangumi_title": "擅长捉弄的高木同学",
        "ep_cut": 9,
        "image_url": "https://w.junreimap.com/images/points/219200/tm0ui4b69_1741681281693.jpg",
        "location": "土庄町-土庄港",
        "point_id": "tm0ui4b69",
        "point_name": "土庄港",
        "remark": ""
      },
      "type": "Feature"
    },
    {
      "geometry": {
        "coordinates": [
          134.173082,
          34.488931
        ],
        "type": "Point"
      },
      "properties": {
        "bangumi_id": 219200,
        "bangumi_title": "擅长捉弄的高木同学",
        "ep_cut": 9,
        "image_url": "https://w.junreimap.com/images/points/219200/tm0ukvgle_1741681285775.jpg",
        "location": "土庄町-土庄港",
        "point_id": "tm0ukvgle",
        "point_name": "土庄港",
        "remark": ""
      },
      "type": "Feature"
    },
    {
      "geometry": {
        "coordinates": [
          134.173663,
          34.4893
        ],
        "type": "Point"
      },
      "properties": {
        "bangumi_id": 219200,
        "bangumi_title": "擅长捉弄的高木同学",
        "ep_cut": 9,
        "image_url": "https://w.junreimap.com/images/points/219200/tlzlu3o24_1741678582107.jpg",
        "location": "土庄町-土庄港",
        "point_id": "tlzlu3o24",
        "point_name": "土庄港",
        "remark": "第三季 \n两人一起看电影时的集合地"
      },
      "type": "Feature"
    },
    {
      "geometry": {
        "coordinates": [
          134.173294,
          34.489114
        ],
        "type": "Point"
      },
      "properties": {
        "bangumi_id": 219200,
        "bangumi_title": "擅长捉弄的高木同学",
        "ep_cut": 9,
        "image_url": "https://w.junreimap.com/images/points/219200/tm0vvokwt_1741681364492.jpg",
        "location": "土庄町-土庄港",
        "point_id": "tm0vvokwt",
        "point_name": "土庄港",
        "remark": ""
      },
      "type": "Feature"
    },
    {
      "geometry": {
        "coordinates": [
          134.173181,
          34.488963
        ],
        "type": "Point"
      },
      "properties": {
        "bangumi_id": 219200,
        "bangumi_title": "擅长捉弄的高木同学",
        "ep_cut": 9,
        "image_url": "https://w.junreimap.com/images/points/219200/tm0vyili6_1741681369065.jpg",
        "location": "土庄町-土庄港",
        "point_id": "tm0vyili6",
        "point_name": "土庄港",
        "remark": ""
      },
      "type": "Feature"
    },
    {
      "geometry": {
        "coordinates": [
          134.1729,
          34.488983
        ],
        "type": "Point"
      },
      "properties": {
        "bangumi_id": 219200,
        "bangumi_title": "擅长捉弄的高木同学",
        "ep_cut": 9,
        "image_url": "https://w.junreimap.com/images/points/219200/tm0w0z7c7_1741681373903.jpg",
        "location": "土庄町-土庄港",
        "point_id": "tm0w0z7c7",
        "point_name": "土庄港",
        "remark": ""
      },
      "type": "Feature"
    },
    {
      "geometry": {
        "coordinates": [
          134.174117,
          34.489354
        ],
        "type": "Point"
      },
      "properties": {
        "bangumi_id": 219200,
        "bangumi_title": "擅长捉弄的高木同学",
        "ep_cut": "",
        "image_url": "https://w.junreimap.com/images/points/219200/u3r7m9igg_1743070870175.jpg",
        "location": "土庄町-土庄港",
        "point_id": "u3r7m9igg",
        "point_name": "小豆島​観光​総合​案内​所",
        "remark": "二层土庄BASE设有高木同学联动展示室，内可领取高木同学巡礼地图一份（每日数量有限，请务必一人一份，确保后续游客可以领到）。展示室内设有签到本和留言贴。"
      },
      "type": "Feature"
    },
    {
      "geometry": {
        "coordinates": [
          134.172485,
          34.489161
        ],
        "type": "Point"
      },
      "properties": {
        "bangumi_id": 219200,
        "bangumi_title": "擅长捉弄的高木同学",
        "ep_cut": "",
        "image_url": "https://w.junreimap.com/images/points/219200/u3rbbf1os_1743071088203.jpg",
        "location": "土庄町-土庄港",
        "point_id": "u3rbbf1os",
        "point_name": "土庄港",
        "remark": "此处有时会有高木同学联名的渡轮停靠，具体时刻表可参考官网，私人汽车可以登船。照片中的是「第二しょうどしま丸」号，已于2024年秋退役，目前执勤的联动渡轮是自2024年10月11日投入运营的「第三しょうどしま丸」号。"
      },
      "type": "Feature"
    },
    {
      "geometry": {
        "coordinates": [
          134.174106,
          34.489385
        ],
        "type": "Point"
      },
      "properties": {
        "bangumi_id": 219200,
        "bangumi_title": "擅长捉弄的高木同学",
        "ep_cut": "",
        "image_url": "https://w.junreimap.com/images/points/219200/u3rdwjcf9_1743071240376.jpg",
        "location": "土庄町-土庄港",
        "point_id": "u3rdwjcf9",
        "point_name": "土庄港",
        "remark": "高木同学巨大海报位置附近（土庄BASE）\n这张海报在建筑北侧捏（）南侧的是另外一张"
      },
      "type": "Feature"
    },
    {
      "geometry": {
        "coordinates": [
          134.174346,
          34.48936
        ],
        "type": "Point"
      },
      "properties": {
        "bangumi_id": 219200,
        "bangumi_title": "擅长捉弄的高木同学",
        "ep_cut": "",
        "image_url": "https://w.junreimap.com/images/points/219200/u3rd4pu4f_1743071194236.jpg",
        "location": "土庄町-土庄港",
        "point_id": "u3rd4pu4f",
        "point_name": "土庄港",
        "remark": "小豆岛有一辆的士为高木同学联动痛车，上车即给纪念明信片。该痛车无固定出勤日，需要碰运气。"
      },
      "type": "Feature"
    },
    {
      "geometry": {
        "coordinates": [
          134.173845,
          34.48905
        ],
        "type": "Point"
      },
      "properties": {
        "bangumi_id": 219200,
        "bangumi_title": "擅长捉弄的高木同学",
        "ep_cut": "",
        "image_url": "https://w.junreimap.com/images/points/219200/u3r99e2dr_1743070964646.jpg",
        "location": "土庄町-土庄港",
        "point_id": "u3r99e2dr",
        "point_name": "小豆島​観光​総合​案内​所",
        "remark": "土庄BASE旁边的土庄港商店内长期出售高木同学联名商品（文件夹、橄榄油、面条等），也可以租借巡礼用的电动/非电动自行车。岛上游客交通不便，租借自行车前往小豆岛西部巡礼会方便很多。"
      },
      "type": "Feature"
    },
    {
      "geometry": {
        "coordinates": [
          134.195325,
          34.485541
        ],
        "type": "Point"
      },
      "properties": {
        "bangumi_id": 219200,
        "bangumi_title": "擅长捉弄的高木同学",
        "ep_cut": 12,
        "image_url": "https://w.junreimap.com/images/points/219200/u3t87nivh_1743075255919.jpg",
        "location": "土庄町东-富丘八幡神社",
        "point_id": "u3t87nivh",
        "point_name": "富丘八幡神社",
        "remark": "山顶神社前的长台阶，无法完全复刻远景，但是可以从台阶底下拍摄。"
      },
      "type": "Feature"
    },
    {
      "geometry": {
        "coordinates": [
          134.195367,
          34.485699
        ],
        "type": "Point"
      },
      "properties": {
        "bangumi_id": 219200,
        "bangumi_title": "擅长捉弄的高木同学",
        "ep_cut": "",
        "image_url": "https://w.junreimap.com/images/points/219200/u3t8g07at_1743075263343.jpg",
        "location": "土庄町东-富丘八幡神社",
        "point_id": "u3t8g07at",
        "point_name": "富丘八幡神社",
        "remark": "富丘八幡神社正门"
      },
      "type": "Feature"
    },
    {
      "geometry": {
        "coordinates": [
          134.195327,
          34.485494
        ],
        "type": "Point"
      },
      "properties": {
        "bangumi_id": 219200,
        "bangumi_title": "擅长捉弄的高木同学",
        "ep_cut": "",
        "image_url": "https://w.junreimap.com/images/points/219200/u3t8j1zga_1743075268270.jpg",
        "location": "土庄町东-富丘八幡神社",
        "point_id": "u3t8j1zga",
        "point_name": "富丘八幡神社",
        "remark": "山顶神社前的长台阶下南望海景"
      },
      "type": "Feature"
    },
    {
      "geometry": {
        "coordinates": [
          134.194269,
          34.485785
        ],
        "type": "Point"
      },
      "properties": {
        "bangumi_id": 219200,
        "bangumi_title": "擅长捉弄的高木同学",
        "ep_cut": "",
        "image_url": "https://w.junreimap.com/images/points/219200/u3tacsvhj_1743075382462.jpg",
        "location": "土庄町东-富丘八幡神社",
        "point_id": "u3tacsvhj",
        "point_name": "富丘八幡神社",
        "remark": "上山入口右侧"
      },
      "type": "Feature"
    },
    {
      "geometry": {
        "coordinates": [
          134.194225,
          34.485657
        ],
        "type": "Point"
      },
      "properties": {
        "bangumi_id": 219200,
        "bangumi_title": "擅长捉弄的高木同学",
        "ep_cut": "OP1",
        "image_url": "https://w.junreimap.com/images/points/219200/u3vqojfqp_1743080720198.jpg",
        "location": "土庄町东-富丘八幡神社",
        "point_id": "u3vqojfqp",
        "point_name": "土庄中学校操场（俯瞰）",
        "remark": "从富丘八幡神社登山入口上去后，回望土庄中学校即可拍摄。"
      },
      "type": "Feature"
    },
    {
      "geometry": {
        "coordinates": [
          134.194244,
          34.485476
        ],
        "type": "Point"
      },
      "properties": {
        "bangumi_id": 219200,
        "bangumi_title": "擅长捉弄的高木同学",
        "ep_cut": "",
        "image_url": "https://w.junreimap.com/images/points/219200/u3ta68r5i_1743075369084.jpg",
        "location": "土庄町东-富丘八幡神社",
        "point_id": "u3ta68r5i",
        "point_name": "富丘八幡神社",
        "remark": ""
      },
      "type": "Feature"
    },
    {
      "geometry": {
        "coordinates": [
          134.195359,
          34.485674
        ],
        "type": "Point"
      },
      "properties": {
        "bangumi_id": 219200,
        "bangumi_title": "擅长捉弄的高木同学",
        "ep_cut": 12,
        "image_url": "https://w.junreimap.com/images/points/219200/u3t8q72pc_1743075280433.jpg",
        "location": "土庄町东-富丘八幡神社",
        "point_id": "u3t8q72pc",
        "point_name": "富丘八幡神社",
        "remark": "富丘八幡神社前的长台阶"
      },
      "type": "Feature"
    },
    {
      "geometry": {
        "coordinates": [
          134.195375,
          34.485724
        ],
        "type": "Point"
      },
      "properties": {
        "bangumi_id": 219200,
        "bangumi_title": "擅长捉弄的高木同学",
        "ep_cut": "",
        "image_url": "https://w.junreimap.com/images/points/219200/u3t8s1pdc_1743075284761.jpg",
        "location": "土庄町东-富丘八幡神社",
        "point_id": "u3t8s1pdc",
        "point_name": "富丘八幡神社",
        "remark": "富丘八幡神社正门"
      },
      "type": "Feature"
    },
    {
      "geometry": {
        "coordinates": [
          134.194425,
          34.485757
        ],
        "type": "Point"
      },
      "properties": {
        "bangumi_id": 219200,
        "bangumi_title": "擅长捉弄的高木同学",
        "ep_cut": "",
        "image_url": "https://w.junreimap.com/images/points/219200/u3taxf0o7_1743075413747.jpg",
        "location": "土庄町东-富丘八幡神社",
        "point_id": "u3taxf0o7",
        "point_name": "富丘八幡神社",
        "remark": "富丘八幡神社登山入口"
      },
      "type": "Feature"
    },
    {
      "geometry": {
        "coordinates": [
          134.148616,
          34.478702
        ],
        "type": "Point"
      },
      "properties": {
        "bangumi_id": 219200,
        "bangumi_title": "擅长捉弄的高木同学",
        "ep_cut": 8,
        "image_url": "https://w.junreimap.com/images/points/219200/u3swm8qca_1743074549654.jpg",
        "location": "土庄町西-重岩不动",
        "point_id": "u3swm8qca",
        "point_name": "重岩",
        "remark": "上重岩前有一段上行泥坡，途径一个马蜂窝，建议上山前准备一件防虫冲锋衣。另：下雨时台阶和泥坡会非常滑，不建议雨天上山。"
      },
      "type": "Feature"
    },
    {
      "geometry": {
        "coordinates": [
          134.147906,
          34.478213
        ],
        "type": "Point"
      },
      "properties": {
        "bangumi_id": 219200,
        "bangumi_title": "擅长捉弄的高木同学",
        "ep_cut": "",
        "image_url": "https://w.junreimap.com/images/points/219200/u3swqwuvh_1743074556604.jpg",
        "location": "土庄町西-重岩不动",
        "point_id": "u3swqwuvh",
        "point_name": "重岩",
        "remark": ""
      },
      "type": "Feature"
    },
    {
      "geometry": {
        "coordinates": [
          134.14871,
          34.47876
        ],
        "type": "Point"
      },
      "properties": {
        "bangumi_id": 219200,
        "bangumi_title": "擅长捉弄的高木同学",
        "ep_cut": "",
        "image_url": "https://w.junreimap.com/images/points/219200/u3swyu59e_1743074569404.jpg",
        "location": "土庄町西-重岩不动",
        "point_id": "u3swyu59e",
        "point_name": "重岩",
        "remark": "上重岩前有一段上行泥坡，途径一个马蜂窝，建议上山前准备一件防虫冲锋衣。另：下雨时台阶和泥坡会非常滑，不建议雨天上山。"
      },
      "type": "Feature"
    },
    {
      "geometry": {
        "coordinates": [
          134.149106,
          34.479317
        ],
        "type": "Point"
      },
      "properties": {
        "bangumi_id": 219200,
        "bangumi_title": "擅长捉弄的高木同学",
        "ep_cut": 8,
        "image_url": "https://w.junreimap.com/images/points/219200/u3ywuj1lm_1743087633794.jpg",
        "location": "土庄町西-重岩不动",
        "point_id": "u3ywuj1lm",
        "point_name": "重岩",
        "remark": "上重岩前有一段上行泥坡，途径一个马蜂窝，建议上山前准备一件防虫冲锋衣。另：下雨时台阶和泥坡会非常滑，不建议雨天上山。"
      },
      "type": "Feature"
    },
    {
      "geometry": {
        "coordinates": [
          134.147612,
          34.478223
        ],
        "type": "Point"
      },
      "properties": {
        "bangumi_id": 219200,
        "bangumi_title": "擅长捉弄的高木同学",
        "ep_cut": 8,
        "image_url": "https://w.junreimap.com/images/points/219200/u3svxa1x7_1743074506536.jpg",
        "location": "土庄町西-重岩不动",
        "point_id": "u3svxa1x7",
        "point_name": "重岩（入口）",
        "remark": "入口处有一家饮品店，供应各种冷热饮。对于步行或者骑自行车到访的游客，鉴于土庄町西部的自动贩卖机非常少，在规划路线时，可以考虑在此处补充水分。山上蜜蜂及各类飞虫较多，建议做好防护措施。"
      },
      "type": "Feature"
    },
    {
      "geometry": {
        "coordinates": [
          134.148035,
          34.478234
        ],
        "type": "Point"
      },
      "properties": {
        "bangumi_id": 219200,
        "bangumi_title": "擅长捉弄的高木同学",
        "ep_cut": 8,
        "image_url": "https://w.junreimap.com/images/points/219200/u3sw5ofa8_1743074520453.jpg",
        "location": "土庄町西-重岩不动",
        "point_id": "u3sw5ofa8",
        "point_name": "重岩（台阶中途）",
        "remark": "上重岩前有一段上行泥坡，途径一个马蜂窝，建议上山前准备一件防虫冲锋衣。另：下雨时台阶和泥坡会非常滑，不建议雨天上山。"
      },
      "type": "Feature"
    },
    {
      "geometry": {
        "coordinates": [
          133.764708,
          34.602825
        ],
        "type": "Point"
      },
      "properties": {
        "bangumi_id": 219200,
        "bangumi_title": "擅长捉弄的高木同学",
        "ep_cut": 9,
        "image_url": "https://w.junreimap.com/images/points/219200/4w397po0d.jpg",
        "location": "冈山县-倉敷市",
        "point_id": "4w397po0d",
        "point_name": "倉敷駅北口 アンデルセン広場",
        "remark": "3期9話"
      },
      "type": "Feature"
    },
    {
      "geometry": {
        "coordinates": [
          133.77195,
          34.595741
        ],
        "type": "Point"
      },
      "properties": {
        "bangumi_id": 219200,
        "bangumi_title": "擅长捉弄的高木同学",
        "ep_cut": 9,
        "image_url": "https://w.junreimap.com/images/points/219200/4w397poek.jpg",
        "location": "冈山县-倉敷市",
        "point_id": "4w397poek",
        "point_name": "倉敷美観地区１",
        "remark": "中橋付近"
      },
      "type": "Feature"
    },
    {
      "geometry": {
        "coordinates": [
          133.746051,
          34.603938
        ],
        "type": "Point"
      },
      "properties": {
        "bangumi_id": 219200,
        "bangumi_title": "擅长捉弄的高木同学",
        "ep_cut": 9,
        "image_url": "https://w.junreimap.com/images/points/219200/4w397po8q.jpg",
        "location": "冈山县-倉敷市",
        "point_id": "4w397po8q",
        "point_name": "イオンモール倉敷",
        "remark": "ワクワクガーデン。イオンモール倉敷内に映画館あり(MOVIX倉敷)。"
      },
      "type": "Feature"
    },
    {
      "geometry": {
        "coordinates": [
          133.7704,
          34.596667
        ],
        "type": "Point"
      },
      "properties": {
        "bangumi_id": 219200,
        "bangumi_title": "擅长捉弄的高木同学",
        "ep_cut": 9,
        "image_url": "https://w.junreimap.com/images/points/219200/4w397po0u.jpg",
        "location": "冈山县-倉敷市",
        "point_id": "4w397po0u",
        "point_name": "倉敷美観地区２",
        "remark": ""
      },
      "type": "Feature"
    },
    {
      "geometry": {
        "coordinates": [
          133.770408,
          34.597646
        ],
        "type": "Point"
      },
      "properties": {
        "bangumi_id": 219200,
        "bangumi_title": "擅长捉弄的高木同学",
        "ep_cut": 9,
        "image_url": "https://w.junreimap.com/images/points/219200/4w397pnxj.jpg",
        "location": "冈山县-倉敷市",
        "point_id": "4w397pnxj",
        "point_name": "倉敷美観地区３",
        "remark": "本通り"
      },
      "type": "Feature"
    },
    {
      "geometry": {
        "coordinates": [
          134.23296,
          34.470239
        ],
        "type": "Point"
      },
      "properties": {
        "bangumi_id": 219200,
        "bangumi_title": "擅长捉弄的高木同学",
        "ep_cut": "",
        "image_url": "https://w.junreimap.com/images/points/219200/4w397pohs.jpg",
        "location": "小豆岛町",
        "point_id": "4w397pohs",
        "point_name": "小豆島ふるさと村ファミリープール",
        "remark": "OVA「ウォータースライダー」"
      },
      "type": "Feature"
    },
    {
      "geometry": {
        "coordinates": [
          134.27281,
          34.471711
        ],
        "type": "Point"
      },
      "properties": {
        "bangumi_id": 219200,
        "bangumi_title": "擅长捉弄的高木同学",
        "ep_cut": "",
        "image_url": "https://w.junreimap.com/images/points/219200/u3td27tdm_1743075542214.jpg",
        "location": "小豆岛町",
        "point_id": "u3td27tdm",
        "point_name": "ギリシャ風車付近",
        "remark": "理论位置附近，这一带树的树叶一致。实际拍摄时可以是这一带的任何一条小路（地砖与路沿的设计基本一致。）"
      },
      "type": "Feature"
    },
    {
      "geometry": {
        "coordinates": [
          134.272747,
          34.471711
        ],
        "type": "Point"
      },
      "properties": {
        "bangumi_id": 219200,
        "bangumi_title": "擅长捉弄的高木同学",
        "ep_cut": "",
        "image_url": "https://w.junreimap.com/images/points/219200/u3tddl7s3_1743075561880.jpg",
        "location": "小豆岛町",
        "point_id": "u3tddl7s3",
        "point_name": "ギリシャ風車付近",
        "remark": "理论位置附近，这一带树的树叶一致。实际拍摄时可以是这一带的任何一棵树。"
      },
      "type": "Feature"
    },
    {
      "geometry": {
        "coordinates": [
          134.273595,
          34.473158
        ],
        "type": "Point"
      },
      "properties": {
        "bangumi_id": 219200,
        "bangumi_title": "擅长捉弄的高木同学",
        "ep_cut": "第三季op",
        "image_url": "https://w.junreimap.com/images/user/0/bangumi/219200/points/2a29ziu-1751972658707.jpg",
        "location": "小豆岛町",
        "point_id": "2a29ziu",
        "point_name": "魔法の扉",
        "remark": ""
      },
      "type": "Feature"
    },
    {
      "geometry": {
        "coordinates": [
          134.271349,
          34.471533
        ],
        "type": "Point"
      },
      "properties": {
        "bangumi_id": 219200,
        "bangumi_title": "擅长捉弄的高木同学",
        "ep_cut": 1,
        "image_url": "https://w.junreimap.com/images/points/219200/4w397pnu7.jpg",
        "location": "小豆岛町",
        "point_id": "4w397pnu7",
        "point_name": "「オリーブ発祥の地碑」前",
        "remark": "完全一致はしません。（202406注：该巡礼点位实际位置存疑）\n碑后方的坡可以拍到类似的前景，但附近的没有匹配的远景"
      },
      "type": "Feature"
    },
    {
      "geometry": {
        "coordinates": [
          134.273202,
          34.471731
        ],
        "type": "Point"
      },
      "properties": {
        "bangumi_id": 219200,
        "bangumi_title": "擅长捉弄的高木同学",
        "ep_cut": 7,
        "image_url": "https://w.junreimap.com/images/points/219200/tm0pc4lfn_1741681012275.jpg",
        "location": "小豆岛町",
        "point_id": "tm0pc4lfn",
        "point_name": "駐車場からギリシャ風車に向かう途中の道",
        "remark": "7話の犬の散歩シーンの一部が、オリーブ公園内がモデルになっていました。"
      },
      "type": "Feature"
    },
    {
      "geometry": {
        "coordinates": [
          134.273163,
          34.471736
        ],
        "type": "Point"
      },
      "properties": {
        "bangumi_id": 219200,
        "bangumi_title": "擅长捉弄的高木同学",
        "ep_cut": 7,
        "image_url": "https://w.junreimap.com/images/points/219200/tm0q631ql_1741681019209.jpg",
        "location": "小豆岛町",
        "point_id": "tm0q631ql",
        "point_name": "駐車場からギリシャ風車に向かう途中の道",
        "remark": ""
      },
      "type": "Feature"
    },
    {
      "geometry": {
        "coordinates": [
          134.273181,
          34.47171
        ],
        "type": "Point"
      },
      "properties": {
        "bangumi_id": 219200,
        "bangumi_title": "擅长捉弄的高木同学",
        "ep_cut": 7,
        "image_url": "https://w.junreimap.com/images/points/219200/tm0qajrn4_1741681026759.jpg",
        "location": "小豆岛町",
        "point_id": "tm0qajrn4",
        "point_name": "駐車場からギリシャ風車に向かう途中の道",
        "remark": ""
      },
      "type": "Feature"
    },
    {
      "geometry": {
        "coordinates": [
          134.273661,
          34.472632
        ],
        "type": "Point"
      },
      "properties": {
        "bangumi_id": 219200,
        "bangumi_title": "擅长捉弄的高木同学",
        "ep_cut": 15,
        "image_url": "https://w.junreimap.com/images/points/219200/4w397pocl.jpg",
        "location": "小豆岛町",
        "point_id": "4w397pocl",
        "point_name": "オリーブポスト(オリーブ公園)",
        "remark": "劇場版2週目特典ポストカードの背景"
      },
      "type": "Feature"
    },
    {
      "geometry": {
        "coordinates": [
          134.272435,
          34.471416
        ],
        "type": "Point"
      },
      "properties": {
        "bangumi_id": 219200,
        "bangumi_title": "擅长捉弄的高木同学",
        "ep_cut": "",
        "image_url": "https://w.junreimap.com/images/points/219200/4w397pnvj.jpg",
        "location": "小豆岛町",
        "point_id": "4w397pnvj",
        "point_name": "ギリシャ風車付近",
        "remark": "劇場版2週目特典ポストカードの背景"
      },
      "type": "Feature"
    },
    {
      "geometry": {
        "coordinates": [
          134.322373,
          34.482806
        ],
        "type": "Point"
      },
      "properties": {
        "bangumi_id": 219200,
        "bangumi_title": "擅长捉弄的高木同学",
        "ep_cut": "",
        "image_url": "https://w.junreimap.com/images/points/219200/4w397poh9.jpg",
        "location": "小豆岛町",
        "point_id": "4w397poh9",
        "point_name": "「なかぶ庵」付近",
        "remark": "劇場版、西片が自転車で走っていくシーン"
      },
      "type": "Feature"
    },
    {
      "geometry": {
        "coordinates": [
          134.662731,
          34.784693
        ],
        "type": "Point"
      },
      "properties": {
        "bangumi_id": 219200,
        "bangumi_title": "擅长捉弄的高木同学",
        "ep_cut": 12,
        "image_url": "https://w.junreimap.com/images/points/219200/4w397pnyq.jpg",
        "location": "兵库县-姬路市",
        "point_id": "4w397pnyq",
        "point_name": "姫路港",
        "remark": "12話"
      },
      "type": "Feature"
    },
    {
      "geometry": {
        "coordinates": [
          134.0308,
          34.604088
        ],
        "type": "Point"
      },
      "properties": {
        "bangumi_id": 219200,
        "bangumi_title": "擅长捉弄的高木同学",
        "ep_cut": "",
        "image_url": "https://w.junreimap.com/images/points/219200/4w397pocx.jpg",
        "location": "冈山县-冈山市",
        "point_id": "4w397pocx",
        "point_name": "西大寺港九蟠東一号防波堤灯台",
        "remark": "フェリーに「おーいおーい」"
      },
      "type": "Feature"
    },
    {
      "geometry": {
        "coordinates": [
          134.197687,
          34.494064
        ],
        "type": "Point"
      },
      "properties": {
        "bangumi_id": 219200,
        "bangumi_title": "擅长捉弄的高木同学",
        "ep_cut": 5,
        "image_url": "https://w.junreimap.com/images/points/219200/u3szgcq1y_1743074719594.jpg",
        "location": "土庄町北-玉光神社",
        "point_id": "u3szgcq1y",
        "point_name": "玉光神社前",
        "remark": ""
      },
      "type": "Feature"
    },
    {
      "geometry": {
        "coordinates": [
          134.198108,
          34.493655
        ],
        "type": "Point"
      },
      "properties": {
        "bangumi_id": 219200,
        "bangumi_title": "擅长捉弄的高木同学",
        "ep_cut": 5,
        "image_url": "https://w.junreimap.com/images/points/219200/u3szorhzr_1743074733714.jpg",
        "location": "土庄町北-玉光神社",
        "point_id": "u3szorhzr",
        "point_name": "玉光神社前",
        "remark": ""
      },
      "type": "Feature"
    },
    {
      "geometry": {
        "coordinates": [
          134.197818,
          34.493922
        ],
        "type": "Point"
      },
      "properties": {
        "bangumi_id": 219200,
        "bangumi_title": "擅长捉弄的高木同学",
        "ep_cut": "",
        "image_url": "https://w.junreimap.com/images/points/219200/u3szs93iv_1743074739596.jpg",
        "location": "土庄町北-玉光神社",
        "point_id": "u3szs93iv",
        "point_name": "玉光神社前",
        "remark": ""
      },
      "type": "Feature"
    },
    {
      "geometry": {
        "coordinates": [
          134.19972,
          34.493321
        ],
        "type": "Point"
      },
      "properties": {
        "bangumi_id": 219200,
        "bangumi_title": "擅长捉弄的高木同学",
        "ep_cut": 7,
        "image_url": "https://w.junreimap.com/images/points/219200/u3wp8rae3_1743082814435.jpg",
        "location": "土庄町北-玉光神社",
        "point_id": "u3wp8rae3",
        "point_name": "北山荒神社前",
        "remark": "S03 EP7"
      },
      "type": "Feature"
    },
    {
      "geometry": {
        "coordinates": [
          134.197947,
          34.493831
        ],
        "type": "Point"
      },
      "properties": {
        "bangumi_id": 219200,
        "bangumi_title": "擅长捉弄的高木同学",
        "ep_cut": 5,
        "image_url": "https://w.junreimap.com/images/points/219200/u3szw26i2_1743074749654.jpg",
        "location": "土庄町北-玉光神社",
        "point_id": "u3szw26i2",
        "point_name": "玉光神社前",
        "remark": ""
      },
      "type": "Feature"
    },
    {
      "geometry": {
        "coordinates": [
          134.19276,
          34.486848
        ],
        "type": "Point"
      },
      "properties": {
        "bangumi_id": 219200,
        "bangumi_title": "擅长捉弄的高木同学",
        "ep_cut": 1,
        "image_url": "https://w.junreimap.com/images/points/219200/u3t1a325j_1743074832122.jpg",
        "location": "土庄町东-土庄中学校",
        "point_id": "u3t1a325j",
        "point_name": "土庄中学校",
        "remark": "学校区域，拍摄时务必注意保护青少年肖像权。"
      },
      "type": "Feature"
    },
    {
      "geometry": {
        "coordinates": [
          134.192843,
          34.486885
        ],
        "type": "Point"
      },
      "properties": {
        "bangumi_id": 219200,
        "bangumi_title": "擅长捉弄的高木同学",
        "ep_cut": "",
        "image_url": "https://w.junreimap.com/images/points/219200/u3t1dj5xb_1743074845380.jpg",
        "location": "土庄町东-土庄中学校",
        "point_id": "u3t1dj5xb",
        "point_name": "土庄中学校",
        "remark": "学校区域，拍摄时务必注意保护青少年肖像权。"
      },
      "type": "Feature"
    },
    {
      "geometry": {
        "coordinates": [
          134.240491,
          34.502665
        ],
        "type": "Point"
      },
      "properties": {
        "bangumi_id": 219200,
        "bangumi_title": "擅长捉弄的高木同学",
        "ep_cut": "",
        "image_url": "https://w.junreimap.com/images/points/219200/4w397po6y.jpg",
        "location": "小豆岛町-中山",
        "point_id": "4w397po6y",
        "point_name": "中山千枚田(下から)",
        "remark": "バスが千枚田にやってくるカット。幹線道路から下った場所から見上げています。芸術祭のアート作品が近くにあります。"
      },
      "type": "Feature"
    },
    {
      "geometry": {
        "coordinates": [
          134.239666,
          34.503401
        ],
        "type": "Point"
      },
      "properties": {
        "bangumi_id": 219200,
        "bangumi_title": "擅长捉弄的高木同学",
        "ep_cut": 24,
        "image_url": "https://w.junreimap.com/images/points/219200/u3t3p6wev_1743074978695.jpg",
        "location": "小豆岛町-中山",
        "point_id": "u3t3p6wev",
        "point_name": "春日神社バス停",
        "remark": "剧场版，候车厅内贴有剧场版宣传海报。此处同时也是Ave Mujica的巡礼地标之一。"
      },
      "type": "Feature"
    },
    {
      "geometry": {
        "coordinates": [
          134.239655,
          34.503445
        ],
        "type": "Point"
      },
      "properties": {
        "bangumi_id": 219200,
        "bangumi_title": "擅长捉弄的高木同学",
        "ep_cut": "",
        "image_url": "https://w.junreimap.com/images/points/219200/u3t4plhk8_1743075074776.jpg",
        "location": "小豆岛町-中山",
        "point_id": "u3t4plhk8",
        "point_name": "春日神社バス停",
        "remark": "候车厅内设立的剧场版海报"
      },
      "type": "Feature"
    },
    {
      "geometry": {
        "coordinates": [
          134.240195,
          34.503712
        ],
        "type": "Point"
      },
      "properties": {
        "bangumi_id": 219200,
        "bangumi_title": "擅长捉弄的高木同学",
        "ep_cut": "",
        "image_url": "https://w.junreimap.com/images/points/219200/u41n50pqe_1743093577411.jpg",
        "location": "小豆岛町-中山",
        "point_id": "u41n50pqe",
        "point_name": "中山千枚田",
        "remark": "剧场版。在马路上向北沿沟渠方向拍摄。实际点位应当沿着沟渠上行，但此处原则上属于农田，不确定是否可以入内。"
      },
      "type": "Feature"
    },
    {
      "geometry": {
        "coordinates": [
          134.24221,
          34.505771
        ],
        "type": "Point"
      },
      "properties": {
        "bangumi_id": 219200,
        "bangumi_title": "擅长捉弄的高木同学",
        "ep_cut": "",
        "image_url": "https://w.junreimap.com/images/points/219200/u3t5x9463_1743075110818.jpg",
        "location": "小豆岛町-中山",
        "point_id": "u3t5x9463",
        "point_name": "湯船山（小豆島​霊場​第四十四​番​湯船山​蓮華寺）",
        "remark": "湯船山顶向西南方向拍摄"
      },
      "type": "Feature"
    },
    {
      "geometry": {
        "coordinates": [
          134.242144,
          34.505807
        ],
        "type": "Point"
      },
      "properties": {
        "bangumi_id": 219200,
        "bangumi_title": "擅长捉弄的高木同学",
        "ep_cut": "",
        "image_url": "https://w.junreimap.com/images/points/219200/u3t6lcrug_1743075151712.jpg",
        "location": "小豆岛町-中山",
        "point_id": "u3t6lcrug",
        "point_name": "湯船山（小豆島​霊場​第四十四​番​湯船山​蓮華寺）",
        "remark": "湯船山顶向西南方向拍摄\n机位：莲华寺有料停车场下，进入农道内，现在进入田地的入口处"
      },
      "type": "Feature"
    },
    {
      "geometry": {
        "coordinates": [
          134.149761,
          34.465817
        ],
        "type": "Point"
      },
      "properties": {
        "bangumi_id": 219200,
        "bangumi_title": "擅长捉弄的高木同学",
        "ep_cut": 2,
        "image_url": "https://w.junreimap.com/images/points/219200/u3uefl6y3_1743077802533.jpg",
        "location": "土庄町-南部海岸线",
        "point_id": "u3uefl6y3",
        "point_name": "千軒海岸",
        "remark": "沙滩入口常态关闭，有時會在北側開一個小口。"
      },
      "type": "Feature"
    },
    {
      "geometry": {
        "coordinates": [
          134.170898,
          34.474154
        ],
        "type": "Point"
      },
      "properties": {
        "bangumi_id": 219200,
        "bangumi_title": "擅长捉弄的高木同学",
        "ep_cut": 3,
        "image_url": "https://w.junreimap.com/images/user/0/bangumi/219200/points/4w397po3v-1727003418969.jpg",
        "location": "土庄町-南部海岸线",
        "point_id": "4w397po3v",
        "point_name": "自販機がある空き地",
        "remark": "自販機はやや離れた場所に。空き地ではなく駐車場です。"
      },
      "type": "Feature"
    },
    {
      "geometry": {
        "coordinates": [
          134.16333,
          34.466255
        ],
        "type": "Point"
      },
      "properties": {
        "bangumi_id": 219200,
        "bangumi_title": "擅长捉弄的高木同学",
        "ep_cut": "OP1",
        "image_url": "https://w.junreimap.com/images/points/219200/u3ugb9hm7_1743077915856.jpg",
        "location": "土庄町-南部海岸线",
        "point_id": "u3ugb9hm7",
        "point_name": "柳隧道附近",
        "remark": "此处向西南下坡方向拍摄"
      },
      "type": "Feature"
    },
    {
      "geometry": {
        "coordinates": [
          134.168416,
          34.466826
        ],
        "type": "Point"
      },
      "properties": {
        "bangumi_id": 219200,
        "bangumi_title": "擅长捉弄的高木同学",
        "ep_cut": "",
        "image_url": "https://w.junreimap.com/images/points/219200/u3uip6djn_1743078062032.jpg",
        "location": "土庄町-南部海岸线",
        "point_id": "u3uip6djn",
        "point_name": "樹齢千年のオリーヴ大樹",
        "remark": "海报/明信片取景地。此树位于一处商业景点中，需要支付1000日元左右的入场费，支付后会给一台装有景点介绍软件的iphone+耳机（含中文解说）、小豆岛特色茶一壶及一小本观光说明册。"
      },
      "type": "Feature"
    },
    {
      "geometry": {
        "coordinates": [
          134.171177,
          34.473857
        ],
        "type": "Point"
      },
      "properties": {
        "bangumi_id": 219200,
        "bangumi_title": "擅长捉弄的高木同学",
        "ep_cut": "",
        "image_url": "https://w.junreimap.com/images/user/0/bangumi/219200/points/4w397po1l-1726929377623.jpg",
        "location": "土庄町-南部海岸线",
        "point_id": "4w397po1l",
        "point_name": "鹿島の海岸",
        "remark": "クライマックスシーン。掲示板は実在しません。"
      },
      "type": "Feature"
    },
    {
      "geometry": {
        "coordinates": [
          134.163501,
          34.466529
        ],
        "type": "Point"
      },
      "properties": {
        "bangumi_id": 219200,
        "bangumi_title": "擅长捉弄的高木同学",
        "ep_cut": 6,
        "image_url": "https://w.junreimap.com/images/points/219200/u3uh0fxbl_1743077958000.jpg",
        "location": "土庄町-南部海岸线",
        "point_id": "u3uh0fxbl",
        "point_name": "柳隧道",
        "remark": "此处为机动车道，拍摄点位位于车道正中央，车辆进出隧道时因光线剧烈变化难以观察行人，拍摄时务必务必注意安全。"
      },
      "type": "Feature"
    },
    {
      "geometry": {
        "coordinates": [
          134.168266,
          34.466703
        ],
        "type": "Point"
      },
      "properties": {
        "bangumi_id": 219200,
        "bangumi_title": "擅长捉弄的高木同学",
        "ep_cut": "",
        "image_url": "https://w.junreimap.com/images/points/219200/u3uj5mjk6_1743078088191.jpg",
        "location": "土庄町-南部海岸线",
        "point_id": "u3uj5mjk6",
        "point_name": "樹齢千年のオリーヴ大樹",
        "remark": "海报/明信片取景地。此树位于一处商业景点中，需要支付1000日元左右的入场费，支付后会给一台装有景点介绍软件的iphone+耳机（含中文解说）、小豆岛特色茶一壶及一小本观光说明册。"
      },
      "type": "Feature"
    },
    {
      "geometry": {
        "coordinates": [
          134.171581,
          34.474328
        ],
        "type": "Point"
      },
      "properties": {
        "bangumi_id": 219200,
        "bangumi_title": "擅长捉弄的高木同学",
        "ep_cut": 8,
        "image_url": "https://w.junreimap.com/images/points/219200/u3ukogx23_1743078179645.jpg",
        "location": "土庄町-南部海岸线",
        "point_id": "u3ukogx23",
        "point_name": "味​の​よろず​や​なぎさ前",
        "remark": "理论上可以是任何一处土庄町海岸线的路灯，整个土庄町海岸线都是类似风格的布局。"
      },
      "type": "Feature"
    },
    {
      "geometry": {
        "coordinates": [
          134.177196,
          34.47693
        ],
        "type": "Point"
      },
      "properties": {
        "bangumi_id": 219200,
        "bangumi_title": "擅长捉弄的高木同学",
        "ep_cut": "",
        "image_url": "https://w.junreimap.com/images/points/219200/u3umlbba8_1743078295885.jpg",
        "location": "土庄町-南部海岸线",
        "point_id": "u3umlbba8",
        "point_name": "水明​鹿島​荘​海​の​家",
        "remark": "此沙滩常态开放，如遇台风天/雨天可能关闭。"
      },
      "type": "Feature"
    },
    {
      "geometry": {
        "coordinates": [
          134.178541,
          34.476782
        ],
        "type": "Point"
      },
      "properties": {
        "bangumi_id": 219200,
        "bangumi_title": "擅长捉弄的高木同学",
        "ep_cut": "",
        "image_url": "https://w.junreimap.com/images/points/219200/u3un6ifa8_1743078333532.jpg",
        "location": "土庄町-南部海岸线",
        "point_id": "u3un6ifa8",
        "point_name": "みかん選果場前",
        "remark": ""
      },
      "type": "Feature"
    },
    {
      "geometry": {
        "coordinates": [
          134.179489,
          34.476254
        ],
        "type": "Point"
      },
      "properties": {
        "bangumi_id": 219200,
        "bangumi_title": "擅长捉弄的高木同学",
        "ep_cut": 6,
        "image_url": "https://w.junreimap.com/images/points/219200/u3unobvsy_1743078369962.jpg",
        "location": "土庄町-南部海岸线",
        "point_id": "u3unobvsy",
        "point_name": "マルナカ新土庄店",
        "remark": "S03EP06，此处位于百货商场北侧的屋顶上，在停车场拍摄即可，无需进入商场。"
      },
      "type": "Feature"
    },
    {
      "geometry": {
        "coordinates": [
          134.187144,
          34.482759
        ],
        "type": "Point"
      },
      "properties": {
        "bangumi_id": 219200,
        "bangumi_title": "擅长捉弄的高木同学",
        "ep_cut": "",
        "image_url": "https://w.junreimap.com/images/points/219200/u3vww39gl_1743081097934.jpg",
        "location": "土庄町-西光寺周边",
        "point_id": "u3vww39gl",
        "point_name": "西光寺 誓願之塔",
        "remark": "需要登上山丘两侧的台阶前往西光寺佛像前"
      },
      "type": "Feature"
    },
    {
      "geometry": {
        "coordinates": [
          134.186793,
          34.48284
        ],
        "type": "Point"
      },
      "properties": {
        "bangumi_id": 219200,
        "bangumi_title": "擅长捉弄的高木同学",
        "ep_cut": "",
        "image_url": "https://w.junreimap.com/images/points/219200/u3vxtviok_1743081151695.jpg",
        "location": "土庄町-西光寺周边",
        "point_id": "u3vxtviok",
        "point_name": "西光寺西侧小巷",
        "remark": ""
      },
      "type": "Feature"
    },
    {
      "geometry": {
        "coordinates": [
          134.186917,
          34.483276
        ],
        "type": "Point"
      },
      "properties": {
        "bangumi_id": 219200,
        "bangumi_title": "擅长捉弄的高木同学",
        "ep_cut": 4,
        "image_url": "https://w.junreimap.com/images/points/219200/u3vy257hm_1743081166588.jpg",
        "location": "土庄町-西光寺周边",
        "point_id": "u3vy257hm",
        "point_name": "西光寺西侧小巷",
        "remark": ""
      },
      "type": "Feature"
    },
    {
      "geometry": {
        "coordinates": [
          134.186883,
          34.483116
        ],
        "type": "Point"
      },
      "properties": {
        "bangumi_id": 219200,
        "bangumi_title": "擅长捉弄的高木同学",
        "ep_cut": "",
        "image_url": "https://w.junreimap.com/images/points/219200/u3vyh6z7n_1743081191946.jpg",
        "location": "土庄町-西光寺周边",
        "point_id": "u3vyh6z7n",
        "point_name": "西光寺西侧小巷",
        "remark": ""
      },
      "type": "Feature"
    },
    {
      "geometry": {
        "coordinates": [
          134.185809,
          34.48285
        ],
        "type": "Point"
      },
      "properties": {
        "bangumi_id": 219200,
        "bangumi_title": "擅长捉弄的高木同学",
        "ep_cut": 4,
        "image_url": "https://w.junreimap.com/images/points/219200/4w397poen.jpg",
        "location": "土庄町-西光寺周边",
        "point_id": "4w397poen",
        "point_name": "西光寺西侧",
        "remark": ""
      },
      "type": "Feature"
    },
    {
      "geometry": {
        "coordinates": [
          134.186484,
          34.48272
        ],
        "type": "Point"
      },
      "properties": {
        "bangumi_id": 219200,
        "bangumi_title": "擅长捉弄的高木同学",
        "ep_cut": 2,
        "image_url": "https://w.junreimap.com/images/points/219200/u3vytioyu_1743081231362.jpg",
        "location": "土庄町-西光寺周边",
        "point_id": "u3vytioyu",
        "point_name": "西光寺西侧小巷",
        "remark": ""
      },
      "type": "Feature"
    },
    {
      "geometry": {
        "coordinates": [
          134.186572,
          34.48256
        ],
        "type": "Point"
      },
      "properties": {
        "bangumi_id": 219200,
        "bangumi_title": "擅长捉弄的高木同学",
        "ep_cut": 7,
        "image_url": "https://w.junreimap.com/images/points/219200/u3vzdov48_1743081246102.jpg",
        "location": "土庄町-西光寺周边",
        "point_id": "u3vzdov48",
        "point_name": "西光寺西侧小巷",
        "remark": ""
      },
      "type": "Feature"
    },
    {
      "geometry": {
        "coordinates": [
          134.186613,
          34.482071
        ],
        "type": "Point"
      },
      "properties": {
        "bangumi_id": 219200,
        "bangumi_title": "擅长捉弄的高木同学",
        "ep_cut": 2,
        "image_url": "https://w.junreimap.com/images/points/219200/u3w07bhtt_1743081296376.jpg",
        "location": "土庄町-西光寺周边",
        "point_id": "u3w07bhtt",
        "point_name": "西光寺西侧",
        "remark": "此处空地已多处改建，并非完全一致。现右侧灌木丛已改为铁围栏，左侧已改为停车场。"
      },
      "type": "Feature"
    },
    {
      "geometry": {
        "coordinates": [
          134.187684,
          34.48228
        ],
        "type": "Point"
      },
      "properties": {
        "bangumi_id": 219200,
        "bangumi_title": "擅长捉弄的高木同学",
        "ep_cut": 2,
        "image_url": "https://w.junreimap.com/images/points/219200/u3w200urr_1743081404574.jpg",
        "location": "土庄町-西光寺周边",
        "point_id": "u3w200urr",
        "point_name": "DAISO 小豆岛土庄店附近",
        "remark": "此处可以以左侧消防栓为参照物，布局基本一致"
      },
      "type": "Feature"
    },
    {
      "geometry": {
        "coordinates": [
          134.187926,
          34.482889
        ],
        "type": "Point"
      },
      "properties": {
        "bangumi_id": 219200,
        "bangumi_title": "擅长捉弄的高木同学",
        "ep_cut": 4,
        "image_url": "https://w.junreimap.com/images/points/219200/u3w3lplso_1743081505522.jpg",
        "location": "土庄町-西光寺周边",
        "point_id": "u3w3lplso",
        "point_name": "西光寺东侧",
        "remark": ""
      },
      "type": "Feature"
    },
    {
      "geometry": {
        "coordinates": [
          134.187305,
          34.483394
        ],
        "type": "Point"
      },
      "properties": {
        "bangumi_id": 219200,
        "bangumi_title": "擅长捉弄的高木同学",
        "ep_cut": 4,
        "image_url": "https://w.junreimap.com/images/points/219200/u3w44fiun_1743081535940.jpg",
        "location": "土庄町-西光寺周边",
        "point_id": "u3w44fiun",
        "point_name": "西光寺东侧",
        "remark": ""
      },
      "type": "Feature"
    },
    {
      "geometry": {
        "coordinates": [
          134.187,
          34.483573
        ],
        "type": "Point"
      },
      "properties": {
        "bangumi_id": 219200,
        "bangumi_title": "擅长捉弄的高木同学",
        "ep_cut": 11,
        "image_url": "https://w.junreimap.com/images/points/219200/u3w4f1b6n_1743081550226.jpg",
        "location": "土庄町-西光寺周边",
        "point_id": "u3w4f1b6n",
        "point_name": "西光寺北侧正门",
        "remark": "此处路面现实中为黑色柏油路"
      },
      "type": "Feature"
    },
    {
      "geometry": {
        "coordinates": [
          134.187654,
          34.483615
        ],
        "type": "Point"
      },
      "properties": {
        "bangumi_id": 219200,
        "bangumi_title": "擅长捉弄的高木同学",
        "ep_cut": 2,
        "image_url": "https://w.junreimap.com/images/points/219200/u3w4yq80x_1743081584384.jpg",
        "location": "土庄町-西光寺周边",
        "point_id": "u3w4yq80x",
        "point_name": "西光寺东侧",
        "remark": ""
      },
      "type": "Feature"
    },
    {
      "geometry": {
        "coordinates": [
          134.187322,
          34.484059
        ],
        "type": "Point"
      },
      "properties": {
        "bangumi_id": 219200,
        "bangumi_title": "擅长捉弄的高木同学",
        "ep_cut": 2,
        "image_url": "https://w.junreimap.com/images/points/219200/u3w5cgxtf_1743081607601.jpg",
        "location": "土庄町-西光寺周边",
        "point_id": "u3w5cgxtf",
        "point_name": "西光寺北侧",
        "remark": ""
      },
      "type": "Feature"
    },
    {
      "geometry": {
        "coordinates": [
          134.187018,
          34.483985
        ],
        "type": "Point"
      },
      "properties": {
        "bangumi_id": 219200,
        "bangumi_title": "擅长捉弄的高木同学",
        "ep_cut": 2,
        "image_url": "https://w.junreimap.com/images/points/219200/u3w5lhfeo_1743081624509.jpg",
        "location": "土庄町-西光寺周边",
        "point_id": "u3w5lhfeo",
        "point_name": "西光寺北侧",
        "remark": ""
      },
      "type": "Feature"
    },
    {
      "geometry": {
        "coordinates": [
          134.188765,
          34.481908
        ],
        "type": "Point"
      },
      "properties": {
        "bangumi_id": 219200,
        "bangumi_title": "擅长捉弄的高木同学",
        "ep_cut": 5,
        "image_url": "https://w.junreimap.com/images/points/219200/u3w6kuyup_1743081683262.jpg",
        "location": "土庄町-西光寺周边",
        "point_id": "u3w6kuyup",
        "point_name": "Books Kotobuki",
        "remark": "书店内有大量高木同学的原作及延伸出版物出售"
      },
      "type": "Feature"
    },
    {
      "geometry": {
        "coordinates": [
          134.189332,
          34.482457
        ],
        "type": "Point"
      },
      "properties": {
        "bangumi_id": 219200,
        "bangumi_title": "擅长捉弄的高木同学",
        "ep_cut": "擅长捉弄的高木同学剧场版",
        "image_url": "https://w.junreimap.com/images/user/0/bangumi/219200/points/2a209bv-1751971972470.jpg",
        "location": "土庄町-西光寺周边",
        "point_id": "2a209bv",
        "point_name": "王子大桥北部东侧海岸",
        "remark": ""
      },
      "type": "Feature"
    },
    {
      "geometry": {
        "coordinates": [
          134.188889,
          34.48221
        ],
        "type": "Point"
      },
      "properties": {
        "bangumi_id": 219200,
        "bangumi_title": "擅长捉弄的高木同学",
        "ep_cut": "",
        "image_url": "https://w.junreimap.com/images/points/219200/u3w716597_1743081708392.jpg",
        "location": "土庄町-西光寺周边",
        "point_id": "u3w716597",
        "point_name": "Books Kotobuki北向（王子大桥北侧）",
        "remark": "剧场版。可以从桥上或桥南侧向北长焦拍摄。"
      },
      "type": "Feature"
    },
    {
      "geometry": {
        "coordinates": [
          134.185922,
          34.48441
        ],
        "type": "Point"
      },
      "properties": {
        "bangumi_id": 219200,
        "bangumi_title": "擅长捉弄的高木同学",
        "ep_cut": "",
        "image_url": "https://w.junreimap.com/images/points/219200/u3vtninsl_1743080900621.jpg",
        "location": "土庄町-妖怪美术馆周边",
        "point_id": "u3vtninsl",
        "point_name": "妖怪美术馆01号馆前的小路",
        "remark": "此处右侧似乎是妖怪美术馆的别馆，开放状况未知。"
      },
      "type": "Feature"
    },
    {
      "geometry": {
        "coordinates": [
          134.186049,
          34.484596
        ],
        "type": "Point"
      },
      "properties": {
        "bangumi_id": 219200,
        "bangumi_title": "擅长捉弄的高木同学",
        "ep_cut": "",
        "image_url": "",
        "location": "土庄町-妖怪美术馆周边",
        "point_id": "u3vuchq78",
        "point_name": "妖怪美术馆01号馆",
        "remark": "妖怪美术馆纪念品商店有高木同学相关周边（文件夹等）出售"
      },
      "type": "Feature"
    },
    {
      "geometry": {
        "coordinates": [
          134.184166,
          34.484444
        ],
        "type": "Point"
      },
      "properties": {
        "bangumi_id": 219200,
        "bangumi_title": "擅长捉弄的高木同学",
        "ep_cut": 4,
        "image_url": "https://w.junreimap.com/images/points/219200/u3wa3gfoa_1743081893190.jpg",
        "location": "土庄町-妖怪美术馆周边",
        "point_id": "u3wa3gfoa",
        "point_name": "インテリア​坂井​本店附近",
        "remark": ""
      },
      "type": "Feature"
    },
    {
      "geometry": {
        "coordinates": [
          134.185581,
          34.484576
        ],
        "type": "Point"
      },
      "properties": {
        "bangumi_id": 219200,
        "bangumi_title": "擅长捉弄的高木同学",
        "ep_cut": 7,
        "image_url": "https://w.junreimap.com/images/points/219200/4w397pog6.jpg",
        "location": "土庄町-妖怪美术馆周边",
        "point_id": "4w397pog6",
        "point_name": "妖怪美術館01号館付近の路地",
        "remark": "7話"
      },
      "type": "Feature"
    },
    {
      "geometry": {
        "coordinates": [
          134.186419,
          34.484234
        ],
        "type": "Point"
      },
      "properties": {
        "bangumi_id": 219200,
        "bangumi_title": "擅长捉弄的高木同学",
        "ep_cut": 5,
        "image_url": "https://w.junreimap.com/images/points/219200/4w397pnz5.jpg",
        "location": "土庄町-妖怪美术馆周边",
        "point_id": "4w397pnz5",
        "point_name": "大川商店前",
        "remark": ""
      },
      "type": "Feature"
    },
    {
      "geometry": {
        "coordinates": [
          134.18431,
          34.485103
        ],
        "type": "Point"
      },
      "properties": {
        "bangumi_id": 219200,
        "bangumi_title": "擅长捉弄的高木同学",
        "ep_cut": 11,
        "image_url": "https://w.junreimap.com/images/points/219200/u3wakn41n_1743081964530.jpg",
        "location": "土庄町-妖怪美术馆周边",
        "point_id": "u3wakn41n",
        "point_name": "土庄町​総合​福祉​会館附近",
        "remark": ""
      },
      "type": "Feature"
    },
    {
      "geometry": {
        "coordinates": [
          134.184971,
          34.485238
        ],
        "type": "Point"
      },
      "properties": {
        "bangumi_id": 219200,
        "bangumi_title": "擅长捉弄的高木同学",
        "ep_cut": 1,
        "image_url": "https://w.junreimap.com/images/points/219200/u3wceqkuo_1743082038278.jpg",
        "location": "土庄町-妖怪美术馆周边",
        "point_id": "u3wceqkuo",
        "point_name": "笠井書房附近",
        "remark": "S03 EP1"
      },
      "type": "Feature"
    },
    {
      "geometry": {
        "coordinates": [
          134.186531,
          34.485258
        ],
        "type": "Point"
      },
      "properties": {
        "bangumi_id": 219200,
        "bangumi_title": "擅长捉弄的高木同学",
        "ep_cut": 12,
        "image_url": "https://w.junreimap.com/images/points/219200/u3wcuctd0_1743082063893.jpg",
        "location": "土庄町-妖怪美术馆周边",
        "point_id": "u3wcuctd0",
        "point_name": "土庄本町バス停",
        "remark": ""
      },
      "type": "Feature"
    },
    {
      "geometry": {
        "coordinates": [
          134.182472,
          34.484465
        ],
        "type": "Point"
      },
      "properties": {
        "bangumi_id": 219200,
        "bangumi_title": "擅长捉弄的高木同学",
        "ep_cut": "",
        "image_url": "https://w.junreimap.com/images/points/219200/u3wdktsmi_1743082104617.jpg",
        "location": "土庄町-妖怪美术馆周边",
        "point_id": "u3wdktsmi",
        "point_name": "軽食​喫茶​バジリコ",
        "remark": "剧场版。此处现实中是一家咖啡馆。"
      },
      "type": "Feature"
    },
    {
      "geometry": {
        "coordinates": [
          134.183326,
          34.486622
        ],
        "type": "Point"
      },
      "properties": {
        "bangumi_id": 219200,
        "bangumi_title": "擅长捉弄的高木同学",
        "ep_cut": 1,
        "image_url": "https://w.junreimap.com/images/points/219200/u3wg5nqib_1743082263873.jpg",
        "location": "土庄町-土渕海峡",
        "point_id": "u3wg5nqib",
        "point_name": "小豆島​青果物​(株)",
        "remark": "S03EP1，以湖对岸建筑物为参照。此处岸边停放有大量游艇。"
      },
      "type": "Feature"
    },
    {
      "geometry": {
        "coordinates": [
          134.186119,
          34.486462
        ],
        "type": "Point"
      },
      "properties": {
        "bangumi_id": 219200,
        "bangumi_title": "擅长捉弄的高木同学",
        "ep_cut": 11,
        "image_url": "https://w.junreimap.com/images/points/219200/u3wf5t13o_1743082199566.jpg",
        "location": "土庄町-土渕海峡",
        "point_id": "u3wf5t13o",
        "point_name": "土渕海峡",
        "remark": "S02 EP11，从西侧人行道向西北望拍摄，以右侧建筑物为参照"
      },
      "type": "Feature"
    },
    {
      "geometry": {
        "coordinates": [
          134.186555,
          34.485972
        ],
        "type": "Point"
      },
      "properties": {
        "bangumi_id": 219200,
        "bangumi_title": "擅长捉弄的高木同学",
        "ep_cut": 4,
        "image_url": "https://w.junreimap.com/images/points/219200/u3wh5njbl_1743082319871.jpg",
        "location": "土庄町-土渕海峡",
        "point_id": "u3wh5njbl",
        "point_name": "迷路のまち 入口",
        "remark": "机位：街对面人行道的斜坡处，蹲下"
      },
      "type": "Feature"
    },
    {
      "geometry": {
        "coordinates": [
          134.189674,
          34.486372
        ],
        "type": "Point"
      },
      "properties": {
        "bangumi_id": 219200,
        "bangumi_title": "擅长捉弄的高木同学",
        "ep_cut": 11,
        "image_url": "https://w.junreimap.com/images/points/219200/u3wk2dac4_1743082498896.jpg",
        "location": "土庄町北-居民区",
        "point_id": "u3wk2dac4",
        "point_name": "町立中央図書館",
        "remark": ""
      },
      "type": "Feature"
    },
    {
      "geometry": {
        "coordinates": [
          134.190401,
          34.489155
        ],
        "type": "Point"
      },
      "properties": {
        "bangumi_id": 219200,
        "bangumi_title": "擅长捉弄的高木同学",
        "ep_cut": 2,
        "image_url": "https://w.junreimap.com/images/points/219200/4w397pnwv.jpg",
        "location": "土庄町北-居民区",
        "point_id": "4w397pnwv",
        "point_name": "光現寺付近",
        "remark": "2話「気配」"
      },
      "type": "Feature"
    },
    {
      "geometry": {
        "coordinates": [
          134.184337,
          34.488847
        ],
        "type": "Point"
      },
      "properties": {
        "bangumi_id": 219200,
        "bangumi_title": "擅长捉弄的高木同学",
        "ep_cut": 5,
        "image_url": "https://w.junreimap.com/images/points/219200/u3wkme8p3_1743082530021.jpg",
        "location": "土庄町北-居民区",
        "point_id": "u3wkme8p3",
        "point_name": "土庄町北侧居民区",
        "remark": "此处有两条位置相近的小径，容易走错，以右侧装饰的围墙为准。"
      },
      "type": "Feature"
    },
    {
      "geometry": {
        "coordinates": [
          134.184765,
          34.488937
        ],
        "type": "Point"
      },
      "properties": {
        "bangumi_id": 219200,
        "bangumi_title": "擅长捉弄的高木同学",
        "ep_cut": "OP1",
        "image_url": "https://w.junreimap.com/images/points/219200/u3wlnekg6_1743082599109.jpg",
        "location": "土庄町北-居民区",
        "point_id": "u3wlnekg6",
        "point_name": "土庄町北侧居民区",
        "remark": "此处建筑物有改造，寻访时以左侧木制建筑物为参照。"
      },
      "type": "Feature"
    },
    {
      "geometry": {
        "coordinates": [
          134.188022,
          34.489109
        ],
        "type": "Point"
      },
      "properties": {
        "bangumi_id": 219200,
        "bangumi_title": "擅长捉弄的高木同学",
        "ep_cut": 7,
        "image_url": "https://w.junreimap.com/images/points/219200/u3wmnmcl2_1743082676203.jpg",
        "location": "土庄町北-居民区",
        "point_id": "u3wmnmcl2",
        "point_name": "土庄町北侧居民区",
        "remark": "S03 EP7"
      },
      "type": "Feature"
    },
    {
      "geometry": {
        "coordinates": [
          134.187859,
          34.489106
        ],
        "type": "Point"
      },
      "properties": {
        "bangumi_id": 219200,
        "bangumi_title": "擅长捉弄的高木同学",
        "ep_cut": 7,
        "image_url": "https://w.junreimap.com/images/points/219200/u3wn38kw1_1743082683578.jpg",
        "location": "土庄町北-居民区",
        "point_id": "u3wn38kw1",
        "point_name": "土庄町北侧居民区",
        "remark": "S03 EP7"
      },
      "type": "Feature"
    },
    {
      "geometry": {
        "coordinates": [
          134.190806,
          34.488213
        ],
        "type": "Point"
      },
      "properties": {
        "bangumi_id": 219200,
        "bangumi_title": "擅长捉弄的高木同学",
        "ep_cut": 2,
        "image_url": "https://w.junreimap.com/images/points/219200/u3wnn3lb6_1743082712140.jpg",
        "location": "土庄町北-居民区",
        "point_id": "u3wnn3lb6",
        "point_name": "八幡桥",
        "remark": "此处改建后有高围栏遮挡，可以考虑类似角度的其他拍摄点位。"
      },
      "type": "Feature"
    },
    {
      "geometry": {
        "coordinates": [
          134.171805,
          34.489217
        ],
        "type": "Point"
      },
      "properties": {
        "bangumi_id": 219200,
        "bangumi_title": "擅长捉弄的高木同学",
        "ep_cut": "",
        "image_url": "https://w.junreimap.com/images/user/0/bangumi/219200/points/ukhhbjdxv-1753167236774.jpg",
        "location": "土庄町-土庄港",
        "point_id": "ukhhbjdxv",
        "point_name": "土庄港​ターミナル",
        "remark": "此处设置有高木同学宣传立牌、海报和联动扭蛋机三台"
      },
      "type": "Feature"
    },
    {
      "geometry": {
        "coordinates": [
          136.950075,
          36.63049
        ],
        "type": "Point"
      },
      "properties": {
        "bangumi_id": 219200,
        "bangumi_title": "擅长捉弄的高木同学",
        "ep_cut": 12,
        "image_url": "https://w.junreimap.com/images/user/2090/bangumi/219200/points/1jyg20-1747104386462.jpg",
        "location": "富山县-砺波市",
        "point_id": "1jyg20",
        "point_name": "深江水と緑の公園 的恐龙",
        "remark": "虽然很怪 但这个恐龙好像真和动画里的差不多（）"
      },
      "type": "Feature"
    },
    {
      "geometry": {
        "coordinates": [
          134.173104,
          34.475643
        ],
        "type": "Point"
      },
      "properties": {
        "bangumi_id": 219200,
        "bangumi_title": "擅长捉弄的高木同学",
        "ep_cut": "",
        "image_url": "https://w.junreimap.com/images/user/2090/bangumi/219200/points/39kbhdm-1754119405750.jpg",
        "location": "土庄町-南部海岸线",
        "point_id": "39kbhdm",
        "point_name": "鹿岛中公交站东侧海堤",
        "remark": ""
      },
      "type": "Feature"
    },
    {
      "geometry": {
        "coordinates": [
          134.186981,
          34.48588
        ],
        "type": "Point"
      },
      "properties": {
        "bangumi_id": 219200,
        "bangumi_title": "擅长捉弄的高木同学",
        "ep_cut": "",
        "image_url": "https://w.junreimap.com/images/user/0/bangumi/219200/points/5fa2wxl-1758818219336.jpg",
        "location": "",
        "point_id": "5fa2wxl",
        "point_name": "土庄町永代橋",
        "remark": ""
      },
      "type": "Feature"
    },
    {
      "geometry": {
        "coordinates": [
          134.187128,
          34.482819
        ],
        "type": "Point"
      },
      "properties": {
        "bangumi_id": 219200,
        "bangumi_title": "擅长捉弄的高木同学",
        "ep_cut": "",
        "image_url": "https://w.junreimap.com/images/user/0/bangumi/219200/points/5fagbyv-1758818838817.jpg",
        "location": "",
        "point_id": "5fagbyv",
        "point_name": "小豆島霊場第58番 奥の院 誓願の塔",
        "remark": ""
      },
      "type": "Feature"
    },
    {
      "geometry": {
        "coordinates": [
          134.188964,
          34.481927
        ],
        "type": "Point"
      },
      "properties": {
        "bangumi_id": 219200,
        "bangumi_title": "擅长捉弄的高木同学",
        "ep_cut": "",
        "image_url": "https://w.junreimap.com/images/user/0/bangumi/219200/points/5famcs4-1758819223477.jpg",
        "location": "",
        "point_id": "5famcs4",
        "point_name": "Books Kotobuki前的海岸",
        "remark": ""
      },
      "type": "Feature"
    }
  ],
  "type": "FeatureCollection"
}