{
  "features": [
    {
      "geometry": {
        "coordinates": [
          130.419197,
          33.589435
        ],
        "type": "Point"
      },
      "properties": {
        "bangumi_id": 219568,
        "bangumi_title": "博多豚骨拉面",
        "ep_cut": 10,
        "image_url": "https://w.junreimap.com/images/points/219568/51i53uttt_1672369184494.jpg",
        "location": "博多駅周辺",
        "point_id": "51i53uttt",
        "point_name": "博多駅博多口①",
        "remark": "第1話、第2話。JR博多シティの入り口。"
      },
      "type": "Feature"
    },
    {
      "geometry": {
        "coordinates": [
          130.41905,
          33.589605
        ],
        "type": "Point"
      },
      "properties": {
        "bangumi_id": 219568,
        "bangumi_title": "博多豚骨拉面",
        "ep_cut": 6,
        "image_url": "https://w.junreimap.com/images/points/219568/51i53uuyo_1672369187332.jpg",
        "location": "博多駅周辺",
        "point_id": "51i53uuyo",
        "point_name": "博多駅博多口②",
        "remark": "第1話、第2話。「はかた駅前通り」を見た図。"
      },
      "type": "Feature"
    },
    {
      "geometry": {
        "coordinates": [
          130.418456,
          33.589656
        ],
        "type": "Point"
      },
      "properties": {
        "bangumi_id": 219568,
        "bangumi_title": "博多豚骨拉面",
        "ep_cut": "",
        "image_url": "https://w.junreimap.com/images/points/219568/51i53uuoj_1672369191192.jpg",
        "location": "博多駅周辺",
        "point_id": "51i53uuoj",
        "point_name": "博多駅博多口③",
        "remark": "第2話。横断歩道の途中から撮影。"
      },
      "type": "Feature"
    },
    {
      "geometry": {
        "coordinates": [
          130.419262,
          33.589994
        ],
        "type": "Point"
      },
      "properties": {
        "bangumi_id": 219568,
        "bangumi_title": "博多豚骨拉面",
        "ep_cut": 5,
        "image_url": "https://w.junreimap.com/images/points/219568/51i53uurd_1672369193192.jpg",
        "location": "博多駅周辺",
        "point_id": "51i53uurd",
        "point_name": "博多駅博多口④",
        "remark": "第５話"
      },
      "type": "Feature"
    },
    {
      "geometry": {
        "coordinates": [
          130.419333,
          33.589149
        ],
        "type": "Point"
      },
      "properties": {
        "bangumi_id": 219568,
        "bangumi_title": "博多豚骨拉面",
        "ep_cut": 5,
        "image_url": "https://w.junreimap.com/images/points/219568/51i53uuw1_1672369195207.jpg",
        "location": "博多駅周辺",
        "point_id": "51i53uuw1",
        "point_name": "エンジェルポスト",
        "remark": "第５話"
      },
      "type": "Feature"
    },
    {
      "geometry": {
        "coordinates": [
          130.420224,
          33.589536
        ],
        "type": "Point"
      },
      "properties": {
        "bangumi_id": 219568,
        "bangumi_title": "博多豚骨拉面",
        "ep_cut": 7,
        "image_url": "https://w.junreimap.com/images/points/219568/51i53uumn_1672369197192.jpg",
        "location": "博多駅周辺",
        "point_id": "51i53uumn",
        "point_name": "CANTINA SICILIANA",
        "remark": "第７話で榎田くんとサイバー課の刑事が話をしていたレストラン。JR博多シティ９階の「CANTINA SICILIANA」というお店。"
      },
      "type": "Feature"
    },
    {
      "geometry": {
        "coordinates": [
          130.419176,
          33.590113
        ],
        "type": "Point"
      },
      "properties": {
        "bangumi_id": 219568,
        "bangumi_title": "博多豚骨拉面",
        "ep_cut": 8,
        "image_url": "https://w.junreimap.com/images/points/219568/51i53uuvu_1672369199188.jpg",
        "location": "博多駅周辺",
        "point_id": "51i53uuvu",
        "point_name": "博多駅前広場のベンチ",
        "remark": "第７話、８話"
      },
      "type": "Feature"
    },
    {
      "geometry": {
        "coordinates": [
          130.421498,
          33.590258
        ],
        "type": "Point"
      },
      "properties": {
        "bangumi_id": 219568,
        "bangumi_title": "博多豚骨拉面",
        "ep_cut": 3,
        "image_url": "https://w.junreimap.com/images/points/219568/51i53uujm_1672369200188.jpg",
        "location": "博多駅周辺",
        "point_id": "51i53uujm",
        "point_name": "博多駅筑紫口①",
        "remark": "第3話。筑紫口のタクシー乗り場。"
      },
      "type": "Feature"
    },
    {
      "geometry": {
        "coordinates": [
          130.421427,
          33.590271
        ],
        "type": "Point"
      },
      "properties": {
        "bangumi_id": 219568,
        "bangumi_title": "博多豚骨拉面",
        "ep_cut": "",
        "image_url": "https://w.junreimap.com/images/points/219568/51i53uuth_1672369201186.jpg",
        "location": "博多駅周辺",
        "point_id": "51i53uuth",
        "point_name": "博多駅筑紫口②",
        "remark": "第3話。筑紫口のタイル絵。"
      },
      "type": "Feature"
    },
    {
      "geometry": {
        "coordinates": [
          130.420639,
          33.590351
        ],
        "type": "Point"
      },
      "properties": {
        "bangumi_id": 219568,
        "bangumi_title": "博多豚骨拉面",
        "ep_cut": 5,
        "image_url": "https://w.junreimap.com/images/points/219568/51i53uuet_1672369203188.jpg",
        "location": "博多駅周辺",
        "point_id": "51i53uuet",
        "point_name": "博多駅北改札口",
        "remark": "第５話"
      },
      "type": "Feature"
    },
    {
      "geometry": {
        "coordinates": [
          130.4237,
          33.588794
        ],
        "type": "Point"
      },
      "properties": {
        "bangumi_id": 219568,
        "bangumi_title": "博多豚骨拉面",
        "ep_cut": "",
        "image_url": "https://w.junreimap.com/images/points/219568/51i53uutk_1672369205188.jpg",
        "location": "博多駅周辺",
        "point_id": "51i53uutk",
        "point_name": "馬場の事務所",
        "remark": "第1話など。"
      },
      "type": "Feature"
    },
    {
      "geometry": {
        "coordinates": [
          130.42375,
          33.588859
        ],
        "type": "Point"
      },
      "properties": {
        "bangumi_id": 219568,
        "bangumi_title": "博多豚骨拉面",
        "ep_cut": 7,
        "image_url": "https://w.junreimap.com/images/points/219568/51i53uvov_1672369206190.jpg",
        "location": "博多駅周辺",
        "point_id": "51i53uvov",
        "point_name": "馬場の事務所の前",
        "remark": "第７話"
      },
      "type": "Feature"
    },
    {
      "geometry": {
        "coordinates": [
          130.415386,
          33.584124
        ],
        "type": "Point"
      },
      "properties": {
        "bangumi_id": 219568,
        "bangumi_title": "博多豚骨拉面",
        "ep_cut": "",
        "image_url": "https://w.junreimap.com/images/points/219568/51i53uv65_1672369207187.jpg",
        "location": "博多駅周辺",
        "point_id": "51i53uv65",
        "point_name": "NEW YORKストア 住吉店",
        "remark": "第1話。斉藤が買い物をしていたスーパー。"
      },
      "type": "Feature"
    },
    {
      "geometry": {
        "coordinates": [
          130.415551,
          33.589773
        ],
        "type": "Point"
      },
      "properties": {
        "bangumi_id": 219568,
        "bangumi_title": "博多豚骨拉面",
        "ep_cut": 5,
        "image_url": "https://w.junreimap.com/images/points/219568/51i53uvjp_1672369208186.jpg",
        "location": "博多駅周辺",
        "point_id": "51i53uvjp",
        "point_name": "はかた駅前通り",
        "remark": "第５話"
      },
      "type": "Feature"
    },
    {
      "geometry": {
        "coordinates": [
          130.43129,
          33.582967
        ],
        "type": "Point"
      },
      "properties": {
        "bangumi_id": 219568,
        "bangumi_title": "博多豚骨拉面",
        "ep_cut": 4,
        "image_url": "https://w.junreimap.com/images/points/219568/51i53uvq5_1672369210187.jpg",
        "location": "博多駅周辺",
        "point_id": "51i53uvq5",
        "point_name": "山王公園野球場",
        "remark": "第４話後半に登場した野球場。"
      },
      "type": "Feature"
    },
    {
      "geometry": {
        "coordinates": [
          130.417577,
          33.590635
        ],
        "type": "Point"
      },
      "properties": {
        "bangumi_id": 219568,
        "bangumi_title": "博多豚骨拉面",
        "ep_cut": 2,
        "image_url": "https://w.junreimap.com/images/points/219568/51i53uvpu_1672369212198.jpg",
        "location": "博多駅周辺",
        "point_id": "51i53uvpu",
        "point_name": "ホテルニューハカタ",
        "remark": "第２話。斉藤が泊まっていたホテル。"
      },
      "type": "Feature"
    },
    {
      "geometry": {
        "coordinates": [
          130.408458,
          33.590304
        ],
        "type": "Point"
      },
      "properties": {
        "bangumi_id": 219568,
        "bangumi_title": "博多豚骨拉面",
        "ep_cut": 1,
        "image_url": "https://w.junreimap.com/images/points/219568/51i53uvt9_1672369214186.jpg",
        "location": "中洲周辺",
        "point_id": "51i53uvt9",
        "point_name": "中洲の屋台街",
        "remark": "第1話など。屋台が出るのは夜から。"
      },
      "type": "Feature"
    },
    {
      "geometry": {
        "coordinates": [
          130.407082,
          33.593893
        ],
        "type": "Point"
      },
      "properties": {
        "bangumi_id": 219568,
        "bangumi_title": "博多豚骨拉面",
        "ep_cut": 1,
        "image_url": "https://w.junreimap.com/images/points/219568/51i53uw9z_1672369216190.jpg",
        "location": "中洲周辺",
        "point_id": "51i53uw9z",
        "point_name": "明治橋",
        "remark": "第1話"
      },
      "type": "Feature"
    },
    {
      "geometry": {
        "coordinates": [
          130.406936,
          33.59399
        ],
        "type": "Point"
      },
      "properties": {
        "bangumi_id": 219568,
        "bangumi_title": "博多豚骨拉面",
        "ep_cut": "",
        "image_url": "https://w.junreimap.com/images/points/219568/51i53uw8o_1672369218193.jpg",
        "location": "中洲周辺",
        "point_id": "51i53uw8o",
        "point_name": "明治橋付近の遊歩道",
        "remark": "第1話、第2話。林ちゃんがお尻を触られた場所。"
      },
      "type": "Feature"
    },
    {
      "geometry": {
        "coordinates": [
          130.405541,
          33.594699
        ],
        "type": "Point"
      },
      "properties": {
        "bangumi_id": 219568,
        "bangumi_title": "博多豚骨拉面",
        "ep_cut": "",
        "image_url": "https://w.junreimap.com/images/points/219568/51i53uwdv_1672369220370.jpg",
        "location": "中洲周辺",
        "point_id": "51i53uwdv",
        "point_name": "ドン・キホーテ中洲店付近①",
        "remark": "第1話。「ピッツェリア ナオ」というお店の前からドン・キホーテ中洲店の方を向いたカット。"
      },
      "type": "Feature"
    },
    {
      "geometry": {
        "coordinates": [
          130.405701,
          33.594152
        ],
        "type": "Point"
      },
      "properties": {
        "bangumi_id": 219568,
        "bangumi_title": "博多豚骨拉面",
        "ep_cut": "",
        "image_url": "https://w.junreimap.com/images/points/219568/51i53uw1h_1672369222264.jpg",
        "location": "中洲周辺",
        "point_id": "51i53uw1h",
        "point_name": "ドン・キホーテ中須店付近②",
        "remark": "第2話。ドン・キホーテ中洲店前の歩道橋。"
      },
      "type": "Feature"
    },
    {
      "geometry": {
        "coordinates": [
          130.405958,
          33.593772
        ],
        "type": "Point"
      },
      "properties": {
        "bangumi_id": 219568,
        "bangumi_title": "博多豚骨拉面",
        "ep_cut": "",
        "image_url": "https://w.junreimap.com/images/points/219568/51i53uw9z_1672369224365.jpg",
        "location": "中洲周辺",
        "point_id": "lqfm23qs7",
        "point_name": "futaba@cafe",
        "remark": "第1話など。榎田が拠点にしているネットカフェ。ドン・キホーテ中洲店が入っているビルの5階。"
      },
      "type": "Feature"
    },
    {
      "geometry": {
        "coordinates": [
          130.40538,
          33.592417
        ],
        "type": "Point"
      },
      "properties": {
        "bangumi_id": 219568,
        "bangumi_title": "博多豚骨拉面",
        "ep_cut": "",
        "image_url": "https://w.junreimap.com/images/points/219568/51i53uvvp_1672369229472.jpg",
        "location": "中洲周辺",
        "point_id": "51i53uvvp",
        "point_name": "福博であい橋①",
        "remark": "第1話。「天神中央公園」の石看板。"
      },
      "type": "Feature"
    },
    {
      "geometry": {
        "coordinates": [
          130.405179,
          33.592097
        ],
        "type": "Point"
      },
      "properties": {
        "bangumi_id": 219568,
        "bangumi_title": "博多豚骨拉面",
        "ep_cut": "",
        "image_url": "https://w.junreimap.com/images/points/219568/51i53uxaz_1672369234191.jpg",
        "location": "中洲周辺",
        "point_id": "51i53uxaz",
        "point_name": "福博であい橋②",
        "remark": "第1話。馬場と重松が事件について話すシーン。"
      },
      "type": "Feature"
    },
    {
      "geometry": {
        "coordinates": [
          130.405207,
          33.592149
        ],
        "type": "Point"
      },
      "properties": {
        "bangumi_id": 219568,
        "bangumi_title": "博多豚骨拉面",
        "ep_cut": "",
        "image_url": "https://w.junreimap.com/images/points/219568/51i53uwvt_1672369236189.jpg",
        "location": "中洲周辺",
        "point_id": "51i53uwvt",
        "point_name": "福博であい橋③",
        "remark": "第1話など。中洲の夜景。"
      },
      "type": "Feature"
    },
    {
      "geometry": {
        "coordinates": [
          130.40517,
          33.592305
        ],
        "type": "Point"
      },
      "properties": {
        "bangumi_id": 219568,
        "bangumi_title": "博多豚骨拉面",
        "ep_cut": "",
        "image_url": "https://w.junreimap.com/images/points/219568/51i53uwzl_1672369237189.jpg",
        "location": "中洲周辺",
        "point_id": "51i53uwzl",
        "point_name": "福博であい橋④",
        "remark": "10話"
      },
      "type": "Feature"
    },
    {
      "geometry": {
        "coordinates": [
          130.405123,
          33.59222
        ],
        "type": "Point"
      },
      "properties": {
        "bangumi_id": 219568,
        "bangumi_title": "博多豚骨拉面",
        "ep_cut": "",
        "image_url": "https://w.junreimap.com/images/points/219568/51i53ux97_1672369239188.jpg",
        "location": "中洲周辺",
        "point_id": "51i53ux97",
        "point_name": "福博であい橋⑤",
        "remark": "第10話"
      },
      "type": "Feature"
    },
    {
      "geometry": {
        "coordinates": [
          130.407613,
          33.59087
        ],
        "type": "Point"
      },
      "properties": {
        "bangumi_id": 219568,
        "bangumi_title": "博多豚骨拉面",
        "ep_cut": "",
        "image_url": "https://w.junreimap.com/images/points/219568/51i53uwp7_1672369241190.jpg",
        "location": "中洲周辺",
        "point_id": "51i53uwp7",
        "point_name": "春吉橋東交差点①",
        "remark": "第1話など。"
      },
      "type": "Feature"
    },
    {
      "geometry": {
        "coordinates": [
          130.407881,
          33.590722
        ],
        "type": "Point"
      },
      "properties": {
        "bangumi_id": 219568,
        "bangumi_title": "博多豚骨拉面",
        "ep_cut": "",
        "image_url": "https://w.junreimap.com/images/points/219568/51i53ux7f_1672369243392.jpg",
        "location": "中洲周辺",
        "point_id": "51i53ux7f",
        "point_name": "春吉橋東交差点②",
        "remark": "第８話"
      },
      "type": "Feature"
    },
    {
      "geometry": {
        "coordinates": [
          130.406261,
          33.592867
        ],
        "type": "Point"
      },
      "properties": {
        "bangumi_id": 219568,
        "bangumi_title": "博多豚骨拉面",
        "ep_cut": "",
        "image_url": "https://w.junreimap.com/images/points/219568/51i53uwrm_1672369247353.jpg",
        "location": "中洲周辺",
        "point_id": "51i53uwrm",
        "point_name": "丸源43ビル付近の道",
        "remark": "第1話など。"
      },
      "type": "Feature"
    },
    {
      "geometry": {
        "coordinates": [
          130.410512,
          33.592502
        ],
        "type": "Point"
      },
      "properties": {
        "bangumi_id": 219568,
        "bangumi_title": "博多豚骨拉面",
        "ep_cut": "",
        "image_url": "https://w.junreimap.com/images/points/219568/51i53uwt8_1672369249214.jpg",
        "location": "中洲周辺",
        "point_id": "51i53uwt8",
        "point_name": "櫛田神社付近の路地",
        "remark": "第1話など。"
      },
      "type": "Feature"
    },
    {
      "geometry": {
        "coordinates": [
          130.408301,
          33.592898
        ],
        "type": "Point"
      },
      "properties": {
        "bangumi_id": 219568,
        "bangumi_title": "博多豚骨拉面",
        "ep_cut": "",
        "image_url": "https://w.junreimap.com/images/points/219568/51i53uwvy_1672369251191.jpg",
        "location": "中洲周辺",
        "point_id": "51i53uwvy",
        "point_name": "丸源36ビル",
        "remark": "第1話など。復讐屋のジローとミサキが拠点にしている「Bar.Babylon」が入っている雑居ビル。"
      },
      "type": "Feature"
    },
    {
      "geometry": {
        "coordinates": [
          130.408808,
          33.589988
        ],
        "type": "Point"
      },
      "properties": {
        "bangumi_id": 219568,
        "bangumi_title": "博多豚骨拉面",
        "ep_cut": "",
        "image_url": "https://w.junreimap.com/images/points/219568/51i53uxok_1672369254118.jpg",
        "location": "中洲周辺",
        "point_id": "51i53uxok",
        "point_name": "清流公園①",
        "remark": "第3話。源造さんが殺し屋仲介の依頼を受けるシーン等で登場。"
      },
      "type": "Feature"
    },
    {
      "geometry": {
        "coordinates": [
          130.408892,
          33.589999
        ],
        "type": "Point"
      },
      "properties": {
        "bangumi_id": 219568,
        "bangumi_title": "博多豚骨拉面",
        "ep_cut": "",
        "image_url": "https://w.junreimap.com/images/points/219568/51i53uxbi_1672369263186.jpg",
        "location": "中洲周辺",
        "point_id": "51i53uxbi",
        "point_name": "清流公園②",
        "remark": "第3話。"
      },
      "type": "Feature"
    },
    {
      "geometry": {
        "coordinates": [
          130.40959,
          33.58922
        ],
        "type": "Point"
      },
      "properties": {
        "bangumi_id": 219568,
        "bangumi_title": "博多豚骨拉面",
        "ep_cut": "",
        "image_url": "https://w.junreimap.com/images/points/219568/51i53uxoc_1672369265186.jpg",
        "location": "中洲周辺",
        "point_id": "51i53uxoc",
        "point_name": "清流公園③",
        "remark": "第3話。"
      },
      "type": "Feature"
    },
    {
      "geometry": {
        "coordinates": [
          130.407978,
          33.590581
        ],
        "type": "Point"
      },
      "properties": {
        "bangumi_id": 219568,
        "bangumi_title": "博多豚骨拉面",
        "ep_cut": "",
        "image_url": "https://w.junreimap.com/images/points/219568/51i53uxvn_1672369266722.jpg",
        "location": "中洲周辺",
        "point_id": "51i53uxvn",
        "point_name": "清流公園④",
        "remark": "12話"
      },
      "type": "Feature"
    },
    {
      "geometry": {
        "coordinates": [
          130.407349,
          33.59245
        ],
        "type": "Point"
      },
      "properties": {
        "bangumi_id": 219568,
        "bangumi_title": "博多豚骨拉面",
        "ep_cut": "",
        "image_url": "https://w.junreimap.com/images/points/219568/51i53uxjp_1672369270188.jpg",
        "location": "中洲周辺",
        "point_id": "51i53uxjp",
        "point_name": "中洲中央通り",
        "remark": "第5話冒頭のカット。"
      },
      "type": "Feature"
    },
    {
      "geometry": {
        "coordinates": [
          130.410361,
          33.58906
        ],
        "type": "Point"
      },
      "properties": {
        "bangumi_id": 219568,
        "bangumi_title": "博多豚骨拉面",
        "ep_cut": "",
        "image_url": "https://w.junreimap.com/images/points/219568/51i53uxda_1672369273075.jpg",
        "location": "中洲周辺",
        "point_id": "51i53uxda",
        "point_name": "キャナルシティ博多①",
        "remark": "第5話。林ちゃんが買い物をしていた場所。"
      },
      "type": "Feature"
    },
    {
      "geometry": {
        "coordinates": [
          130.410704,
          33.58924
        ],
        "type": "Point"
      },
      "properties": {
        "bangumi_id": 219568,
        "bangumi_title": "博多豚骨拉面",
        "ep_cut": "",
        "image_url": "https://w.junreimap.com/images/points/219568/51i53uxnf_1672369282186.jpg",
        "location": "中洲周辺",
        "point_id": "51i53uxnf",
        "point_name": "キャナルシティ博多②",
        "remark": "第５話。林ちゃんが買い物をしていた場所。"
      },
      "type": "Feature"
    },
    {
      "geometry": {
        "coordinates": [
          130.405561,
          33.592322
        ],
        "type": "Point"
      },
      "properties": {
        "bangumi_id": 219568,
        "bangumi_title": "博多豚骨拉面",
        "ep_cut": "",
        "image_url": "https://w.junreimap.com/images/points/219568/51i53uyf6_1672369284352.jpg",
        "location": "中洲周辺",
        "point_id": "51i53uyf6",
        "point_name": "那珂川通り①",
        "remark": "第５話"
      },
      "type": "Feature"
    },
    {
      "geometry": {
        "coordinates": [
          130.407075,
          33.591308
        ],
        "type": "Point"
      },
      "properties": {
        "bangumi_id": 219568,
        "bangumi_title": "博多豚骨拉面",
        "ep_cut": "",
        "image_url": "https://w.junreimap.com/images/points/219568/51i53uyox_1672369295454.jpg",
        "location": "中洲周辺",
        "point_id": "51i53uyox",
        "point_name": "那珂川通り②",
        "remark": "第５話"
      },
      "type": "Feature"
    },
    {
      "geometry": {
        "coordinates": [
          130.41092,
          33.593175
        ],
        "type": "Point"
      },
      "properties": {
        "bangumi_id": 219568,
        "bangumi_title": "博多豚骨拉面",
        "ep_cut": "",
        "image_url": "https://w.junreimap.com/images/points/219568/51i53uyoh_1672369296616.jpg",
        "location": "中洲周辺",
        "point_id": "51i53uyoh",
        "point_name": "櫛田神社①",
        "remark": "第６話"
      },
      "type": "Feature"
    },
    {
      "geometry": {
        "coordinates": [
          130.410508,
          33.592752
        ],
        "type": "Point"
      },
      "properties": {
        "bangumi_id": 219568,
        "bangumi_title": "博多豚骨拉面",
        "ep_cut": "",
        "image_url": "https://w.junreimap.com/images/points/219568/51i53uyit_1672369297796.jpg",
        "location": "中洲周辺",
        "point_id": "51i53uyit",
        "point_name": "櫛田神社②",
        "remark": "第６話"
      },
      "type": "Feature"
    },
    {
      "geometry": {
        "coordinates": [
          130.405188,
          33.594833
        ],
        "type": "Point"
      },
      "properties": {
        "bangumi_id": 219568,
        "bangumi_title": "博多豚骨拉面",
        "ep_cut": "",
        "image_url": "https://w.junreimap.com/images/points/219568/51i53uyet_1672369298849.jpg",
        "location": "中洲周辺",
        "point_id": "51i53uyet",
        "point_name": "ピッツァリア ナオ前の歩道",
        "remark": "第７話"
      },
      "type": "Feature"
    },
    {
      "geometry": {
        "coordinates": [
          130.40523,
          33.594742
        ],
        "type": "Point"
      },
      "properties": {
        "bangumi_id": 219568,
        "bangumi_title": "博多豚骨拉面",
        "ep_cut": "",
        "image_url": "https://w.junreimap.com/images/points/219568/51i53uy9s_1672369299855.jpg",
        "location": "中洲周辺",
        "point_id": "51i53uy9s",
        "point_name": "博多ことぶき橋の下",
        "remark": "第８話"
      },
      "type": "Feature"
    },
    {
      "geometry": {
        "coordinates": [
          130.405418,
          33.593849
        ],
        "type": "Point"
      },
      "properties": {
        "bangumi_id": 219568,
        "bangumi_title": "博多豚骨拉面",
        "ep_cut": "",
        "image_url": "https://w.junreimap.com/images/points/219568/51i53uyct_1672369300805.jpg",
        "location": "中洲周辺",
        "point_id": "51i53uyct",
        "point_name": "中洲川端駅のトイレ",
        "remark": "第８話"
      },
      "type": "Feature"
    },
    {
      "geometry": {
        "coordinates": [
          130.404153,
          33.592599
        ],
        "type": "Point"
      },
      "properties": {
        "bangumi_id": 219568,
        "bangumi_title": "博多豚骨拉面",
        "ep_cut": "",
        "image_url": "https://w.junreimap.com/images/points/219568/51i53uy50_1672369301922.jpg",
        "location": "中洲周辺",
        "point_id": "51i53uy50",
        "point_name": "西大橋",
        "remark": "第10話"
      },
      "type": "Feature"
    },
    {
      "geometry": {
        "coordinates": [
          130.409725,
          33.592051
        ],
        "type": "Point"
      },
      "properties": {
        "bangumi_id": 219568,
        "bangumi_title": "博多豚骨拉面",
        "ep_cut": "",
        "image_url": "https://w.junreimap.com/images/points/219568/51i53uyu6_1672369303464.jpg",
        "location": "中洲周辺",
        "point_id": "51i53uyu6",
        "point_name": "水車橋",
        "remark": "第10話"
      },
      "type": "Feature"
    },
    {
      "geometry": {
        "coordinates": [
          130.402672,
          33.590911
        ],
        "type": "Point"
      },
      "properties": {
        "bangumi_id": 219568,
        "bangumi_title": "博多豚骨拉面",
        "ep_cut": "",
        "image_url": "https://w.junreimap.com/images/points/219568/51i53uyyi_1672369305072.jpg",
        "location": "福岡市中央区天神",
        "point_id": "51i53uyyi",
        "point_name": "天神中央公園",
        "remark": "第1話。市長が演説をしていた公園。"
      },
      "type": "Feature"
    },
    {
      "geometry": {
        "coordinates": [
          130.398941,
          33.590658
        ],
        "type": "Point"
      },
      "properties": {
        "bangumi_id": 219568,
        "bangumi_title": "博多豚骨拉面",
        "ep_cut": "",
        "image_url": "https://w.junreimap.com/images/points/219568/51i53uzf3_1672369306760.jpg",
        "location": "福岡市中央区天神",
        "point_id": "51i53uzf3",
        "point_name": "天神コア前",
        "remark": "第1話。天神コア前の横断歩道。"
      },
      "type": "Feature"
    },
    {
      "geometry": {
        "coordinates": [
          130.398913,
          33.590752
        ],
        "type": "Point"
      },
      "properties": {
        "bangumi_id": 219568,
        "bangumi_title": "博多豚骨拉面",
        "ep_cut": "",
        "image_url": "https://w.junreimap.com/images/points/219568/51i53uz93_1672369307862.jpg",
        "location": "福岡市中央区天神",
        "point_id": "51i53uz93",
        "point_name": "渡辺通りの歩道",
        "remark": "第1話。林ちゃんがマフィアの幹部と電話をしていた場所。ポストが目印。"
      },
      "type": "Feature"
    },
    {
      "geometry": {
        "coordinates": [
          130.40181,
          33.590892
        ],
        "type": "Point"
      },
      "properties": {
        "bangumi_id": 219568,
        "bangumi_title": "博多豚骨拉面",
        "ep_cut": "",
        "image_url": "https://w.junreimap.com/images/points/219568/51i53uyur_1672369309246.jpg",
        "location": "福岡市中央区天神",
        "point_id": "51i53uyur",
        "point_name": "福岡市役所前交差点",
        "remark": "第1話。アクロス福岡前の交差点。"
      },
      "type": "Feature"
    },
    {
      "geometry": {
        "coordinates": [
          130.398858,
          33.590212
        ],
        "type": "Point"
      },
      "properties": {
        "bangumi_id": 219568,
        "bangumi_title": "博多豚骨拉面",
        "ep_cut": "",
        "image_url": "https://w.junreimap.com/images/points/219568/51i53uyvi_1672369310766.jpg",
        "location": "福岡市中央区天神",
        "point_id": "51i53uyvi",
        "point_name": "ソラリアビジョン（ステージ広場）",
        "remark": "第2話、第4話。"
      },
      "type": "Feature"
    },
    {
      "geometry": {
        "coordinates": [
          130.399519,
          33.589465
        ],
        "type": "Point"
      },
      "properties": {
        "bangumi_id": 219568,
        "bangumi_title": "博多豚骨拉面",
        "ep_cut": "",
        "image_url": "https://w.junreimap.com/images/points/219568/51i53uz3r_1672369312150.jpg",
        "location": "福岡市中央区天神",
        "point_id": "51i53uz3r",
        "point_name": "ソラリアビジョン（外壁）",
        "remark": "第4話。市長の息子が犯行を自供するシーン"
      },
      "type": "Feature"
    },
    {
      "geometry": {
        "coordinates": [
          130.399386,
          33.589739
        ],
        "type": "Point"
      },
      "properties": {
        "bangumi_id": 219568,
        "bangumi_title": "博多豚骨拉面",
        "ep_cut": "",
        "image_url": "https://w.junreimap.com/images/points/219568/51i53uzho_1672369314286.jpg",
        "location": "福岡市中央区天神",
        "point_id": "51i53uzho",
        "point_name": "天神イムズ・愛眼ビルを見上げる",
        "remark": "第4話。右が『天神イムズ』で、左がコマーシャルが有名なあの天神愛眼ビル。"
      },
      "type": "Feature"
    },
    {
      "geometry": {
        "coordinates": [
          130.399509,
          33.589256
        ],
        "type": "Point"
      },
      "properties": {
        "bangumi_id": 219568,
        "bangumi_title": "博多豚骨拉面",
        "ep_cut": "",
        "image_url": "https://w.junreimap.com/images/points/219568/51i53v028_1672369315932.jpg",
        "location": "福岡市中央区天神",
        "point_id": "51i53v028",
        "point_name": "福岡三越1階のライオン像",
        "remark": "第3話。ブローカーに扮した馬場が、囮の林ちゃんを引き渡すシーン。"
      },
      "type": "Feature"
    },
    {
      "geometry": {
        "coordinates": [
          130.402632,
          33.589724
        ],
        "type": "Point"
      },
      "properties": {
        "bangumi_id": 219568,
        "bangumi_title": "博多豚骨拉面",
        "ep_cut": "",
        "image_url": "https://w.junreimap.com/images/points/219568/51i53v00g_1672369317132.jpg",
        "location": "福岡市中央区天神",
        "point_id": "51i53v00g",
        "point_name": "天神中央公園地下駐車場入口",
        "remark": "第６話冒頭"
      },
      "type": "Feature"
    },
    {
      "geometry": {
        "coordinates": [
          130.399507,
          33.58971
        ],
        "type": "Point"
      },
      "properties": {
        "bangumi_id": 219568,
        "bangumi_title": "博多豚骨拉面",
        "ep_cut": "",
        "image_url": "https://w.junreimap.com/images/points/219568/51i53v02f_1672369318658.jpg",
        "location": "福岡市中央区天神",
        "point_id": "51i53v02f",
        "point_name": "天神バスセンター前交差点",
        "remark": "第７話"
      },
      "type": "Feature"
    },
    {
      "geometry": {
        "coordinates": [
          130.399357,
          33.589513
        ],
        "type": "Point"
      },
      "properties": {
        "bangumi_id": 219568,
        "bangumi_title": "博多豚骨拉面",
        "ep_cut": "",
        "image_url": "https://w.junreimap.com/images/points/219568/51i53uzz5_1672369319724.jpg",
        "location": "福岡市中央区天神",
        "point_id": "51i53uzz5",
        "point_name": "福岡三越横の高架下",
        "remark": "第７話"
      },
      "type": "Feature"
    },
    {
      "geometry": {
        "coordinates": [
          130.394095,
          33.600032
        ],
        "type": "Point"
      },
      "properties": {
        "bangumi_id": 219568,
        "bangumi_title": "博多豚骨拉面",
        "ep_cut": "",
        "image_url": "https://w.junreimap.com/images/points/219568/51i53uzwy_1672369321183.jpg",
        "location": "博多港周辺",
        "point_id": "51i53uzwy",
        "point_name": "ボートレース福岡付近の倉庫",
        "remark": "第2話など。囮になった林ちゃんが運ばれてきた倉庫。他にも林ちゃんの妹の取引現場だったり、作中では色々とヤバイことに使われてる場所ですね^^;"
      },
      "type": "Feature"
    },
    {
      "geometry": {
        "coordinates": [
          130.394374,
          33.602552
        ],
        "type": "Point"
      },
      "properties": {
        "bangumi_id": 219568,
        "bangumi_title": "博多豚骨拉面",
        "ep_cut": "",
        "image_url": "https://w.junreimap.com/images/points/219568/51i53uzxp_1672369323185.jpg",
        "location": "博多港周辺",
        "point_id": "51i53uzxp",
        "point_name": "那の津3丁目の海岸線",
        "remark": "第2話、第4話。アイキャッチでも登場。"
      },
      "type": "Feature"
    },
    {
      "geometry": {
        "coordinates": [
          130.396251,
          33.602615
        ],
        "type": "Point"
      },
      "properties": {
        "bangumi_id": 219568,
        "bangumi_title": "博多豚骨拉面",
        "ep_cut": "",
        "image_url": "https://w.junreimap.com/images/points/219568/51i53v0k8_1672369324187.jpg",
        "location": "博多港周辺",
        "point_id": "51i53v0k8",
        "point_name": "都市高高架下①",
        "remark": "第７話。榎田くんと執事さんが話をしていた場所。"
      },
      "type": "Feature"
    },
    {
      "geometry": {
        "coordinates": [
          130.395976,
          33.60295
        ],
        "type": "Point"
      },
      "properties": {
        "bangumi_id": 219568,
        "bangumi_title": "博多豚骨拉面",
        "ep_cut": "",
        "image_url": "https://w.junreimap.com/images/points/219568/51i53v0f5_1672369326185.jpg",
        "location": "博多港周辺",
        "point_id": "51i53v0f5",
        "point_name": "都市高高架下②",
        "remark": "第７話。榎田くんと執事さんが話をしていた場所。"
      },
      "type": "Feature"
    },
    {
      "geometry": {
        "coordinates": [
          130.396414,
          33.602414
        ],
        "type": "Point"
      },
      "properties": {
        "bangumi_id": 219568,
        "bangumi_title": "博多豚骨拉面",
        "ep_cut": "",
        "image_url": "https://w.junreimap.com/images/points/219568/51i53v0fg_1672369328184.jpg",
        "location": "博多港周辺",
        "point_id": "51i53v0fg",
        "point_name": "都市高高架下③",
        "remark": "12話"
      },
      "type": "Feature"
    },
    {
      "geometry": {
        "coordinates": [
          130.389851,
          33.600595
        ],
        "type": "Point"
      },
      "properties": {
        "bangumi_id": 219568,
        "bangumi_title": "博多豚骨拉面",
        "ep_cut": "",
        "image_url": "https://w.junreimap.com/images/points/219568/51i53v15g_1672369331184.jpg",
        "location": "博多港周辺",
        "point_id": "51i53v15g",
        "point_name": "倉庫街",
        "remark": "第10話"
      },
      "type": "Feature"
    },
    {
      "geometry": {
        "coordinates": [
          130.398547,
          33.610585
        ],
        "type": "Point"
      },
      "properties": {
        "bangumi_id": 219568,
        "bangumi_title": "博多豚骨拉面",
        "ep_cut": "",
        "image_url": "https://w.junreimap.com/images/points/219568/51i53v0km_1672369333185.jpg",
        "location": "博多港周辺",
        "point_id": "51i53v0km",
        "point_name": "コンテナ置き場付近①",
        "remark": "第６話。マリンメッセ福岡近くのコンテナ置き場。"
      },
      "type": "Feature"
    },
    {
      "geometry": {
        "coordinates": [
          130.398,
          33.61101
        ],
        "type": "Point"
      },
      "properties": {
        "bangumi_id": 219568,
        "bangumi_title": "博多豚骨拉面",
        "ep_cut": "",
        "image_url": "https://w.junreimap.com/images/points/219568/51i53v1k3_1672369335185.jpg",
        "location": "博多港周辺",
        "point_id": "51i53v1k3",
        "point_name": "コンテナ置き場付近②",
        "remark": "第６話。マリンメッセ福岡近くのコンテナ置き場。"
      },
      "type": "Feature"
    },
    {
      "geometry": {
        "coordinates": [
          130.400403,
          33.608543
        ],
        "type": "Point"
      },
      "properties": {
        "bangumi_id": 219568,
        "bangumi_title": "博多豚骨拉面",
        "ep_cut": "",
        "image_url": "https://w.junreimap.com/images/points/219568/51i53v1f3_1672369337195.jpg",
        "location": "博多港周辺",
        "point_id": "51i53v1f3",
        "point_name": "博多港国際ターミナル入口",
        "remark": "第10話"
      },
      "type": "Feature"
    },
    {
      "geometry": {
        "coordinates": [
          130.399003,
          33.61084
        ],
        "type": "Point"
      },
      "properties": {
        "bangumi_id": 219568,
        "bangumi_title": "博多豚骨拉面",
        "ep_cut": "",
        "image_url": "https://w.junreimap.com/images/points/219568/51i53v1fd_1672369339186.jpg",
        "location": "博多港周辺",
        "point_id": "51i53v1fd",
        "point_name": "猿渡が華九会に売られそうになった倉庫",
        "remark": "11話"
      },
      "type": "Feature"
    },
    {
      "geometry": {
        "coordinates": [
          130.882461,
          33.885534
        ],
        "type": "Point"
      },
      "properties": {
        "bangumi_id": 219568,
        "bangumi_title": "博多豚骨拉面",
        "ep_cut": "",
        "image_url": "https://w.junreimap.com/images/points/219568/51i53v2ks_1672369341188.jpg",
        "location": "小倉",
        "point_id": "51i53v2ks",
        "point_name": "小倉駅",
        "remark": "第5話"
      },
      "type": "Feature"
    },
    {
      "geometry": {
        "coordinates": [
          130.881239,
          33.886108
        ],
        "type": "Point"
      },
      "properties": {
        "bangumi_id": 219568,
        "bangumi_title": "博多豚骨拉面",
        "ep_cut": "",
        "image_url": "https://w.junreimap.com/images/points/219568/51i53v3dp_1672369343189.jpg",
        "location": "小倉",
        "point_id": "51i53v3dp",
        "point_name": "小倉中央商店街入口",
        "remark": "第5話"
      },
      "type": "Feature"
    },
    {
      "geometry": {
        "coordinates": [
          130.881105,
          33.885543
        ],
        "type": "Point"
      },
      "properties": {
        "bangumi_id": 219568,
        "bangumi_title": "博多豚骨拉面",
        "ep_cut": "",
        "image_url": "https://w.junreimap.com/images/points/219568/51i53v35k_1672369345187.jpg",
        "location": "小倉",
        "point_id": "51i53v35k",
        "point_name": "小倉中央商店街",
        "remark": "第5話"
      },
      "type": "Feature"
    },
    {
      "geometry": {
        "coordinates": [
          130.880728,
          33.883576
        ],
        "type": "Point"
      },
      "properties": {
        "bangumi_id": 219568,
        "bangumi_title": "博多豚骨拉面",
        "ep_cut": "",
        "image_url": "https://w.junreimap.com/images/points/219568/51i53v3dk_1672369347188.jpg",
        "location": "小倉",
        "point_id": "51i53v3dk",
        "point_name": "資さんうどん魚町店",
        "remark": "第5話"
      },
      "type": "Feature"
    },
    {
      "geometry": {
        "coordinates": [
          130.87876,
          33.882363
        ],
        "type": "Point"
      },
      "properties": {
        "bangumi_id": 219568,
        "bangumi_title": "博多豚骨拉面",
        "ep_cut": "",
        "image_url": "https://w.junreimap.com/images/points/219568/51i53v3fk_1672369349184.jpg",
        "location": "小倉",
        "point_id": "51i53v3fk",
        "point_name": "小倉城遠景",
        "remark": "第5話"
      },
      "type": "Feature"
    },
    {
      "geometry": {
        "coordinates": [
          130.361955,
          33.58529
        ],
        "type": "Point"
      },
      "properties": {
        "bangumi_id": 219568,
        "bangumi_title": "博多豚骨拉面",
        "ep_cut": "",
        "image_url": "https://w.junreimap.com/images/points/219568/51i53v3un_1672369351187.jpg",
        "location": "福岡市早良区",
        "point_id": "51i53v3un",
        "point_name": "西新パレスドーム",
        "remark": "第1話。バッティングセンターのモデル。"
      },
      "type": "Feature"
    },
    {
      "geometry": {
        "coordinates": [
          130.359631,
          33.583101
        ],
        "type": "Point"
      },
      "properties": {
        "bangumi_id": 219568,
        "bangumi_title": "博多豚骨拉面",
        "ep_cut": "",
        "image_url": "https://w.junreimap.com/images/points/219568/51i53v4hk_1672369353185.jpg",
        "location": "福岡市早良区",
        "point_id": "51i53v4hk",
        "point_name": "西新中央商店街",
        "remark": "第７話"
      },
      "type": "Feature"
    },
    {
      "geometry": {
        "coordinates": [
          130.356882,
          33.582819
        ],
        "type": "Point"
      },
      "properties": {
        "bangumi_id": 219568,
        "bangumi_title": "博多豚骨拉面",
        "ep_cut": "",
        "image_url": "https://w.junreimap.com/images/points/219568/51i53v4fz_1672369355209.jpg",
        "location": "福岡市早良区",
        "point_id": "51i53v4fz",
        "point_name": "パソコン市場",
        "remark": "第７話など"
      },
      "type": "Feature"
    },
    {
      "geometry": {
        "coordinates": [
          130.351465,
          33.593902
        ],
        "type": "Point"
      },
      "properties": {
        "bangumi_id": 219568,
        "bangumi_title": "博多豚骨拉面",
        "ep_cut": "",
        "image_url": "https://w.junreimap.com/images/points/219568/51i53v4fi_1672369357188.jpg",
        "location": "福岡市早良区",
        "point_id": "51i53v4fi",
        "point_name": "シーサイドももち海浜公園入り口",
        "remark": "第4話。市長の息子がいるマンションに突入する直前のシーンで登場。"
      },
      "type": "Feature"
    },
    {
      "geometry": {
        "coordinates": [
          130.376168,
          33.589263
        ],
        "type": "Point"
      },
      "properties": {
        "bangumi_id": 219568,
        "bangumi_title": "博多豚骨拉面",
        "ep_cut": "",
        "image_url": "https://w.junreimap.com/images/points/219568/51i53v64v_1672369359186.jpg",
        "location": "大濠公園",
        "point_id": "51i53v64v",
        "point_name": "大濠公園",
        "remark": "第10話"
      },
      "type": "Feature"
    },
    {
      "geometry": {
        "coordinates": [
          130.419334,
          33.616138
        ],
        "type": "Point"
      },
      "properties": {
        "bangumi_id": 219568,
        "bangumi_title": "博多豚骨拉面",
        "ep_cut": "",
        "image_url": "https://w.junreimap.com/images/points/219568/51i53v7eo_1672369361183.jpg",
        "location": "福岡市東区",
        "point_id": "51i53v7eo",
        "point_name": "筥崎宮前駅",
        "remark": "第1話。林ちゃんが、殺人ターゲットの刑事の家へ向かうシーンで登場。"
      },
      "type": "Feature"
    },
    {
      "geometry": {
        "coordinates": [
          130.428856,
          33.640254
        ],
        "type": "Point"
      },
      "properties": {
        "bangumi_id": 219568,
        "bangumi_title": "博多豚骨拉面",
        "ep_cut": "",
        "image_url": "https://w.junreimap.com/images/points/219568/51i53v7o8_1672369363021.jpg",
        "location": "福岡市東区",
        "point_id": "51i53v7o8",
        "point_name": "名島踏切",
        "remark": "第5話冒頭。野球の練習試合に向かうシーンで登場。"
      },
      "type": "Feature"
    },
    {
      "geometry": {
        "coordinates": [
          130.444053,
          33.659581
        ],
        "type": "Point"
      },
      "properties": {
        "bangumi_id": 219568,
        "bangumi_title": "博多豚骨拉面",
        "ep_cut": "",
        "image_url": "https://w.junreimap.com/images/points/219568/51i53v7x0_1672369365089.jpg",
        "location": "福岡市東区",
        "point_id": "51i53v7x0",
        "point_name": "香椎駅",
        "remark": "第５話"
      },
      "type": "Feature"
    },
    {
      "geometry": {
        "coordinates": [
          130.406467,
          33.574813
        ],
        "type": "Point"
      },
      "properties": {
        "bangumi_id": 219568,
        "bangumi_title": "博多豚骨拉面",
        "ep_cut": "",
        "image_url": "https://w.junreimap.com/images/points/219568/51i53v7f7_1672369366461.jpg",
        "location": "西鉄平尾駅周辺",
        "point_id": "51i53v7f7",
        "point_name": "ロイヤルホスト平尾店",
        "remark": "第８話に登場したファミレス"
      },
      "type": "Feature"
    },
    {
      "geometry": {
        "coordinates": [
          130.546492,
          33.584759
        ],
        "type": "Point"
      },
      "properties": {
        "bangumi_id": 219568,
        "bangumi_title": "博多豚骨拉面",
        "ep_cut": "",
        "image_url": "https://w.junreimap.com/images/points/219568/51i53v8de_1672369367410.jpg",
        "location": "糟屋郡須惠町",
        "point_id": "51i53v8de",
        "point_name": "市長の息子の友人（村瀬たち）が殺された場所",
        "remark": "第２話。市長の息子の友人たちが事故に見せかけて殺された現場。"
      },
      "type": "Feature"
    }
  ],
  "type": "FeatureCollection"
}