{
  "features": [
    {
      "geometry": {
        "coordinates": [
          135.487377,
          34.698859
        ],
        "type": "Point"
      },
      "properties": {
        "bangumi_id": 219658,
        "bangumi_title": "龙王的工作！",
        "ep_cut": 1,
        "image_url": "https://w.junreimap.com/images/user/0/bangumi/219658/points/o6dw7ddp2-1726350410622.jpg",
        "location": "",
        "point_id": "o6dw7ddp2",
        "point_name": "関西将棋会館",
        "remark": "已炸，目前為停車場"
      },
      "type": "Feature"
    },
    {
      "geometry": {
        "coordinates": [
          135.488785,
          34.699271
        ],
        "type": "Point"
      },
      "properties": {
        "bangumi_id": 219658,
        "bangumi_title": "龙王的工作！",
        "ep_cut": 1,
        "image_url": "https://w.junreimap.com/images/user/1099/bangumi/219658/points/oejg6mrkl-1726989373558.jpg",
        "location": "",
        "point_id": "oejg6mrkl",
        "point_name": "福島東公園ベンチ",
        "remark": ""
      },
      "type": "Feature"
    },
    {
      "geometry": {
        "coordinates": [
          135.485937,
          34.697378
        ],
        "type": "Point"
      },
      "properties": {
        "bangumi_id": 219658,
        "bangumi_title": "龙王的工作！",
        "ep_cut": 1,
        "image_url": "https://w.junreimap.com/images/user/1099/bangumi/219658/points/oejl8wxbe-1726989742691.jpg",
        "location": "",
        "point_id": "oejl8wxbe",
        "point_name": "ヘアークリニックPaPa",
        "remark": "原本是个咖啡店来着，现在店铺换了，但是外观基本没变化"
      },
      "type": "Feature"
    },
    {
      "geometry": {
        "coordinates": [
          135.48677,
          34.697419
        ],
        "type": "Point"
      },
      "properties": {
        "bangumi_id": 219658,
        "bangumi_title": "龙王的工作！",
        "ep_cut": 1,
        "image_url": "https://w.junreimap.com/images/user/1099/bangumi/219658/points/oejve3kx9-1726990524927.jpg",
        "location": "",
        "point_id": "oejve3kx9",
        "point_name": "ミスタードーナツ 福島ショップ",
        "remark": "JR福岛北侧的街道，图为商店街看板"
      },
      "type": "Feature"
    },
    {
      "geometry": {
        "coordinates": [
          135.487886,
          34.698474
        ],
        "type": "Point"
      },
      "properties": {
        "bangumi_id": 219658,
        "bangumi_title": "龙王的工作！",
        "ep_cut": 1,
        "image_url": "https://w.junreimap.com/images/user/1099/bangumi/219658/points/oek49yxof-1726990814067.jpg",
        "location": "",
        "point_id": "oek49yxof",
        "point_name": "クレヴィア大阪福島",
        "remark": ""
      },
      "type": "Feature"
    },
    {
      "geometry": {
        "coordinates": [
          135.497274,
          34.702492
        ],
        "type": "Point"
      },
      "properties": {
        "bangumi_id": 219658,
        "bangumi_title": "龙王的工作！",
        "ep_cut": 1,
        "image_url": "https://w.junreimap.com/images/user/1099/bangumi/219658/points/oekaa1c3z-1726991203175.jpg",
        "location": "",
        "point_id": "oekaa1c3z",
        "point_name": "JR大阪駅",
        "remark": ""
      },
      "type": "Feature"
    },
    {
      "geometry": {
        "coordinates": [
          135.499129,
          34.704929
        ],
        "type": "Point"
      },
      "properties": {
        "bangumi_id": 219658,
        "bangumi_title": "龙王的工作！",
        "ep_cut": 1,
        "image_url": "https://w.junreimap.com/images/user/1099/bangumi/219658/points/oekdcz8vu-1726991375042.jpg",
        "location": "",
        "point_id": "oekdcz8vu",
        "point_name": "阪急大阪梅田駅駐車場 阪急梅田駅東側入口",
        "remark": ""
      },
      "type": "Feature"
    },
    {
      "geometry": {
        "coordinates": [
          135.506289,
          34.652543
        ],
        "type": "Point"
      },
      "properties": {
        "bangumi_id": 219658,
        "bangumi_title": "龙王的工作！",
        "ep_cut": 1,
        "image_url": "https://w.junreimap.com/images/user/1099/bangumi/219658/points/oekir15ae-1726991680362.jpg",
        "location": "",
        "point_id": "oekir15ae",
        "point_name": "通天阁展望台入口",
        "remark": ""
      },
      "type": "Feature"
    },
    {
      "geometry": {
        "coordinates": [
          135.505778,
          34.651136
        ],
        "type": "Point"
      },
      "properties": {
        "bangumi_id": 219658,
        "bangumi_title": "龙王的工作！",
        "ep_cut": 2,
        "image_url": "https://w.junreimap.com/images/user/1099/bangumi/219658/points/oeknemcjg-1726992033726.jpg",
        "location": "",
        "point_id": "oeknemcjg",
        "point_name": "づぼらや 新世界店（已停业） 公園本通",
        "remark": ""
      },
      "type": "Feature"
    },
    {
      "geometry": {
        "coordinates": [
          135.532392,
          34.809506
        ],
        "type": "Point"
      },
      "properties": {
        "bangumi_id": 219658,
        "bangumi_title": "龙王的工作！",
        "ep_cut": 1,
        "image_url": "https://w.junreimap.com/images/user/1099/bangumi/219658/points/oekseikds-1726992241274.jpg",
        "location": "",
        "point_id": "oekseikds",
        "point_name": "万博記念公園・太陽の塔",
        "remark": ""
      },
      "type": "Feature"
    },
    {
      "geometry": {
        "coordinates": [
          135.486663,
          34.697351
        ],
        "type": "Point"
      },
      "properties": {
        "bangumi_id": 219658,
        "bangumi_title": "龙王的工作！",
        "ep_cut": 1,
        "image_url": "https://w.junreimap.com/images/user/1099/bangumi/219658/points/oekxey0xf-1726992603831.jpg",
        "location": "",
        "point_id": "oekxey0xf",
        "point_name": "かき氷専門店&スイーツ えびす",
        "remark": ""
      },
      "type": "Feature"
    },
    {
      "geometry": {
        "coordinates": [
          135.506439,
          34.652685
        ],
        "type": "Point"
      },
      "properties": {
        "bangumi_id": 219658,
        "bangumi_title": "龙王的工作！",
        "ep_cut": 1,
        "image_url": "https://w.junreimap.com/images/user/1099/bangumi/219658/points/oelb054uu-1726993394150.jpg",
        "location": "",
        "point_id": "oelb054uu",
        "point_name": "だるま 通天閣店",
        "remark": ""
      },
      "type": "Feature"
    },
    {
      "geometry": {
        "coordinates": [
          135.487254,
          34.698888
        ],
        "type": "Point"
      },
      "properties": {
        "bangumi_id": 219658,
        "bangumi_title": "龙王的工作！",
        "ep_cut": 1,
        "image_url": "https://w.junreimap.com/images/user/1099/bangumi/219658/points/oeljc9etn-1726993870866.jpg",
        "location": "",
        "point_id": "oeljc9etn",
        "point_name": "関西将棋会館将棋道場",
        "remark": ""
      },
      "type": "Feature"
    },
    {
      "geometry": {
        "coordinates": [
          135.487224,
          34.698617
        ],
        "type": "Point"
      },
      "properties": {
        "bangumi_id": 219658,
        "bangumi_title": "龙王的工作！",
        "ep_cut": 2,
        "image_url": "https://w.junreimap.com/images/user/0/bangumi/219658/points/14o4v11-1749469726659.jpg",
        "location": "",
        "point_id": "14o4v11",
        "point_name": "竹内ビル",
        "remark": ""
      },
      "type": "Feature"
    },
    {
      "geometry": {
        "coordinates": [
          135.487151,
          34.698583
        ],
        "type": "Point"
      },
      "properties": {
        "bangumi_id": 219658,
        "bangumi_title": "龙王的工作！",
        "ep_cut": 2,
        "image_url": "https://w.junreimap.com/images/user/0/bangumi/219658/points/14osf59-1749470701987.jpg",
        "location": "",
        "point_id": "14osf59",
        "point_name": "焼肉藤もと大吉商店 YAKINIKU FUJIMOTO",
        "remark": ""
      },
      "type": "Feature"
    },
    {
      "geometry": {
        "coordinates": [
          135.533864,
          34.697557
        ],
        "type": "Point"
      },
      "properties": {
        "bangumi_id": 219658,
        "bangumi_title": "龙王的工作！",
        "ep_cut": 6,
        "image_url": "https://w.junreimap.com/images/user/0/bangumi/219658/points/165gv4m-1749559149368.jpg",
        "location": "",
        "point_id": "165gv4m",
        "point_name": "酒房まつい 京橋本店",
        "remark": ""
      },
      "type": "Feature"
    },
    {
      "geometry": {
        "coordinates": [
          135.534221,
          34.697715
        ],
        "type": "Point"
      },
      "properties": {
        "bangumi_id": 219658,
        "bangumi_title": "龙王的工作！",
        "ep_cut": 6,
        "image_url": "https://w.junreimap.com/images/user/0/bangumi/219658/points/165o8hi-1749559480653.jpg",
        "location": "",
        "point_id": "165o8hi",
        "point_name": "立ち飲みいなせや 京橋店",
        "remark": ""
      },
      "type": "Feature"
    },
    {
      "geometry": {
        "coordinates": [
          135.486705,
          34.697371
        ],
        "type": "Point"
      },
      "properties": {
        "bangumi_id": 219658,
        "bangumi_title": "龙王的工作！",
        "ep_cut": 11,
        "image_url": "https://w.junreimap.com/images/user/0/bangumi/219658/points/17m8ca6-1749647768575.jpg",
        "location": "",
        "point_id": "17m8ca6",
        "point_name": "Chikada Cigarette Shop, 宮川ビル 7-chōme-6-4 Fukushima, Fukushima Ward, Osaka, 553-0003附近",
        "remark": ""
      },
      "type": "Feature"
    },
    {
      "geometry": {
        "coordinates": [
          135.506185,
          34.649712
        ],
        "type": "Point"
      },
      "properties": {
        "bangumi_id": 219658,
        "bangumi_title": "龙王的工作！",
        "ep_cut": "",
        "image_url": "https://w.junreimap.com/images/user/0/bangumi/219658/points/efl09rv-1778427596009.jpg",
        "location": "",
        "point_id": "efl09rv",
        "point_name": "囲碁・​将棋​三桂​クラブ",
        "remark": ""
      },
      "type": "Feature"
    }
  ],
  "type": "FeatureCollection"
}