{
  "features": [
    {
      "geometry": {
        "coordinates": [
          127.829188,
          26.178313
        ],
        "type": "Point"
      },
      "properties": {
        "bangumi_id": 220375,
        "bangumi_title": "遥的接球",
        "ep_cut": 10,
        "image_url": "https://w.junreimap.com/images/points/220375/8f471798_1726058954600.jpg",
        "location": "",
        "point_id": "8f471798",
        "point_name": "あざまサンサンビーチ",
        "remark": ""
      },
      "type": "Feature"
    },
    {
      "geometry": {
        "coordinates": [
          127.890766,
          26.338493
        ],
        "type": "Point"
      },
      "properties": {
        "bangumi_id": 220375,
        "bangumi_title": "遥的接球",
        "ep_cut": 8,
        "image_url": "https://w.junreimap.com/images/points/220375/6ad8469f_1726058957296.jpg",
        "location": "",
        "point_id": "6ad8469f",
        "point_name": "うるまジェラート",
        "remark": ""
      },
      "type": "Feature"
    },
    {
      "geometry": {
        "coordinates": [
          127.860679,
          26.371895
        ],
        "type": "Point"
      },
      "properties": {
        "bangumi_id": 220375,
        "bangumi_title": "遥的接球",
        "ep_cut": 3,
        "image_url": "https://w.junreimap.com/images/points/220375/26799df8_1726058959328.jpg",
        "location": "",
        "point_id": "26799df8",
        "point_name": "沖縄県立前原高等学校",
        "remark": ""
      },
      "type": "Feature"
    },
    {
      "geometry": {
        "coordinates": [
          127.796068,
          26.314239
        ],
        "type": "Point"
      },
      "properties": {
        "bangumi_id": 220375,
        "bangumi_title": "遥的接球",
        "ep_cut": 4,
        "image_url": "https://w.junreimap.com/images/points/220375/4b08db0b_1726058961394.jpg",
        "location": "",
        "point_id": "4b08db0b",
        "point_name": "イオンモール沖縄ライカム",
        "remark": ""
      },
      "type": "Feature"
    },
    {
      "geometry": {
        "coordinates": [
          127.776801,
          26.292752
        ],
        "type": "Point"
      },
      "properties": {
        "bangumi_id": 220375,
        "bangumi_title": "遥的接球",
        "ep_cut": 8,
        "image_url": "https://w.junreimap.com/images/points/220375/05162295_1726058963460.jpg",
        "location": "",
        "point_id": "05162295",
        "point_name": "普天満山 神宮寺",
        "remark": ""
      },
      "type": "Feature"
    },
    {
      "geometry": {
        "coordinates": [
          127.778359,
          26.293547
        ],
        "type": "Point"
      },
      "properties": {
        "bangumi_id": 220375,
        "bangumi_title": "遥的接球",
        "ep_cut": 8,
        "image_url": "https://w.junreimap.com/images/points/220375/46637a78_1726058965472.jpg",
        "location": "",
        "point_id": "46637a78",
        "point_name": "普天満宮前道路",
        "remark": ""
      },
      "type": "Feature"
    },
    {
      "geometry": {
        "coordinates": [
          127.681402,
          26.202344
        ],
        "type": "Point"
      },
      "properties": {
        "bangumi_id": 220375,
        "bangumi_title": "遥的接球",
        "ep_cut": 8,
        "image_url": "https://w.junreimap.com/images/points/220375/7246aef1_1726058967658.jpg",
        "location": "",
        "point_id": "7246aef1",
        "point_name": "ENEOS 白石ＳＳ那覇大橋店",
        "remark": ""
      },
      "type": "Feature"
    },
    {
      "geometry": {
        "coordinates": [
          127.679079,
          26.201839
        ],
        "type": "Point"
      },
      "properties": {
        "bangumi_id": 220375,
        "bangumi_title": "遥的接球",
        "ep_cut": 8,
        "image_url": "https://w.junreimap.com/images/points/220375/fbae0162_1726058969607.jpg",
        "location": "",
        "point_id": "fbae0162",
        "point_name": "那覇大橋整備事業",
        "remark": ""
      },
      "type": "Feature"
    },
    {
      "geometry": {
        "coordinates": [
          127.87161,
          26.359671
        ],
        "type": "Point"
      },
      "properties": {
        "bangumi_id": 220375,
        "bangumi_title": "遥的接球",
        "ep_cut": 7,
        "image_url": "https://w.junreimap.com/images/points/220375/5c908728_1726058972007.jpg",
        "location": "",
        "point_id": "5c908728",
        "point_name": "しーちゃんと話をしているシーン",
        "remark": ""
      },
      "type": "Feature"
    },
    {
      "geometry": {
        "coordinates": [
          127.660434,
          26.197295
        ],
        "type": "Point"
      },
      "properties": {
        "bangumi_id": 220375,
        "bangumi_title": "遥的接球",
        "ep_cut": 8,
        "image_url": "https://w.junreimap.com/images/points/220375/bc4ae81f_1726058974262.jpg",
        "location": "",
        "point_id": "bc4ae81f",
        "point_name": "空港へ走るシーン交差点",
        "remark": ""
      },
      "type": "Feature"
    },
    {
      "geometry": {
        "coordinates": [
          127.646542,
          26.206403
        ],
        "type": "Point"
      },
      "properties": {
        "bangumi_id": 220375,
        "bangumi_title": "遥的接球",
        "ep_cut": 1,
        "image_url": "https://w.junreimap.com/images/points/220375/f13c0c4d_1726058975942.jpg",
        "location": "",
        "point_id": "f13c0c4d",
        "point_name": "那覇空港",
        "remark": ""
      },
      "type": "Feature"
    },
    {
      "geometry": {
        "coordinates": [
          127.650513,
          26.207526
        ],
        "type": "Point"
      },
      "properties": {
        "bangumi_id": 220375,
        "bangumi_title": "遥的接球",
        "ep_cut": 8,
        "image_url": "https://w.junreimap.com/images/points/220375/5d76dfb2_1726058977914.jpg",
        "location": "",
        "point_id": "5d76dfb2",
        "point_name": "那覇空港チェックインカウンター国内線旅客ターミナル３Ｆ",
        "remark": ""
      },
      "type": "Feature"
    },
    {
      "geometry": {
        "coordinates": [
          127.650589,
          26.210134
        ],
        "type": "Point"
      },
      "properties": {
        "bangumi_id": 220375,
        "bangumi_title": "遥的接球",
        "ep_cut": 8,
        "image_url": "https://w.junreimap.com/images/points/220375/e67e31d1_1726058980675.jpg",
        "location": "",
        "point_id": "e67e31d1",
        "point_name": "那覇空港 見学者デッキ",
        "remark": ""
      },
      "type": "Feature"
    },
    {
      "geometry": {
        "coordinates": [
          127.651304,
          26.206491
        ],
        "type": "Point"
      },
      "properties": {
        "bangumi_id": 220375,
        "bangumi_title": "遥的接球",
        "ep_cut": 8,
        "image_url": "https://w.junreimap.com/images/points/220375/b5fb0af1_1726058982517.jpg",
        "location": "",
        "point_id": "b5fb0af1",
        "point_name": "国内線旅客ターミナル［那覇］（バス）",
        "remark": ""
      },
      "type": "Feature"
    }
  ],
  "type": "FeatureCollection"
}