{
  "features": [
    {
      "geometry": {
        "coordinates": [
          139.67522,
          35.63416
        ],
        "type": "Point"
      },
      "properties": {
        "bangumi_id": 222694,
        "bangumi_title": "梦旅人",
        "ep_cut": "1",
        "image_url": "https://w.junreimap.com/images/user/0/bangumi/222694/points/18ws2t6-1749726670950.jpg",
        "location": "梦旅人",
        "point_id": "18ws2t6",
        "point_name": "3-chōme-7-17 Shimouma",
        "remark": "梦旅人：可可翻过的绿色爬山虎墙前\n（爬山虎墙只是道具真实不存在）"
      },
      "type": "Feature"
    },
    {
      "geometry": {
        "coordinates": [
          139.808353,
          35.723405
        ],
        "type": "Point"
      },
      "properties": {
        "bangumi_id": 222694,
        "bangumi_title": "梦旅人",
        "ep_cut": "",
        "image_url": "https://w.junreimap.com/images/user/0/bangumi/222694/points/1a731cc-1749803850679.jpg",
        "location": "梦旅人",
        "point_id": "1a731cc",
        "point_name": "35°43'25.1\"N 139°48'30.3\"E",
        "remark": "可可在河边的墙上奔跑的地方\n"
      },
      "type": "Feature"
    },
    {
      "geometry": {
        "coordinates": [
          139.774639,
          35.683699
        ],
        "type": "Point"
      },
      "properties": {
        "bangumi_id": 222694,
        "bangumi_title": "梦旅人",
        "ep_cut": "",
        "image_url": "https://w.junreimap.com/images/user/0/bangumi/222694/points/1a7sct0-1749804924746.jpg",
        "location": "梦旅人",
        "point_id": "1a7sct0",
        "point_name": "Nihonbashi 滝の広場",
        "remark": "三人举着旗子再次出发遇见广场上的小丑\n"
      },
      "type": "Feature"
    },
    {
      "geometry": {
        "coordinates": [
          139.818078,
          35.738227
        ],
        "type": "Point"
      },
      "properties": {
        "bangumi_id": 222694,
        "bangumi_title": "梦旅人",
        "ep_cut": "",
        "image_url": "https://w.junreimap.com/images/user/0/bangumi/222694/points/1a85g5p-1749805853372.jpg",
        "location": "梦旅人",
        "point_id": "1a85g5p",
        "point_name": "Sumida 5-Chome Sports Field",
        "remark": "小悟从墙上摔下的草地"
      },
      "type": "Feature"
    },
    {
      "geometry": {
        "coordinates": [
          139.67519,
          35.319154
        ],
        "type": "Point"
      },
      "properties": {
        "bangumi_id": 222694,
        "bangumi_title": "梦旅人",
        "ep_cut": "",
        "image_url": "https://w.junreimap.com/images/user/0/bangumi/222694/points/1a8gspz-1749806182088.jpg",
        "location": "梦旅人",
        "point_id": "1a8gspz",
        "point_name": "Yokosuka port northeast Breakwater east Lighthouse",
        "remark": "结局：空气野餐、卷毛开枪射太阳、可可开枪赎罪的红色灯塔\n（查阅了外网，需要从村本海事発着所租船出发）\n"
      },
      "type": "Feature"
    },
    {
      "geometry": {
        "coordinates": [
          139.818137,
          35.738161
        ],
        "type": "Point"
      },
      "properties": {
        "bangumi_id": 222694,
        "bangumi_title": "梦旅人",
        "ep_cut": "",
        "image_url": "https://w.junreimap.com/images/user/0/bangumi/222694/points/1bxd78j-1749908435129.jpg",
        "location": "小悟",
        "point_id": "1bxd78j",
        "point_name": "Sumida 5-Chome Sports Field",
        "remark": "小悟从墙上摔下 挣扎着想要爬上墙"
      },
      "type": "Feature"
    },
    {
      "geometry": {
        "coordinates": [
          139.774745,
          35.68374
        ],
        "type": "Point"
      },
      "properties": {
        "bangumi_id": 222694,
        "bangumi_title": "梦旅人",
        "ep_cut": "",
        "image_url": "https://w.junreimap.com/images/user/0/bangumi/222694/points/1bxhzsf-1749908560075.jpg",
        "location": "日本桥和广场",
        "point_id": "1bxhzsf",
        "point_name": "滝の広場",
        "remark": "三人举旗出发·小丑表演的瀑布广场"
      },
      "type": "Feature"
    },
    {
      "geometry": {
        "coordinates": [
          139.80811,
          35.722554
        ],
        "type": "Point"
      },
      "properties": {
        "bangumi_id": 222694,
        "bangumi_title": "梦旅人",
        "ep_cut": "",
        "image_url": "https://w.junreimap.com/images/user/0/bangumi/222694/points/1bxk5z9-1749908710342.jpg",
        "location": "院墙上奔跑",
        "point_id": "1bxk5z9",
        "point_name": "Asakusa Hospital",
        "remark": "可可在院墙上奔跑\n（认准对岸白色带大广告牌建筑+蓝色仓库）"
      },
      "type": "Feature"
    },
    {
      "geometry": {
        "coordinates": [
          139.675191,
          35.319164
        ],
        "type": "Point"
      },
      "properties": {
        "bangumi_id": 222694,
        "bangumi_title": "梦旅人",
        "ep_cut": "",
        "image_url": "https://w.junreimap.com/images/user/0/bangumi/222694/points/1bxnyt7-1749908826337.jpg",
        "location": "结局",
        "point_id": "1bxnyt7",
        "point_name": "Noshima Breakwater Red Lighthouse",
        "remark": "卷毛射向太阳，可可之死\n（需要坐船）"
      },
      "type": "Feature"
    }
  ],
  "type": "FeatureCollection"
}