{
  "features": [
    {
      "geometry": {
        "coordinates": [
          139.701074,
          35.692439
        ],
        "type": "Point"
      },
      "properties": {
        "bangumi_id": 22290,
        "bangumi_title": "白色相簿2 终章",
        "ep_cut": "",
        "image_url": "https://w.junreimap.com/images/user/2135/bangumi/22290/points/p8819s8yk-1729315475691.jpg",
        "location": "新宿",
        "point_id": "p8819s8yk",
        "point_name": "新宿 ダイビル",
        "remark": "2025年2月已結業"
      },
      "type": "Feature"
    },
    {
      "geometry": {
        "coordinates": [
          139.702669,
          35.691951
        ],
        "type": "Point"
      },
      "properties": {
        "bangumi_id": 22290,
        "bangumi_title": "白色相簿2 终章",
        "ep_cut": "",
        "image_url": "https://w.junreimap.com/images/user/2135/bangumi/22290/points/p88433m9z-1729315630881.jpg",
        "location": "新宿",
        "point_id": "p88433m9z",
        "point_name": "紀伊國屋書店 新宿本店",
        "remark": ""
      },
      "type": "Feature"
    },
    {
      "geometry": {
        "coordinates": [
          139.70134,
          35.691981
        ],
        "type": "Point"
      },
      "properties": {
        "bangumi_id": 22290,
        "bangumi_title": "白色相簿2 终章",
        "ep_cut": "",
        "image_url": "https://w.junreimap.com/images/user/2135/bangumi/22290/points/p87ysaulp-1729315285283.jpg",
        "location": "新宿",
        "point_id": "p87ysaulp",
        "point_name": "新宿駅東口",
        "remark": ""
      },
      "type": "Feature"
    },
    {
      "geometry": {
        "coordinates": [
          7.735089,
          48.584812
        ],
        "type": "Point"
      },
      "properties": {
        "bangumi_id": 22290,
        "bangumi_title": "白色相簿2 终章",
        "ep_cut": "",
        "image_url": "https://w.junreimap.com/images/points/22290/p8bm0wznq_1729323231748.jpg",
        "location": "Strasbourg",
        "point_id": "p8bm0wznq",
        "point_name": "Gare De Strasbourg",
        "remark": ""
      },
      "type": "Feature"
    },
    {
      "geometry": {
        "coordinates": [
          7.746336,
          48.583228
        ],
        "type": "Point"
      },
      "properties": {
        "bangumi_id": 22290,
        "bangumi_title": "白色相簿2 终章",
        "ep_cut": "",
        "image_url": "https://w.junreimap.com/images/points/22290/p8bssb9n7_1729323603584.jpg",
        "location": "Strasbourg",
        "point_id": "p8bssb9n7",
        "point_name": "Place Kléber",
        "remark": ""
      },
      "type": "Feature"
    },
    {
      "geometry": {
        "coordinates": [
          7.735078,
          48.584717
        ],
        "type": "Point"
      },
      "properties": {
        "bangumi_id": 22290,
        "bangumi_title": "白色相簿2 终章",
        "ep_cut": "",
        "image_url": "https://w.junreimap.com/images/points/22290/p8bnjwabl_1729323270124.jpg",
        "location": "Strasbourg",
        "point_id": "p8bnjwabl",
        "point_name": "Gare De Strasbourg",
        "remark": "出租车停靠点"
      },
      "type": "Feature"
    },
    {
      "geometry": {
        "coordinates": [
          139.704283,
          35.691182
        ],
        "type": "Point"
      },
      "properties": {
        "bangumi_id": 22290,
        "bangumi_title": "白色相簿2 终章",
        "ep_cut": "",
        "image_url": "https://w.junreimap.com/images/user/2135/bangumi/22290/points/p888pfq3c-1729316893416.jpg",
        "location": "新宿",
        "point_id": "p888pfq3c",
        "point_name": "伊勢丹百貨",
        "remark": "开樱社大楼"
      },
      "type": "Feature"
    },
    {
      "geometry": {
        "coordinates": [
          139.759371,
          35.665604
        ],
        "type": "Point"
      },
      "properties": {
        "bangumi_id": 22290,
        "bangumi_title": "白色相簿2 终章",
        "ep_cut": "",
        "image_url": "https://w.junreimap.com/images/points/22290/p89o2nobu_1729319000889.jpg",
        "location": "台场",
        "point_id": "p89o2nobu",
        "point_name": "ゆりかもめ新橋駅",
        "remark": ""
      },
      "type": "Feature"
    },
    {
      "geometry": {
        "coordinates": [
          139.794365,
          35.627055
        ],
        "type": "Point"
      },
      "properties": {
        "bangumi_id": 22290,
        "bangumi_title": "白色相簿2 终章",
        "ep_cut": "",
        "image_url": "https://w.junreimap.com/images/points/22290/p89sp4rw5_1729319287407.jpg",
        "location": "台场",
        "point_id": "p89sp4rw5",
        "point_name": "有明西ふ頭公園",
        "remark": "雪菜快乐地"
      },
      "type": "Feature"
    },
    {
      "geometry": {
        "coordinates": [
          139.566194,
          35.813396
        ],
        "type": "Point"
      },
      "properties": {
        "bangumi_id": 22290,
        "bangumi_title": "白色相簿2 终章",
        "ep_cut": "",
        "image_url": "https://w.junreimap.com/images/points/22290/p89zsz4i2_1729319708076.jpg",
        "location": "埼玉",
        "point_id": "p89zsz4i2",
        "point_name": "立教大学 新座キャンパス",
        "remark": "峰城大学主楼"
      },
      "type": "Feature"
    },
    {
      "geometry": {
        "coordinates": [
          139.689999,
          35.687148
        ],
        "type": "Point"
      },
      "properties": {
        "bangumi_id": 22290,
        "bangumi_title": "白色相簿2 终章",
        "ep_cut": "",
        "image_url": "https://w.junreimap.com/images/user/2135/bangumi/22290/points/p88tpfsu5-1729317177102.jpg",
        "location": "新宿",
        "point_id": "p88tpfsu5",
        "point_name": "新宿中央公園",
        "remark": "2025/7/21踩點:新宿中央公園這個位置以完全重修，和以前一點都不像了，能用來確定的地標只有中間的路燈、滑滑梯、以及背後的兩棟大廈。非常殘念，GoogleMap有6年前的照片，原作cg與現實幾乎一模一樣"
      },
      "type": "Feature"
    },
    {
      "geometry": {
        "coordinates": [
          139.700553,
          35.693506
        ],
        "type": "Point"
      },
      "properties": {
        "bangumi_id": 22290,
        "bangumi_title": "白色相簿2 终章",
        "ep_cut": "",
        "image_url": "https://w.junreimap.com/images/user/2135/bangumi/22290/points/p89fhw4o1-1729318431220.jpg",
        "location": "新宿",
        "point_id": "p89fhw4o1",
        "point_name": "Alpen Tokyo",
        "remark": "coda冬马和纱打电话处，新宿周边唯一能看到麦当劳的电话亭"
      },
      "type": "Feature"
    },
    {
      "geometry": {
        "coordinates": [
          139.566059,
          35.814443
        ],
        "type": "Point"
      },
      "properties": {
        "bangumi_id": 22290,
        "bangumi_title": "白色相簿2 终章",
        "ep_cut": "",
        "image_url": "https://w.junreimap.com/images/points/22290/p8agzroyt_1729320695791.jpg",
        "location": "埼玉",
        "point_id": "p8agzroyt",
        "point_name": "立教大学 新座キャンパス4号館",
        "remark": "cc春希与雪菜初次相遇处"
      },
      "type": "Feature"
    },
    {
      "geometry": {
        "coordinates": [
          7.745734,
          48.583149
        ],
        "type": "Point"
      },
      "properties": {
        "bangumi_id": 22290,
        "bangumi_title": "白色相簿2 终章",
        "ep_cut": "",
        "image_url": "https://w.junreimap.com/images/points/22290/p8bv6sec6_1729323729987.jpg",
        "location": "Strasbourg",
        "point_id": "p8bv6sec6",
        "point_name": "Place Kléber",
        "remark": "冬马光脚追春希处"
      },
      "type": "Feature"
    },
    {
      "geometry": {
        "coordinates": [
          7.749246,
          48.582156
        ],
        "type": "Point"
      },
      "properties": {
        "bangumi_id": 22290,
        "bangumi_title": "白色相簿2 终章",
        "ep_cut": "",
        "image_url": "https://w.junreimap.com/images/points/22290/p8bypy462_1729323953501.jpg",
        "location": "Strasbourg",
        "point_id": "p8bypy462",
        "point_name": "Rue des Orfèvres",
        "remark": "游戏封面"
      },
      "type": "Feature"
    },
    {
      "geometry": {
        "coordinates": [
          7.739548,
          48.581417
        ],
        "type": "Point"
      },
      "properties": {
        "bangumi_id": 22290,
        "bangumi_title": "白色相簿2 终章",
        "ep_cut": "",
        "image_url": "https://w.junreimap.com/images/points/22290/p8c1ezve7_1729324112763.jpg",
        "location": "Strasbourg",
        "point_id": "p8c1ezve7",
        "point_name": "Rue du Bain aux Plantes",
        "remark": ""
      },
      "type": "Feature"
    },
    {
      "geometry": {
        "coordinates": [
          7.741532,
          48.581573
        ],
        "type": "Point"
      },
      "properties": {
        "bangumi_id": 22290,
        "bangumi_title": "白色相簿2 终章",
        "ep_cut": "",
        "image_url": "https://w.junreimap.com/images/points/22290/p8c3w8l30_1729324303229.jpg",
        "location": "Strasbourg",
        "point_id": "p8c3w8l30",
        "point_name": "LA BOUTIQUE DES TANNEURS",
        "remark": "PS3版封面"
      },
      "type": "Feature"
    },
    {
      "geometry": {
        "coordinates": [
          7.758579,
          48.58585
        ],
        "type": "Point"
      },
      "properties": {
        "bangumi_id": 22290,
        "bangumi_title": "白色相簿2 终章",
        "ep_cut": "",
        "image_url": "https://w.junreimap.com/images/points/22290/p8c7m1ynp_1729324493047.jpg",
        "location": "Strasbourg",
        "point_id": "p8c7m1ynp",
        "point_name": "Hôtel Régent Contades",
        "remark": ""
      },
      "type": "Feature"
    }
  ],
  "type": "FeatureCollection"
}