{
  "features": [
    {
      "geometry": {
        "coordinates": [
          140.139342,
          38.079424
        ],
        "type": "Point"
      },
      "properties": {
        "bangumi_id": 22431,
        "bangumi_title": "樱花开了。",
        "ep_cut": "",
        "image_url": "https://w.junreimap.com/images/user/1073/bangumi/22431/points/jvw9ascdz-1714243838047.jpg",
        "location": "",
        "point_id": "jvw9ascdz",
        "point_name": "双松公園",
        "remark": ""
      },
      "type": "Feature"
    },
    {
      "geometry": {
        "coordinates": [
          140.139102,
          38.080992
        ],
        "type": "Point"
      },
      "properties": {
        "bangumi_id": 22431,
        "bangumi_title": "樱花开了。",
        "ep_cut": "",
        "image_url": "https://w.junreimap.com/images/user/1073/bangumi/22431/points/jvw5x9od9-1714243640423.jpg",
        "location": "",
        "point_id": "jvw5x9od9",
        "point_name": "南陽市民天文台",
        "remark": ""
      },
      "type": "Feature"
    },
    {
      "geometry": {
        "coordinates": [
          140.064222,
          38.055377
        ],
        "type": "Point"
      },
      "properties": {
        "bangumi_id": 22431,
        "bangumi_title": "樱花开了。",
        "ep_cut": "",
        "image_url": "https://w.junreimap.com/images/user/1073/bangumi/22431/points/jvw2q8xuv-1714243470143.jpg",
        "location": "",
        "point_id": "jvw2q8xuv",
        "point_name": "西大塚駅",
        "remark": "山形鉄道フラワー長井線"
      },
      "type": "Feature"
    },
    {
      "geometry": {
        "coordinates": [
          140.265404,
          38.299901
        ],
        "type": "Point"
      },
      "properties": {
        "bangumi_id": 22431,
        "bangumi_title": "樱花开了。",
        "ep_cut": "",
        "image_url": "https://w.junreimap.com/images/user/1073/bangumi/22431/points/jvvwfw4wy-1714243061783.jpg",
        "location": "",
        "point_id": "jvvwfw4wy",
        "point_name": "天満神社",
        "remark": ""
      },
      "type": "Feature"
    },
    {
      "geometry": {
        "coordinates": [
          140.366473,
          38.41065
        ],
        "type": "Point"
      },
      "properties": {
        "bangumi_id": 22431,
        "bangumi_title": "樱花开了。",
        "ep_cut": "",
        "image_url": "https://w.junreimap.com/images/user/1073/bangumi/22431/points/jvvoy0ezj-1714242643016.jpg",
        "location": "",
        "point_id": "jvvoy0ezj",
        "point_name": "山形空港",
        "remark": ""
      },
      "type": "Feature"
    },
    {
      "geometry": {
        "coordinates": [
          140.216893,
          38.238068
        ],
        "type": "Point"
      },
      "properties": {
        "bangumi_id": 22431,
        "bangumi_title": "樱花开了。",
        "ep_cut": "",
        "image_url": "https://w.junreimap.com/images/user/1073/bangumi/22431/points/jvvlg6omp-1714242442866.jpg",
        "location": "",
        "point_id": "jvvlg6omp",
        "point_name": "ふれあい展望台",
        "remark": ""
      },
      "type": "Feature"
    },
    {
      "geometry": {
        "coordinates": [
          140.335686,
          38.246879
        ],
        "type": "Point"
      },
      "properties": {
        "bangumi_id": 22431,
        "bangumi_title": "樱花开了。",
        "ep_cut": "",
        "image_url": "https://w.junreimap.com/images/user/1073/bangumi/22431/points/jvveg1m5y-1714241983749.jpg",
        "location": "",
        "point_id": "jvveg1m5y",
        "point_name": "シーガル十日町店",
        "remark": "当該建物以外は一致しない"
      },
      "type": "Feature"
    },
    {
      "geometry": {
        "coordinates": [
          140.338358,
          38.255155
        ],
        "type": "Point"
      },
      "properties": {
        "bangumi_id": 22431,
        "bangumi_title": "樱花开了。",
        "ep_cut": "",
        "image_url": "https://w.junreimap.com/images/user/1073/bangumi/22431/points/jvv5o4rdv-1714241495741.jpg",
        "location": "",
        "point_id": "jvv5o4rdv",
        "point_name": "丸八やたら漬 本舗",
        "remark": "图左侧建筑，已于2020年关闭并拆除"
      },
      "type": "Feature"
    },
    {
      "geometry": {
        "coordinates": [
          140.341029,
          38.256494
        ],
        "type": "Point"
      },
      "properties": {
        "bangumi_id": 22431,
        "bangumi_title": "樱花开了。",
        "ep_cut": "",
        "image_url": "https://w.junreimap.com/images/user/1073/bangumi/22431/points/jvuwipjin-1714240903664.jpg",
        "location": "",
        "point_id": "jvuwipjin",
        "point_name": "文翔館",
        "remark": ""
      },
      "type": "Feature"
    },
    {
      "geometry": {
        "coordinates": [
          140.059163,
          39.220613
        ],
        "type": "Point"
      },
      "properties": {
        "bangumi_id": 22431,
        "bangumi_title": "樱花开了。",
        "ep_cut": "",
        "image_url": "https://w.junreimap.com/images/user/1073/bangumi/22431/points/jvuqr5hpy-1714240587262.jpg",
        "location": "",
        "point_id": "jvuqr5hpy",
        "point_name": "菜の花畑",
        "remark": "由利本荘市矢島町城内桃野"
      },
      "type": "Feature"
    },
    {
      "geometry": {
        "coordinates": [
          140.077273,
          39.220648
        ],
        "type": "Point"
      },
      "properties": {
        "bangumi_id": 22431,
        "bangumi_title": "樱花开了。",
        "ep_cut": "",
        "image_url": "https://w.junreimap.com/images/user/1073/bangumi/22431/points/jvun5igh0-1714240365623.jpg",
        "location": "",
        "point_id": "jvun5igh0",
        "point_name": "由利​原​グリーン​ランド",
        "remark": ""
      },
      "type": "Feature"
    },
    {
      "geometry": {
        "coordinates": [
          140.076684,
          39.220463
        ],
        "type": "Point"
      },
      "properties": {
        "bangumi_id": 22431,
        "bangumi_title": "樱花开了。",
        "ep_cut": "",
        "image_url": "https://w.junreimap.com/images/user/1073/bangumi/22431/points/jvuhdsosw-1714240040760.jpg",
        "location": "",
        "point_id": "jvuhdsosw",
        "point_name": "鳥海グリーンライン",
        "remark": ""
      },
      "type": "Feature"
    },
    {
      "geometry": {
        "coordinates": [
          140.134275,
          38.198014
        ],
        "type": "Point"
      },
      "properties": {
        "bangumi_id": 22431,
        "bangumi_title": "樱花开了。",
        "ep_cut": "",
        "image_url": "https://w.junreimap.com/images/user/1073/bangumi/22431/points/k06rztwoy-1714580254005.jpg",
        "location": "",
        "point_id": "k06rztwoy",
        "point_name": "滝野交流館",
        "remark": ""
      },
      "type": "Feature"
    },
    {
      "geometry": {
        "coordinates": [
          140.135816,
          38.199698
        ],
        "type": "Point"
      },
      "properties": {
        "bangumi_id": 22431,
        "bangumi_title": "樱花开了。",
        "ep_cut": "",
        "image_url": "https://w.junreimap.com/images/user/1073/bangumi/22431/points/k06yhq23f-1714580621668.jpg",
        "location": "",
        "point_id": "k06yhq23f",
        "point_name": "集落の中の道1",
        "remark": ""
      },
      "type": "Feature"
    },
    {
      "geometry": {
        "coordinates": [
          140.135792,
          38.199494
        ],
        "type": "Point"
      },
      "properties": {
        "bangumi_id": 22431,
        "bangumi_title": "樱花开了。",
        "ep_cut": "",
        "image_url": "https://w.junreimap.com/images/user/1073/bangumi/22431/points/k073clarl-1714580916355.jpg",
        "location": "",
        "point_id": "k073clarl",
        "point_name": "集落の中の道2",
        "remark": ""
      },
      "type": "Feature"
    },
    {
      "geometry": {
        "coordinates": [
          140.135981,
          38.199229
        ],
        "type": "Point"
      },
      "properties": {
        "bangumi_id": 22431,
        "bangumi_title": "樱花开了。",
        "ep_cut": "",
        "image_url": "https://w.junreimap.com/images/user/1073/bangumi/22431/points/k076f7tc2-1714581147667.jpg",
        "location": "",
        "point_id": "k076f7tc2",
        "point_name": "学校へ続く坂道",
        "remark": ""
      },
      "type": "Feature"
    },
    {
      "geometry": {
        "coordinates": [
          140.038035,
          38.1019
        ],
        "type": "Point"
      },
      "properties": {
        "bangumi_id": 22431,
        "bangumi_title": "樱花开了。",
        "ep_cut": "",
        "image_url": "https://w.junreimap.com/images/user/1073/bangumi/22431/points/k07aymiaw-1714581348501.jpg",
        "location": "",
        "point_id": "k07aymiaw",
        "point_name": "やまいち松龍園",
        "remark": "右侧建筑，现实中亦为茶铺"
      },
      "type": "Feature"
    }
  ],
  "type": "FeatureCollection"
}