{
  "features": [
    {
      "geometry": {
        "coordinates": [
          135.347341,
          34.737722
        ],
        "type": "Point"
      },
      "properties": {
        "bangumi_id": 226956,
        "bangumi_title": "SeaBed",
        "ep_cut": "",
        "image_url": "https://w.junreimap.com/images/points/226956/kuk6a9t6z_1716960301789.jpg",
        "location": "兵库",
        "point_id": "kuk6a9t6z",
        "point_name": "JR西宮駅前交差点",
        "remark": "位于佐知子的公司附近。"
      },
      "type": "Feature"
    },
    {
      "geometry": {
        "coordinates": [
          135.315287,
          34.851149
        ],
        "type": "Point"
      },
      "properties": {
        "bangumi_id": 226956,
        "bangumi_title": "SeaBed",
        "ep_cut": "",
        "image_url": "https://w.junreimap.com/images/points/226956/e0ae6e31_1716956045177.jpg",
        "location": "福知山線廃線跡",
        "point_id": "e0ae6e31",
        "point_name": "福知山線廃線跡",
        "remark": ""
      },
      "type": "Feature"
    },
    {
      "geometry": {
        "coordinates": [
          135.315185,
          34.847431
        ],
        "type": "Point"
      },
      "properties": {
        "bangumi_id": 226956,
        "bangumi_title": "SeaBed",
        "ep_cut": "",
        "image_url": "https://w.junreimap.com/images/points/226956/7aa10192_1716958170340.jpg",
        "location": "福知山線廃線跡",
        "point_id": "7aa10192",
        "point_name": "武庫川",
        "remark": "具体位置无法确认。"
      },
      "type": "Feature"
    },
    {
      "geometry": {
        "coordinates": [
          135.316237,
          34.854693
        ],
        "type": "Point"
      },
      "properties": {
        "bangumi_id": 226956,
        "bangumi_title": "SeaBed",
        "ep_cut": "",
        "image_url": "https://w.junreimap.com/images/points/226956/kulaqw0i1_1716962769819.jpg",
        "location": "福知山線廃線跡",
        "point_id": "kulaqw0i1",
        "point_name": "長尾山第二トンネル",
        "remark": "两侧均为山体的隧道口，为長尾山第二トンネル南侧入口。"
      },
      "type": "Feature"
    },
    {
      "geometry": {
        "coordinates": [
          135.324306,
          34.828146
        ],
        "type": "Point"
      },
      "properties": {
        "bangumi_id": 226956,
        "bangumi_title": "SeaBed",
        "ep_cut": "",
        "image_url": "https://w.junreimap.com/images/points/226956/3e0ec815_1716956270819.jpg",
        "location": "福知山線廃線跡",
        "point_id": "3e0ec815",
        "point_name": "北山第一トンネル",
        "remark": "安全告示牌破损的隧道口，为北山第一トンネル的南侧入口。"
      },
      "type": "Feature"
    },
    {
      "geometry": {
        "coordinates": [
          135.324623,
          34.828659
        ],
        "type": "Point"
      },
      "properties": {
        "bangumi_id": 226956,
        "bangumi_title": "SeaBed",
        "ep_cut": "",
        "image_url": "https://w.junreimap.com/images/points/226956/kukskixrq_1716961632432.jpg",
        "location": "福知山線廃線跡",
        "point_id": "kukskixrq",
        "point_name": "トンネル内",
        "remark": "福知山线废线共有6个隧道，暂未确认该背景的具体位置，但根据以下线索应该可以确认：\n1.隧道末端有枕木残留（部分隧道枕木已被完全拆除）；\n2.电线位于左侧墙壁；\n3.较短的隧道无法呈现图中光暗关系。"
      },
      "type": "Feature"
    },
    {
      "geometry": {
        "coordinates": [
          135.127926,
          34.643895
        ],
        "type": "Point"
      },
      "properties": {
        "bangumi_id": 226956,
        "bangumi_title": "SeaBed",
        "ep_cut": "",
        "image_url": "https://w.junreimap.com/images/points/226956/8469f7d0_1716958337385.jpg",
        "location": "福知山線廃線跡",
        "point_id": "8469f7d0",
        "point_name": "神戸須磨シーワールド（旧神戸市立須磨海浜水族園）",
        "remark": "佐知子和贵呼小时候去过的水族馆。"
      },
      "type": "Feature"
    },
    {
      "geometry": {
        "coordinates": [
          135.190674,
          34.702968
        ],
        "type": "Point"
      },
      "properties": {
        "bangumi_id": 226956,
        "bangumi_title": "SeaBed",
        "ep_cut": "",
        "image_url": "https://w.junreimap.com/images/points/226956/bb554eb0_1716956289499.jpg",
        "location": "北野異人館",
        "point_id": "bb554eb0",
        "point_name": "うろこの家",
        "remark": "故事中旅馆和疗养院的设计原型。现实中为北野异人馆的一栋洋房。"
      },
      "type": "Feature"
    },
    {
      "geometry": {
        "coordinates": [
          135.191509,
          34.697374
        ],
        "type": "Point"
      },
      "properties": {
        "bangumi_id": 226956,
        "bangumi_title": "SeaBed",
        "ep_cut": "",
        "image_url": "https://w.junreimap.com/images/points/226956/f697827b_1723392208515.jpg",
        "location": "北野異人館",
        "point_id": "f697827b",
        "point_name": "ソネ（SONE）",
        "remark": "贵呼与茧子前往商店街时的背景，现实中为爵士乐餐厅。"
      },
      "type": "Feature"
    },
    {
      "geometry": {
        "coordinates": [
          135.190002,
          34.701411
        ],
        "type": "Point"
      },
      "properties": {
        "bangumi_id": 226956,
        "bangumi_title": "SeaBed",
        "ep_cut": "",
        "image_url": "https://w.junreimap.com/images/points/226956/2e8d11d8_1723392245545.jpg",
        "location": "北野異人館",
        "point_id": "2e8d11d8",
        "point_name": "チップリップ",
        "remark": "贵呼与茧子前往商店街时的背景。"
      },
      "type": "Feature"
    },
    {
      "geometry": {
        "coordinates": [
          135.188822,
          34.699642
        ],
        "type": "Point"
      },
      "properties": {
        "bangumi_id": 226956,
        "bangumi_title": "SeaBed",
        "ep_cut": "",
        "image_url": "https://w.junreimap.com/images/points/226956/1df0e73f_1716956323555.jpg",
        "location": "北野異人館",
        "point_id": "1df0e73f",
        "point_name": "April Fool",
        "remark": "贵呼与茧子前往商店街时的背景，现实中为工艺品商店。"
      },
      "type": "Feature"
    },
    {
      "geometry": {
        "coordinates": [
          135.189495,
          34.699942
        ],
        "type": "Point"
      },
      "properties": {
        "bangumi_id": 226956,
        "bangumi_title": "SeaBed",
        "ep_cut": "",
        "image_url": "https://w.junreimap.com/images/points/226956/9239b7d4_1723392274416.jpg",
        "location": "北野異人館",
        "point_id": "9239b7d4",
        "point_name": "民家",
        "remark": "贵呼与茧子前往商店街时的背景，该建筑在游戏中被设定为画廊，现实中只是民宅。"
      },
      "type": "Feature"
    },
    {
      "geometry": {
        "coordinates": [
          -72.729499,
          41.6519
        ],
        "type": "Point"
      },
      "properties": {
        "bangumi_id": 226956,
        "bangumi_title": "SeaBed",
        "ep_cut": "",
        "image_url": "https://w.junreimap.com/images/points/226956/1d5e0dd4_1716956340788.jpg",
        "location": "伪海外",
        "point_id": "1d5e0dd4",
        "point_name": "Stew Leonard's",
        "remark": "贵呼与茧子前往商店街时的背景，现实中位于美国。"
      },
      "type": "Feature"
    },
    {
      "geometry": {
        "coordinates": [
          2.360726,
          48.85781
        ],
        "type": "Point"
      },
      "properties": {
        "bangumi_id": 226956,
        "bangumi_title": "SeaBed",
        "ep_cut": "",
        "image_url": "https://w.junreimap.com/images/points/226956/53c2f92e_1716956350953.jpg",
        "location": "伪海外",
        "point_id": "53c2f92e",
        "point_name": "Camille",
        "remark": ""
      },
      "type": "Feature"
    },
    {
      "geometry": {
        "coordinates": [
          12.476873,
          41.898611
        ],
        "type": "Point"
      },
      "properties": {
        "bangumi_id": 226956,
        "bangumi_title": "SeaBed",
        "ep_cut": "",
        "image_url": "https://w.junreimap.com/images/points/226956/0430578c_1716957062930.jpg",
        "location": "意大利",
        "point_id": "0430578c",
        "point_name": "Pantheon",
        "remark": "佐知子与贵呼的罗马旅游。"
      },
      "type": "Feature"
    },
    {
      "geometry": {
        "coordinates": [
          12.483324,
          41.900953
        ],
        "type": "Point"
      },
      "properties": {
        "bangumi_id": 226956,
        "bangumi_title": "SeaBed",
        "ep_cut": "",
        "image_url": "https://w.junreimap.com/images/points/226956/kukpwyrbm_1716961525009.jpg",
        "location": "意大利",
        "point_id": "kukpwyrbm",
        "point_name": "Fontana di Trevi",
        "remark": "佐知子与贵呼的罗马旅游。"
      },
      "type": "Feature"
    },
    {
      "geometry": {
        "coordinates": [
          12.472176,
          41.895605
        ],
        "type": "Point"
      },
      "properties": {
        "bangumi_id": 226956,
        "bangumi_title": "SeaBed",
        "ep_cut": "",
        "image_url": "https://w.junreimap.com/images/points/226956/da8e487d_1716956370998.jpg",
        "location": "意大利",
        "point_id": "da8e487d",
        "point_name": "Campo de' Fiori",
        "remark": "佐知子与贵呼的罗马旅游。"
      },
      "type": "Feature"
    },
    {
      "geometry": {
        "coordinates": [
          12.477221,
          41.895859
        ],
        "type": "Point"
      },
      "properties": {
        "bangumi_id": 226956,
        "bangumi_title": "SeaBed",
        "ep_cut": "",
        "image_url": "https://w.junreimap.com/images/points/226956/kuii1qjj7_1716956704602.jpg",
        "location": "意大利",
        "point_id": "kuii1qjj7",
        "point_name": "Via di S. Nicola de' Cesarini, 1-9",
        "remark": "佐知子与贵呼的罗马旅游。"
      },
      "type": "Feature"
    },
    {
      "geometry": {
        "coordinates": [
          12.457493,
          41.904165
        ],
        "type": "Point"
      },
      "properties": {
        "bangumi_id": 226956,
        "bangumi_title": "SeaBed",
        "ep_cut": "",
        "image_url": "https://w.junreimap.com/images/points/226956/kuim2twtv_1716956894032.jpg",
        "location": "意大利",
        "point_id": "kuim2twtv",
        "point_name": "Chiesa di Sant'Anna dei Palafrenieri",
        "remark": "佐知子与贵呼的罗马旅游。"
      },
      "type": "Feature"
    },
    {
      "geometry": {
        "coordinates": [
          12.455064,
          41.902179
        ],
        "type": "Point"
      },
      "properties": {
        "bangumi_id": 226956,
        "bangumi_title": "SeaBed",
        "ep_cut": "",
        "image_url": "https://w.junreimap.com/images/points/226956/kuifenxcl_1716956500183.jpg",
        "location": "意大利",
        "point_id": "kuifenxcl",
        "point_name": "Basilica di San Pietro",
        "remark": "佐知子与贵呼的罗马旅游。"
      },
      "type": "Feature"
    },
    {
      "geometry": {
        "coordinates": [
          11.264671,
          43.76302
        ],
        "type": "Point"
      },
      "properties": {
        "bangumi_id": 226956,
        "bangumi_title": "SeaBed",
        "ep_cut": "",
        "image_url": "https://w.junreimap.com/images/points/226956/kujfjr7nb_1716958805856.jpg",
        "location": "意大利",
        "point_id": "kujfjr7nb",
        "point_name": "Piazzale Michelangelo",
        "remark": "佐知子与贵呼的罗马旅游，但是在佛罗伦萨。远处建筑为领主广场的旧宫和佛罗伦萨圣母百花圣殿。游戏中这张CG出现之前的背景还是圣伯多禄大殿的穹顶。"
      },
      "type": "Feature"
    },
    {
      "geometry": {
        "coordinates": [
          -122.415678,
          37.808363
        ],
        "type": "Point"
      },
      "properties": {
        "bangumi_id": 226956,
        "bangumi_title": "SeaBed",
        "ep_cut": "",
        "image_url": "https://w.junreimap.com/images/points/226956/2064927e_1716957246783.jpg",
        "location": "美国",
        "point_id": "2064927e",
        "point_name": "Fisherman's Wharf Sign",
        "remark": "佐知子与贵呼的旧金山旅游。"
      },
      "type": "Feature"
    },
    {
      "geometry": {
        "coordinates": [
          -122.410016,
          37.809052
        ],
        "type": "Point"
      },
      "properties": {
        "bangumi_id": 226956,
        "bangumi_title": "SeaBed",
        "ep_cut": "",
        "image_url": "https://w.junreimap.com/images/points/226956/kukbkl03b_1716960647447.jpg",
        "location": "美国",
        "point_id": "kukbkl03b",
        "point_name": "Pier 39, Fisherman's Wharf",
        "remark": "佐知子与贵呼的旧金山旅游。左为Mrs Fields，右为Dreyer's。"
      },
      "type": "Feature"
    },
    {
      "geometry": {
        "coordinates": [
          -122.47856,
          37.819911
        ],
        "type": "Point"
      },
      "properties": {
        "bangumi_id": 226956,
        "bangumi_title": "SeaBed",
        "ep_cut": "",
        "image_url": "https://w.junreimap.com/images/points/226956/1a678b86_1716957252517.jpg",
        "location": "美国",
        "point_id": "1a678b86",
        "point_name": "Golden Gate Bridge",
        "remark": "佐知子与贵呼的旧金山旅游。"
      },
      "type": "Feature"
    },
    {
      "geometry": {
        "coordinates": [
          -122.40771,
          37.784744
        ],
        "type": "Point"
      },
      "properties": {
        "bangumi_id": 226956,
        "bangumi_title": "SeaBed",
        "ep_cut": "",
        "image_url": "https://w.junreimap.com/images/user/0/bangumi/226956/points/ekg3h11-1778721695379.jpg",
        "location": "美国",
        "point_id": "ekg3h11",
        "point_name": "Cable Car Turnaround Powell St.",
        "remark": "佐知子与贵呼的旧金山旅游。素材出处为：https://yunphoto.net/jp/photobase/yp848.html"
      },
      "type": "Feature"
    },
    {
      "geometry": {
        "coordinates": [
          -122.422955,
          37.826978
        ],
        "type": "Point"
      },
      "properties": {
        "bangumi_id": 226956,
        "bangumi_title": "SeaBed",
        "ep_cut": "",
        "image_url": "https://w.junreimap.com/images/points/226956/e84dba62_1716957279584.jpg",
        "location": "美国",
        "point_id": "e84dba62",
        "point_name": "Alcatraz Island",
        "remark": "佐知子与贵呼的旧金山旅游。"
      },
      "type": "Feature"
    },
    {
      "geometry": {
        "coordinates": [
          -122.423173,
          37.827725
        ],
        "type": "Point"
      },
      "properties": {
        "bangumi_id": 226956,
        "bangumi_title": "SeaBed",
        "ep_cut": "",
        "image_url": "https://w.junreimap.com/images/points/226956/kukgiy3y9_1716960934785.jpg",
        "location": "美国",
        "point_id": "kukgiy3y9",
        "point_name": "Post Exchange & Officers' Club",
        "remark": "佐知子与贵呼的旧金山旅游。"
      },
      "type": "Feature"
    },
    {
      "geometry": {
        "coordinates": [
          -122.422786,
          37.826584
        ],
        "type": "Point"
      },
      "properties": {
        "bangumi_id": 226956,
        "bangumi_title": "SeaBed",
        "ep_cut": "",
        "image_url": "https://w.junreimap.com/images/points/226956/kuisx925k_1716957312671.jpg",
        "location": "美国",
        "point_id": "kuisx925k",
        "point_name": "Alcatraz Island Main Prison",
        "remark": "佐知子与贵呼的旧金山旅游。"
      },
      "type": "Feature"
    },
    {
      "geometry": {
        "coordinates": [
          -122.418955,
          37.802031
        ],
        "type": "Point"
      },
      "properties": {
        "bangumi_id": 226956,
        "bangumi_title": "SeaBed",
        "ep_cut": "",
        "image_url": "https://w.junreimap.com/images/points/226956/kuk80hm0b_1716960420754.jpg",
        "location": "美国",
        "point_id": "kuk80hm0b",
        "point_name": "Lombard St",
        "remark": "佐知子与贵呼的旧金山旅游。"
      },
      "type": "Feature"
    },
    {
      "geometry": {
        "coordinates": [
          -80.942864,
          35.217158
        ],
        "type": "Point"
      },
      "properties": {
        "bangumi_id": 226956,
        "bangumi_title": "SeaBed",
        "ep_cut": "",
        "image_url": "https://w.junreimap.com/images/points/226956/kukl7edw2_1716961199622.jpg",
        "location": "美国",
        "point_id": "kukl7edw2",
        "point_name": "Charlotte Douglas International Airport",
        "remark": "佐知子与贵呼前往南岛旅游时出发机场的背景素材。"
      },
      "type": "Feature"
    },
    {
      "geometry": {
        "coordinates": [
          134.077541,
          35.192965
        ],
        "type": "Point"
      },
      "properties": {
        "bangumi_id": 226956,
        "bangumi_title": "SeaBed",
        "ep_cut": "",
        "image_url": "https://w.junreimap.com/images/points/226956/cc3e2b31_1716957368071.jpg",
        "location": "知和駅",
        "point_id": "cc3e2b31",
        "point_name": "知和駅",
        "remark": "旅馆附近的车站的原型。疗养院附近车站的原型。"
      },
      "type": "Feature"
    },
    {
      "geometry": {
        "coordinates": [
          134.077437,
          35.192853
        ],
        "type": "Point"
      },
      "properties": {
        "bangumi_id": 226956,
        "bangumi_title": "SeaBed",
        "ep_cut": "",
        "image_url": "https://w.junreimap.com/images/points/226956/7e329526_1716957379950.jpg",
        "location": "知和駅",
        "point_id": "7e329526",
        "point_name": "知和駅ホーム",
        "remark": "旅馆附近的车站的原型。疗养院附近车站的原型。"
      },
      "type": "Feature"
    },
    {
      "geometry": {
        "coordinates": [
          134.077516,
          35.192938
        ],
        "type": "Point"
      },
      "properties": {
        "bangumi_id": 226956,
        "bangumi_title": "SeaBed",
        "ep_cut": "",
        "image_url": "https://w.junreimap.com/images/points/226956/dd9853c3_1716957403075.jpg",
        "location": "知和駅",
        "point_id": "dd9853c3",
        "point_name": "知和駅駅舎",
        "remark": "旅馆附近的车站的原型。疗养院附近车站的原型。"
      },
      "type": "Feature"
    },
    {
      "geometry": {
        "coordinates": [
          139.73876,
          35.628471
        ],
        "type": "Point"
      },
      "properties": {
        "bangumi_id": 226956,
        "bangumi_title": "SeaBed",
        "ep_cut": "",
        "image_url": "https://w.junreimap.com/images/points/226956/ebb8aedc_1716957641225.jpg",
        "location": "东京",
        "point_id": "ebb8aedc",
        "point_name": "品川駅",
        "remark": "Tip「第二次旅行」。"
      },
      "type": "Feature"
    },
    {
      "geometry": {
        "coordinates": [
          139.665748,
          35.706748
        ],
        "type": "Point"
      },
      "properties": {
        "bangumi_id": 226956,
        "bangumi_title": "SeaBed",
        "ep_cut": "",
        "image_url": "https://w.junreimap.com/images/points/226956/5718681f_1716957758339.jpg",
        "location": "东京",
        "point_id": "5718681f",
        "point_name": "中野ブロードウェイ",
        "remark": "Tip「第二次旅行」。左侧可以看到「メガネのサワノ」招牌，该店于2017年停业。"
      },
      "type": "Feature"
    },
    {
      "geometry": {
        "coordinates": [
          139.665778,
          35.705797
        ],
        "type": "Point"
      },
      "properties": {
        "bangumi_id": 226956,
        "bangumi_title": "SeaBed",
        "ep_cut": "",
        "image_url": "https://w.junreimap.com/images/points/226956/5718681f_1716957722641.jpg",
        "location": "东京",
        "point_id": "02091474",
        "point_name": "中野駅",
        "remark": "Tip「第二次旅行」。"
      },
      "type": "Feature"
    },
    {
      "geometry": {
        "coordinates": [
          139.774738,
          35.709336
        ],
        "type": "Point"
      },
      "properties": {
        "bangumi_id": 226956,
        "bangumi_title": "SeaBed",
        "ep_cut": "",
        "image_url": "https://w.junreimap.com/images/points/226956/5eb0bf55_1716957815946.jpg",
        "location": "东京",
        "point_id": "5eb0bf55",
        "point_name": "上野アメ横商店街",
        "remark": "Tip「第二次旅行」。"
      },
      "type": "Feature"
    },
    {
      "geometry": {
        "coordinates": [
          139.772882,
          35.716015
        ],
        "type": "Point"
      },
      "properties": {
        "bangumi_id": 226956,
        "bangumi_title": "SeaBed",
        "ep_cut": "",
        "image_url": "https://w.junreimap.com/images/points/226956/a6d366c2_1716957829308.jpg",
        "location": "东京",
        "point_id": "a6d366c2",
        "point_name": "上野動物園",
        "remark": "Tip「第二次旅行」。"
      },
      "type": "Feature"
    },
    {
      "geometry": {
        "coordinates": [
          139.745433,
          35.658581
        ],
        "type": "Point"
      },
      "properties": {
        "bangumi_id": 226956,
        "bangumi_title": "SeaBed",
        "ep_cut": "",
        "image_url": "https://w.junreimap.com/images/points/226956/b7114ca7_1716957908585.jpg",
        "location": "东京",
        "point_id": "b7114ca7",
        "point_name": "東京タワー",
        "remark": "从东京塔上向东南观望，下方圆形为プリンス芝公園，旁边的大楼为ザ・プリンス パークタワー東京。"
      },
      "type": "Feature"
    },
    {
      "geometry": {
        "coordinates": [
          139.703714,
          35.691361
        ],
        "type": "Point"
      },
      "properties": {
        "bangumi_id": 226956,
        "bangumi_title": "SeaBed",
        "ep_cut": "",
        "image_url": "https://w.junreimap.com/images/points/226956/kuky1f7hu_1716961968077.jpg",
        "location": "东京",
        "point_id": "kuky1f7hu",
        "point_name": "新宿通り",
        "remark": "免费素材，https://www.pakutaso.com/20120217051post-1214.html"
      },
      "type": "Feature"
    },
    {
      "geometry": {
        "coordinates": [
          135.471991,
          34.853828
        ],
        "type": "Point"
      },
      "properties": {
        "bangumi_id": 226956,
        "bangumi_title": "SeaBed",
        "ep_cut": "",
        "image_url": "https://w.junreimap.com/images/points/226956/d825635b_1716957850561.jpg",
        "location": "大阪",
        "point_id": "d825635b",
        "point_name": "箕面大滝",
        "remark": ""
      },
      "type": "Feature"
    },
    {
      "geometry": {
        "coordinates": [
          135.462426,
          34.70842
        ],
        "type": "Point"
      },
      "properties": {
        "bangumi_id": 226956,
        "bangumi_title": "SeaBed",
        "ep_cut": "",
        "image_url": "https://w.junreimap.com/images/points/226956/c10d456e_1716957887631.jpg",
        "location": "大阪",
        "point_id": "c10d456e",
        "point_name": "野里本町商店街",
        "remark": "楢崎前往疗养院时路过的地方的原型。商店街的顶棚在2018年被台风飞燕毁坏，随后拆除。目前已经基本上不再作为商店街存在。"
      },
      "type": "Feature"
    },
    {
      "geometry": {
        "coordinates": [
          135.502399,
          34.696086
        ],
        "type": "Point"
      },
      "properties": {
        "bangumi_id": 226956,
        "bangumi_title": "SeaBed",
        "ep_cut": 7,
        "image_url": "https://w.junreimap.com/images/points/226956/82e69d44_1716957966511.jpg",
        "location": "大阪",
        "point_id": "82e69d44",
        "point_name": "大江ビルヂング",
        "remark": "第七章佐知子与贵呼租赁公司办公室时的候选。"
      },
      "type": "Feature"
    },
    {
      "geometry": {
        "coordinates": [
          140.711707,
          41.763834
        ],
        "type": "Point"
      },
      "properties": {
        "bangumi_id": 226956,
        "bangumi_title": "SeaBed",
        "ep_cut": "",
        "image_url": "https://w.junreimap.com/images/points/226956/n4mwvdgii_1723392174717.jpg",
        "location": "函馆",
        "point_id": "n4mwvdgii",
        "point_name": "八幡坂",
        "remark": ""
      },
      "type": "Feature"
    },
    {
      "geometry": {
        "coordinates": [
          137.595666,
          36.577416
        ],
        "type": "Point"
      },
      "properties": {
        "bangumi_id": 226956,
        "bangumi_title": "SeaBed",
        "ep_cut": "",
        "image_url": "https://w.junreimap.com/images/points/226956/kujob3w2p_1716959231077.jpg",
        "location": "富山",
        "point_id": "kujob3w2p",
        "point_name": "立山黒部貫光無軌条電車線（室堂駅）",
        "remark": "Tip「第二次旅行」。"
      },
      "type": "Feature"
    },
    {
      "geometry": {
        "coordinates": [
          137.591308,
          36.576191
        ],
        "type": "Point"
      },
      "properties": {
        "bangumi_id": 226956,
        "bangumi_title": "SeaBed",
        "ep_cut": "",
        "image_url": "https://w.junreimap.com/images/points/226956/kujpx8mga_1716959318639.jpg",
        "location": "富山",
        "point_id": "kujpx8mga",
        "point_name": "雪の大谷",
        "remark": "Tip「第二次旅行」。"
      },
      "type": "Feature"
    },
    {
      "geometry": {
        "coordinates": [
          130.961063,
          33.947432
        ],
        "type": "Point"
      },
      "properties": {
        "bangumi_id": 226956,
        "bangumi_title": "SeaBed",
        "ep_cut": "",
        "image_url": "https://w.junreimap.com/images/points/226956/17174d9d_1716957978160.jpg",
        "location": "福冈",
        "point_id": "17174d9d",
        "point_name": "門司港",
        "remark": "贵呼与茧乘船的港口。"
      },
      "type": "Feature"
    },
    {
      "geometry": {
        "coordinates": [
          131.646347,
          33.242443
        ],
        "type": "Point"
      },
      "properties": {
        "bangumi_id": 226956,
        "bangumi_title": "SeaBed",
        "ep_cut": "Audio2",
        "image_url": "https://w.junreimap.com/images/points/226956/px5cef6f8_1731268659718.jpg",
        "location": "大分",
        "point_id": "px5cef6f8",
        "point_name": "白滝陸橋北交差点",
        "remark": ""
      },
      "type": "Feature"
    },
    {
      "geometry": {
        "coordinates": [
          131.646517,
          33.242572
        ],
        "type": "Point"
      },
      "properties": {
        "bangumi_id": 226956,
        "bangumi_title": "SeaBed",
        "ep_cut": "Audio2",
        "image_url": "https://w.junreimap.com/images/points/226956/px5d6gfim_1731268708001.jpg",
        "location": "大分",
        "point_id": "px5d6gfim",
        "point_name": "ヤノメガネ 萩原店",
        "remark": ""
      },
      "type": "Feature"
    },
    {
      "geometry": {
        "coordinates": [
          14.030402,
          40.760165
        ],
        "type": "Point"
      },
      "properties": {
        "bangumi_id": 226956,
        "bangumi_title": "SeaBed",
        "ep_cut": "Audio2",
        "image_url": "https://w.junreimap.com/images/points/226956/px5h623s9_1731268985316.jpg",
        "location": "普罗奇达岛",
        "point_id": "px5h623s9",
        "point_name": "Procida",
        "remark": ""
      },
      "type": "Feature"
    },
    {
      "geometry": {
        "coordinates": [
          14.030954,
          40.761898
        ],
        "type": "Point"
      },
      "properties": {
        "bangumi_id": 226956,
        "bangumi_title": "SeaBed",
        "ep_cut": "Audio2",
        "image_url": "https://w.junreimap.com/images/points/226956/px5ha3q1g_1731269000871.jpg",
        "location": "普罗奇达岛",
        "point_id": "px5ha3q1g",
        "point_name": "Santuario S. Maria delle Grazie Incoronata",
        "remark": "no"
      },
      "type": "Feature"
    },
    {
      "geometry": {
        "coordinates": [
          131.633622,
          33.238
        ],
        "type": "Point"
      },
      "properties": {
        "bangumi_id": 226956,
        "bangumi_title": "SeaBed",
        "ep_cut": "Audio3",
        "image_url": "https://w.junreimap.com/images/points/226956/px4uew3ug_1731267629924.jpg",
        "location": "大分",
        "point_id": "px4uew3ug",
        "point_name": "大東橋",
        "remark": ""
      },
      "type": "Feature"
    },
    {
      "geometry": {
        "coordinates": [
          131.653665,
          33.242347
        ],
        "type": "Point"
      },
      "properties": {
        "bangumi_id": 226956,
        "bangumi_title": "SeaBed",
        "ep_cut": "Audio3",
        "image_url": "https://w.junreimap.com/images/points/226956/px4zg3h0a_1731268024130.jpg",
        "location": "大分",
        "point_id": "px4zg3h0a",
        "point_name": "日豊本線 種畜場踏切",
        "remark": ""
      },
      "type": "Feature"
    },
    {
      "geometry": {
        "coordinates": [
          131.654959,
          33.243012
        ],
        "type": "Point"
      },
      "properties": {
        "bangumi_id": 226956,
        "bangumi_title": "SeaBed",
        "ep_cut": "Audio3",
        "image_url": "https://w.junreimap.com/images/points/226956/px45geral_1731266058938.jpg",
        "location": "大分",
        "point_id": "px45geral",
        "point_name": "高城駅前",
        "remark": ""
      },
      "type": "Feature"
    },
    {
      "geometry": {
        "coordinates": [
          131.654833,
          33.243
        ],
        "type": "Point"
      },
      "properties": {
        "bangumi_id": 226956,
        "bangumi_title": "SeaBed",
        "ep_cut": "Audio3",
        "image_url": "https://w.junreimap.com/images/points/226956/px46du73f_1731266096961.jpg",
        "location": "大分",
        "point_id": "px46du73f",
        "point_name": "高城駅前",
        "remark": ""
      },
      "type": "Feature"
    },
    {
      "geometry": {
        "coordinates": [
          131.655519,
          33.242731
        ],
        "type": "Point"
      },
      "properties": {
        "bangumi_id": 226956,
        "bangumi_title": "SeaBed",
        "ep_cut": "Audio3",
        "image_url": "https://w.junreimap.com/images/points/226956/px47v7pzr_1731266188696.jpg",
        "location": "大分",
        "point_id": "px47v7pzr",
        "point_name": "高城駅",
        "remark": ""
      },
      "type": "Feature"
    },
    {
      "geometry": {
        "coordinates": [
          131.655464,
          33.242742
        ],
        "type": "Point"
      },
      "properties": {
        "bangumi_id": 226956,
        "bangumi_title": "SeaBed",
        "ep_cut": "Audio3",
        "image_url": "https://w.junreimap.com/images/points/226956/px480e9qu_1731266197922.jpg",
        "location": "大分",
        "point_id": "px480e9qu",
        "point_name": "高城駅",
        "remark": ""
      },
      "type": "Feature"
    },
    {
      "geometry": {
        "coordinates": [
          131.655374,
          33.242702
        ],
        "type": "Point"
      },
      "properties": {
        "bangumi_id": 226956,
        "bangumi_title": "SeaBed",
        "ep_cut": "Audio3",
        "image_url": "https://w.junreimap.com/images/points/226956/px4cz7k92_1731266534276.jpg",
        "location": "大分",
        "point_id": "px4cz7k92",
        "point_name": "高城駅 駅員室",
        "remark": "高城站目前为无人站，所以站员室是空置的。"
      },
      "type": "Feature"
    },
    {
      "geometry": {
        "coordinates": [
          131.655041,
          33.242689
        ],
        "type": "Point"
      },
      "properties": {
        "bangumi_id": 226956,
        "bangumi_title": "SeaBed",
        "ep_cut": "Audio3",
        "image_url": "https://w.junreimap.com/images/points/226956/px486kcxp_1731266203417.jpg",
        "location": "大分",
        "point_id": "px486kcxp",
        "point_name": "高城駅 跨線橋",
        "remark": "游戏中出现的跨线桥与目前的实景不同，可能是中间经历过改造。"
      },
      "type": "Feature"
    },
    {
      "geometry": {
        "coordinates": [
          135.75952,
          34.930237
        ],
        "type": "Point"
      },
      "properties": {
        "bangumi_id": 226956,
        "bangumi_title": "SeaBed",
        "ep_cut": "",
        "image_url": "https://w.junreimap.com/images/user/0/bangumi/226956/points/3ea6qv8-1754404381041.jpg",
        "location": "京都",
        "point_id": "3ea6qv8",
        "point_name": "寺田屋",
        "remark": ""
      },
      "type": "Feature"
    },
    {
      "geometry": {
        "coordinates": [
          124.07699,
          24.322485
        ],
        "type": "Point"
      },
      "properties": {
        "bangumi_id": 226956,
        "bangumi_title": "SeaBed",
        "ep_cut": "",
        "image_url": "https://w.junreimap.com/images/user/0/bangumi/226956/points/3eam0yj-1754405164086.jpg",
        "location": "冲绳",
        "point_id": "3eam0yj",
        "point_name": "星砂海岸",
        "remark": ""
      },
      "type": "Feature"
    },
    {
      "geometry": {
        "coordinates": [
          144.802374,
          13.535271
        ],
        "type": "Point"
      },
      "properties": {
        "bangumi_id": 226956,
        "bangumi_title": "SeaBed",
        "ep_cut": "",
        "image_url": "https://w.junreimap.com/images/user/0/bangumi/226956/points/3eawqr2-1754405624736.jpg",
        "location": "马里亚纳群岛",
        "point_id": "3eawqr2",
        "point_name": "戀人岬",
        "remark": ""
      },
      "type": "Feature"
    },
    {
      "geometry": {
        "coordinates": [
          145.700117,
          15.146986
        ],
        "type": "Point"
      },
      "properties": {
        "bangumi_id": 226956,
        "bangumi_title": "SeaBed",
        "ep_cut": "",
        "image_url": "https://w.junreimap.com/images/user/0/bangumi/226956/points/3eb4y45-1754406012712.jpg",
        "location": "马里亚纳群岛",
        "point_id": "3eb4y45",
        "point_name": "The waterfront around the Surf Club restaurant",
        "remark": ""
      },
      "type": "Feature"
    },
    {
      "geometry": {
        "coordinates": [
          138.765982,
          34.782701
        ],
        "type": "Point"
      },
      "properties": {
        "bangumi_id": 226956,
        "bangumi_title": "SeaBed",
        "ep_cut": "",
        "image_url": "https://w.junreimap.com/images/user/0/bangumi/226956/points/7gpo8j8-1763258421062.jpg",
        "location": "伊豆",
        "point_id": "7gpo8j8",
        "point_name": "堂ヶ島天窓洞",
        "remark": ""
      },
      "type": "Feature"
    },
    {
      "geometry": {
        "coordinates": [
          136.670509,
          34.310552
        ],
        "type": "Point"
      },
      "properties": {
        "bangumi_id": 226956,
        "bangumi_title": "SeaBed",
        "ep_cut": "",
        "image_url": "https://w.junreimap.com/images/user/0/bangumi/226956/points/7gobbuw-1763256171431.jpg",
        "location": "三重",
        "point_id": "7gobbuw",
        "point_name": "旅館​ニュー​は​ま​ぐち​屋",
        "remark": "疗养院山脚的港口小镇。"
      },
      "type": "Feature"
    },
    {
      "geometry": {
        "coordinates": [
          153.233743,
          -28.212066
        ],
        "type": "Point"
      },
      "properties": {
        "bangumi_id": 226956,
        "bangumi_title": "SeaBed",
        "ep_cut": "",
        "image_url": "https://w.junreimap.com/images/user/0/bangumi/226956/points/7gpamko-1763257879092.jpg",
        "location": "澳大利亚",
        "point_id": "7gpamko",
        "point_name": "Natural Bridge",
        "remark": "南方小岛cg之一，不是具体地点，想前往请搜索glow worm tour gold coast并联系相关旅游公司"
      },
      "type": "Feature"
    }
  ],
  "type": "FeatureCollection"
}