{
  "features": [
    {
      "geometry": {
        "coordinates": [
          -73.98222,
          40.753172
        ],
        "type": "Point"
      },
      "properties": {
        "bangumi_id": 228350,
        "bangumi_title": "战栗杀机",
        "ep_cut": 12,
        "image_url": "https://w.junreimap.com/images/user/0/bangumi/228350/points/9v39x7y66-1685969724199.jpg",
        "location": "",
        "point_id": "9v39x7y66",
        "point_name": "New York Public Library",
        "remark": ""
      },
      "type": "Feature"
    },
    {
      "geometry": {
        "coordinates": [
          -73.973988,
          40.781324
        ],
        "type": "Point"
      },
      "properties": {
        "bangumi_id": 228350,
        "bangumi_title": "战栗杀机",
        "ep_cut": 20,
        "image_url": "https://w.junreimap.com/images/points/228350/hstu97q5a_1708361310967.jpg",
        "location": "曼哈顿上城",
        "point_id": "hstu97q5a",
        "point_name": "美国自然历史博物馆",
        "remark": ""
      },
      "type": "Feature"
    },
    {
      "geometry": {
        "coordinates": [
          -73.958971,
          40.78298
        ],
        "type": "Point"
      },
      "properties": {
        "bangumi_id": 228350,
        "bangumi_title": "战栗杀机",
        "ep_cut": 16,
        "image_url": "https://w.junreimap.com/images/points/228350/hstu97qgs_1708361323813.jpg",
        "location": "曼哈顿上城",
        "point_id": "hstu97qgs",
        "point_name": "索罗门·古根汉美术馆",
        "remark": ""
      },
      "type": "Feature"
    },
    {
      "geometry": {
        "coordinates": [
          -73.979924,
          40.765126
        ],
        "type": "Point"
      },
      "properties": {
        "bangumi_id": 228350,
        "bangumi_title": "战栗杀机",
        "ep_cut": 19,
        "image_url": "https://w.junreimap.com/images/points/228350/hstu97ptw_1708361364321.jpg",
        "location": "曼哈顿中城",
        "point_id": "hstu97ptw",
        "point_name": "卡内基大厅",
        "remark": ""
      },
      "type": "Feature"
    },
    {
      "geometry": {
        "coordinates": [
          -73.985491,
          40.769341
        ],
        "type": "Point"
      },
      "properties": {
        "bangumi_id": 228350,
        "bangumi_title": "战栗杀机",
        "ep_cut": 42,
        "image_url": "https://w.junreimap.com/images/points/228350/hstu97q7i_1708361375454.jpg",
        "location": "曼哈顿中城",
        "point_id": "hstu97q7i",
        "point_name": "One Columbus Place",
        "remark": ""
      },
      "type": "Feature"
    },
    {
      "geometry": {
        "coordinates": [
          -73.98747,
          40.769994
        ],
        "type": "Point"
      },
      "properties": {
        "bangumi_id": 228350,
        "bangumi_title": "战栗杀机",
        "ep_cut": 21,
        "image_url": "https://w.junreimap.com/images/points/228350/hstu97qe6_1708361378642.jpg",
        "location": "曼哈顿中城",
        "point_id": "hstu97qe6",
        "point_name": "Mount Sinai West Cardiovascular Ambulatory Center",
        "remark": ""
      },
      "type": "Feature"
    },
    {
      "geometry": {
        "coordinates": [
          -73.985543,
          40.757975
        ],
        "type": "Point"
      },
      "properties": {
        "bangumi_id": 228350,
        "bangumi_title": "战栗杀机",
        "ep_cut": 19,
        "image_url": "https://w.junreimap.com/images/points/228350/hstu97qa5_1708361389187.jpg",
        "location": "曼哈顿中城",
        "point_id": "hstu97qa5",
        "point_name": "时报广场",
        "remark": ""
      },
      "type": "Feature"
    },
    {
      "geometry": {
        "coordinates": [
          -73.981807,
          40.768484
        ],
        "type": "Point"
      },
      "properties": {
        "bangumi_id": 228350,
        "bangumi_title": "战栗杀机",
        "ep_cut": 11,
        "image_url": "https://w.junreimap.com/images/points/228350/hstu97pul_1708361401483.jpg",
        "location": "曼哈顿中城",
        "point_id": "hstu97pul",
        "point_name": "59 St - Columbus Circle 地铁站入口",
        "remark": ""
      },
      "type": "Feature"
    },
    {
      "geometry": {
        "coordinates": [
          -73.954256,
          40.764332
        ],
        "type": "Point"
      },
      "properties": {
        "bangumi_id": 228350,
        "bangumi_title": "战栗杀机",
        "ep_cut": 2,
        "image_url": "https://w.junreimap.com/images/points/228350/hstu97q53_1708361431332.jpg",
        "location": "曼哈顿中城",
        "point_id": "hstu97q53",
        "point_name": "NewYork-Presbyterian / Weill Cornell Medical Center Emergency Department",
        "remark": ""
      },
      "type": "Feature"
    },
    {
      "geometry": {
        "coordinates": [
          -73.97159,
          40.772352
        ],
        "type": "Point"
      },
      "properties": {
        "bangumi_id": 228350,
        "bangumi_title": "战栗杀机",
        "ep_cut": 24,
        "image_url": "https://w.junreimap.com/images/points/228350/hstu97pz2_1708361446392.jpg",
        "location": "曼哈顿中城",
        "point_id": "hstu97pz2",
        "point_name": "中央公园",
        "remark": ""
      },
      "type": "Feature"
    },
    {
      "geometry": {
        "coordinates": [
          -73.949575,
          40.767823
        ],
        "type": "Point"
      },
      "properties": {
        "bangumi_id": 228350,
        "bangumi_title": "战栗杀机",
        "ep_cut": 5,
        "image_url": "https://w.junreimap.com/images/points/228350/hstu97q5n_1708361461360.jpg",
        "location": "曼哈顿中城",
        "point_id": "hstu97q5n",
        "point_name": "John Finley Walk",
        "remark": ""
      },
      "type": "Feature"
    },
    {
      "geometry": {
        "coordinates": [
          -73.987061,
          40.755861
        ],
        "type": "Point"
      },
      "properties": {
        "bangumi_id": 228350,
        "bangumi_title": "战栗杀机",
        "ep_cut": 11,
        "image_url": "https://w.junreimap.com/images/points/228350/hstu97pwc_1708361481908.jpg",
        "location": "曼哈顿中城",
        "point_id": "hstu97pwc",
        "point_name": "Times Sq–42 St Line7报站",
        "remark": ""
      },
      "type": "Feature"
    },
    {
      "geometry": {
        "coordinates": [
          -73.981241,
          40.764211
        ],
        "type": "Point"
      },
      "properties": {
        "bangumi_id": 228350,
        "bangumi_title": "战栗杀机",
        "ep_cut": 17,
        "image_url": "https://w.junreimap.com/images/points/228350/hstu97q9s_1708361490765.jpg",
        "location": "曼哈顿中城",
        "point_id": "hstu97q9s",
        "point_name": "Premier Deli",
        "remark": ""
      },
      "type": "Feature"
    },
    {
      "geometry": {
        "coordinates": [
          -73.981592,
          40.764336
        ],
        "type": "Point"
      },
      "properties": {
        "bangumi_id": 228350,
        "bangumi_title": "战栗杀机",
        "ep_cut": 11,
        "image_url": "https://w.junreimap.com/images/points/228350/hstu97qbr_1708361495552.jpg",
        "location": "曼哈顿中城",
        "point_id": "hstu97qbr",
        "point_name": "Tanner Smith's",
        "remark": ""
      },
      "type": "Feature"
    },
    {
      "geometry": {
        "coordinates": [
          -73.978674,
          40.75874
        ],
        "type": "Point"
      },
      "properties": {
        "bangumi_id": 228350,
        "bangumi_title": "战栗杀机",
        "ep_cut": 12,
        "image_url": "https://w.junreimap.com/images/points/228350/hstu97ptt_1708361503215.jpg",
        "location": "曼哈顿中城",
        "point_id": "hstu97ptt",
        "point_name": "洛克菲勒中心",
        "remark": ""
      },
      "type": "Feature"
    },
    {
      "geometry": {
        "coordinates": [
          -73.981304,
          40.752843
        ],
        "type": "Point"
      },
      "properties": {
        "bangumi_id": 228350,
        "bangumi_title": "战栗杀机",
        "ep_cut": 12,
        "image_url": "https://w.junreimap.com/images/points/228350/hstu97qem_1708361532547.jpg",
        "location": "曼哈顿中城",
        "point_id": "hstu97qem",
        "point_name": "纽约公共图书馆",
        "remark": ""
      },
      "type": "Feature"
    },
    {
      "geometry": {
        "coordinates": [
          -73.970498,
          40.74912
        ],
        "type": "Point"
      },
      "properties": {
        "bangumi_id": 228350,
        "bangumi_title": "战栗杀机",
        "ep_cut": 17,
        "image_url": "https://w.junreimap.com/images/points/228350/hstu97qi5_1708361550675.jpg",
        "location": "曼哈顿中城",
        "point_id": "hstu97qi5",
        "point_name": "Tudor City Bridge",
        "remark": ""
      },
      "type": "Feature"
    },
    {
      "geometry": {
        "coordinates": [
          -73.977431,
          40.752482
        ],
        "type": "Point"
      },
      "properties": {
        "bangumi_id": 228350,
        "bangumi_title": "战栗杀机",
        "ep_cut": 11,
        "image_url": "https://w.junreimap.com/images/points/228350/hstu97q2f_1708361553579.jpg",
        "location": "曼哈顿中城",
        "point_id": "hstu97q2f",
        "point_name": "Grand Central Oyster Bar",
        "remark": ""
      },
      "type": "Feature"
    },
    {
      "geometry": {
        "coordinates": [
          -73.990038,
          40.713871
        ],
        "type": "Point"
      },
      "properties": {
        "bangumi_id": 228350,
        "bangumi_title": "战栗杀机",
        "ep_cut": 4,
        "image_url": "https://w.junreimap.com/images/points/228350/hstu97pw6_1708361571914.jpg",
        "location": "曼哈顿下城",
        "point_id": "hstu97pw6",
        "point_name": "East Broadway",
        "remark": ""
      },
      "type": "Feature"
    },
    {
      "geometry": {
        "coordinates": [
          -74.003086,
          40.705709
        ],
        "type": "Point"
      },
      "properties": {
        "bangumi_id": 228350,
        "bangumi_title": "战栗杀机",
        "ep_cut": 5,
        "image_url": "https://w.junreimap.com/images/points/228350/hstu97qfl_1708361583173.jpg",
        "location": "曼哈顿下城",
        "point_id": "hstu97qfl",
        "point_name": "Pier 16",
        "remark": ""
      },
      "type": "Feature"
    },
    {
      "geometry": {
        "coordinates": [
          -73.989062,
          40.720219
        ],
        "type": "Point"
      },
      "properties": {
        "bangumi_id": 228350,
        "bangumi_title": "战栗杀机",
        "ep_cut": 2,
        "image_url": "https://w.junreimap.com/images/points/228350/hstu97pzp_1708361643289.jpg",
        "location": "曼哈顿下城",
        "point_id": "hstu97pzp",
        "point_name": "Corner Grocers",
        "remark": ""
      },
      "type": "Feature"
    },
    {
      "geometry": {
        "coordinates": [
          -73.990062,
          40.717938
        ],
        "type": "Point"
      },
      "properties": {
        "bangumi_id": 228350,
        "bangumi_title": "战栗杀机",
        "ep_cut": 11,
        "image_url": "https://w.junreimap.com/images/points/228350/hstu97py1_1708361791803.jpg",
        "location": "曼哈顿下城",
        "point_id": "hstu97py1",
        "point_name": "Scotch & Soda",
        "remark": ""
      },
      "type": "Feature"
    },
    {
      "geometry": {
        "coordinates": [
          -74.001892,
          40.712115
        ],
        "type": "Point"
      },
      "properties": {
        "bangumi_id": 228350,
        "bangumi_title": "战栗杀机",
        "ep_cut": 1,
        "image_url": "https://w.junreimap.com/images/points/228350/hstu97q58_1708361823120.jpg",
        "location": "曼哈顿下城",
        "point_id": "hstu97q58",
        "point_name": "纽约市警察局",
        "remark": ""
      },
      "type": "Feature"
    },
    {
      "geometry": {
        "coordinates": [
          -73.98299,
          40.72726
        ],
        "type": "Point"
      },
      "properties": {
        "bangumi_id": 228350,
        "bangumi_title": "战栗杀机",
        "ep_cut": 1,
        "image_url": "https://w.junreimap.com/images/points/228350/hstu97q5e_1708361835487.jpg",
        "location": "曼哈顿下城",
        "point_id": "hstu97q5e",
        "point_name": "Doc Holliday's",
        "remark": ""
      },
      "type": "Feature"
    },
    {
      "geometry": {
        "coordinates": [
          -73.999859,
          40.707638
        ],
        "type": "Point"
      },
      "properties": {
        "bangumi_id": 228350,
        "bangumi_title": "战栗杀机",
        "ep_cut": 15,
        "image_url": "https://w.junreimap.com/images/points/228350/hstu97qdb_1708361846402.jpg",
        "location": "曼哈顿下城",
        "point_id": "hstu97qdb",
        "point_name": "布鲁克林大桥",
        "remark": ""
      },
      "type": "Feature"
    },
    {
      "geometry": {
        "coordinates": [
          -74.013101,
          40.701085
        ],
        "type": "Point"
      },
      "properties": {
        "bangumi_id": 228350,
        "bangumi_title": "战栗杀机",
        "ep_cut": 17,
        "image_url": "https://w.junreimap.com/images/points/228350/hstu97q2r_1708361853093.jpg",
        "location": "曼哈顿下城",
        "point_id": "hstu97q2r",
        "point_name": "Whitehall Terminal",
        "remark": ""
      },
      "type": "Feature"
    },
    {
      "geometry": {
        "coordinates": [
          -74.003735,
          40.707488
        ],
        "type": "Point"
      },
      "properties": {
        "bangumi_id": 228350,
        "bangumi_title": "战栗杀机",
        "ep_cut": 5,
        "image_url": "https://w.junreimap.com/images/points/228350/hstu97pyy_1708361892804.jpg",
        "location": "曼哈顿下城",
        "point_id": "hstu97pyy",
        "point_name": "泰坦尼克号纪念灯塔",
        "remark": ""
      },
      "type": "Feature"
    },
    {
      "geometry": {
        "coordinates": [
          -73.990774,
          40.707496
        ],
        "type": "Point"
      },
      "properties": {
        "bangumi_id": 228350,
        "bangumi_title": "战栗杀机",
        "ep_cut": 17,
        "image_url": "https://w.junreimap.com/images/points/228350/hstu97qil_1708361904467.jpg",
        "location": "曼哈顿下城",
        "point_id": "hstu97qil",
        "point_name": "曼哈顿大桥",
        "remark": ""
      },
      "type": "Feature"
    },
    {
      "geometry": {
        "coordinates": [
          -73.998188,
          40.714509
        ],
        "type": "Point"
      },
      "properties": {
        "bangumi_id": 228350,
        "bangumi_title": "战栗杀机",
        "ep_cut": 3,
        "image_url": "https://w.junreimap.com/images/points/228350/hstu97q5f_1708361910753.jpg",
        "location": "中国城",
        "point_id": "hstu97q5f",
        "point_name": "南华茶室",
        "remark": ""
      },
      "type": "Feature"
    },
    {
      "geometry": {
        "coordinates": [
          -73.997605,
          40.714637
        ],
        "type": "Point"
      },
      "properties": {
        "bangumi_id": 228350,
        "bangumi_title": "战栗杀机",
        "ep_cut": 3,
        "image_url": "https://w.junreimap.com/images/points/228350/hstu97qir_1708362094066.jpg",
        "location": "中国城",
        "point_id": "hstu97qir",
        "point_name": "Sunny City Beauty Salon",
        "remark": ""
      },
      "type": "Feature"
    },
    {
      "geometry": {
        "coordinates": [
          -73.998131,
          40.714773
        ],
        "type": "Point"
      },
      "properties": {
        "bangumi_id": 228350,
        "bangumi_title": "战栗杀机",
        "ep_cut": 1,
        "image_url": "https://w.junreimap.com/images/points/228350/hstu97q6q_1708361953935.jpg",
        "location": "中国城",
        "point_id": "hstu97q6q",
        "point_name": "Kelly Hair Salon",
        "remark": ""
      },
      "type": "Feature"
    },
    {
      "geometry": {
        "coordinates": [
          -73.997901,
          40.71623
        ],
        "type": "Point"
      },
      "properties": {
        "bangumi_id": 228350,
        "bangumi_title": "战栗杀机",
        "ep_cut": 19,
        "image_url": "https://w.junreimap.com/images/points/228350/hstu97qe0_1708361960177.jpg",
        "location": "中国城",
        "point_id": "hstu97qe0",
        "point_name": "New York Canton Lounge",
        "remark": ""
      },
      "type": "Feature"
    },
    {
      "geometry": {
        "coordinates": [
          -73.990097,
          40.713322
        ],
        "type": "Point"
      },
      "properties": {
        "bangumi_id": 228350,
        "bangumi_title": "战栗杀机",
        "ep_cut": 13,
        "image_url": "https://w.junreimap.com/images/points/228350/hstu97q67_1708361977925.jpg",
        "location": "中国城",
        "point_id": "hstu97q67",
        "point_name": "福建超级市场前",
        "remark": ""
      },
      "type": "Feature"
    },
    {
      "geometry": {
        "coordinates": [
          -73.99889,
          40.714444
        ],
        "type": "Point"
      },
      "properties": {
        "bangumi_id": 228350,
        "bangumi_title": "战栗杀机",
        "ep_cut": 3,
        "image_url": "https://w.junreimap.com/images/points/228350/hstu97pt8_1708361983818.jpg",
        "location": "中国城",
        "point_id": "hstu97pt8",
        "point_name": "上海21",
        "remark": ""
      },
      "type": "Feature"
    },
    {
      "geometry": {
        "coordinates": [
          -73.998571,
          40.714017
        ],
        "type": "Point"
      },
      "properties": {
        "bangumi_id": 228350,
        "bangumi_title": "战栗杀机",
        "ep_cut": 19,
        "image_url": "https://w.junreimap.com/images/points/228350/hstu97qa3_1708361987291.jpg",
        "location": "中国城",
        "point_id": "hstu97qa3",
        "point_name": "Chinatown Fair Family Fun Center",
        "remark": ""
      },
      "type": "Feature"
    },
    {
      "geometry": {
        "coordinates": [
          -73.970702,
          40.575544
        ],
        "type": "Point"
      },
      "properties": {
        "bangumi_id": 228350,
        "bangumi_title": "战栗杀机",
        "ep_cut": 13,
        "image_url": "https://w.junreimap.com/images/points/228350/hstu97pyd_1708362027375.jpg",
        "location": "布鲁克林",
        "point_id": "hstu97pyd",
        "point_name": "科尼艾兰",
        "remark": ""
      },
      "type": "Feature"
    },
    {
      "geometry": {
        "coordinates": [
          -73.789095,
          40.643319
        ],
        "type": "Point"
      },
      "properties": {
        "bangumi_id": 228350,
        "bangumi_title": "战栗杀机",
        "ep_cut": 24,
        "image_url": "https://w.junreimap.com/images/points/228350/hstu97q88_1708362034083.jpg",
        "location": "布鲁克林",
        "point_id": "hstu97q88",
        "point_name": "JFK Terminal 1W",
        "remark": ""
      },
      "type": "Feature"
    },
    {
      "geometry": {
        "coordinates": [
          -73.993212,
          40.704255
        ],
        "type": "Point"
      },
      "properties": {
        "bangumi_id": 228350,
        "bangumi_title": "战栗杀机",
        "ep_cut": 17,
        "image_url": "https://w.junreimap.com/images/points/228350/hstu97qfp_1708362048750.jpg",
        "location": "布鲁克林",
        "point_id": "hstu97qfp",
        "point_name": "Empire Fulton Ferry",
        "remark": ""
      },
      "type": "Feature"
    },
    {
      "geometry": {
        "coordinates": [
          -74.0445,
          40.689249
        ],
        "type": "Point"
      },
      "properties": {
        "bangumi_id": 228350,
        "bangumi_title": "战栗杀机",
        "ep_cut": 17,
        "image_url": "https://w.junreimap.com/images/points/228350/hstu97qi4_1708362051988.jpg",
        "location": "自由岛和埃利斯岛",
        "point_id": "hstu97qi4",
        "point_name": "自由女神像",
        "remark": ""
      },
      "type": "Feature"
    },
    {
      "geometry": {
        "coordinates": [
          -74.039559,
          40.699475
        ],
        "type": "Point"
      },
      "properties": {
        "bangumi_id": 228350,
        "bangumi_title": "战栗杀机",
        "ep_cut": 18,
        "image_url": "https://w.junreimap.com/images/points/228350/hstu97q2e_1708362106234.jpg",
        "location": "自由岛和埃利斯岛",
        "point_id": "hstu97q2e",
        "point_name": "埃利斯岛",
        "remark": ""
      },
      "type": "Feature"
    },
    {
      "geometry": {
        "coordinates": [
          -74.03186,
          40.716215
        ],
        "type": "Point"
      },
      "properties": {
        "bangumi_id": 228350,
        "bangumi_title": "战栗杀机",
        "ep_cut": 12,
        "image_url": "https://w.junreimap.com/images/points/228350/hstu97q7f_1708362066317.jpg",
        "location": "泽西市",
        "point_id": "hstu97q7f",
        "point_name": "J Owen Grundy Park",
        "remark": ""
      },
      "type": "Feature"
    },
    {
      "geometry": {
        "coordinates": [
          -70.195467,
          42.052598
        ],
        "type": "Point"
      },
      "properties": {
        "bangumi_id": 228350,
        "bangumi_title": "战栗杀机",
        "ep_cut": "",
        "image_url": "https://w.junreimap.com/images/points/228350/ir8prjma7_1711058077030.jpg",
        "location": "Cape Cod",
        "point_id": "ir8prjma7",
        "point_name": "Mac's Fish House",
        "remark": "漫画 Angle Eyes"
      },
      "type": "Feature"
    },
    {
      "geometry": {
        "coordinates": [
          -70.079041,
          42.000924
        ],
        "type": "Point"
      },
      "properties": {
        "bangumi_id": 228350,
        "bangumi_title": "战栗杀机",
        "ep_cut": "",
        "image_url": "https://w.junreimap.com/images/points/228350/ir8swfphj_1711058239530.jpg",
        "location": "Cape Cod",
        "point_id": "ir8swfphj",
        "point_name": "3 Corn Hill Rd",
        "remark": "漫画"
      },
      "type": "Feature"
    },
    {
      "geometry": {
        "coordinates": [
          -70.078832,
          42.00258
        ],
        "type": "Point"
      },
      "properties": {
        "bangumi_id": 228350,
        "bangumi_title": "战栗杀机",
        "ep_cut": "",
        "image_url": "https://w.junreimap.com/images/points/228350/ir8tupqen_1711058302657.jpg",
        "location": "Cape Cod",
        "point_id": "ir8tupqen",
        "point_name": "54-52 Corn Hill Rd",
        "remark": "漫画"
      },
      "type": "Feature"
    }
  ],
  "type": "FeatureCollection"
}