{
  "features": [
    {
      "geometry": {
        "coordinates": [
          125.297596,
          24.779428
        ],
        "type": "Point"
      },
      "properties": {
        "bangumi_id": 235130,
        "bangumi_title": "碧蓝之海",
        "ep_cut": 12,
        "image_url": "https://w.junreimap.com/images/user/1028/bangumi/235130/points/dsbjbezgo-1697037161062.jpg",
        "location": "",
        "point_id": "dsbjbezgo",
        "point_name": "宮古空港",
        "remark": ""
      },
      "type": "Feature"
    },
    {
      "geometry": {
        "coordinates": [
          125.297596,
          24.779428
        ],
        "type": "Point"
      },
      "properties": {
        "bangumi_id": 235130,
        "bangumi_title": "碧蓝之海",
        "ep_cut": 12,
        "image_url": "https://w.junreimap.com/images/user/1028/bangumi/235130/points/dsbnm2ozf-1697037272928.jpg",
        "location": "",
        "point_id": "dsbnm2ozf",
        "point_name": "宮古空港",
        "remark": ""
      },
      "type": "Feature"
    },
    {
      "geometry": {
        "coordinates": [
          125.468576,
          24.719515
        ],
        "type": "Point"
      },
      "properties": {
        "bangumi_id": 235130,
        "bangumi_title": "碧蓝之海",
        "ep_cut": 12,
        "image_url": "https://w.junreimap.com/images/user/1028/bangumi/235130/points/dsboo5q89-1697037314629.jpg",
        "location": "",
        "point_id": "dsboo5q89",
        "point_name": "東平安名崎灯台",
        "remark": ""
      },
      "type": "Feature"
    },
    {
      "geometry": {
        "coordinates": [
          125.467528,
          24.720352
        ],
        "type": "Point"
      },
      "properties": {
        "bangumi_id": 235130,
        "bangumi_title": "碧蓝之海",
        "ep_cut": 12,
        "image_url": "https://w.junreimap.com/images/user/1028/bangumi/235130/points/dsbp5gous-1697037357465.jpg",
        "location": "",
        "point_id": "dsbp5gous",
        "point_name": "東平安名崎",
        "remark": ""
      },
      "type": "Feature"
    },
    {
      "geometry": {
        "coordinates": [
          125.262466,
          24.734789
        ],
        "type": "Point"
      },
      "properties": {
        "bangumi_id": 235130,
        "bangumi_title": "碧蓝之海",
        "ep_cut": 12,
        "image_url": "https://w.junreimap.com/images/user/1028/bangumi/235130/points/dsbs09mbl-1697037516664.jpg",
        "location": "",
        "point_id": "dsbs09mbl",
        "point_name": "与那覇前浜",
        "remark": ""
      },
      "type": "Feature"
    },
    {
      "geometry": {
        "coordinates": [
          125.273243,
          24.804245
        ],
        "type": "Point"
      },
      "properties": {
        "bangumi_id": 235130,
        "bangumi_title": "碧蓝之海",
        "ep_cut": 12,
        "image_url": "https://w.junreimap.com/images/user/1028/bangumi/235130/points/dsbtm9rha-1697037618981.jpg",
        "location": "",
        "point_id": "dsbtm9rha",
        "point_name": "活魚・海の幸",
        "remark": ""
      },
      "type": "Feature"
    },
    {
      "geometry": {
        "coordinates": [
          139.123687,
          34.951044
        ],
        "type": "Point"
      },
      "properties": {
        "bangumi_id": 235130,
        "bangumi_title": "碧蓝之海",
        "ep_cut": "",
        "image_url": "https://w.junreimap.com/images/user/0/bangumi/235130/points/3nkwtbr-1754966603802.jpg",
        "location": "",
        "point_id": "3nkwtbr",
        "point_name": "川奈站",
        "remark": ""
      },
      "type": "Feature"
    },
    {
      "geometry": {
        "coordinates": [
          139.131569,
          34.953368
        ],
        "type": "Point"
      },
      "properties": {
        "bangumi_id": 235130,
        "bangumi_title": "碧蓝之海",
        "ep_cut": 1,
        "image_url": "https://w.junreimap.com/images/user/2192/bangumi/235130/points/46rcnvl-1756126268762.jpg",
        "location": "",
        "point_id": "46rcnvl",
        "point_name": "海女の小屋 海上亭",
        "remark": ""
      },
      "type": "Feature"
    },
    {
      "geometry": {
        "coordinates": [
          139.132172,
          34.952189
        ],
        "type": "Point"
      },
      "properties": {
        "bangumi_id": 235130,
        "bangumi_title": "碧蓝之海",
        "ep_cut": 1,
        "image_url": "https://w.junreimap.com/images/user/2192/bangumi/235130/points/46rweou-1756127156311.jpg",
        "location": "",
        "point_id": "46rweou",
        "point_name": "川奈区民会館前",
        "remark": ""
      },
      "type": "Feature"
    },
    {
      "geometry": {
        "coordinates": [
          139.13537,
          34.952312
        ],
        "type": "Point"
      },
      "properties": {
        "bangumi_id": 235130,
        "bangumi_title": "碧蓝之海",
        "ep_cut": 6,
        "image_url": "https://w.junreimap.com/images/user/2192/bangumi/235130/points/46rycxr-1756127959150.jpg",
        "location": "",
        "point_id": "46rycxr",
        "point_name": "川奈のビーチエントリー場所",
        "remark": "此为潜水员及体验者专用楼梯，朝圣时请注意不要给潜水员带来不便或干扰。https://takesea.com/introduction-of-kawana.html"
      },
      "type": "Feature"
    },
    {
      "geometry": {
        "coordinates": [
          127.87811,
          26.694557
        ],
        "type": "Point"
      },
      "properties": {
        "bangumi_id": 235130,
        "bangumi_title": "碧蓝之海",
        "ep_cut": 2,
        "image_url": "https://w.junreimap.com/images/user/2192/bangumi/235130/points/46sjwuz-1756128244905.jpg",
        "location": "",
        "point_id": "46sjwuz",
        "point_name": "沖縄美ら海水族館　黒潮の海",
        "remark": ""
      },
      "type": "Feature"
    },
    {
      "geometry": {
        "coordinates": [
          139.140524,
          34.939523
        ],
        "type": "Point"
      },
      "properties": {
        "bangumi_id": 235130,
        "bangumi_title": "碧蓝之海",
        "ep_cut": 4,
        "image_url": "https://w.junreimap.com/images/user/2192/bangumi/235130/points/46sns5m-1756128427218.jpg",
        "location": "",
        "point_id": "46sns5m",
        "point_name": "川奈ホテル",
        "remark": "作中伊豆大学的原型"
      },
      "type": "Feature"
    },
    {
      "geometry": {
        "coordinates": [
          139.093886,
          34.972637
        ],
        "type": "Point"
      },
      "properties": {
        "bangumi_id": 235130,
        "bangumi_title": "碧蓝之海",
        "ep_cut": 5,
        "image_url": "https://w.junreimap.com/images/user/2192/bangumi/235130/points/46t0xud-1756129075212.jpg",
        "location": "",
        "point_id": "46t0xud",
        "point_name": "まるげん",
        "remark": ""
      },
      "type": "Feature"
    },
    {
      "geometry": {
        "coordinates": [
          139.136225,
          34.952582
        ],
        "type": "Point"
      },
      "properties": {
        "bangumi_id": 235130,
        "bangumi_title": "碧蓝之海",
        "ep_cut": 3,
        "image_url": "https://w.junreimap.com/images/user/2192/bangumi/235130/points/46tde75-1756129634371.jpg",
        "location": "",
        "point_id": "46tde75",
        "point_name": "オアシスダイビングサービス",
        "remark": "作中潜水商店Grand Blue的原型，但受台风影响现已拆除。https://www.facebook.com/oasiskawana/"
      },
      "type": "Feature"
    },
    {
      "geometry": {
        "coordinates": [
          125.278858,
          24.831985
        ],
        "type": "Point"
      },
      "properties": {
        "bangumi_id": 235130,
        "bangumi_title": "碧蓝之海",
        "ep_cut": 10,
        "image_url": "https://w.junreimap.com/images/user/2192/bangumi/235130/points/46utyqf-1756132660106.jpg",
        "location": "",
        "point_id": "46utyqf",
        "point_name": "Beach Side House Miyakojima",
        "remark": ""
      },
      "type": "Feature"
    }
  ],
  "type": "FeatureCollection"
}