{
  "features": [
    {
      "geometry": {
        "coordinates": [
          24.74447,
          59.437445
        ],
        "type": "Point"
      },
      "properties": {
        "bangumi_id": 23686,
        "bangumi_title": "刀剑神域",
        "ep_cut": 3,
        "image_url": "https://w.junreimap.com/images/user/0/bangumi/23686/points/ez7q2qv-1779614767586.jpg",
        "location": "",
        "point_id": "ez7q2qv",
        "point_name": "Raekoja plats",
        "remark": "Raekoja plats (English: Town Hall Square) is a town square beside Tallinn Town Hall (Estonian: Raekoda) in the center of the Tallinn Old Town in Tallinn, Estonia.\n\nIt is a venue for numerous small festivals or concerts like Tallinn Old Town Days (Estonian: Tallinna Vanalinna Päevad), and several bars and restaurants are located in the near vicinity. The square also hosts a market regularly, with many stalls selling traditional Estonian items and souvenirs.\n\nOn the side of Town Hall, there is Raeapteek (Town Hall Pharmacy), which is one of the oldest continuously running pharmacies in Europe, having always been in business in the same house since the early 15th century."
      },
      "type": "Feature"
    }
  ],
  "type": "FeatureCollection"
}