{
  "features": [
    {
      "geometry": {
        "coordinates": [
          139.5942,
          35.979029
        ],
        "type": "Point"
      },
      "properties": {
        "bangumi_id": 239565,
        "bangumi_title": "孤独的美食家 第七季",
        "ep_cut": "",
        "image_url": "",
        "location": "シーズン7",
        "point_id": "bd741e49",
        "point_name": "本町３丁目１１−１３",
        "remark": ""
      },
      "type": "Feature"
    },
    {
      "geometry": {
        "coordinates": [
          139.638335,
          35.646519
        ],
        "type": "Point"
      },
      "properties": {
        "bangumi_id": 239565,
        "bangumi_title": "孤独的美食家 第七季",
        "ep_cut": 2,
        "image_url": "https://w.junreimap.com/images/points/239565/46b8b764_1748275745430.jpg",
        "location": "シーズン7",
        "point_id": "46b8b764",
        "point_name": "宮坂１丁目９−５",
        "remark": "第2話　世田谷区経堂→町田市高ヶ坂1丁目4-17"
      },
      "type": "Feature"
    },
    {
      "geometry": {
        "coordinates": [
          139.723645,
          35.651026
        ],
        "type": "Point"
      },
      "properties": {
        "bangumi_id": 239565,
        "bangumi_title": "孤独的美食家 第七季",
        "ep_cut": 3,
        "image_url": "https://w.junreimap.com/images/points/239565/e1bf8ea6_1748275133376.jpg",
        "location": "シーズン7",
        "point_id": "e1bf8ea6",
        "point_name": "サルシータ",
        "remark": "第3話 東京都港区南麻布のサルシータ（Salsita）"
      },
      "type": "Feature"
    },
    {
      "geometry": {
        "coordinates": [
          138.784036,
          36.211038
        ],
        "type": "Point"
      },
      "properties": {
        "bangumi_id": 239565,
        "bangumi_title": "孤独的美食家 第七季",
        "ep_cut": 4,
        "image_url": "https://w.junreimap.com/images/points/239565/2ffe8cc6_1748275193641.jpg",
        "location": "シーズン7",
        "point_id": "2ffe8cc6",
        "point_name": "下仁田３６２",
        "remark": "第4話 群馬県甘楽郡下仁田町の一番とコロンビアの２店"
      },
      "type": "Feature"
    },
    {
      "geometry": {
        "coordinates": [
          138.78417,
          36.211045
        ],
        "type": "Point"
      },
      "properties": {
        "bangumi_id": 239565,
        "bangumi_title": "孤独的美食家 第七季",
        "ep_cut": 4,
        "image_url": "https://w.junreimap.com/images/points/239565/98b5cc72_1748275215422.jpg",
        "location": "シーズン7",
        "point_id": "98b5cc72",
        "point_name": "ポイント 5",
        "remark": "第4話 群馬県甘楽郡下仁田町の一番とコロンビアの２店"
      },
      "type": "Feature"
    },
    {
      "geometry": {
        "coordinates": [
          139.778037,
          35.734263
        ],
        "type": "Point"
      },
      "properties": {
        "bangumi_id": 239565,
        "bangumi_title": "孤独的美食家 第七季",
        "ep_cut": "",
        "image_url": "",
        "location": "シーズン7",
        "point_id": "61b13620",
        "point_name": "コーポこだま 102",
        "remark": ""
      },
      "type": "Feature"
    },
    {
      "geometry": {
        "coordinates": [
          139.901588,
          35.662444
        ],
        "type": "Point"
      },
      "properties": {
        "bangumi_id": 239565,
        "bangumi_title": "孤独的美食家 第七季",
        "ep_cut": "",
        "image_url": "",
        "location": "シーズン7",
        "point_id": "1cbd1917",
        "point_name": "北栄４丁目１６−５",
        "remark": ""
      },
      "type": "Feature"
    },
    {
      "geometry": {
        "coordinates": [
          139.821839,
          35.728019
        ],
        "type": "Point"
      },
      "properties": {
        "bangumi_id": 239565,
        "bangumi_title": "孤独的美食家 第七季",
        "ep_cut": "",
        "image_url": "",
        "location": "シーズン7",
        "point_id": "bc163969",
        "point_name": "東向島５丁目２９−６",
        "remark": ""
      },
      "type": "Feature"
    },
    {
      "geometry": {
        "coordinates": [
          139.666684,
          35.709161
        ],
        "type": "Point"
      },
      "properties": {
        "bangumi_id": 239565,
        "bangumi_title": "孤独的美食家 第七季",
        "ep_cut": "",
        "image_url": "",
        "location": "シーズン7",
        "point_id": "6adc3366",
        "point_name": "中野５丁目５３−１０",
        "remark": ""
      },
      "type": "Feature"
    },
    {
      "geometry": {
        "coordinates": [
          127.134475,
          35.79478
        ],
        "type": "Point"
      },
      "properties": {
        "bangumi_id": 239565,
        "bangumi_title": "孤独的美食家 第七季",
        "ep_cut": 9,
        "image_url": "https://w.junreimap.com/images/points/239565/2ee61192_1748275409821.jpg",
        "location": "シーズン7",
        "point_id": "2ee61192",
        "point_name": "トバン（土房 토방）",
        "remark": "エピソード9「韓国チョンジュ市の納豆チゲとセルフビビンパ」"
      },
      "type": "Feature"
    },
    {
      "geometry": {
        "coordinates": [
          127.001938,
          37.526348
        ],
        "type": "Point"
      },
      "properties": {
        "bangumi_id": 239565,
        "bangumi_title": "孤独的美食家 第七季",
        "ep_cut": 10,
        "image_url": "https://w.junreimap.com/images/points/239565/f80a9c62_1748275591445.jpg",
        "location": "シーズン7",
        "point_id": "f80a9c62",
        "point_name": "チョンチョムスップルカルビ（종점숯불갈비）",
        "remark": "首尔龙山区普光洞70-19 （京义中央线汉南站1号口出步行10分钟）https://weibo.com/5936083109/GgNJnAtC5　エピソード10「韓国ソウル特別市の骨付き豚カルビとおかずの群れ」"
      },
      "type": "Feature"
    },
    {
      "geometry": {
        "coordinates": [
          140.101083,
          35.614623
        ],
        "type": "Point"
      },
      "properties": {
        "bangumi_id": 239565,
        "bangumi_title": "孤独的美食家 第七季",
        "ep_cut": "",
        "image_url": "",
        "location": "シーズン7",
        "point_id": "cfd5a1fc",
        "point_name": "サロンブルーベル",
        "remark": ""
      },
      "type": "Feature"
    },
    {
      "geometry": {
        "coordinates": [
          139.77336,
          35.674951
        ],
        "type": "Point"
      },
      "properties": {
        "bangumi_id": 239565,
        "bangumi_title": "孤独的美食家 第七季",
        "ep_cut": "",
        "image_url": "",
        "location": "シーズン7",
        "point_id": "088db6fa",
        "point_name": "八丁堀３丁目２−４",
        "remark": ""
      },
      "type": "Feature"
    }
  ],
  "type": "FeatureCollection"
}