{
  "features": [
    {
      "geometry": {
        "coordinates": [
          129.870477,
          32.733494
        ],
        "type": "Point"
      },
      "properties": {
        "bangumi_id": 240562,
        "bangumi_title": "来自多彩世界的明天",
        "ep_cut": "",
        "image_url": "https://w.junreimap.com/images/points/240562/51i51rirz_1672369270443.jpg",
        "location": "長崎市中心部",
        "point_id": "51i51rirz",
        "point_name": "祈念坂（キービジュアルのカット）",
        "remark": "キービジュアルのカットです"
      },
      "type": "Feature"
    },
    {
      "geometry": {
        "coordinates": [
          129.88007,
          32.747192
        ],
        "type": "Point"
      },
      "properties": {
        "bangumi_id": 240562,
        "bangumi_title": "来自多彩世界的明天",
        "ep_cut": "",
        "image_url": "https://w.junreimap.com/images/points/240562/51i51ri2e_1672369274686.jpg",
        "location": "長崎市中心部",
        "point_id": "51i51ri2e",
        "point_name": "第2弾キービジュアル（眼鏡橋）",
        "remark": ""
      },
      "type": "Feature"
    },
    {
      "geometry": {
        "coordinates": [
          129.870698,
          32.733401
        ],
        "type": "Point"
      },
      "properties": {
        "bangumi_id": 240562,
        "bangumi_title": "来自多彩世界的明天",
        "ep_cut": "",
        "image_url": "https://w.junreimap.com/images/points/240562/51i51rigz_1672369275794.jpg",
        "location": "長崎市中心部",
        "point_id": "51i51rigz",
        "point_name": "大浦展望公園からの眺望",
        "remark": "PV0;55のカット"
      },
      "type": "Feature"
    },
    {
      "geometry": {
        "coordinates": [
          129.870665,
          32.733429
        ],
        "type": "Point"
      },
      "properties": {
        "bangumi_id": 240562,
        "bangumi_title": "来自多彩世界的明天",
        "ep_cut": "",
        "image_url": "https://w.junreimap.com/images/points/240562/51i51rjar_1672369276931.jpg",
        "location": "長崎市中心部",
        "point_id": "51i51rjar",
        "point_name": "大浦展望公園",
        "remark": "第11話、12話"
      },
      "type": "Feature"
    },
    {
      "geometry": {
        "coordinates": [
          129.87023,
          32.732778
        ],
        "type": "Point"
      },
      "properties": {
        "bangumi_id": 240562,
        "bangumi_title": "来自多彩世界的明天",
        "ep_cut": "",
        "image_url": "https://w.junreimap.com/images/points/240562/51i51rj7y_1672369278044.jpg",
        "location": "長崎市中心部",
        "point_id": "51i51rj7y",
        "point_name": "グラバースカイロードからの眺望",
        "remark": "PV0:48のカット"
      },
      "type": "Feature"
    },
    {
      "geometry": {
        "coordinates": [
          129.874586,
          32.729087
        ],
        "type": "Point"
      },
      "properties": {
        "bangumi_id": 240562,
        "bangumi_title": "来自多彩世界的明天",
        "ep_cut": "",
        "image_url": "https://w.junreimap.com/images/points/240562/51i51rjjh_1672369279490.jpg",
        "location": "長崎市中心部",
        "point_id": "51i51rjjh",
        "point_name": "出雲近隣公園",
        "remark": "第1話など"
      },
      "type": "Feature"
    },
    {
      "geometry": {
        "coordinates": [
          129.874506,
          32.729045
        ],
        "type": "Point"
      },
      "properties": {
        "bangumi_id": 240562,
        "bangumi_title": "来自多彩世界的明天",
        "ep_cut": "",
        "image_url": "https://w.junreimap.com/images/points/240562/51i51rjah_1672369281561.jpg",
        "location": "長崎市中心部",
        "point_id": "51i51rjah",
        "point_name": "出雲近隣公園（ステージ）",
        "remark": "第12話、13話"
      },
      "type": "Feature"
    },
    {
      "geometry": {
        "coordinates": [
          129.875115,
          32.728282
        ],
        "type": "Point"
      },
      "properties": {
        "bangumi_id": 240562,
        "bangumi_title": "来自多彩世界的明天",
        "ep_cut": "",
        "image_url": "https://w.junreimap.com/images/points/240562/51i51rj40_1672369282852.jpg",
        "location": "長崎市中心部",
        "point_id": "51i51rj40",
        "point_name": "公園のステージ遠景撮影ポイント",
        "remark": "第13話"
      },
      "type": "Feature"
    },
    {
      "geometry": {
        "coordinates": [
          129.875419,
          32.734409
        ],
        "type": "Point"
      },
      "properties": {
        "bangumi_id": 240562,
        "bangumi_title": "来自多彩世界的明天",
        "ep_cut": "",
        "image_url": "https://w.junreimap.com/images/points/240562/51i51rj45_1672369285054.jpg",
        "location": "長崎市中心部",
        "point_id": "51i51rj45",
        "point_name": "東山公園",
        "remark": ""
      },
      "type": "Feature"
    },
    {
      "geometry": {
        "coordinates": [
          129.876742,
          32.733365
        ],
        "type": "Point"
      },
      "properties": {
        "bangumi_id": 240562,
        "bangumi_title": "来自多彩世界的明天",
        "ep_cut": "",
        "image_url": "https://w.junreimap.com/images/points/240562/51i51rjh1_1672369286691.jpg",
        "location": "長崎市中心部",
        "point_id": "51i51rjh1",
        "point_name": "元町の石段",
        "remark": "第1話。唯翔の部屋から抜け出した瞳美が石段を駆け下りるシーン。"
      },
      "type": "Feature"
    },
    {
      "geometry": {
        "coordinates": [
          129.878294,
          32.732659
        ],
        "type": "Point"
      },
      "properties": {
        "bangumi_id": 240562,
        "bangumi_title": "来自多彩世界的明天",
        "ep_cut": "",
        "image_url": "https://w.junreimap.com/images/points/240562/51i51rjwi_1672369287978.jpg",
        "location": "長崎市中心部",
        "point_id": "51i51rjwi",
        "point_name": "どんの山公園",
        "remark": "第1話。公園へ向かう唯翔を瞳美が追いかけるシーン。"
      },
      "type": "Feature"
    },
    {
      "geometry": {
        "coordinates": [
          129.870619,
          32.73245
        ],
        "type": "Point"
      },
      "properties": {
        "bangumi_id": 240562,
        "bangumi_title": "来自多彩世界的明天",
        "ep_cut": "",
        "image_url": "https://w.junreimap.com/images/points/240562/51i51rk0b_1672369289582.jpg",
        "location": "長崎市中心部",
        "point_id": "51i51rk0b",
        "point_name": "「まほう屋」の入り口周辺",
        "remark": ""
      },
      "type": "Feature"
    },
    {
      "geometry": {
        "coordinates": [
          129.876263,
          32.730578
        ],
        "type": "Point"
      },
      "properties": {
        "bangumi_id": 240562,
        "bangumi_title": "来自多彩世界的明天",
        "ep_cut": "",
        "image_url": "https://w.junreimap.com/images/points/240562/51i51rk8i_1672369291141.jpg",
        "location": "長崎市中心部",
        "point_id": "51i51rk8i",
        "point_name": "「日の出町」バス停付近",
        "remark": ""
      },
      "type": "Feature"
    },
    {
      "geometry": {
        "coordinates": [
          129.878662,
          32.730984
        ],
        "type": "Point"
      },
      "properties": {
        "bangumi_id": 240562,
        "bangumi_title": "来自多彩世界的明天",
        "ep_cut": "",
        "image_url": "https://w.junreimap.com/images/points/240562/51i51rjlv_1672369292139.jpg",
        "location": "長崎市中心部",
        "point_id": "51i51rjlv",
        "point_name": "椎の木公園付近",
        "remark": "第１話"
      },
      "type": "Feature"
    },
    {
      "geometry": {
        "coordinates": [
          129.869441,
          32.735942
        ],
        "type": "Point"
      },
      "properties": {
        "bangumi_id": 240562,
        "bangumi_title": "来自多彩世界的明天",
        "ep_cut": "",
        "image_url": "https://w.junreimap.com/images/points/240562/51i51rjth_1672369294189.jpg",
        "location": "長崎市中心部",
        "point_id": "51i51rjth",
        "point_name": "ファミリーマート グラバー通り店付近",
        "remark": ""
      },
      "type": "Feature"
    },
    {
      "geometry": {
        "coordinates": [
          129.86986,
          32.736154
        ],
        "type": "Point"
      },
      "properties": {
        "bangumi_id": 240562,
        "bangumi_title": "来自多彩世界的明天",
        "ep_cut": "",
        "image_url": "https://w.junreimap.com/images/points/240562/51i51rjtb_1672369296186.jpg",
        "location": "長崎市中心部",
        "point_id": "51i51rjtb",
        "point_name": "四海樓付近（瞳美が地図を手にウロウロしてた場所）",
        "remark": "第１話"
      },
      "type": "Feature"
    },
    {
      "geometry": {
        "coordinates": [
          129.869448,
          32.733741
        ],
        "type": "Point"
      },
      "properties": {
        "bangumi_id": 240562,
        "bangumi_title": "来自多彩世界的明天",
        "ep_cut": "",
        "image_url": "https://w.junreimap.com/images/points/240562/51i51rjoj_1672369298188.jpg",
        "location": "長崎市中心部",
        "point_id": "51i51rjoj",
        "point_name": "旧自由亭",
        "remark": "唯翔のバイト先"
      },
      "type": "Feature"
    },
    {
      "geometry": {
        "coordinates": [
          129.868867,
          32.733682
        ],
        "type": "Point"
      },
      "properties": {
        "bangumi_id": 240562,
        "bangumi_title": "来自多彩世界的明天",
        "ep_cut": "",
        "image_url": "https://w.junreimap.com/images/points/240562/51i51rkle_1672369300184.jpg",
        "location": "長崎市中心部",
        "point_id": "51i51rkle",
        "point_name": "グラバー園内の階段",
        "remark": "第4話"
      },
      "type": "Feature"
    },
    {
      "geometry": {
        "coordinates": [
          129.871353,
          32.732768
        ],
        "type": "Point"
      },
      "properties": {
        "bangumi_id": 240562,
        "bangumi_title": "来自多彩世界的明天",
        "ep_cut": "",
        "image_url": "https://w.junreimap.com/images/points/240562/51i51rkqw_1672369302186.jpg",
        "location": "長崎市中心部",
        "point_id": "51i51rkqw",
        "point_name": "大浦小学校付近の通路",
        "remark": "第3話"
      },
      "type": "Feature"
    },
    {
      "geometry": {
        "coordinates": [
          129.884965,
          32.729626
        ],
        "type": "Point"
      },
      "properties": {
        "bangumi_id": 240562,
        "bangumi_title": "来自多彩世界的明天",
        "ep_cut": "",
        "image_url": "https://w.junreimap.com/images/points/240562/51i51rkwe_1672369304185.jpg",
        "location": "長崎市中心部",
        "point_id": "51i51rkwe",
        "point_name": "長崎南高校裏門前",
        "remark": "第3話"
      },
      "type": "Feature"
    },
    {
      "geometry": {
        "coordinates": [
          129.885915,
          32.731336
        ],
        "type": "Point"
      },
      "properties": {
        "bangumi_id": 240562,
        "bangumi_title": "来自多彩世界的明天",
        "ep_cut": "",
        "image_url": "https://w.junreimap.com/images/points/240562/51i51rkff_1672369306188.jpg",
        "location": "長崎市中心部",
        "point_id": "51i51rkff",
        "point_name": "長崎南高校東門付近",
        "remark": "第4話"
      },
      "type": "Feature"
    },
    {
      "geometry": {
        "coordinates": [
          129.884004,
          32.731323
        ],
        "type": "Point"
      },
      "properties": {
        "bangumi_id": 240562,
        "bangumi_title": "来自多彩世界的明天",
        "ep_cut": "",
        "image_url": "https://w.junreimap.com/images/points/240562/51i51rkoc_1672369308187.jpg",
        "location": "長崎市中心部",
        "point_id": "51i51rkoc",
        "point_name": "下校風景",
        "remark": "第6話"
      },
      "type": "Feature"
    },
    {
      "geometry": {
        "coordinates": [
          129.886785,
          32.73089
        ],
        "type": "Point"
      },
      "properties": {
        "bangumi_id": 240562,
        "bangumi_title": "来自多彩世界的明天",
        "ep_cut": "",
        "image_url": "https://w.junreimap.com/images/points/240562/51i51rllm_1672369310188.jpg",
        "location": "長崎市中心部",
        "point_id": "51i51rllm",
        "point_name": "胡桃と千草の下校シーン",
        "remark": "第12話"
      },
      "type": "Feature"
    },
    {
      "geometry": {
        "coordinates": [
          129.882376,
          32.738248
        ],
        "type": "Point"
      },
      "properties": {
        "bangumi_id": 240562,
        "bangumi_title": "来自多彩世界的明天",
        "ep_cut": "",
        "image_url": "https://w.junreimap.com/images/points/240562/51i51rl66_1672369312185.jpg",
        "location": "長崎市中心部",
        "point_id": "51i51rl66",
        "point_name": "あさぎと将の下校シーン①",
        "remark": "第10話"
      },
      "type": "Feature"
    },
    {
      "geometry": {
        "coordinates": [
          129.884626,
          32.732064
        ],
        "type": "Point"
      },
      "properties": {
        "bangumi_id": 240562,
        "bangumi_title": "来自多彩世界的明天",
        "ep_cut": "",
        "image_url": "https://w.junreimap.com/images/points/240562/51i51rlun_1672369314184.jpg",
        "location": "長崎市中心部",
        "point_id": "51i51rlun",
        "point_name": "あさぎと将の下校シーン②",
        "remark": "第12話"
      },
      "type": "Feature"
    },
    {
      "geometry": {
        "coordinates": [
          129.879918,
          32.731565
        ],
        "type": "Point"
      },
      "properties": {
        "bangumi_id": 240562,
        "bangumi_title": "来自多彩世界的明天",
        "ep_cut": "",
        "image_url": "https://w.junreimap.com/images/points/240562/51i51rlqm_1672369316186.jpg",
        "location": "長崎市中心部",
        "point_id": "51i51rlqm",
        "point_name": "出雲近隣公園への道程",
        "remark": "第12話"
      },
      "type": "Feature"
    },
    {
      "geometry": {
        "coordinates": [
          129.883357,
          32.73055
        ],
        "type": "Point"
      },
      "properties": {
        "bangumi_id": 240562,
        "bangumi_title": "来自多彩世界的明天",
        "ep_cut": "",
        "image_url": "https://w.junreimap.com/images/points/240562/51i51rl85_1672369318224.jpg",
        "location": "長崎市中心部",
        "point_id": "51i51rl85",
        "point_name": "グランドネットを見上げる",
        "remark": "第10話"
      },
      "type": "Feature"
    },
    {
      "geometry": {
        "coordinates": [
          129.883377,
          32.730742
        ],
        "type": "Point"
      },
      "properties": {
        "bangumi_id": 240562,
        "bangumi_title": "来自多彩世界的明天",
        "ep_cut": "",
        "image_url": "https://w.junreimap.com/images/points/240562/51i51rlsc_1672369320148.jpg",
        "location": "長崎市中心部",
        "point_id": "51i51rlsc",
        "point_name": "女神大橋の主塔が見える風景",
        "remark": "第10話"
      },
      "type": "Feature"
    },
    {
      "geometry": {
        "coordinates": [
          129.883602,
          32.731073
        ],
        "type": "Point"
      },
      "properties": {
        "bangumi_id": 240562,
        "bangumi_title": "来自多彩世界的明天",
        "ep_cut": "",
        "image_url": "https://w.junreimap.com/images/points/240562/51i51rmhn_1672369321500.jpg",
        "location": "長崎市中心部",
        "point_id": "51i51rmhn",
        "point_name": "瞳美と琥珀の下校風景",
        "remark": "第10話"
      },
      "type": "Feature"
    },
    {
      "geometry": {
        "coordinates": [
          129.885456,
          32.734372
        ],
        "type": "Point"
      },
      "properties": {
        "bangumi_id": 240562,
        "bangumi_title": "来自多彩世界的明天",
        "ep_cut": "",
        "image_url": "https://w.junreimap.com/images/points/240562/51i51rmj7_1672369323059.jpg",
        "location": "長崎市中心部",
        "point_id": "51i51rmj7",
        "point_name": "桜尾公園",
        "remark": "第6話"
      },
      "type": "Feature"
    },
    {
      "geometry": {
        "coordinates": [
          129.868267,
          32.740173
        ],
        "type": "Point"
      },
      "properties": {
        "bangumi_id": 240562,
        "bangumi_title": "来自多彩世界的明天",
        "ep_cut": "",
        "image_url": "https://w.junreimap.com/images/points/240562/51i51rm6t_1672369324495.jpg",
        "location": "長崎市中心部",
        "point_id": "51i51rm6t",
        "point_name": "水辺の森公園（橋）",
        "remark": "第4話"
      },
      "type": "Feature"
    },
    {
      "geometry": {
        "coordinates": [
          129.868751,
          32.739832
        ],
        "type": "Point"
      },
      "properties": {
        "bangumi_id": 240562,
        "bangumi_title": "来自多彩世界的明天",
        "ep_cut": "",
        "image_url": "https://w.junreimap.com/images/points/240562/51i51rm6d_1672369326009.jpg",
        "location": "長崎市中心部",
        "point_id": "51i51rm6d",
        "point_name": "水辺の森公園（石のベンチ）",
        "remark": "第7話、10話"
      },
      "type": "Feature"
    },
    {
      "geometry": {
        "coordinates": [
          129.868632,
          32.739751
        ],
        "type": "Point"
      },
      "properties": {
        "bangumi_id": 240562,
        "bangumi_title": "来自多彩世界的明天",
        "ep_cut": "",
        "image_url": "https://w.junreimap.com/images/points/240562/51i51rmmt_1672369327093.jpg",
        "location": "長崎市中心部",
        "point_id": "51i51rmmt",
        "point_name": "水辺の森公園（石畳の通路）",
        "remark": "第7話"
      },
      "type": "Feature"
    },
    {
      "geometry": {
        "coordinates": [
          129.872309,
          32.740853
        ],
        "type": "Point"
      },
      "properties": {
        "bangumi_id": 240562,
        "bangumi_title": "来自多彩世界的明天",
        "ep_cut": "",
        "image_url": "https://w.junreimap.com/images/points/240562/51i51rmxt_1672369328108.jpg",
        "location": "長崎市中心部",
        "point_id": "51i51rmxt",
        "point_name": "水辺の森公園（スロープ）",
        "remark": "第9話"
      },
      "type": "Feature"
    },
    {
      "geometry": {
        "coordinates": [
          129.869348,
          32.741605
        ],
        "type": "Point"
      },
      "properties": {
        "bangumi_id": 240562,
        "bangumi_title": "来自多彩世界的明天",
        "ep_cut": "",
        "image_url": "https://w.junreimap.com/images/points/240562/51i51rn26_1672369329391.jpg",
        "location": "長崎市中心部",
        "point_id": "51i51rn26",
        "point_name": "水辺の森公園（階段）",
        "remark": "第9話"
      },
      "type": "Feature"
    },
    {
      "geometry": {
        "coordinates": [
          129.869245,
          32.741475
        ],
        "type": "Point"
      },
      "properties": {
        "bangumi_id": 240562,
        "bangumi_title": "来自多彩世界的明天",
        "ep_cut": "",
        "image_url": "https://w.junreimap.com/images/points/240562/51i51rmrn_1672369331035.jpg",
        "location": "長崎市中心部",
        "point_id": "51i51rmrn",
        "point_name": "水辺の森公園（月の舞台）",
        "remark": "第9話"
      },
      "type": "Feature"
    },
    {
      "geometry": {
        "coordinates": [
          129.869361,
          32.740471
        ],
        "type": "Point"
      },
      "properties": {
        "bangumi_id": 240562,
        "bangumi_title": "来自多彩世界的明天",
        "ep_cut": "",
        "image_url": "https://w.junreimap.com/images/points/240562/51i51rmr3_1672369332791.jpg",
        "location": "長崎市中心部",
        "point_id": "51i51rmr3",
        "point_name": "水辺の森公園（土の道）",
        "remark": "第9話"
      },
      "type": "Feature"
    },
    {
      "geometry": {
        "coordinates": [
          129.869506,
          32.741452
        ],
        "type": "Point"
      },
      "properties": {
        "bangumi_id": 240562,
        "bangumi_title": "来自多彩世界的明天",
        "ep_cut": "",
        "image_url": "https://w.junreimap.com/images/points/240562/51i51rmuf_1672369334033.jpg",
        "location": "長崎市中心部",
        "point_id": "51i51rmuf",
        "point_name": "水辺の森公園（ベンチ）",
        "remark": "第9話"
      },
      "type": "Feature"
    },
    {
      "geometry": {
        "coordinates": [
          129.868968,
          32.739989
        ],
        "type": "Point"
      },
      "properties": {
        "bangumi_id": 240562,
        "bangumi_title": "来自多彩世界的明天",
        "ep_cut": "",
        "image_url": "https://w.junreimap.com/images/points/240562/51i51rmw2_1672369335366.jpg",
        "location": "長崎市中心部",
        "point_id": "51i51rmw2",
        "point_name": "水辺の森公園（水場）",
        "remark": "第9話"
      },
      "type": "Feature"
    },
    {
      "geometry": {
        "coordinates": [
          129.868909,
          32.739233
        ],
        "type": "Point"
      },
      "properties": {
        "bangumi_id": 240562,
        "bangumi_title": "来自多彩世界的明天",
        "ep_cut": "",
        "image_url": "https://w.junreimap.com/images/points/240562/51i51rnuo_1672369337166.jpg",
        "location": "長崎市中心部",
        "point_id": "51i51rnuo",
        "point_name": "浮き輪と女神大橋遠景",
        "remark": "第10話"
      },
      "type": "Feature"
    },
    {
      "geometry": {
        "coordinates": [
          129.872312,
          32.740713
        ],
        "type": "Point"
      },
      "properties": {
        "bangumi_id": 240562,
        "bangumi_title": "来自多彩世界的明天",
        "ep_cut": "",
        "image_url": "https://w.junreimap.com/images/points/240562/51i51rnsh_1672369338806.jpg",
        "location": "長崎市中心部",
        "point_id": "51i51rnsh",
        "point_name": "みなとメディカルセンター",
        "remark": "第9話"
      },
      "type": "Feature"
    },
    {
      "geometry": {
        "coordinates": [
          129.870882,
          32.737948
        ],
        "type": "Point"
      },
      "properties": {
        "bangumi_id": 240562,
        "bangumi_title": "来自多彩世界的明天",
        "ep_cut": "",
        "image_url": "https://w.junreimap.com/images/points/240562/51i51ro57_1672369341165.jpg",
        "location": "長崎市中心部",
        "point_id": "51i51ro57",
        "point_name": "大浦海岸通りの交差点",
        "remark": "第7話"
      },
      "type": "Feature"
    },
    {
      "geometry": {
        "coordinates": [
          129.871384,
          32.741151
        ],
        "type": "Point"
      },
      "properties": {
        "bangumi_id": 240562,
        "bangumi_title": "来自多彩世界的明天",
        "ep_cut": "",
        "image_url": "https://w.junreimap.com/images/points/240562/51i51rns6_1672369342799.jpg",
        "location": "長崎市中心部",
        "point_id": "51i51rns6",
        "point_name": "美術館横の通路",
        "remark": "第9話"
      },
      "type": "Feature"
    },
    {
      "geometry": {
        "coordinates": [
          129.871603,
          32.744213
        ],
        "type": "Point"
      },
      "properties": {
        "bangumi_id": 240562,
        "bangumi_title": "来自多彩世界的明天",
        "ep_cut": "",
        "image_url": "https://w.junreimap.com/images/points/240562/51i51rnmz_1672369343700.jpg",
        "location": "長崎市中心部",
        "point_id": "51i51rnmz",
        "point_name": "「出島」入り口",
        "remark": "第7話"
      },
      "type": "Feature"
    },
    {
      "geometry": {
        "coordinates": [
          129.872401,
          32.734281
        ],
        "type": "Point"
      },
      "properties": {
        "bangumi_id": 240562,
        "bangumi_title": "来自多彩世界的明天",
        "ep_cut": "",
        "image_url": "https://w.junreimap.com/images/points/240562/51i51rovz_1672369345016.jpg",
        "location": "長崎市中心部",
        "point_id": "51i51rovz",
        "point_name": "「石橋」電停",
        "remark": "第5話、9話"
      },
      "type": "Feature"
    },
    {
      "geometry": {
        "coordinates": [
          129.873158,
          32.738141
        ],
        "type": "Point"
      },
      "properties": {
        "bangumi_id": 240562,
        "bangumi_title": "来自多彩世界的明天",
        "ep_cut": "",
        "image_url": "https://w.junreimap.com/images/points/240562/51i51ror8_1672369345897.jpg",
        "location": "長崎市中心部",
        "point_id": "51i51ror8",
        "point_name": "あさぎちゃんち",
        "remark": "第5話など"
      },
      "type": "Feature"
    },
    {
      "geometry": {
        "coordinates": [
          129.873288,
          32.737653
        ],
        "type": "Point"
      },
      "properties": {
        "bangumi_id": 240562,
        "bangumi_title": "来自多彩世界的明天",
        "ep_cut": "",
        "image_url": "https://w.junreimap.com/images/points/240562/51i51rorv_1672369347481.jpg",
        "location": "長崎市中心部",
        "point_id": "51i51rorv",
        "point_name": "オランダ坂通り①",
        "remark": "第5話。幼い頃の将があさぎの手を引いて駆けていくシーン。"
      },
      "type": "Feature"
    },
    {
      "geometry": {
        "coordinates": [
          129.873308,
          32.736521
        ],
        "type": "Point"
      },
      "properties": {
        "bangumi_id": 240562,
        "bangumi_title": "来自多彩世界的明天",
        "ep_cut": "",
        "image_url": "https://w.junreimap.com/images/points/240562/51i51rocb_1672369348874.jpg",
        "location": "長崎市中心部",
        "point_id": "51i51rocb",
        "point_name": "オランダ坂通り②",
        "remark": "第8話"
      },
      "type": "Feature"
    },
    {
      "geometry": {
        "coordinates": [
          129.87345,
          32.735765
        ],
        "type": "Point"
      },
      "properties": {
        "bangumi_id": 240562,
        "bangumi_title": "来自多彩世界的明天",
        "ep_cut": "",
        "image_url": "https://w.junreimap.com/images/points/240562/51i51roep_1672369349998.jpg",
        "location": "長崎市中心部",
        "point_id": "51i51roep",
        "point_name": "オランダ坂通り③",
        "remark": "第8話"
      },
      "type": "Feature"
    },
    {
      "geometry": {
        "coordinates": [
          129.8689,
          32.729369
        ],
        "type": "Point"
      },
      "properties": {
        "bangumi_id": 240562,
        "bangumi_title": "来自多彩世界的明天",
        "ep_cut": "",
        "image_url": "https://w.junreimap.com/images/points/240562/51i51rohp_1672369351489.jpg",
        "location": "長崎市中心部",
        "point_id": "51i51rohp",
        "point_name": "鍋冠山展望台",
        "remark": "第5話"
      },
      "type": "Feature"
    },
    {
      "geometry": {
        "coordinates": [
          129.869655,
          32.729272
        ],
        "type": "Point"
      },
      "properties": {
        "bangumi_id": 240562,
        "bangumi_title": "来自多彩世界的明天",
        "ep_cut": "",
        "image_url": "https://w.junreimap.com/images/points/240562/51i51rok3_1672369353204.jpg",
        "location": "長崎市中心部",
        "point_id": "51i51rok3",
        "point_name": "鍋冠山展望台から降りていく道①",
        "remark": "第10話"
      },
      "type": "Feature"
    },
    {
      "geometry": {
        "coordinates": [
          129.870054,
          32.732041
        ],
        "type": "Point"
      },
      "properties": {
        "bangumi_id": 240562,
        "bangumi_title": "来自多彩世界的明天",
        "ep_cut": "",
        "image_url": "https://w.junreimap.com/images/points/240562/51i51rpkc_1672369354655.jpg",
        "location": "長崎市中心部",
        "point_id": "51i51rpkc",
        "point_name": "鍋冠山展望台から降りていく道②",
        "remark": "第10話"
      },
      "type": "Feature"
    },
    {
      "geometry": {
        "coordinates": [
          129.869697,
          32.729497
        ],
        "type": "Point"
      },
      "properties": {
        "bangumi_id": 240562,
        "bangumi_title": "来自多彩世界的明天",
        "ep_cut": "",
        "image_url": "https://w.junreimap.com/images/points/240562/51i51rp6v_1672369355701.jpg",
        "location": "長崎市中心部",
        "point_id": "51i51rp6v",
        "point_name": "出雲近隣公園遠景（撮影ポイント）",
        "remark": "第5話"
      },
      "type": "Feature"
    },
    {
      "geometry": {
        "coordinates": [
          129.870916,
          32.731878
        ],
        "type": "Point"
      },
      "properties": {
        "bangumi_id": 240562,
        "bangumi_title": "来自多彩世界的明天",
        "ep_cut": "",
        "image_url": "https://w.junreimap.com/images/points/240562/51i51rp4x_1672369356731.jpg",
        "location": "長崎市中心部",
        "point_id": "51i51rp4x",
        "point_name": "大浦小学校付近の道",
        "remark": "第5話"
      },
      "type": "Feature"
    },
    {
      "geometry": {
        "coordinates": [
          129.876079,
          32.743785
        ],
        "type": "Point"
      },
      "properties": {
        "bangumi_id": 240562,
        "bangumi_title": "来自多彩世界的明天",
        "ep_cut": "",
        "image_url": "https://w.junreimap.com/images/points/240562/51i51rpgr_1672369357661.jpg",
        "location": "長崎市中心部",
        "point_id": "51i51rpgr",
        "point_name": "「西浜町」電停",
        "remark": "第6話"
      },
      "type": "Feature"
    },
    {
      "geometry": {
        "coordinates": [
          129.87938,
          32.747625
        ],
        "type": "Point"
      },
      "properties": {
        "bangumi_id": 240562,
        "bangumi_title": "来自多彩世界的明天",
        "ep_cut": "",
        "image_url": "https://w.junreimap.com/images/points/240562/51i51rphj_1672369359031.jpg",
        "location": "長崎市中心部",
        "point_id": "51i51rphj",
        "point_name": "長崎銀行本店前の交差点付近",
        "remark": "第6話"
      },
      "type": "Feature"
    },
    {
      "geometry": {
        "coordinates": [
          129.878404,
          32.746955
        ],
        "type": "Point"
      },
      "properties": {
        "bangumi_id": 240562,
        "bangumi_title": "来自多彩世界的明天",
        "ep_cut": "",
        "image_url": "https://w.junreimap.com/images/points/240562/51i51rpph_1672369360721.jpg",
        "location": "長崎市中心部",
        "point_id": "51i51rpph",
        "point_name": "「めがね橋」電停",
        "remark": "第6話"
      },
      "type": "Feature"
    },
    {
      "geometry": {
        "coordinates": [
          129.878733,
          32.747093
        ],
        "type": "Point"
      },
      "properties": {
        "bangumi_id": 240562,
        "bangumi_title": "来自多彩世界的明天",
        "ep_cut": "",
        "image_url": "https://w.junreimap.com/images/points/240562/51i51rpuq_1672369361693.jpg",
        "location": "長崎市中心部",
        "point_id": "51i51rpuq",
        "point_name": "FM長崎ビル前の交差点",
        "remark": "第6話"
      },
      "type": "Feature"
    },
    {
      "geometry": {
        "coordinates": [
          129.878342,
          32.747058
        ],
        "type": "Point"
      },
      "properties": {
        "bangumi_id": 240562,
        "bangumi_title": "来自多彩世界的明天",
        "ep_cut": "",
        "image_url": "https://w.junreimap.com/images/points/240562/51i51rqgl_1672369364187.jpg",
        "location": "長崎市中心部",
        "point_id": "51i51rqgl",
        "point_name": "「めがね橋」電停付近",
        "remark": "第6話"
      },
      "type": "Feature"
    },
    {
      "geometry": {
        "coordinates": [
          129.877933,
          32.746758
        ],
        "type": "Point"
      },
      "properties": {
        "bangumi_id": 240562,
        "bangumi_title": "来自多彩世界的明天",
        "ep_cut": "",
        "image_url": "https://w.junreimap.com/images/points/240562/51i51rqbg_1672369366188.jpg",
        "location": "長崎市中心部",
        "point_id": "51i51rqbg",
        "point_name": "親和銀行長崎営業部前",
        "remark": "第6話"
      },
      "type": "Feature"
    },
    {
      "geometry": {
        "coordinates": [
          129.875874,
          32.74212
        ],
        "type": "Point"
      },
      "properties": {
        "bangumi_id": 240562,
        "bangumi_title": "来自多彩世界的明天",
        "ep_cut": "",
        "image_url": "https://w.junreimap.com/images/points/240562/51i51rq2o_1672369367188.jpg",
        "location": "長崎市中心部",
        "point_id": "51i51rq2o",
        "point_name": "おらんだ橋（撮影ポイント）",
        "remark": "第6話"
      },
      "type": "Feature"
    },
    {
      "geometry": {
        "coordinates": [
          129.872432,
          32.740557
        ],
        "type": "Point"
      },
      "properties": {
        "bangumi_id": 240562,
        "bangumi_title": "来自多彩世界的明天",
        "ep_cut": "",
        "image_url": "https://w.junreimap.com/images/points/240562/51i51rpsx_1672369369183.jpg",
        "location": "長崎市中心部",
        "point_id": "51i51rpsx",
        "point_name": "「メディカルセンター」電停",
        "remark": "第6話撮影ポイント"
      },
      "type": "Feature"
    },
    {
      "geometry": {
        "coordinates": [
          129.869154,
          32.734436
        ],
        "type": "Point"
      },
      "properties": {
        "bangumi_id": 240562,
        "bangumi_title": "来自多彩世界的明天",
        "ep_cut": "",
        "image_url": "https://w.junreimap.com/images/points/240562/51i51rpxu_1672369371183.jpg",
        "location": "長崎市中心部",
        "point_id": "51i51rpxu",
        "point_name": "グラバー園①",
        "remark": "第6話"
      },
      "type": "Feature"
    },
    {
      "geometry": {
        "coordinates": [
          129.869757,
          32.732939
        ],
        "type": "Point"
      },
      "properties": {
        "bangumi_id": 240562,
        "bangumi_title": "来自多彩世界的明天",
        "ep_cut": "",
        "image_url": "https://w.junreimap.com/images/points/240562/51i51rq2w_1672369373196.jpg",
        "location": "長崎市中心部",
        "point_id": "51i51rq2w",
        "point_name": "グラバー園②",
        "remark": "第6話"
      },
      "type": "Feature"
    },
    {
      "geometry": {
        "coordinates": [
          129.86962,
          32.733142
        ],
        "type": "Point"
      },
      "properties": {
        "bangumi_id": 240562,
        "bangumi_title": "来自多彩世界的明天",
        "ep_cut": "",
        "image_url": "https://w.junreimap.com/images/points/240562/51i51rqki_1672369377600.jpg",
        "location": "長崎市中心部",
        "point_id": "51i51rqki",
        "point_name": "グラバー園③",
        "remark": "第6話"
      },
      "type": "Feature"
    },
    {
      "geometry": {
        "coordinates": [
          129.868853,
          32.734147
        ],
        "type": "Point"
      },
      "properties": {
        "bangumi_id": 240562,
        "bangumi_title": "来自多彩世界的明天",
        "ep_cut": "",
        "image_url": "https://w.junreimap.com/images/points/240562/51i51rr8r_1672369380235.jpg",
        "location": "長崎市中心部",
        "point_id": "51i51rr8r",
        "point_name": "グラバー園④",
        "remark": "第6話"
      },
      "type": "Feature"
    },
    {
      "geometry": {
        "coordinates": [
          129.869517,
          32.733404
        ],
        "type": "Point"
      },
      "properties": {
        "bangumi_id": 240562,
        "bangumi_title": "来自多彩世界的明天",
        "ep_cut": "",
        "image_url": "https://w.junreimap.com/images/points/240562/51i51rr8q_1672369382237.jpg",
        "location": "長崎市中心部",
        "point_id": "51i51rr8q",
        "point_name": "グラバー園⑤",
        "remark": "第6話"
      },
      "type": "Feature"
    },
    {
      "geometry": {
        "coordinates": [
          129.869261,
          32.732957
        ],
        "type": "Point"
      },
      "properties": {
        "bangumi_id": 240562,
        "bangumi_title": "来自多彩世界的明天",
        "ep_cut": "",
        "image_url": "https://w.junreimap.com/images/points/240562/51i51rqqs_1672369384237.jpg",
        "location": "長崎市中心部",
        "point_id": "51i51rqqs",
        "point_name": "グラバー園⑥",
        "remark": "第6話"
      },
      "type": "Feature"
    },
    {
      "geometry": {
        "coordinates": [
          129.870121,
          32.73266
        ],
        "type": "Point"
      },
      "properties": {
        "bangumi_id": 240562,
        "bangumi_title": "来自多彩世界的明天",
        "ep_cut": "",
        "image_url": "https://w.junreimap.com/images/points/240562/51i51rqo3_1672369386238.jpg",
        "location": "長崎市中心部",
        "point_id": "51i51rqo3",
        "point_name": "グラバー園第2ゲート前",
        "remark": "第10話"
      },
      "type": "Feature"
    },
    {
      "geometry": {
        "coordinates": [
          129.856243,
          32.718441
        ],
        "type": "Point"
      },
      "properties": {
        "bangumi_id": 240562,
        "bangumi_title": "来自多彩世界的明天",
        "ep_cut": "",
        "image_url": "https://w.junreimap.com/images/points/240562/51i51rqyq_1672369388235.jpg",
        "location": "長崎市中心部",
        "point_id": "51i51rqyq",
        "point_name": "女神大橋（高架下からのカット）",
        "remark": "第7話"
      },
      "type": "Feature"
    },
    {
      "geometry": {
        "coordinates": [
          129.85643,
          32.718696
        ],
        "type": "Point"
      },
      "properties": {
        "bangumi_id": 240562,
        "bangumi_title": "来自多彩世界的明天",
        "ep_cut": "",
        "image_url": "https://w.junreimap.com/images/points/240562/51i51rqlp_1672369390244.jpg",
        "location": "長崎市中心部",
        "point_id": "51i51rqlp",
        "point_name": "女神大橋（階段付近のカット）",
        "remark": "第7話"
      },
      "type": "Feature"
    },
    {
      "geometry": {
        "coordinates": [
          129.850376,
          32.721066
        ],
        "type": "Point"
      },
      "properties": {
        "bangumi_id": 240562,
        "bangumi_title": "来自多彩世界的明天",
        "ep_cut": "",
        "image_url": "https://w.junreimap.com/images/points/240562/51i51rrcd_1672369392239.jpg",
        "location": "長崎市中心部",
        "point_id": "51i51rrcd",
        "point_name": "女神大橋（橋の中程）",
        "remark": "第7話"
      },
      "type": "Feature"
    },
    {
      "geometry": {
        "coordinates": [
          129.872154,
          32.733362
        ],
        "type": "Point"
      },
      "properties": {
        "bangumi_id": 240562,
        "bangumi_title": "来自多彩世界的明天",
        "ep_cut": "",
        "image_url": "https://w.junreimap.com/images/points/240562/51i51rrew_1672369394237.jpg",
        "location": "長崎市中心部",
        "point_id": "51i51rrew",
        "point_name": "グラバースカイロード１F",
        "remark": "第8話"
      },
      "type": "Feature"
    },
    {
      "geometry": {
        "coordinates": [
          129.871445,
          32.73305
        ],
        "type": "Point"
      },
      "properties": {
        "bangumi_id": 240562,
        "bangumi_title": "来自多彩世界的明天",
        "ep_cut": "",
        "image_url": "https://w.junreimap.com/images/points/240562/51i51rrkg_1672369396259.jpg",
        "location": "長崎市中心部",
        "point_id": "51i51rrkg",
        "point_name": "グラバースカイロード３F",
        "remark": "第8話"
      },
      "type": "Feature"
    },
    {
      "geometry": {
        "coordinates": [
          129.870296,
          32.732629
        ],
        "type": "Point"
      },
      "properties": {
        "bangumi_id": 240562,
        "bangumi_title": "来自多彩世界的明天",
        "ep_cut": "",
        "image_url": "https://w.junreimap.com/images/points/240562/51i51rrfh_1672369397742.jpg",
        "location": "長崎市中心部",
        "point_id": "51i51rrfh",
        "point_name": "グラバースカイロード頂上",
        "remark": "第8話、11話"
      },
      "type": "Feature"
    },
    {
      "geometry": {
        "coordinates": [
          129.874798,
          32.742725
        ],
        "type": "Point"
      },
      "properties": {
        "bangumi_id": 240562,
        "bangumi_title": "来自多彩世界的明天",
        "ep_cut": "",
        "image_url": "https://w.junreimap.com/images/points/240562/51i51rreq_1672369400419.jpg",
        "location": "長崎市中心部",
        "point_id": "51i51rreq",
        "point_name": "おらんだ橋",
        "remark": "第8話"
      },
      "type": "Feature"
    },
    {
      "geometry": {
        "coordinates": [
          129.885101,
          32.733348
        ],
        "type": "Point"
      },
      "properties": {
        "bangumi_id": 240562,
        "bangumi_title": "来自多彩世界的明天",
        "ep_cut": "",
        "image_url": "https://w.junreimap.com/images/points/240562/51i51rrzy_1672369402399.jpg",
        "location": "長崎市中心部",
        "point_id": "51i51rrzy",
        "point_name": "上小島4丁目の坂道",
        "remark": "第8話"
      },
      "type": "Feature"
    },
    {
      "geometry": {
        "coordinates": [
          129.884481,
          32.735235
        ],
        "type": "Point"
      },
      "properties": {
        "bangumi_id": 240562,
        "bangumi_title": "来自多彩世界的明天",
        "ep_cut": "",
        "image_url": "https://w.junreimap.com/images/points/240562/51i51rs8i_1672369420236.jpg",
        "location": "長崎市中心部",
        "point_id": "51i51rs8i",
        "point_name": "上小島2丁目の坂道",
        "remark": "第8話"
      },
      "type": "Feature"
    },
    {
      "geometry": {
        "coordinates": [
          129.880977,
          32.738276
        ],
        "type": "Point"
      },
      "properties": {
        "bangumi_id": 240562,
        "bangumi_title": "来自多彩世界的明天",
        "ep_cut": "",
        "image_url": "https://w.junreimap.com/images/points/240562/51i51rsiy_1672369422235.jpg",
        "location": "長崎市中心部",
        "point_id": "51i51rsiy",
        "point_name": "住宅地遠景（撮影ポイント）",
        "remark": "第8話"
      },
      "type": "Feature"
    },
    {
      "geometry": {
        "coordinates": [
          129.881728,
          32.738148
        ],
        "type": "Point"
      },
      "properties": {
        "bangumi_id": 240562,
        "bangumi_title": "来自多彩世界的明天",
        "ep_cut": "",
        "image_url": "https://w.junreimap.com/images/points/240562/51i51rsjc_1672369425239.jpg",
        "location": "長崎市中心部",
        "point_id": "51i51rsjc",
        "point_name": "黒猫の路地",
        "remark": "第8話"
      },
      "type": "Feature"
    },
    {
      "geometry": {
        "coordinates": [
          129.880989,
          32.738402
        ],
        "type": "Point"
      },
      "properties": {
        "bangumi_id": 240562,
        "bangumi_title": "来自多彩世界的明天",
        "ep_cut": "",
        "image_url": "https://w.junreimap.com/images/points/240562/51i51rs53_1672369427236.jpg",
        "location": "長崎市中心部",
        "point_id": "51i51rs53",
        "point_name": "千草が女の子たちを撮影していた路地",
        "remark": "第8話"
      },
      "type": "Feature"
    },
    {
      "geometry": {
        "coordinates": [
          129.876297,
          32.733769
        ],
        "type": "Point"
      },
      "properties": {
        "bangumi_id": 240562,
        "bangumi_title": "来自多彩世界的明天",
        "ep_cut": "",
        "image_url": "https://w.junreimap.com/images/points/240562/51i51rs4e_1672369429441.jpg",
        "location": "長崎市中心部",
        "point_id": "51i51rs4e",
        "point_name": "千草、胡桃、あさぎが撮影していた階段",
        "remark": "第8話"
      },
      "type": "Feature"
    },
    {
      "geometry": {
        "coordinates": [
          129.875698,
          32.734313
        ],
        "type": "Point"
      },
      "properties": {
        "bangumi_id": 240562,
        "bangumi_title": "来自多彩世界的明天",
        "ep_cut": "",
        "image_url": "https://w.junreimap.com/images/points/240562/51i51rsit_1672369430445.jpg",
        "location": "長崎市中心部",
        "point_id": "51i51rsit",
        "point_name": "東山公園付近の路地",
        "remark": "第8話"
      },
      "type": "Feature"
    },
    {
      "geometry": {
        "coordinates": [
          129.875616,
          32.734385
        ],
        "type": "Point"
      },
      "properties": {
        "bangumi_id": 240562,
        "bangumi_title": "来自多彩世界的明天",
        "ep_cut": "",
        "image_url": "https://w.junreimap.com/images/points/240562/51i51rsbo_1672369431892.jpg",
        "location": "長崎市中心部",
        "point_id": "51i51rsbo",
        "point_name": "東山公園（ベンチと遊具）",
        "remark": "第8話"
      },
      "type": "Feature"
    },
    {
      "geometry": {
        "coordinates": [
          129.874986,
          32.734537
        ],
        "type": "Point"
      },
      "properties": {
        "bangumi_id": 240562,
        "bangumi_title": "来自多彩世界的明天",
        "ep_cut": "",
        "image_url": "https://w.junreimap.com/images/points/240562/51i51rs6o_1672369432875.jpg",
        "location": "長崎市中心部",
        "point_id": "51i51rs6o",
        "point_name": "石垣の路地",
        "remark": "第8話"
      },
      "type": "Feature"
    },
    {
      "geometry": {
        "coordinates": [
          129.874012,
          32.733714
        ],
        "type": "Point"
      },
      "properties": {
        "bangumi_id": 240562,
        "bangumi_title": "来自多彩世界的明天",
        "ep_cut": "",
        "image_url": "https://w.junreimap.com/images/points/240562/51i51rt68_1672369435049.jpg",
        "location": "長崎市中心部",
        "point_id": "51i51rt68",
        "point_name": "大浦保育園前の擁壁",
        "remark": "第8話"
      },
      "type": "Feature"
    },
    {
      "geometry": {
        "coordinates": [
          129.870542,
          32.733195
        ],
        "type": "Point"
      },
      "properties": {
        "bangumi_id": 240562,
        "bangumi_title": "来自多彩世界的明天",
        "ep_cut": "",
        "image_url": "https://w.junreimap.com/images/points/240562/51i51rtg8_1672369439374.jpg",
        "location": "長崎市中心部",
        "point_id": "51i51rtg8",
        "point_name": "南山手レストハウスの庭",
        "remark": "第8話"
      },
      "type": "Feature"
    },
    {
      "geometry": {
        "coordinates": [
          129.870616,
          32.734389
        ],
        "type": "Point"
      },
      "properties": {
        "bangumi_id": 240562,
        "bangumi_title": "来自多彩世界的明天",
        "ep_cut": "",
        "image_url": "https://w.junreimap.com/images/points/240562/51i51rszt_1672369441468.jpg",
        "location": "長崎市中心部",
        "point_id": "51i51rszt",
        "point_name": "猫たちとの集合写真",
        "remark": "第8話"
      },
      "type": "Feature"
    },
    {
      "geometry": {
        "coordinates": [
          129.870534,
          32.734586
        ],
        "type": "Point"
      },
      "properties": {
        "bangumi_id": 240562,
        "bangumi_title": "来自多彩世界的明天",
        "ep_cut": "",
        "image_url": "https://w.junreimap.com/images/points/240562/51i51rsvb_1672369445235.jpg",
        "location": "長崎市中心部",
        "point_id": "51i51rsvb",
        "point_name": "和泉屋の横",
        "remark": "第8話"
      },
      "type": "Feature"
    },
    {
      "geometry": {
        "coordinates": [
          129.880102,
          32.742674
        ],
        "type": "Point"
      },
      "properties": {
        "bangumi_id": 240562,
        "bangumi_title": "来自多彩世界的明天",
        "ep_cut": "",
        "image_url": "https://w.junreimap.com/images/points/240562/51i51rt37_1672369448235.jpg",
        "location": "長崎市中心部",
        "point_id": "51i51rt37",
        "point_name": "「思案橋」交差点",
        "remark": "第9話"
      },
      "type": "Feature"
    },
    {
      "geometry": {
        "coordinates": [
          129.882466,
          32.741269
        ],
        "type": "Point"
      },
      "properties": {
        "bangumi_id": 240562,
        "bangumi_title": "来自多彩世界的明天",
        "ep_cut": "",
        "image_url": "https://w.junreimap.com/images/points/240562/51i51rtj1_1672369456235.jpg",
        "location": "長崎市中心部",
        "point_id": "51i51rtj1",
        "point_name": "「崇福寺」電停",
        "remark": "第9話"
      },
      "type": "Feature"
    },
    {
      "geometry": {
        "coordinates": [
          129.863674,
          32.765622
        ],
        "type": "Point"
      },
      "properties": {
        "bangumi_id": 240562,
        "bangumi_title": "来自多彩世界的明天",
        "ep_cut": "",
        "image_url": "https://w.junreimap.com/images/points/240562/51i51rth1_1672369458236.jpg",
        "location": "長崎市中心部",
        "point_id": "51i51rth1",
        "point_name": "浦上駅",
        "remark": "第9話"
      },
      "type": "Feature"
    },
    {
      "geometry": {
        "coordinates": [
          129.864654,
          32.776953
        ],
        "type": "Point"
      },
      "properties": {
        "bangumi_id": 240562,
        "bangumi_title": "来自多彩世界的明天",
        "ep_cut": "",
        "image_url": "https://w.junreimap.com/images/points/240562/51i51ru69_1672369460238.jpg",
        "location": "長崎市中心部",
        "point_id": "51i51ru69",
        "point_name": "浦上天主堂撮影ポイント",
        "remark": "第9話"
      },
      "type": "Feature"
    },
    {
      "geometry": {
        "coordinates": [
          129.876171,
          32.76081
        ],
        "type": "Point"
      },
      "properties": {
        "bangumi_id": 240562,
        "bangumi_title": "来自多彩世界的明天",
        "ep_cut": "",
        "image_url": "https://w.junreimap.com/images/points/240562/51i51rtv0_1672369463234.jpg",
        "location": "長崎市中心部",
        "point_id": "51i51rtv0",
        "point_name": "瞳美と将がフェンス越しに撮影をしていた場所",
        "remark": "第９話"
      },
      "type": "Feature"
    },
    {
      "geometry": {
        "coordinates": [
          129.881072,
          32.754938
        ],
        "type": "Point"
      },
      "properties": {
        "bangumi_id": 240562,
        "bangumi_title": "来自多彩世界的明天",
        "ep_cut": "",
        "image_url": "https://w.junreimap.com/images/points/240562/51i51ru61_1672369465239.jpg",
        "location": "長崎市中心部",
        "point_id": "51i51ru61",
        "point_name": "六角道",
        "remark": "第9話"
      },
      "type": "Feature"
    },
    {
      "geometry": {
        "coordinates": [
          129.887717,
          32.749038
        ],
        "type": "Point"
      },
      "properties": {
        "bangumi_id": 240562,
        "bangumi_title": "来自多彩世界的明天",
        "ep_cut": "",
        "image_url": "https://w.junreimap.com/images/points/240562/51i51rtns_1672369467235.jpg",
        "location": "長崎市中心部",
        "point_id": "51i51rtns",
        "point_name": "若宮稲荷神社",
        "remark": "第9話"
      },
      "type": "Feature"
    },
    {
      "geometry": {
        "coordinates": [
          129.887361,
          32.748928
        ],
        "type": "Point"
      },
      "properties": {
        "bangumi_id": 240562,
        "bangumi_title": "来自多彩世界的明天",
        "ep_cut": "",
        "image_url": "https://w.junreimap.com/images/points/240562/51i51ru0g_1672369469238.jpg",
        "location": "長崎市中心部",
        "point_id": "51i51ru0g",
        "point_name": "風頭公園へ向かう道程の石段",
        "remark": "第9話"
      },
      "type": "Feature"
    },
    {
      "geometry": {
        "coordinates": [
          129.885975,
          32.746102
        ],
        "type": "Point"
      },
      "properties": {
        "bangumi_id": 240562,
        "bangumi_title": "来自多彩世界的明天",
        "ep_cut": "",
        "image_url": "https://w.junreimap.com/images/points/240562/51i51rtyf_1672369477559.jpg",
        "location": "長崎市中心部",
        "point_id": "51i51rtyf",
        "point_name": "「風頭公園」展望台",
        "remark": "第9話"
      },
      "type": "Feature"
    },
    {
      "geometry": {
        "coordinates": [
          129.87546,
          32.729373
        ],
        "type": "Point"
      },
      "properties": {
        "bangumi_id": 240562,
        "bangumi_title": "来自多彩世界的明天",
        "ep_cut": "",
        "image_url": "https://w.junreimap.com/images/points/240562/51i51ru6k_1672369479280.jpg",
        "location": "長崎市中心部",
        "point_id": "51i51ru6k",
        "point_name": "OPのカット（撮影ポイント・椎の木町の石段）",
        "remark": "タイトルが表示されるカットの背景（撮影ポイント）\n这是拍照点不是实际地点。出云近邻公园东侧盘山路，自动售货机东北处30m，面向北偏东45度方向，身高175视野平视。建议最少用300mm以上焦段拍照。"
      },
      "type": "Feature"
    },
    {
      "geometry": {
        "coordinates": [
          129.879719,
          32.730584
        ],
        "type": "Point"
      },
      "properties": {
        "bangumi_id": 240562,
        "bangumi_title": "来自多彩世界的明天",
        "ep_cut": "",
        "image_url": "https://w.junreimap.com/images/points/240562/51i51rusf_1672369482239.jpg",
        "location": "長崎市中心部",
        "point_id": "51i51rusf",
        "point_name": "椎の木町の石段（OPのカットの石段）",
        "remark": ""
      },
      "type": "Feature"
    },
    {
      "geometry": {
        "coordinates": [
          129.880293,
          32.74719
        ],
        "type": "Point"
      },
      "properties": {
        "bangumi_id": 240562,
        "bangumi_title": "来自多彩世界的明天",
        "ep_cut": "",
        "image_url": "https://w.junreimap.com/images/points/240562/51i51ruia_1672369487238.jpg",
        "location": "長崎市中心部",
        "point_id": "51i51ruia",
        "point_name": "OPのカット（眼鏡橋）",
        "remark": ""
      },
      "type": "Feature"
    },
    {
      "geometry": {
        "coordinates": [
          129.868361,
          32.732075
        ],
        "type": "Point"
      },
      "properties": {
        "bangumi_id": 240562,
        "bangumi_title": "来自多彩世界的明天",
        "ep_cut": "",
        "image_url": "https://w.junreimap.com/images/points/240562/51i51ruku_1672369489349.jpg",
        "location": "長崎市中心部",
        "point_id": "51i51ruku",
        "point_name": "OPのカット（「南山手くすのき公園」横の石段）",
        "remark": ""
      },
      "type": "Feature"
    },
    {
      "geometry": {
        "coordinates": [
          129.874545,
          32.74225
        ],
        "type": "Point"
      },
      "properties": {
        "bangumi_id": 240562,
        "bangumi_title": "来自多彩世界的明天",
        "ep_cut": "",
        "image_url": "https://w.junreimap.com/images/points/240562/51i51ruvv_1672369491501.jpg",
        "location": "長崎市中心部",
        "point_id": "51i51ruvv",
        "point_name": "OPのカット（「出島」横の路面電車線路）",
        "remark": ""
      },
      "type": "Feature"
    },
    {
      "geometry": {
        "coordinates": [
          129.869908,
          32.732612
        ],
        "type": "Point"
      },
      "properties": {
        "bangumi_id": 240562,
        "bangumi_title": "来自多彩世界的明天",
        "ep_cut": "",
        "image_url": "https://w.junreimap.com/images/points/240562/51i51ruly_1672369493271.jpg",
        "location": "長崎市中心部",
        "point_id": "51i51ruly",
        "point_name": "OPのカット（「旧三菱第２ドックハウス」の2階からの眺め）",
        "remark": ""
      },
      "type": "Feature"
    },
    {
      "geometry": {
        "coordinates": [
          129.873644,
          32.738098
        ],
        "type": "Point"
      },
      "properties": {
        "bangumi_id": 240562,
        "bangumi_title": "来自多彩世界的明天",
        "ep_cut": "",
        "image_url": "https://w.junreimap.com/images/points/240562/51i51rug1_1672369495553.jpg",
        "location": "長崎市中心部",
        "point_id": "51i51rug1",
        "point_name": "OPのカット（オランダ坂）",
        "remark": ""
      },
      "type": "Feature"
    },
    {
      "geometry": {
        "coordinates": [
          129.868464,
          32.734253
        ],
        "type": "Point"
      },
      "properties": {
        "bangumi_id": 240562,
        "bangumi_title": "来自多彩世界的明天",
        "ep_cut": "",
        "image_url": "https://w.junreimap.com/images/points/240562/51i51rvqm_1672369497321.jpg",
        "location": "長崎市中心部",
        "point_id": "51i51rvqm",
        "point_name": "OPのカット（グラバー通り（コインパーキング付近））",
        "remark": ""
      },
      "type": "Feature"
    },
    {
      "geometry": {
        "coordinates": [
          129.868278,
          32.732653
        ],
        "type": "Point"
      },
      "properties": {
        "bangumi_id": 240562,
        "bangumi_title": "来自多彩世界的明天",
        "ep_cut": "",
        "image_url": "https://w.junreimap.com/images/points/240562/51i51rvju_1672369499236.jpg",
        "location": "長崎市中心部",
        "point_id": "51i51rvju",
        "point_name": "OPのカット（グラバー通り三叉路のカーブミラー）",
        "remark": ""
      },
      "type": "Feature"
    },
    {
      "geometry": {
        "coordinates": [
          129.875372,
          32.734305
        ],
        "type": "Point"
      },
      "properties": {
        "bangumi_id": 240562,
        "bangumi_title": "来自多彩世界的明天",
        "ep_cut": "",
        "image_url": "https://w.junreimap.com/images/points/240562/51i51rvbq_1672369501234.jpg",
        "location": "長崎市中心部",
        "point_id": "51i51rvbq",
        "point_name": "OPのカット（「東山公園」からの眺め）",
        "remark": ""
      },
      "type": "Feature"
    },
    {
      "geometry": {
        "coordinates": [
          129.870377,
          32.733815
        ],
        "type": "Point"
      },
      "properties": {
        "bangumi_id": 240562,
        "bangumi_title": "来自多彩世界的明天",
        "ep_cut": "",
        "image_url": "https://w.junreimap.com/images/points/240562/51i51rvf2_1672369503234.jpg",
        "location": "長崎市中心部",
        "point_id": "51i51rvf2",
        "point_name": "OPのカット（祈念坂）",
        "remark": ""
      },
      "type": "Feature"
    },
    {
      "geometry": {
        "coordinates": [
          129.869144,
          32.729309
        ],
        "type": "Point"
      },
      "properties": {
        "bangumi_id": 240562,
        "bangumi_title": "来自多彩世界的明天",
        "ep_cut": "",
        "image_url": "https://w.junreimap.com/images/points/240562/51i51rvty_1672369505235.jpg",
        "location": "長崎市中心部",
        "point_id": "51i51rvty",
        "point_name": "OPのカット（鍋冠山公園展望台）",
        "remark": ""
      },
      "type": "Feature"
    },
    {
      "geometry": {
        "coordinates": [
          129.87063,
          32.733465
        ],
        "type": "Point"
      },
      "properties": {
        "bangumi_id": 240562,
        "bangumi_title": "来自多彩世界的明天",
        "ep_cut": "",
        "image_url": "https://w.junreimap.com/images/points/240562/51i51rv97_1672369507372.jpg",
        "location": "長崎市中心部",
        "point_id": "51i51rv97",
        "point_name": "EDのカット（祈念坂を登りきった場所）",
        "remark": ""
      },
      "type": "Feature"
    },
    {
      "geometry": {
        "coordinates": [
          129.870274,
          32.73281
        ],
        "type": "Point"
      },
      "properties": {
        "bangumi_id": 240562,
        "bangumi_title": "来自多彩世界的明天",
        "ep_cut": "",
        "image_url": "https://w.junreimap.com/images/points/240562/51i51rvab_1672369510236.jpg",
        "location": "長崎市中心部",
        "point_id": "51i51rvab",
        "point_name": "EDのカット（リンガー公園横の石段）",
        "remark": ""
      },
      "type": "Feature"
    },
    {
      "geometry": {
        "coordinates": [
          129.762074,
          32.712347
        ],
        "type": "Point"
      },
      "properties": {
        "bangumi_id": 240562,
        "bangumi_title": "来自多彩世界的明天",
        "ep_cut": "",
        "image_url": "https://w.junreimap.com/images/points/240562/51i51rw2s_1672369512262.jpg",
        "location": "伊王島とその周辺",
        "point_id": "51i51rw2s",
        "point_name": "伊王島灯台",
        "remark": "PV0:52のカット"
      },
      "type": "Feature"
    },
    {
      "geometry": {
        "coordinates": [
          129.797675,
          32.690353
        ],
        "type": "Point"
      },
      "properties": {
        "bangumi_id": 240562,
        "bangumi_title": "来自多彩世界的明天",
        "ep_cut": "",
        "image_url": "https://w.junreimap.com/images/points/240562/51i51rwaa_1672369515307.jpg",
        "location": "伊王島とその周辺",
        "point_id": "51i51rwaa",
        "point_name": "香焼総合公園展望台",
        "remark": "第2話で、写真部のPCSモニターに映っていた写真の撮影場所。"
      },
      "type": "Feature"
    },
    {
      "geometry": {
        "coordinates": [
          129.768386,
          32.710326
        ],
        "type": "Point"
      },
      "properties": {
        "bangumi_id": 240562,
        "bangumi_title": "来自多彩世界的明天",
        "ep_cut": "",
        "image_url": "https://w.junreimap.com/images/points/240562/51i51rwwq_1672369517233.jpg",
        "location": "伊王島とその周辺",
        "point_id": "51i51rwwq",
        "point_name": "伊王島海水浴場",
        "remark": "第7話"
      },
      "type": "Feature"
    },
    {
      "geometry": {
        "coordinates": [
          129.768537,
          32.712745
        ],
        "type": "Point"
      },
      "properties": {
        "bangumi_id": 240562,
        "bangumi_title": "来自多彩世界的明天",
        "ep_cut": "",
        "image_url": "https://w.junreimap.com/images/points/240562/51i51rwqd_1672369519639.jpg",
        "location": "伊王島とその周辺",
        "point_id": "51i51rwqd",
        "point_name": "小島",
        "remark": "第7話"
      },
      "type": "Feature"
    },
    {
      "geometry": {
        "coordinates": [
          129.792622,
          32.689836
        ],
        "type": "Point"
      },
      "properties": {
        "bangumi_id": 240562,
        "bangumi_title": "来自多彩世界的明天",
        "ep_cut": "",
        "image_url": "https://w.junreimap.com/images/points/240562/51i51rx2b_1672369521722.jpg",
        "location": "伊王島とその周辺",
        "point_id": "51i51rx2b",
        "point_name": "香焼西海岸",
        "remark": "第11話。星砂を集めていた海岸。"
      },
      "type": "Feature"
    },
    {
      "geometry": {
        "coordinates": [
          129.767091,
          32.868864
        ],
        "type": "Point"
      },
      "properties": {
        "bangumi_id": 240562,
        "bangumi_title": "来自多彩世界的明天",
        "ep_cut": "",
        "image_url": "https://w.junreimap.com/images/points/240562/51i51rwv6_1672369522930.jpg",
        "location": "西海町",
        "point_id": "51i51rwv6",
        "point_name": "まほう屋（森の魔女カフェ）",
        "remark": "已经改装为整租民宿，一天60,000円起(2026/3)。\n网站：https://forest.majocafe.jp/"
      },
      "type": "Feature"
    },
    {
      "geometry": {
        "coordinates": [
          129.876116,
          32.733041
        ],
        "type": "Point"
      },
      "properties": {
        "bangumi_id": 240562,
        "bangumi_title": "来自多彩世界的明天",
        "ep_cut": 9,
        "image_url": "https://w.junreimap.com/images/user/1093/bangumi/240562/points/kmpcgsdb4-1774292194966.jpg",
        "location": "",
        "point_id": "kmpcgsdb4",
        "point_name": "唯翔の家の場所",
        "remark": "从第9话18:27-18:35、第11话19:35-19:40处可以确定唯翔家的位置设定在这里，实际上此处是一片菜田（截图中中心靠上亮灯的红色建筑）\n具体地址为 長崎県長崎市元町9-6 和 長崎県長崎市元町9-8 之间。"
      },
      "type": "Feature"
    },
    {
      "geometry": {
        "coordinates": [
          129.870719,
          32.732279
        ],
        "type": "Point"
      },
      "properties": {
        "bangumi_id": 240562,
        "bangumi_title": "来自多彩世界的明天",
        "ep_cut": 11,
        "image_url": "https://w.junreimap.com/images/user/1093/bangumi/240562/points/sfam6r2wf-1738332933274.jpg",
        "location": "",
        "point_id": "sfam6r2wf",
        "point_name": "まほう屋入口の石段",
        "remark": "在2023年左右石阶右侧新建了住宅，导致右侧的小树林和石墙已经消失。"
      },
      "type": "Feature"
    },
    {
      "geometry": {
        "coordinates": [
          129.870728,
          32.732263
        ],
        "type": "Point"
      },
      "properties": {
        "bangumi_id": 240562,
        "bangumi_title": "来自多彩世界的明天",
        "ep_cut": 1,
        "image_url": "https://w.junreimap.com/images/user/1093/bangumi/240562/points/sfaue5tjt-1738333391246.jpg",
        "location": "",
        "point_id": "sfaue5tjt",
        "point_name": "まほう屋入口の石段",
        "remark": "在2023年左右石阶右侧新建了住宅，导致右侧的小树林和石墙已经消失。"
      },
      "type": "Feature"
    },
    {
      "geometry": {
        "coordinates": [
          129.870594,
          32.732253
        ],
        "type": "Point"
      },
      "properties": {
        "bangumi_id": 240562,
        "bangumi_title": "来自多彩世界的明天",
        "ep_cut": 24,
        "image_url": "https://w.junreimap.com/images/user/1093/bangumi/240562/points/sfavcmo6p-1738333451626.jpg",
        "location": "",
        "point_id": "sfavcmo6p",
        "point_name": "まほう屋入口の石段",
        "remark": "在2023年左右石阶的图中左侧新建了住宅，导致图中左侧的小树林和石墙已经消失。"
      },
      "type": "Feature"
    },
    {
      "geometry": {
        "coordinates": [
          -3.77659,
          50.287906
        ],
        "type": "Point"
      },
      "properties": {
        "bangumi_id": 240562,
        "bangumi_title": "来自多彩世界的明天",
        "ep_cut": "",
        "image_url": "",
        "location": "",
        "point_id": "6yww0dq",
        "point_name": "Knowle House Close",
        "remark": "（预标点，稍后补图）琥珀留学的学校原型"
      },
      "type": "Feature"
    },
    {
      "geometry": {
        "coordinates": [
          129.869094,
          32.729449
        ],
        "type": "Point"
      },
      "properties": {
        "bangumi_id": 240562,
        "bangumi_title": "来自多彩世界的明天",
        "ep_cut": 13,
        "image_url": "https://w.junreimap.com/images/user/1093/bangumi/240562/points/cj4ytnj-1774288953764.jpg",
        "location": "",
        "point_id": "cj4ytnj",
        "point_name": "鍋冠山展望台",
        "remark": "只有背景的山景取自这里，前景的公墓不在此处"
      },
      "type": "Feature"
    },
    {
      "geometry": {
        "coordinates": [
          129.873853,
          32.729111
        ],
        "type": "Point"
      },
      "properties": {
        "bangumi_id": 240562,
        "bangumi_title": "来自多彩世界的明天",
        "ep_cut": 1,
        "image_url": "https://w.junreimap.com/images/user/1093/bangumi/240562/points/cj5go4f-1774289776430.jpg",
        "location": "",
        "point_id": "cj5go4f",
        "point_name": "翔家的背景",
        "remark": "翔家。背景的市区拍摄于此，前景的房屋和石墙不存在"
      },
      "type": "Feature"
    },
    {
      "geometry": {
        "coordinates": [
          129.874559,
          32.729129
        ],
        "type": "Point"
      },
      "properties": {
        "bangumi_id": 240562,
        "bangumi_title": "来自多彩世界的明天",
        "ep_cut": 1,
        "image_url": "https://w.junreimap.com/images/user/1093/bangumi/240562/points/cj5lazs-1774290003608.jpg",
        "location": "",
        "point_id": "cj5lazs",
        "point_name": "第一次见到翔",
        "remark": ""
      },
      "type": "Feature"
    },
    {
      "geometry": {
        "coordinates": [
          129.874194,
          32.729217
        ],
        "type": "Point"
      },
      "properties": {
        "bangumi_id": 240562,
        "bangumi_title": "来自多彩世界的明天",
        "ep_cut": 12,
        "image_url": "https://w.junreimap.com/images/user/1093/bangumi/240562/points/cj629xv-1774290785214.jpg",
        "location": "",
        "point_id": "cj629xv",
        "point_name": "出雲近隣公園 亭子",
        "remark": ""
      },
      "type": "Feature"
    },
    {
      "geometry": {
        "coordinates": [
          129.874232,
          32.72918
        ],
        "type": "Point"
      },
      "properties": {
        "bangumi_id": 240562,
        "bangumi_title": "来自多彩世界的明天",
        "ep_cut": 2,
        "image_url": "https://w.junreimap.com/images/user/1093/bangumi/240562/points/cj64b0y-1774290879533.jpg",
        "location": "",
        "point_id": "cj64b0y",
        "point_name": "出雲近隣公園 亭子",
        "remark": ""
      },
      "type": "Feature"
    },
    {
      "geometry": {
        "coordinates": [
          129.87421,
          32.729169
        ],
        "type": "Point"
      },
      "properties": {
        "bangumi_id": 240562,
        "bangumi_title": "来自多彩世界的明天",
        "ep_cut": 1,
        "image_url": "https://w.junreimap.com/images/user/1093/bangumi/240562/points/cj64qbe-1774290900572.jpg",
        "location": "",
        "point_id": "cj64qbe",
        "point_name": "出雲近隣公園 亭子",
        "remark": ""
      },
      "type": "Feature"
    },
    {
      "geometry": {
        "coordinates": [
          129.874158,
          32.729182
        ],
        "type": "Point"
      },
      "properties": {
        "bangumi_id": 240562,
        "bangumi_title": "来自多彩世界的明天",
        "ep_cut": 2,
        "image_url": "https://w.junreimap.com/images/user/1093/bangumi/240562/points/cj651wn-1774290915684.jpg",
        "location": "",
        "point_id": "cj651wn",
        "point_name": "出雲近隣公園 亭子",
        "remark": ""
      },
      "type": "Feature"
    },
    {
      "geometry": {
        "coordinates": [
          129.874185,
          32.729222
        ],
        "type": "Point"
      },
      "properties": {
        "bangumi_id": 240562,
        "bangumi_title": "来自多彩世界的明天",
        "ep_cut": 2,
        "image_url": "https://w.junreimap.com/images/user/1093/bangumi/240562/points/cj65jsj-1774290936842.jpg",
        "location": "",
        "point_id": "cj65jsj",
        "point_name": "出雲近隣公園 亭子",
        "remark": ""
      },
      "type": "Feature"
    },
    {
      "geometry": {
        "coordinates": [
          129.874384,
          32.729207
        ],
        "type": "Point"
      },
      "properties": {
        "bangumi_id": 240562,
        "bangumi_title": "来自多彩世界的明天",
        "ep_cut": 2,
        "image_url": "https://w.junreimap.com/images/user/1093/bangumi/240562/points/cj67h9u-1774291026897.jpg",
        "location": "",
        "point_id": "cj67h9u",
        "point_name": "出雲近隣公園 亭子",
        "remark": ""
      },
      "type": "Feature"
    },
    {
      "geometry": {
        "coordinates": [
          129.874267,
          32.729106
        ],
        "type": "Point"
      },
      "properties": {
        "bangumi_id": 240562,
        "bangumi_title": "来自多彩世界的明天",
        "ep_cut": 1,
        "image_url": "https://w.junreimap.com/images/user/1093/bangumi/240562/points/cj68rvl-1774291090160.jpg",
        "location": "",
        "point_id": "cj68rvl",
        "point_name": "出雲近隣公園 亭子",
        "remark": ""
      },
      "type": "Feature"
    },
    {
      "geometry": {
        "coordinates": [
          129.880829,
          32.747405
        ],
        "type": "Point"
      },
      "properties": {
        "bangumi_id": 240562,
        "bangumi_title": "来自多彩世界的明天",
        "ep_cut": 9,
        "image_url": "https://w.junreimap.com/images/user/1093/bangumi/240562/points/cj6emuw-1774291373323.jpg",
        "location": "",
        "point_id": "cj6emuw",
        "point_name": "魚市橋",
        "remark": ""
      },
      "type": "Feature"
    },
    {
      "geometry": {
        "coordinates": [
          129.880782,
          32.74745
        ],
        "type": "Point"
      },
      "properties": {
        "bangumi_id": 240562,
        "bangumi_title": "来自多彩世界的明天",
        "ep_cut": 9,
        "image_url": "https://w.junreimap.com/images/user/1093/bangumi/240562/points/cj6fc5r-1774291394166.jpg",
        "location": "",
        "point_id": "cj6fc5r",
        "point_name": "魚市橋",
        "remark": ""
      },
      "type": "Feature"
    },
    {
      "geometry": {
        "coordinates": [
          129.872423,
          32.734236
        ],
        "type": "Point"
      },
      "properties": {
        "bangumi_id": 240562,
        "bangumi_title": "来自多彩世界的明天",
        "ep_cut": 9,
        "image_url": "https://w.junreimap.com/images/user/1093/bangumi/240562/points/cj6ilyg-1774291552991.jpg",
        "location": "",
        "point_id": "cj6ilyg",
        "point_name": "石橋駅",
        "remark": ""
      },
      "type": "Feature"
    },
    {
      "geometry": {
        "coordinates": [
          129.872437,
          32.734296
        ],
        "type": "Point"
      },
      "properties": {
        "bangumi_id": 240562,
        "bangumi_title": "来自多彩世界的明天",
        "ep_cut": 9,
        "image_url": "https://w.junreimap.com/images/user/1093/bangumi/240562/points/cj6j9lc-1774291579202.jpg",
        "location": "",
        "point_id": "cj6j9lc",
        "point_name": "石橋駅",
        "remark": ""
      },
      "type": "Feature"
    },
    {
      "geometry": {
        "coordinates": [
          129.872365,
          32.734319
        ],
        "type": "Point"
      },
      "properties": {
        "bangumi_id": 240562,
        "bangumi_title": "来自多彩世界的明天",
        "ep_cut": 9,
        "image_url": "https://w.junreimap.com/images/user/1093/bangumi/240562/points/cj6jmha-1774291593368.jpg",
        "location": "",
        "point_id": "cj6jmha",
        "point_name": "石橋駅",
        "remark": ""
      },
      "type": "Feature"
    },
    {
      "geometry": {
        "coordinates": [
          129.871983,
          32.733277
        ],
        "type": "Point"
      },
      "properties": {
        "bangumi_id": 240562,
        "bangumi_title": "来自多彩世界的明天",
        "ep_cut": 9,
        "image_url": "https://w.junreimap.com/images/user/1093/bangumi/240562/points/cj6qjj0-1774291924045.jpg",
        "location": "",
        "point_id": "cj6qjj0",
        "point_name": "グラバー スカイロード内",
        "remark": ""
      },
      "type": "Feature"
    },
    {
      "geometry": {
        "coordinates": [
          129.868513,
          32.739837
        ],
        "type": "Point"
      },
      "properties": {
        "bangumi_id": 240562,
        "bangumi_title": "来自多彩世界的明天",
        "ep_cut": 10,
        "image_url": "https://w.junreimap.com/images/user/1093/bangumi/240562/points/cj75d07-1774292616492.jpg",
        "location": "",
        "point_id": "cj75d07",
        "point_name": "水辺の森公園（石のベンチ）",
        "remark": ""
      },
      "type": "Feature"
    },
    {
      "geometry": {
        "coordinates": [
          129.868517,
          32.739797
        ],
        "type": "Point"
      },
      "properties": {
        "bangumi_id": 240562,
        "bangumi_title": "来自多彩世界的明天",
        "ep_cut": 10,
        "image_url": "https://w.junreimap.com/images/user/1093/bangumi/240562/points/cj75urf-1774292631598.jpg",
        "location": "",
        "point_id": "cj75urf",
        "point_name": "水辺の森公園（石のベンチ）",
        "remark": ""
      },
      "type": "Feature"
    }
  ],
  "type": "FeatureCollection"
}