{
  "features": [
    {
      "geometry": {
        "coordinates": [
          139.674146,
          35.722467
        ],
        "type": "Point"
      },
      "properties": {
        "bangumi_id": 242,
        "bangumi_title": "穿越时空的少女",
        "ep_cut": "",
        "image_url": "https://w.junreimap.com/images/points/242/kpx6okupo_1720422008708.jpg",
        "location": "",
        "point_id": "kpx6okupo",
        "point_name": "哲学堂公園野球場",
        "remark": ""
      },
      "type": "Feature"
    },
    {
      "geometry": {
        "coordinates": [
          139.776539,
          35.718887
        ],
        "type": "Point"
      },
      "properties": {
        "bangumi_id": 242,
        "bangumi_title": "穿越时空的少女",
        "ep_cut": "",
        "image_url": "https://w.junreimap.com/images/points/242/kpx6okvv6_1720421601188.jpg",
        "location": "",
        "point_id": "kpx6okvv6",
        "point_name": "東京国立博物館",
        "remark": ""
      },
      "type": "Feature"
    },
    {
      "geometry": {
        "coordinates": [
          139.804587,
          35.757718
        ],
        "type": "Point"
      },
      "properties": {
        "bangumi_id": 242,
        "bangumi_title": "穿越时空的少女",
        "ep_cut": "",
        "image_url": "https://w.junreimap.com/images/points/242/kpx6okvdb_1720421770260.jpg",
        "location": "",
        "point_id": "kpx6okvdb",
        "point_name": "荒川（北千十駅北側）",
        "remark": ""
      },
      "type": "Feature"
    },
    {
      "geometry": {
        "coordinates": [
          139.717379,
          35.716183
        ],
        "type": "Point"
      },
      "properties": {
        "bangumi_id": 242,
        "bangumi_title": "穿越时空的少女",
        "ep_cut": "",
        "image_url": "https://w.junreimap.com/images/points/242/kpx6okw8u_1720419036799.jpg",
        "location": "",
        "point_id": "kpx6okw8u",
        "point_name": "富士見坂",
        "remark": ""
      },
      "type": "Feature"
    },
    {
      "geometry": {
        "coordinates": [
          139.687605,
          35.715291
        ],
        "type": "Point"
      },
      "properties": {
        "bangumi_id": 242,
        "bangumi_title": "穿越时空的少女",
        "ep_cut": "",
        "image_url": "https://w.junreimap.com/images/points/242/kpx6okvjt_1720419580411.jpg",
        "location": "",
        "point_id": "kpx6okvjt",
        "point_name": "中井駅東側踏切",
        "remark": ""
      },
      "type": "Feature"
    },
    {
      "geometry": {
        "coordinates": [
          139.686288,
          35.715999
        ],
        "type": "Point"
      },
      "properties": {
        "bangumi_id": 242,
        "bangumi_title": "穿越时空的少女",
        "ep_cut": "",
        "image_url": "https://w.junreimap.com/images/points/242/m2p6c49rc_1720419204163.jpg",
        "location": "",
        "point_id": "m2p6c49rc",
        "point_name": "クリーニングもはん前",
        "remark": ""
      },
      "type": "Feature"
    },
    {
      "geometry": {
        "coordinates": [
          139.687169,
          35.714741
        ],
        "type": "Point"
      },
      "properties": {
        "bangumi_id": 242,
        "bangumi_title": "穿越时空的少女",
        "ep_cut": "",
        "image_url": "https://w.junreimap.com/images/user/0/bangumi/242/points/kpx6okvov-1720383124830.jpg",
        "location": "",
        "point_id": "kpx6okvov",
        "point_name": "からくり時計",
        "remark": ""
      },
      "type": "Feature"
    },
    {
      "geometry": {
        "coordinates": [
          139.715157,
          35.714937
        ],
        "type": "Point"
      },
      "properties": {
        "bangumi_id": 242,
        "bangumi_title": "穿越时空的少女",
        "ep_cut": "",
        "image_url": "https://w.junreimap.com/images/user/0/bangumi/242/points/kpx6okwba-1720384592662.jpg",
        "location": "",
        "point_id": "kpx6okwba",
        "point_name": "面影橋北側",
        "remark": ""
      },
      "type": "Feature"
    },
    {
      "geometry": {
        "coordinates": [
          139.591381,
          35.709154
        ],
        "type": "Point"
      },
      "properties": {
        "bangumi_id": 242,
        "bangumi_title": "穿越时空的少女",
        "ep_cut": "",
        "image_url": "https://w.junreimap.com/images/points/242/kpx6okxcb_1720421776133.jpg",
        "location": "",
        "point_id": "kpx6okxcb",
        "point_name": "東京女子大学正門",
        "remark": ""
      },
      "type": "Feature"
    },
    {
      "geometry": {
        "coordinates": [
          139.717367,
          35.716167
        ],
        "type": "Point"
      },
      "properties": {
        "bangumi_id": 242,
        "bangumi_title": "穿越时空的少女",
        "ep_cut": "",
        "image_url": "https://w.junreimap.com/images/points/242/m2p4lvb30_1720419086925.jpg",
        "location": "",
        "point_id": "m2p4lvb30",
        "point_name": "富士見坂",
        "remark": ""
      },
      "type": "Feature"
    },
    {
      "geometry": {
        "coordinates": [
          139.717377,
          35.716174
        ],
        "type": "Point"
      },
      "properties": {
        "bangumi_id": 242,
        "bangumi_title": "穿越时空的少女",
        "ep_cut": "",
        "image_url": "https://w.junreimap.com/images/points/242/m2qegcjqr_1720421859962.jpg",
        "location": "",
        "point_id": "m2qegcjqr",
        "point_name": "富士見坂",
        "remark": ""
      },
      "type": "Feature"
    },
    {
      "geometry": {
        "coordinates": [
          139.684301,
          35.71584
        ],
        "type": "Point"
      },
      "properties": {
        "bangumi_id": 242,
        "bangumi_title": "穿越时空的少女",
        "ep_cut": "",
        "image_url": "https://w.junreimap.com/images/user/0/bangumi/242/points/kpx6okwh4-1754838542215.jpg",
        "location": "",
        "point_id": "kpx6okwh4",
        "point_name": "林芙美子記念館",
        "remark": "真琴宅モデル"
      },
      "type": "Feature"
    },
    {
      "geometry": {
        "coordinates": [
          139.687148,
          35.71467
        ],
        "type": "Point"
      },
      "properties": {
        "bangumi_id": 242,
        "bangumi_title": "穿越时空的少女",
        "ep_cut": "",
        "image_url": "https://w.junreimap.com/images/user/0/bangumi/242/points/2bar3qc-1752047122915.jpg",
        "location": "",
        "point_id": "2bar3qc",
        "point_name": "マツモトキヨシ",
        "remark": "这牌子已经拆了"
      },
      "type": "Feature"
    }
  ],
  "type": "FeatureCollection"
}