{
  "features": [
    {
      "geometry": {
        "coordinates": [
          139.60934,
          35.643221
        ],
        "type": "Point"
      },
      "properties": {
        "bangumi_id": 248154,
        "bangumi_title": "强风吹拂",
        "ep_cut": 2,
        "image_url": "https://w.junreimap.com/images/points/248154/noh1gepoz_1725001416635_cut.jpg",
        "location": "",
        "point_id": "noh1gepoz",
        "point_name": "祖師ヶ谷大蔵",
        "remark": ""
      },
      "type": "Feature"
    },
    {
      "geometry": {
        "coordinates": [
          139.601911,
          35.64084
        ],
        "type": "Point"
      },
      "properties": {
        "bangumi_id": 248154,
        "bangumi_title": "强风吹拂",
        "ep_cut": "op",
        "image_url": "https://w.junreimap.com/images/user/0/bangumi/248154/points/51i52epey-1725440552178.jpg",
        "location": "世田谷",
        "point_id": "51i52epey",
        "point_name": "仙川歩道橋",
        "remark": "第7話リクオ、榀子　帰り道"
      },
      "type": "Feature"
    },
    {
      "geometry": {
        "coordinates": [
          139.764632,
          35.687129
        ],
        "type": "Point"
      },
      "properties": {
        "bangumi_id": 248154,
        "bangumi_title": "强风吹拂",
        "ep_cut": 17,
        "image_url": "https://w.junreimap.com/images/user/0/bangumi/248154/points/nus0rglxi-1725440755365.jpg",
        "location": "",
        "point_id": "nus0rglxi",
        "point_name": "読売新聞 東京本社",
        "remark": ""
      },
      "type": "Feature"
    },
    {
      "geometry": {
        "coordinates": [
          139.568331,
          35.628274
        ],
        "type": "Point"
      },
      "properties": {
        "bangumi_id": 248154,
        "bangumi_title": "强风吹拂",
        "ep_cut": 5,
        "image_url": "https://w.junreimap.com/images/user/0/bangumi/248154/points/nus4xf508-1725440971663.jpg",
        "location": "",
        "point_id": "nus4xf508",
        "point_name": "多摩川",
        "remark": ""
      },
      "type": "Feature"
    },
    {
      "geometry": {
        "coordinates": [
          139.103537,
          35.233239
        ],
        "type": "Point"
      },
      "properties": {
        "bangumi_id": 248154,
        "bangumi_title": "强风吹拂",
        "ep_cut": 17,
        "image_url": "https://w.junreimap.com/images/user/0/bangumi/248154/points/nzjkr2pmv-1725814190719.jpg",
        "location": "",
        "point_id": "nzjkr2pmv",
        "point_name": "箱根湯本",
        "remark": ""
      },
      "type": "Feature"
    },
    {
      "geometry": {
        "coordinates": [
          139.030811,
          35.200802
        ],
        "type": "Point"
      },
      "properties": {
        "bangumi_id": 248154,
        "bangumi_title": "强风吹拂",
        "ep_cut": "",
        "image_url": "https://w.junreimap.com/images/user/0/bangumi/248154/points/nzjoaczez-1725814365569.jpg",
        "location": "",
        "point_id": "nzjoaczez",
        "point_name": "箱根神社 第一鳥居",
        "remark": ""
      },
      "type": "Feature"
    },
    {
      "geometry": {
        "coordinates": [
          139.025465,
          35.19023
        ],
        "type": "Point"
      },
      "properties": {
        "bangumi_id": 248154,
        "bangumi_title": "强风吹拂",
        "ep_cut": 20,
        "image_url": "https://w.junreimap.com/images/user/0/bangumi/248154/points/nzjr0l5zo-1725814534727.jpg",
        "location": "",
        "point_id": "nzjr0l5zo",
        "point_name": "箱根駅伝栄光の碑「若き力を讃えて」",
        "remark": ""
      },
      "type": "Feature"
    },
    {
      "geometry": {
        "coordinates": [
          139.100409,
          35.231366
        ],
        "type": "Point"
      },
      "properties": {
        "bangumi_id": 248154,
        "bangumi_title": "强风吹拂",
        "ep_cut": 17,
        "image_url": "https://w.junreimap.com/images/user/0/bangumi/248154/points/9e0h10e-1767448772910.jpg",
        "location": "",
        "point_id": "9e0h10e",
        "point_name": "旭橋",
        "remark": ""
      },
      "type": "Feature"
    },
    {
      "geometry": {
        "coordinates": [
          139.02454,
          35.189393
        ],
        "type": "Point"
      },
      "properties": {
        "bangumi_id": 248154,
        "bangumi_title": "强风吹拂",
        "ep_cut": 20,
        "image_url": "https://w.junreimap.com/images/user/0/bangumi/248154/points/bao1iw7-1771600213144.jpg",
        "location": "",
        "point_id": "bao1iw7",
        "point_name": "東京箱根間往復大学駅伝競走 往路ゴール・復路スタート碑",
        "remark": ""
      },
      "type": "Feature"
    },
    {
      "geometry": {
        "coordinates": [
          139.024277,
          35.189869
        ],
        "type": "Point"
      },
      "properties": {
        "bangumi_id": 248154,
        "bangumi_title": "强风吹拂",
        "ep_cut": 17,
        "image_url": "https://w.junreimap.com/images/user/0/bangumi/248154/points/bao9hq3-1771600438053.jpg",
        "location": "",
        "point_id": "bao9hq3",
        "point_name": "芦ノ湖箱根湾ボート乗り場",
        "remark": ""
      },
      "type": "Feature"
    },
    {
      "geometry": {
        "coordinates": [
          139.0248,
          35.190129
        ],
        "type": "Point"
      },
      "properties": {
        "bangumi_id": 248154,
        "bangumi_title": "强风吹拂",
        "ep_cut": 17,
        "image_url": "https://w.junreimap.com/images/user/0/bangumi/248154/points/baocryt-1771600601711.jpg",
        "location": "",
        "point_id": "baocryt",
        "point_name": "(35.1901345, 139.0247934)",
        "remark": ""
      },
      "type": "Feature"
    },
    {
      "geometry": {
        "coordinates": [
          139.024619,
          35.190146
        ],
        "type": "Point"
      },
      "properties": {
        "bangumi_id": 248154,
        "bangumi_title": "强风吹拂",
        "ep_cut": 17,
        "image_url": "https://w.junreimap.com/images/user/0/bangumi/248154/points/baohng8-1771600787196.jpg",
        "location": "",
        "point_id": "baohng8",
        "point_name": "52RF+3VM 箱根町 日本神奈川縣",
        "remark": ""
      },
      "type": "Feature"
    },
    {
      "geometry": {
        "coordinates": [
          139.038667,
          35.21758
        ],
        "type": "Point"
      },
      "properties": {
        "bangumi_id": 248154,
        "bangumi_title": "强风吹拂",
        "ep_cut": 17,
        "image_url": "https://w.junreimap.com/images/user/0/bangumi/248154/points/baonzma-1771601081726.jpg",
        "location": "",
        "point_id": "baonzma",
        "point_name": "国道1号最高地点 (標高874m)",
        "remark": ""
      },
      "type": "Feature"
    },
    {
      "geometry": {
        "coordinates": [
          139.044238,
          35.220607
        ],
        "type": "Point"
      },
      "properties": {
        "bangumi_id": 248154,
        "bangumi_title": "强风吹拂",
        "ep_cut": 17,
        "image_url": "https://w.junreimap.com/images/user/0/bangumi/248154/points/baoqf49-1771601229850.jpg",
        "location": "",
        "point_id": "baoqf49",
        "point_name": "62CV+6MP 箱根町 日本神奈川縣",
        "remark": ""
      },
      "type": "Feature"
    },
    {
      "geometry": {
        "coordinates": [
          139.072404,
          35.240237
        ],
        "type": "Point"
      },
      "properties": {
        "bangumi_id": 248154,
        "bangumi_title": "强风吹拂",
        "ep_cut": 20,
        "image_url": "https://w.junreimap.com/images/user/0/bangumi/248154/points/baoto2c-1771601357605.jpg",
        "location": "",
        "point_id": "baoto2c",
        "point_name": "大平台ヘアピンカーブ",
        "remark": ""
      },
      "type": "Feature"
    },
    {
      "geometry": {
        "coordinates": [
          139.086635,
          35.23384
        ],
        "type": "Point"
      },
      "properties": {
        "bangumi_id": 248154,
        "bangumi_title": "强风吹拂",
        "ep_cut": 20,
        "image_url": "https://w.junreimap.com/images/user/0/bangumi/248154/points/baow3wk-1771601469672.jpg",
        "location": "",
        "point_id": "baow3wk",
        "point_name": "Deyama Bus Stop 出山（バス）",
        "remark": ""
      },
      "type": "Feature"
    },
    {
      "geometry": {
        "coordinates": [
          139.093737,
          35.233039
        ],
        "type": "Point"
      },
      "properties": {
        "bangumi_id": 248154,
        "bangumi_title": "强风吹拂",
        "ep_cut": 20,
        "image_url": "https://w.junreimap.com/images/user/0/bangumi/248154/points/baoyddo-1771601570484.jpg",
        "location": "",
        "point_id": "baoyddo",
        "point_name": "玉の緒橋",
        "remark": ""
      },
      "type": "Feature"
    },
    {
      "geometry": {
        "coordinates": [
          139.097324,
          35.232593
        ],
        "type": "Point"
      },
      "properties": {
        "bangumi_id": 248154,
        "bangumi_title": "强风吹拂",
        "ep_cut": 17,
        "image_url": "https://w.junreimap.com/images/user/0/bangumi/248154/points/bap093q-1771601646635.jpg",
        "location": "",
        "point_id": "bap093q",
        "point_name": "函嶺洞門",
        "remark": ""
      },
      "type": "Feature"
    },
    {
      "geometry": {
        "coordinates": [
          139.129693,
          35.245477
        ],
        "type": "Point"
      },
      "properties": {
        "bangumi_id": 248154,
        "bangumi_title": "强风吹拂",
        "ep_cut": 17,
        "image_url": "https://w.junreimap.com/images/user/0/bangumi/248154/points/bap55jc-1771601918476.jpg",
        "location": "",
        "point_id": "bap55jc",
        "point_name": "小田原中繼所",
        "remark": ""
      },
      "type": "Feature"
    },
    {
      "geometry": {
        "coordinates": [
          139.33097,
          35.313711
        ],
        "type": "Point"
      },
      "properties": {
        "bangumi_id": 248154,
        "bangumi_title": "强风吹拂",
        "ep_cut": 17,
        "image_url": "https://w.junreimap.com/images/user/0/bangumi/248154/points/bap9p8x-1771602107181.jpg",
        "location": "",
        "point_id": "bap9p8x",
        "point_name": "平塚中繼所",
        "remark": ""
      },
      "type": "Feature"
    },
    {
      "geometry": {
        "coordinates": [
          139.606732,
          35.63261
        ],
        "type": "Point"
      },
      "properties": {
        "bangumi_id": 248154,
        "bangumi_title": "强风吹拂",
        "ep_cut": 3,
        "image_url": "https://w.junreimap.com/images/user/0/bangumi/248154/points/d2muips-1775467850049.jpg",
        "location": "",
        "point_id": "d2muips",
        "point_name": "おおくら大佛",
        "remark": ""
      },
      "type": "Feature"
    },
    {
      "geometry": {
        "coordinates": [
          139.599738,
          35.656492
        ],
        "type": "Point"
      },
      "properties": {
        "bangumi_id": 248154,
        "bangumi_title": "强风吹拂",
        "ep_cut": 1,
        "image_url": "https://w.junreimap.com/images/user/0/bangumi/248154/points/d2msl91-1775467753749.jpg",
        "location": "",
        "point_id": "d2msl91",
        "point_name": "祖師谷公園",
        "remark": ""
      },
      "type": "Feature"
    },
    {
      "geometry": {
        "coordinates": [
          139.599738,
          35.656492
        ],
        "type": "Point"
      },
      "properties": {
        "bangumi_id": 248154,
        "bangumi_title": "强风吹拂",
        "ep_cut": 1,
        "image_url": "https://w.junreimap.com/images/user/0/bangumi/248154/points/d2ms49l-1775467731520.jpg",
        "location": "",
        "point_id": "d2ms49l",
        "point_name": "祖師谷公園",
        "remark": ""
      },
      "type": "Feature"
    },
    {
      "geometry": {
        "coordinates": [
          139.599738,
          35.656492
        ],
        "type": "Point"
      },
      "properties": {
        "bangumi_id": 248154,
        "bangumi_title": "强风吹拂",
        "ep_cut": 1,
        "image_url": "https://w.junreimap.com/images/user/0/bangumi/248154/points/d2mrn4t-1775467705928.jpg",
        "location": "",
        "point_id": "d2mrn4t",
        "point_name": "祖師谷公園",
        "remark": ""
      },
      "type": "Feature"
    },
    {
      "geometry": {
        "coordinates": [
          139.599738,
          35.656492
        ],
        "type": "Point"
      },
      "properties": {
        "bangumi_id": 248154,
        "bangumi_title": "强风吹拂",
        "ep_cut": "",
        "image_url": "https://w.junreimap.com/images/user/0/bangumi/248154/points/d2mr6ls-1775467685536.jpg",
        "location": "",
        "point_id": "d2mr6ls",
        "point_name": "祖師谷公園",
        "remark": ""
      },
      "type": "Feature"
    },
    {
      "geometry": {
        "coordinates": [
          139.599738,
          35.656492
        ],
        "type": "Point"
      },
      "properties": {
        "bangumi_id": 248154,
        "bangumi_title": "强风吹拂",
        "ep_cut": 1,
        "image_url": "https://w.junreimap.com/images/user/0/bangumi/248154/points/d2mpuo8-1775467664923.jpg",
        "location": "",
        "point_id": "d2mpuo8",
        "point_name": "祖師谷公園",
        "remark": ""
      },
      "type": "Feature"
    },
    {
      "geometry": {
        "coordinates": [
          139.599922,
          35.656932
        ],
        "type": "Point"
      },
      "properties": {
        "bangumi_id": 248154,
        "bangumi_title": "强风吹拂",
        "ep_cut": 7,
        "image_url": "https://w.junreimap.com/images/user/0/bangumi/248154/points/d2mnfri-1775467546027.jpg",
        "location": "",
        "point_id": "d2mnfri",
        "point_name": "MH4X+QXF 世田谷區 日本東京都",
        "remark": ""
      },
      "type": "Feature"
    },
    {
      "geometry": {
        "coordinates": [
          139.600176,
          35.650634
        ],
        "type": "Point"
      },
      "properties": {
        "bangumi_id": 248154,
        "bangumi_title": "强风吹拂",
        "ep_cut": 4,
        "image_url": "https://w.junreimap.com/images/user/0/bangumi/248154/points/d2mldf5-1775467426688.jpg",
        "location": "",
        "point_id": "d2mldf5",
        "point_name": "みんなの森",
        "remark": ""
      },
      "type": "Feature"
    },
    {
      "geometry": {
        "coordinates": [
          139.608765,
          35.643254
        ],
        "type": "Point"
      },
      "properties": {
        "bangumi_id": 248154,
        "bangumi_title": "强风吹拂",
        "ep_cut": 3,
        "image_url": "https://w.junreimap.com/images/user/0/bangumi/248154/points/d2mhsll-1775467274177.jpg",
        "location": "",
        "point_id": "d2mhsll",
        "point_name": "HAnaya",
        "remark": ""
      },
      "type": "Feature"
    },
    {
      "geometry": {
        "coordinates": [
          139.567694,
          35.631803
        ],
        "type": "Point"
      },
      "properties": {
        "bangumi_id": 248154,
        "bangumi_title": "强风吹拂",
        "ep_cut": 3,
        "image_url": "https://w.junreimap.com/images/user/0/bangumi/248154/points/d2mf6ak-1775467161623.jpg",
        "location": "",
        "point_id": "d2mf6ak",
        "point_name": "JHJ9+P3G 狛江市 日本東京都",
        "remark": ""
      },
      "type": "Feature"
    },
    {
      "geometry": {
        "coordinates": [
          139.566612,
          35.631858
        ],
        "type": "Point"
      },
      "properties": {
        "bangumi_id": 248154,
        "bangumi_title": "强风吹拂",
        "ep_cut": 3,
        "image_url": "https://w.junreimap.com/images/user/0/bangumi/248154/points/d2mdub3-1775467071175.jpg",
        "location": "",
        "point_id": "d2mdub3",
        "point_name": "五本松",
        "remark": ""
      },
      "type": "Feature"
    },
    {
      "geometry": {
        "coordinates": [
          139.568048,
          35.630859
        ],
        "type": "Point"
      },
      "properties": {
        "bangumi_id": 248154,
        "bangumi_title": "强风吹拂",
        "ep_cut": 8,
        "image_url": "https://w.junreimap.com/images/user/0/bangumi/248154/points/d2mc6bp-1775466992973.jpg",
        "location": "",
        "point_id": "d2mc6bp",
        "point_name": "JHJ9+86V 狛江市 日本東京都",
        "remark": ""
      },
      "type": "Feature"
    },
    {
      "geometry": {
        "coordinates": [
          139.568048,
          35.630859
        ],
        "type": "Point"
      },
      "properties": {
        "bangumi_id": 248154,
        "bangumi_title": "强风吹拂",
        "ep_cut": 8,
        "image_url": "https://w.junreimap.com/images/user/0/bangumi/248154/points/d2mb9oh-1775466961636.jpg",
        "location": "",
        "point_id": "d2mb9oh",
        "point_name": "JHJ9+86V 狛江市 日本東京都",
        "remark": ""
      },
      "type": "Feature"
    },
    {
      "geometry": {
        "coordinates": [
          139.567381,
          35.631854
        ],
        "type": "Point"
      },
      "properties": {
        "bangumi_id": 248154,
        "bangumi_title": "强风吹拂",
        "ep_cut": 8,
        "image_url": "https://w.junreimap.com/images/user/0/bangumi/248154/points/d2m8epk-1775466859492.jpg",
        "location": "",
        "point_id": "d2m8epk",
        "point_name": "JHJ8+PXR 狛江市 日本東京都",
        "remark": ""
      },
      "type": "Feature"
    },
    {
      "geometry": {
        "coordinates": [
          139.407198,
          35.705488
        ],
        "type": "Point"
      },
      "properties": {
        "bangumi_id": 248154,
        "bangumi_title": "强风吹拂",
        "ep_cut": 15,
        "image_url": "https://w.junreimap.com/images/user/0/bangumi/248154/points/d2m3hf5-1775466630911.jpg",
        "location": "",
        "point_id": "d2m3hf5",
        "point_name": "PC44+5VW 立川市 日本東京都",
        "remark": ""
      },
      "type": "Feature"
    },
    {
      "geometry": {
        "coordinates": [
          139.568356,
          35.624935
        ],
        "type": "Point"
      },
      "properties": {
        "bangumi_id": 248154,
        "bangumi_title": "强风吹拂",
        "ep_cut": 8,
        "image_url": "https://w.junreimap.com/images/user/0/bangumi/248154/points/d2m6bub-1775466734309.jpg",
        "location": "",
        "point_id": "d2m6bub",
        "point_name": "多摩水道橋",
        "remark": ""
      },
      "type": "Feature"
    },
    {
      "geometry": {
        "coordinates": [
          139.412865,
          35.700188
        ],
        "type": "Point"
      },
      "properties": {
        "bangumi_id": 248154,
        "bangumi_title": "强风吹拂",
        "ep_cut": 15,
        "image_url": "https://w.junreimap.com/images/user/0/bangumi/248154/points/d2m0xsv-1775466511028.jpg",
        "location": "",
        "point_id": "d2m0xsv",
        "point_name": "PC27+346 立川市 日本東京都",
        "remark": ""
      },
      "type": "Feature"
    },
    {
      "geometry": {
        "coordinates": [
          139.412674,
          35.709451
        ],
        "type": "Point"
      },
      "properties": {
        "bangumi_id": 248154,
        "bangumi_title": "强风吹拂",
        "ep_cut": 15,
        "image_url": "https://w.junreimap.com/images/user/0/bangumi/248154/points/d2ly1k3-1775466372170.jpg",
        "location": "",
        "point_id": "d2ly1k3",
        "point_name": "PC57+Q3F 立川市 日本東京都",
        "remark": ""
      },
      "type": "Feature"
    },
    {
      "geometry": {
        "coordinates": [
          139.394706,
          35.704027
        ],
        "type": "Point"
      },
      "properties": {
        "bangumi_id": 248154,
        "bangumi_title": "强风吹拂",
        "ep_cut": 15,
        "image_url": "https://w.junreimap.com/images/user/0/bangumi/248154/points/d2ltj89-1775466222310.jpg",
        "location": "",
        "point_id": "d2ltj89",
        "point_name": "P93V+JVC 立川市 日本東京都",
        "remark": ""
      },
      "type": "Feature"
    },
    {
      "geometry": {
        "coordinates": [
          139.765029,
          35.687009
        ],
        "type": "Point"
      },
      "properties": {
        "bangumi_id": 248154,
        "bangumi_title": "强风吹拂",
        "ep_cut": 23,
        "image_url": "https://w.junreimap.com/images/user/0/bangumi/248154/points/d2ipq01-1775460982685.jpg",
        "location": "",
        "point_id": "d2ipq01",
        "point_name": "MQP8+V2C 千代田區 日本東京都",
        "remark": ""
      },
      "type": "Feature"
    },
    {
      "geometry": {
        "coordinates": [
          139.768384,
          35.686294
        ],
        "type": "Point"
      },
      "properties": {
        "bangumi_id": 248154,
        "bangumi_title": "强风吹拂",
        "ep_cut": 23,
        "image_url": "https://w.junreimap.com/images/user/0/bangumi/248154/points/d2itgzk-1775461118838.jpg",
        "location": "",
        "point_id": "d2itgzk",
        "point_name": "MQP9+G87 千代田區 日本東京都",
        "remark": ""
      },
      "type": "Feature"
    },
    {
      "geometry": {
        "coordinates": [
          139.768384,
          35.686294
        ],
        "type": "Point"
      },
      "properties": {
        "bangumi_id": 248154,
        "bangumi_title": "强风吹拂",
        "ep_cut": 23,
        "image_url": "https://w.junreimap.com/images/user/0/bangumi/248154/points/d2iwiu2-1775461264251.jpg",
        "location": "",
        "point_id": "d2iwiu2",
        "point_name": "MQP9+G87 千代田區 日本東京都",
        "remark": ""
      },
      "type": "Feature"
    },
    {
      "geometry": {
        "coordinates": [
          139.768401,
          35.686301
        ],
        "type": "Point"
      },
      "properties": {
        "bangumi_id": 248154,
        "bangumi_title": "强风吹拂",
        "ep_cut": 23,
        "image_url": "https://w.junreimap.com/images/user/0/bangumi/248154/points/d2iy587-1775461331921.jpg",
        "location": "",
        "point_id": "d2iy587",
        "point_name": "MQP9+G87 千代田區 日本東京都",
        "remark": ""
      },
      "type": "Feature"
    },
    {
      "geometry": {
        "coordinates": [
          139.687551,
          35.516708
        ],
        "type": "Point"
      },
      "properties": {
        "bangumi_id": 248154,
        "bangumi_title": "强风吹拂",
        "ep_cut": 23,
        "image_url": "https://w.junreimap.com/images/user/0/bangumi/248154/points/d2j8zgt-1775461876444.jpg",
        "location": "",
        "point_id": "d2j8zgt",
        "point_name": "鶴見中繼所（復路）",
        "remark": ""
      },
      "type": "Feature"
    },
    {
      "geometry": {
        "coordinates": [
          139.766346,
          35.682267
        ],
        "type": "Point"
      },
      "properties": {
        "bangumi_id": 248154,
        "bangumi_title": "强风吹拂",
        "ep_cut": 23,
        "image_url": "https://w.junreimap.com/images/user/0/bangumi/248154/points/d2jf0f6-1775462114767.jpg",
        "location": "",
        "point_id": "d2jf0f6",
        "point_name": "東京駅丸の内北口ドーム",
        "remark": ""
      },
      "type": "Feature"
    },
    {
      "geometry": {
        "coordinates": [
          139.765024,
          35.682402
        ],
        "type": "Point"
      },
      "properties": {
        "bangumi_id": 248154,
        "bangumi_title": "强风吹拂",
        "ep_cut": 23,
        "image_url": "https://w.junreimap.com/images/user/0/bangumi/248154/points/d2jjall-1775462326456.jpg",
        "location": "",
        "point_id": "d2jjall",
        "point_name": "東京駅丸の内北口",
        "remark": ""
      },
      "type": "Feature"
    },
    {
      "geometry": {
        "coordinates": [
          139.577191,
          35.444256
        ],
        "type": "Point"
      },
      "properties": {
        "bangumi_id": 248154,
        "bangumi_title": "强风吹拂",
        "ep_cut": 22,
        "image_url": "https://w.junreimap.com/images/user/0/bangumi/248154/points/d2jq0zj-1775462614076.jpg",
        "location": "",
        "point_id": "d2jq0zj",
        "point_name": "横浜横須賀道路",
        "remark": ""
      },
      "type": "Feature"
    },
    {
      "geometry": {
        "coordinates": [
          139.575752,
          35.432977
        ],
        "type": "Point"
      },
      "properties": {
        "bangumi_id": 248154,
        "bangumi_title": "强风吹拂",
        "ep_cut": 22,
        "image_url": "https://w.junreimap.com/images/user/0/bangumi/248154/points/d2jt6bi-1775462810970.jpg",
        "location": "",
        "point_id": "d2jt6bi",
        "point_name": "Kariba-cho 狩場町",
        "remark": ""
      },
      "type": "Feature"
    },
    {
      "geometry": {
        "coordinates": [
          139.520853,
          35.389509
        ],
        "type": "Point"
      },
      "properties": {
        "bangumi_id": 248154,
        "bangumi_title": "强风吹拂",
        "ep_cut": 22,
        "image_url": "https://w.junreimap.com/images/user/0/bangumi/248154/points/d2jyunp-1775463042846.jpg",
        "location": "",
        "point_id": "d2jyunp",
        "point_name": "戶塚中繼所（往路）",
        "remark": ""
      },
      "type": "Feature"
    },
    {
      "geometry": {
        "coordinates": [
          139.520853,
          35.389509
        ],
        "type": "Point"
      },
      "properties": {
        "bangumi_id": 248154,
        "bangumi_title": "强风吹拂",
        "ep_cut": 19,
        "image_url": "https://w.junreimap.com/images/user/0/bangumi/248154/points/d2k0mc8-1775463114383.jpg",
        "location": "",
        "point_id": "d2k0mc8",
        "point_name": "戶塚中繼所（往路）",
        "remark": ""
      },
      "type": "Feature"
    },
    {
      "geometry": {
        "coordinates": [
          139.520853,
          35.389509
        ],
        "type": "Point"
      },
      "properties": {
        "bangumi_id": 248154,
        "bangumi_title": "强风吹拂",
        "ep_cut": 19,
        "image_url": "https://w.junreimap.com/images/user/0/bangumi/248154/points/d2k1r0x-1775463148885.jpg",
        "location": "",
        "point_id": "d2k1r0x",
        "point_name": "戶塚中繼所（往路）",
        "remark": ""
      },
      "type": "Feature"
    },
    {
      "geometry": {
        "coordinates": [
          139.520853,
          35.389509
        ],
        "type": "Point"
      },
      "properties": {
        "bangumi_id": 248154,
        "bangumi_title": "强风吹拂",
        "ep_cut": 17,
        "image_url": "https://w.junreimap.com/images/user/0/bangumi/248154/points/d2k2dov-1775463210331.jpg",
        "location": "",
        "point_id": "d2k2dov",
        "point_name": "戶塚中繼所（往路）",
        "remark": ""
      },
      "type": "Feature"
    },
    {
      "geometry": {
        "coordinates": [
          139.520853,
          35.389509
        ],
        "type": "Point"
      },
      "properties": {
        "bangumi_id": 248154,
        "bangumi_title": "强风吹拂",
        "ep_cut": 17,
        "image_url": "https://w.junreimap.com/images/user/0/bangumi/248154/points/d2k3p12-1775463250973.jpg",
        "location": "",
        "point_id": "d2k3p12",
        "point_name": "戶塚中繼所（往路）",
        "remark": ""
      },
      "type": "Feature"
    },
    {
      "geometry": {
        "coordinates": [
          139.550177,
          35.419835
        ],
        "type": "Point"
      },
      "properties": {
        "bangumi_id": 248154,
        "bangumi_title": "强风吹拂",
        "ep_cut": 22,
        "image_url": "https://w.junreimap.com/images/user/0/bangumi/248154/points/d2k5yvb-1775463367301.jpg",
        "location": "",
        "point_id": "d2k5yvb",
        "point_name": "CH92+W3M 橫濱市 日本神奈川縣",
        "remark": ""
      },
      "type": "Feature"
    },
    {
      "geometry": {
        "coordinates": [
          139.687832,
          35.516383
        ],
        "type": "Point"
      },
      "properties": {
        "bangumi_id": 248154,
        "bangumi_title": "强风吹拂",
        "ep_cut": 22,
        "image_url": "https://w.junreimap.com/images/user/0/bangumi/248154/points/d2kdyhd-1775463737810.jpg",
        "location": "",
        "point_id": "d2kdyhd",
        "point_name": "「明日へ走る」垣内治雄",
        "remark": ""
      },
      "type": "Feature"
    },
    {
      "geometry": {
        "coordinates": [
          139.538499,
          35.413734
        ],
        "type": "Point"
      },
      "properties": {
        "bangumi_id": 248154,
        "bangumi_title": "强风吹拂",
        "ep_cut": 22,
        "image_url": "https://w.junreimap.com/images/user/0/bangumi/248154/points/d2k9vu4-1775463545092.jpg",
        "location": "",
        "point_id": "d2k9vu4",
        "point_name": "戸塚跨線橋",
        "remark": ""
      },
      "type": "Feature"
    },
    {
      "geometry": {
        "coordinates": [
          139.687832,
          35.516383
        ],
        "type": "Point"
      },
      "properties": {
        "bangumi_id": 248154,
        "bangumi_title": "强风吹拂",
        "ep_cut": 17,
        "image_url": "https://w.junreimap.com/images/user/0/bangumi/248154/points/d2kf5k2-1775463779598.jpg",
        "location": "",
        "point_id": "d2kf5k2",
        "point_name": "「明日へ走る」垣内治雄",
        "remark": ""
      },
      "type": "Feature"
    },
    {
      "geometry": {
        "coordinates": [
          139.396017,
          35.710657
        ],
        "type": "Point"
      },
      "properties": {
        "bangumi_id": 248154,
        "bangumi_title": "强风吹拂",
        "ep_cut": 15,
        "image_url": "https://w.junreimap.com/images/user/0/bangumi/248154/points/d2lrihn-1775466053689.jpg",
        "location": "",
        "point_id": "d2lrihn",
        "point_name": "みんなの原っぱ",
        "remark": ""
      },
      "type": "Feature"
    },
    {
      "geometry": {
        "coordinates": [
          139.763974,
          35.687584
        ],
        "type": "Point"
      },
      "properties": {
        "bangumi_id": 248154,
        "bangumi_title": "强风吹拂",
        "ep_cut": 17,
        "image_url": "https://w.junreimap.com/images/user/0/bangumi/248154/points/d2lns9p-1775465857871.jpg",
        "location": "",
        "point_id": "d2lns9p",
        "point_name": "MQQ7+3M7 千代田區 日本東京都",
        "remark": ""
      },
      "type": "Feature"
    },
    {
      "geometry": {
        "coordinates": [
          139.763974,
          35.687584
        ],
        "type": "Point"
      },
      "properties": {
        "bangumi_id": 248154,
        "bangumi_title": "强风吹拂",
        "ep_cut": 17,
        "image_url": "https://w.junreimap.com/images/user/0/bangumi/248154/points/d2lm3hr-1775465825206.jpg",
        "location": "",
        "point_id": "d2lm3hr",
        "point_name": "MQQ7+3M7 千代田區 日本東京都",
        "remark": ""
      },
      "type": "Feature"
    },
    {
      "geometry": {
        "coordinates": [
          139.764918,
          35.687425
        ],
        "type": "Point"
      },
      "properties": {
        "bangumi_id": 248154,
        "bangumi_title": "强风吹拂",
        "ep_cut": 19,
        "image_url": "https://w.junreimap.com/images/user/0/bangumi/248154/points/d2lkjn7-1775465704216.jpg",
        "location": "",
        "point_id": "d2lkjn7",
        "point_name": "MQP7+XWH 千代田區 日本東京都",
        "remark": ""
      },
      "type": "Feature"
    },
    {
      "geometry": {
        "coordinates": [
          139.764918,
          35.687425
        ],
        "type": "Point"
      },
      "properties": {
        "bangumi_id": 248154,
        "bangumi_title": "强风吹拂",
        "ep_cut": 18,
        "image_url": "https://w.junreimap.com/images/user/0/bangumi/248154/points/d2lj0xk-1775465664039.jpg",
        "location": "",
        "point_id": "d2lj0xk",
        "point_name": "MQP7+XWH 千代田區 日本東京都",
        "remark": ""
      },
      "type": "Feature"
    },
    {
      "geometry": {
        "coordinates": [
          139.598715,
          35.640037
        ],
        "type": "Point"
      },
      "properties": {
        "bangumi_id": 248154,
        "bangumi_title": "强风吹拂",
        "ep_cut": 19,
        "image_url": "https://w.junreimap.com/images/user/0/bangumi/248154/points/d2lhe6j-1775465548986.jpg",
        "location": "",
        "point_id": "d2lhe6j",
        "point_name": "成城学園前",
        "remark": ""
      },
      "type": "Feature"
    },
    {
      "geometry": {
        "coordinates": [
          139.598715,
          35.640037
        ],
        "type": "Point"
      },
      "properties": {
        "bangumi_id": 248154,
        "bangumi_title": "强风吹拂",
        "ep_cut": 19,
        "image_url": "https://w.junreimap.com/images/user/0/bangumi/248154/points/d2lgs06-1775465527898.jpg",
        "location": "",
        "point_id": "d2lgs06",
        "point_name": "成城学園前",
        "remark": ""
      },
      "type": "Feature"
    },
    {
      "geometry": {
        "coordinates": [
          139.697755,
          35.523988
        ],
        "type": "Point"
      },
      "properties": {
        "bangumi_id": 248154,
        "bangumi_title": "强风吹拂",
        "ep_cut": 19,
        "image_url": "https://w.junreimap.com/images/user/0/bangumi/248154/points/d2lbjy3-1775465341315.jpg",
        "location": "",
        "point_id": "d2lbjy3",
        "point_name": "GMFX+H4R 川崎市 日本神奈川縣",
        "remark": ""
      },
      "type": "Feature"
    },
    {
      "geometry": {
        "coordinates": [
          139.688603,
          35.517643
        ],
        "type": "Point"
      },
      "properties": {
        "bangumi_id": 248154,
        "bangumi_title": "强风吹拂",
        "ep_cut": 19,
        "image_url": "https://w.junreimap.com/images/user/0/bangumi/248154/points/d2l9h4y-1775465197642.jpg",
        "location": "",
        "point_id": "d2l9h4y",
        "point_name": "鶴見中繼所（往路）",
        "remark": ""
      },
      "type": "Feature"
    },
    {
      "geometry": {
        "coordinates": [
          139.330947,
          35.313749
        ],
        "type": "Point"
      },
      "properties": {
        "bangumi_id": 248154,
        "bangumi_title": "强风吹拂",
        "ep_cut": "",
        "image_url": "https://w.junreimap.com/images/user/0/bangumi/248154/points/d2l0f4m-1775464764350.jpg",
        "location": "",
        "point_id": "d2l0f4m",
        "point_name": "平塚中繼所（往路）",
        "remark": ""
      },
      "type": "Feature"
    },
    {
      "geometry": {
        "coordinates": [
          139.33095,
          35.313716
        ],
        "type": "Point"
      },
      "properties": {
        "bangumi_id": 248154,
        "bangumi_title": "强风吹拂",
        "ep_cut": 17,
        "image_url": "https://w.junreimap.com/images/user/0/bangumi/248154/points/d2kzec0-1775464728539.jpg",
        "location": "",
        "point_id": "d2kzec0",
        "point_name": "平塚中繼所（往路）",
        "remark": ""
      },
      "type": "Feature"
    },
    {
      "geometry": {
        "coordinates": [
          139.024748,
          35.18918
        ],
        "type": "Point"
      },
      "properties": {
        "bangumi_id": 248154,
        "bangumi_title": "强风吹拂",
        "ep_cut": 20,
        "image_url": "https://w.junreimap.com/images/user/0/bangumi/248154/points/d2kxqmb-1775464644780.jpg",
        "location": "",
        "point_id": "d2kxqmb",
        "point_name": "箱根驛轉往路終點",
        "remark": ""
      },
      "type": "Feature"
    },
    {
      "geometry": {
        "coordinates": [
          139.024557,
          35.189376
        ],
        "type": "Point"
      },
      "properties": {
        "bangumi_id": 248154,
        "bangumi_title": "强风吹拂",
        "ep_cut": 21,
        "image_url": "https://w.junreimap.com/images/user/0/bangumi/248154/points/d2kuqjg-1775464517809.jpg",
        "location": "",
        "point_id": "d2kuqjg",
        "point_name": "箱根驛傳往路終點、復路起點",
        "remark": ""
      },
      "type": "Feature"
    },
    {
      "geometry": {
        "coordinates": [
          139.129925,
          35.24578
        ],
        "type": "Point"
      },
      "properties": {
        "bangumi_id": 248154,
        "bangumi_title": "强风吹拂",
        "ep_cut": 21,
        "image_url": "https://w.junreimap.com/images/user/0/bangumi/248154/points/d2ks49t-1775464399798.jpg",
        "location": "",
        "point_id": "d2ks49t",
        "point_name": "小田原中繼所（復路）",
        "remark": ""
      },
      "type": "Feature"
    },
    {
      "geometry": {
        "coordinates": [
          139.129774,
          35.24552
        ],
        "type": "Point"
      },
      "properties": {
        "bangumi_id": 248154,
        "bangumi_title": "强风吹拂",
        "ep_cut": 17,
        "image_url": "https://w.junreimap.com/images/user/0/bangumi/248154/points/d2kqpaw-1775464332116.jpg",
        "location": "",
        "point_id": "d2kqpaw",
        "point_name": "小田原中繼所（往路）",
        "remark": ""
      },
      "type": "Feature"
    },
    {
      "geometry": {
        "coordinates": [
          139.68783,
          35.516601
        ],
        "type": "Point"
      },
      "properties": {
        "bangumi_id": 248154,
        "bangumi_title": "强风吹拂",
        "ep_cut": 17,
        "image_url": "https://w.junreimap.com/images/user/0/bangumi/248154/points/d2ki2z3-1775463917353.jpg",
        "location": "",
        "point_id": "d2ki2z3",
        "point_name": "鶴見中繼所（往路）",
        "remark": ""
      },
      "type": "Feature"
    },
    {
      "geometry": {
        "coordinates": [
          139.687836,
          35.516574
        ],
        "type": "Point"
      },
      "properties": {
        "bangumi_id": 248154,
        "bangumi_title": "强风吹拂",
        "ep_cut": 17,
        "image_url": "https://w.junreimap.com/images/user/0/bangumi/248154/points/d2kgnej-1775463867068.jpg",
        "location": "",
        "point_id": "d2kgnej",
        "point_name": "鶴見中繼所（往路）",
        "remark": ""
      },
      "type": "Feature"
    },
    {
      "geometry": {
        "coordinates": [
          139.51945,
          35.388421
        ],
        "type": "Point"
      },
      "properties": {
        "bangumi_id": 248154,
        "bangumi_title": "强风吹拂",
        "ep_cut": 22,
        "image_url": "https://w.junreimap.com/images/user/0/bangumi/248154/points/d2kn5cd-1775464222990.jpg",
        "location": "",
        "point_id": "d2kn5cd",
        "point_name": "9GQ9+9Q8 橫濱市 日本神奈川縣",
        "remark": ""
      },
      "type": "Feature"
    }
  ],
  "type": "FeatureCollection"
}