{
  "features": [
    {
      "geometry": {
        "coordinates": [
          136.437157,
          36.407419
        ],
        "type": "Point"
      },
      "properties": {
        "bangumi_id": 248208,
        "bangumi_title": "飞翔吧！战机少女",
        "ep_cut": 1,
        "image_url": "https://w.junreimap.com/images/user/2191/bangumi/248208/points/5i0u8r5-1758984084835.jpg",
        "location": "",
        "point_id": "5i0u8r5",
        "point_name": "ファミリー​マート\n小松​城南​店",
        "remark": ""
      },
      "type": "Feature"
    },
    {
      "geometry": {
        "coordinates": [
          136.437059,
          36.407108
        ],
        "type": "Point"
      },
      "properties": {
        "bangumi_id": 248208,
        "bangumi_title": "飞翔吧！战机少女",
        "ep_cut": 1,
        "image_url": "https://w.junreimap.com/images/user/2191/bangumi/248208/points/5i1gxom-1758985128996.jpg",
        "location": "",
        "point_id": "5i1gxom",
        "point_name": "城南町中交差点付近",
        "remark": "在全家便利店出来路边向西拍摄即可获得男主同款视角"
      },
      "type": "Feature"
    },
    {
      "geometry": {
        "coordinates": [
          136.449615,
          36.405903
        ],
        "type": "Point"
      },
      "properties": {
        "bangumi_id": 248208,
        "bangumi_title": "飞翔吧！战机少女",
        "ep_cut": 1,
        "image_url": "https://w.junreimap.com/images/user/2191/bangumi/248208/points/5i1exki-1758985052380.jpg",
        "location": "",
        "point_id": "5i1exki",
        "point_name": "京町交差点付近",
        "remark": ""
      },
      "type": "Feature"
    },
    {
      "geometry": {
        "coordinates": [
          136.436138,
          36.395955
        ],
        "type": "Point"
      },
      "properties": {
        "bangumi_id": 248208,
        "bangumi_title": "飞翔吧！战机少女",
        "ep_cut": 2,
        "image_url": "https://w.junreimap.com/images/points/248208/5j2ixgo_1759047382658.jpg",
        "location": "",
        "point_id": "5j2ixgo",
        "point_name": "向本折大橋",
        "remark": ""
      },
      "type": "Feature"
    },
    {
      "geometry": {
        "coordinates": [
          136.445748,
          36.406481
        ],
        "type": "Point"
      },
      "properties": {
        "bangumi_id": 248208,
        "bangumi_title": "飞翔吧！战机少女",
        "ep_cut": 2,
        "image_url": "https://w.junreimap.com/images/user/2191/bangumi/248208/points/33mnmxs-1753760199459.jpg",
        "location": "",
        "point_id": "33mnmxs",
        "point_name": "莵橋神社",
        "remark": ""
      },
      "type": "Feature"
    },
    {
      "geometry": {
        "coordinates": [
          136.445936,
          36.40641
        ],
        "type": "Point"
      },
      "properties": {
        "bangumi_id": 248208,
        "bangumi_title": "飞翔吧！战机少女",
        "ep_cut": 2,
        "image_url": "https://w.junreimap.com/images/user/2191/bangumi/248208/points/5i0p2m9-1758983866163.jpg",
        "location": "",
        "point_id": "5i0p2m9",
        "point_name": "莵橋神社",
        "remark": ""
      },
      "type": "Feature"
    },
    {
      "geometry": {
        "coordinates": [
          136.446516,
          36.406234
        ],
        "type": "Point"
      },
      "properties": {
        "bangumi_id": 248208,
        "bangumi_title": "飞翔吧！战机少女",
        "ep_cut": 2,
        "image_url": "https://w.junreimap.com/images/user/2191/bangumi/248208/points/33mkpc0-1753760111296.jpg",
        "location": "",
        "point_id": "33mkpc0",
        "point_name": "莵橋神社",
        "remark": ""
      },
      "type": "Feature"
    },
    {
      "geometry": {
        "coordinates": [
          136.440115,
          36.406326
        ],
        "type": "Point"
      },
      "properties": {
        "bangumi_id": 248208,
        "bangumi_title": "飞翔吧！战机少女",
        "ep_cut": 2,
        "image_url": "https://w.junreimap.com/images/user/2191/bangumi/248208/points/33n762u-1753761113732.jpg",
        "location": "",
        "point_id": "33n762u",
        "point_name": "8​番​らーめん​城南​末広​店",
        "remark": ""
      },
      "type": "Feature"
    },
    {
      "geometry": {
        "coordinates": [
          136.452729,
          36.404996
        ],
        "type": "Point"
      },
      "properties": {
        "bangumi_id": 248208,
        "bangumi_title": "飞翔吧！战机少女",
        "ep_cut": 2,
        "image_url": "https://w.junreimap.com/images/user/2191/bangumi/248208/points/33l9wwb-1753758261487.jpg",
        "location": "",
        "point_id": "33l9wwb",
        "point_name": "土居原ボンネット広場",
        "remark": ""
      },
      "type": "Feature"
    },
    {
      "geometry": {
        "coordinates": [
          136.449511,
          36.402143
        ],
        "type": "Point"
      },
      "properties": {
        "bangumi_id": 248208,
        "bangumi_title": "飞翔吧！战机少女",
        "ep_cut": 2,
        "image_url": "https://w.junreimap.com/images/user/2191/bangumi/248208/points/33mde5v-1753759738496.jpg",
        "location": "",
        "point_id": "33mde5v",
        "point_name": "こまつ曳山交流館みよっさ",
        "remark": ""
      },
      "type": "Feature"
    },
    {
      "geometry": {
        "coordinates": [
          136.460538,
          36.406484
        ],
        "type": "Point"
      },
      "properties": {
        "bangumi_id": 248208,
        "bangumi_title": "飞翔吧！战机少女",
        "ep_cut": 2,
        "image_url": "https://w.junreimap.com/images/user/2191/bangumi/248208/points/33m7gpf-1753759461152.jpg",
        "location": "",
        "point_id": "33m7gpf",
        "point_name": "アル・プラザ小松",
        "remark": "商场内中庭，由于年代久远，可能有变化"
      },
      "type": "Feature"
    },
    {
      "geometry": {
        "coordinates": [
          136.416633,
          36.420331
        ],
        "type": "Point"
      },
      "properties": {
        "bangumi_id": 248208,
        "bangumi_title": "飞翔吧！战机少女",
        "ep_cut": 2,
        "image_url": "https://w.junreimap.com/images/user/2191/bangumi/248208/points/33n2byn-1753760910785.jpg",
        "location": "",
        "point_id": "33n2byn",
        "point_name": "安宅海岸",
        "remark": "后方白色灯塔即为安宅港口灯台"
      },
      "type": "Feature"
    },
    {
      "geometry": {
        "coordinates": [
          136.449808,
          36.406288
        ],
        "type": "Point"
      },
      "properties": {
        "bangumi_id": 248208,
        "bangumi_title": "飞翔吧！战机少女",
        "ep_cut": 3,
        "image_url": "https://w.junreimap.com/images/user/2191/bangumi/248208/points/33luqa5-1753758814205.jpg",
        "location": "",
        "point_id": "33luqa5",
        "point_name": "中町公民館",
        "remark": "可能已停业，待验证"
      },
      "type": "Feature"
    },
    {
      "geometry": {
        "coordinates": [
          136.461251,
          36.406232
        ],
        "type": "Point"
      },
      "properties": {
        "bangumi_id": 248208,
        "bangumi_title": "飞翔吧！战机少女",
        "ep_cut": 4,
        "image_url": "https://w.junreimap.com/images/user/2191/bangumi/248208/points/33m3loc-1753759303771.jpg",
        "location": "",
        "point_id": "33m3loc",
        "point_name": "アル・プラザ小松",
        "remark": ""
      },
      "type": "Feature"
    },
    {
      "geometry": {
        "coordinates": [
          136.45241,
          36.405741
        ],
        "type": "Point"
      },
      "properties": {
        "bangumi_id": 248208,
        "bangumi_title": "飞翔吧！战机少女",
        "ep_cut": 4,
        "image_url": "https://w.junreimap.com/images/points/248208/5j2lo4f_1759047496199.jpg",
        "location": "",
        "point_id": "5j2lo4f",
        "point_name": "細江町東付近交差点",
        "remark": "无制高点，若需要精确还原需要航拍，但此地靠近铁路，请遵循当地法规巡礼"
      },
      "type": "Feature"
    },
    {
      "geometry": {
        "coordinates": [
          136.41756,
          36.39019
        ],
        "type": "Point"
      },
      "properties": {
        "bangumi_id": 248208,
        "bangumi_title": "飞翔吧！战机少女",
        "ep_cut": 4,
        "image_url": "https://w.junreimap.com/images/user/2191/bangumi/248208/points/33mtnt0-1753760559297.jpg",
        "location": "",
        "point_id": "33mtnt0",
        "point_name": "航空自衛隊 小松基地",
        "remark": "根据在各空自基地拍机的经验来说，拍摄基地大门是没有问题的。以上仅为个人经历，还请注意自行决定是否前往此地拍摄。"
      },
      "type": "Feature"
    },
    {
      "geometry": {
        "coordinates": [
          136.446877,
          36.409346
        ],
        "type": "Point"
      },
      "properties": {
        "bangumi_id": 248208,
        "bangumi_title": "飞翔吧！战机少女",
        "ep_cut": 4,
        "image_url": "https://w.junreimap.com/images/user/2191/bangumi/248208/points/5i0saes-1758983989197.jpg",
        "location": "",
        "point_id": "5i0saes",
        "point_name": "小松市立図書館",
        "remark": ""
      },
      "type": "Feature"
    },
    {
      "geometry": {
        "coordinates": [
          136.452332,
          36.40209
        ],
        "type": "Point"
      },
      "properties": {
        "bangumi_id": 248208,
        "bangumi_title": "飞翔吧！战机少女",
        "ep_cut": 5,
        "image_url": "https://w.junreimap.com/images/user/2191/bangumi/248208/points/33lzbbx-1753759056841.jpg",
        "location": "",
        "point_id": "33lzbbx",
        "point_name": "小松駅前",
        "remark": ""
      },
      "type": "Feature"
    },
    {
      "geometry": {
        "coordinates": [
          136.449404,
          36.403162
        ],
        "type": "Point"
      },
      "properties": {
        "bangumi_id": 248208,
        "bangumi_title": "飞翔吧！战机少女",
        "ep_cut": 9,
        "image_url": "https://w.junreimap.com/images/user/2191/bangumi/248208/points/5i1c75k-1758984918854.jpg",
        "location": "",
        "point_id": "5i1c75k",
        "point_name": "三日市商店街",
        "remark": ""
      },
      "type": "Feature"
    },
    {
      "geometry": {
        "coordinates": [
          136.417651,
          36.390235
        ],
        "type": "Point"
      },
      "properties": {
        "bangumi_id": 248208,
        "bangumi_title": "飞翔吧！战机少女",
        "ep_cut": 9,
        "image_url": "https://w.junreimap.com/images/user/2191/bangumi/248208/points/33mzo94-1753760717060.jpg",
        "location": "",
        "point_id": "33mzo94",
        "point_name": "航空自衛隊 小松基地",
        "remark": "仅供参考，请自行决定是否前往拍摄"
      },
      "type": "Feature"
    }
  ],
  "type": "FeatureCollection"
}