{
  "features": [
    {
      "geometry": {
        "coordinates": [
          -84.344921,
          36.838864
        ],
        "type": "Point"
      },
      "properties": {
        "bangumi_id": 253621,
        "bangumi_title": "在月之彼岸邂逅",
        "ep_cut": "",
        "image_url": "https://w.junreimap.com/images/user/0/bangumi/253621/points/nr469zc3c-1725153775854.jpg",
        "location": "",
        "point_id": "oii99505v",
        "point_name": "Cumberland Falls",
        "remark": ""
      },
      "type": "Feature"
    },
    {
      "geometry": {
        "coordinates": [
          -122.412039,
          37.797742
        ],
        "type": "Point"
      },
      "properties": {
        "bangumi_id": 253621,
        "bangumi_title": "在月之彼岸邂逅",
        "ep_cut": "",
        "image_url": "https://w.junreimap.com/images/user/0/bangumi/253621/points/nr4a9u7ve-1725154002465.jpg",
        "location": "",
        "point_id": "oii9950gw",
        "point_name": "Mason Street",
        "remark": ""
      },
      "type": "Feature"
    },
    {
      "geometry": {
        "coordinates": [
          -122.40844,
          37.788265
        ],
        "type": "Point"
      },
      "properties": {
        "bangumi_id": 253621,
        "bangumi_title": "在月之彼岸邂逅",
        "ep_cut": "",
        "image_url": "https://w.junreimap.com/images/user/0/bangumi/290301/points/tr9mkpsvd-1742092310262.jpg",
        "location": "",
        "point_id": "tr9mkpsvd",
        "point_name": "Saks Fifth Ave",
        "remark": ""
      },
      "type": "Feature"
    },
    {
      "geometry": {
        "coordinates": [
          -122.415804,
          37.808214
        ],
        "type": "Point"
      },
      "properties": {
        "bangumi_id": 253621,
        "bangumi_title": "在月之彼岸邂逅",
        "ep_cut": "",
        "image_url": "https://w.junreimap.com/images/user/0/bangumi/290301/points/tr9p2uusy-1742092399416.jpg",
        "location": "",
        "point_id": "tr9p2uusy",
        "point_name": "Jefferson St",
        "remark": ""
      },
      "type": "Feature"
    },
    {
      "geometry": {
        "coordinates": [
          139.501644,
          35.306348
        ],
        "type": "Point"
      },
      "properties": {
        "bangumi_id": 253621,
        "bangumi_title": "在月之彼岸邂逅",
        "ep_cut": "",
        "image_url": "https://w.junreimap.com/images/user/2098/bangumi/253621/points/nr5ryeurt-1725157353496.jpg",
        "location": "",
        "point_id": "nr5ryeurt",
        "point_name": "七里ヶ浜",
        "remark": ""
      },
      "type": "Feature"
    },
    {
      "geometry": {
        "coordinates": [
          135.785354,
          34.99451
        ],
        "type": "Point"
      },
      "properties": {
        "bangumi_id": 253621,
        "bangumi_title": "在月之彼岸邂逅",
        "ep_cut": "",
        "image_url": "https://w.junreimap.com/images/user/0/bangumi/253621/points/qlr4pezil-1733196807253.jpg",
        "location": "",
        "point_id": "qlr4pezil",
        "point_name": "清水寺",
        "remark": ""
      },
      "type": "Feature"
    },
    {
      "geometry": {
        "coordinates": [
          135.759336,
          34.986804
        ],
        "type": "Point"
      },
      "properties": {
        "bangumi_id": 253621,
        "bangumi_title": "在月之彼岸邂逅",
        "ep_cut": "",
        "image_url": "https://w.junreimap.com/images/user/0/bangumi/253621/points/qmq5enxn9-1733273120019.jpg",
        "location": "",
        "point_id": "qmq5enxn9",
        "point_name": "京都駅烏丸中央口",
        "remark": ""
      },
      "type": "Feature"
    },
    {
      "geometry": {
        "coordinates": [
          139.486546,
          35.309289
        ],
        "type": "Point"
      },
      "properties": {
        "bangumi_id": 253621,
        "bangumi_title": "在月之彼岸邂逅",
        "ep_cut": "",
        "image_url": "https://w.junreimap.com/images/user/2098/bangumi/253621/points/s6b88kt8w-1737628996849.jpg",
        "location": "",
        "point_id": "s6b88kt8w",
        "point_name": "セブン​イレブン\n藤沢​片瀬​海岸​1丁目​店",
        "remark": ""
      },
      "type": "Feature"
    },
    {
      "geometry": {
        "coordinates": [
          139.478397,
          35.299727
        ],
        "type": "Point"
      },
      "properties": {
        "bangumi_id": 253621,
        "bangumi_title": "在月之彼岸邂逅",
        "ep_cut": "",
        "image_url": "https://w.junreimap.com/images/user/0/bangumi/253621/points/sr0pyxqb0-1739251783297.jpg",
        "location": "",
        "point_id": "sr0pyxqb0",
        "point_name": "江の島シーキャンドル",
        "remark": "游戏里和灯音一起躲藏的的灯塔"
      },
      "type": "Feature"
    },
    {
      "geometry": {
        "coordinates": [
          139.481972,
          35.304027
        ],
        "type": "Point"
      },
      "properties": {
        "bangumi_id": 253621,
        "bangumi_title": "在月之彼岸邂逅",
        "ep_cut": "",
        "image_url": "https://w.junreimap.com/images/user/0/bangumi/253621/points/sr1mdwmeu-1739253694849.jpg",
        "location": "",
        "point_id": "sr1mdwmeu",
        "point_name": "江の島大橋",
        "remark": "大桥旁边的步行道，朝江之岛的方向看去"
      },
      "type": "Feature"
    },
    {
      "geometry": {
        "coordinates": [
          -119.596555,
          37.757115
        ],
        "type": "Point"
      },
      "properties": {
        "bangumi_id": 253621,
        "bangumi_title": "在月之彼岸邂逅",
        "ep_cut": "",
        "image_url": "https://w.junreimap.com/images/user/2098/bangumi/253621/points/t63d9krwe-1740433131828.jpg",
        "location": "",
        "point_id": "t63d9krwe",
        "point_name": "Yosemite Falls",
        "remark": ""
      },
      "type": "Feature"
    },
    {
      "geometry": {
        "coordinates": [
          139.476828,
          35.298769
        ],
        "type": "Point"
      },
      "properties": {
        "bangumi_id": 253621,
        "bangumi_title": "在月之彼岸邂逅",
        "ep_cut": "",
        "image_url": "https://w.junreimap.com/images/user/1073/bangumi/253621/points/a3rst8u-1769006450533.jpg",
        "location": "",
        "point_id": "a3rst8u",
        "point_name": "恋人の丘「龍恋の鐘」",
        "remark": ""
      },
      "type": "Feature"
    },
    {
      "geometry": {
        "coordinates": [
          139.500612,
          35.306713
        ],
        "type": "Point"
      },
      "properties": {
        "bangumi_id": 253621,
        "bangumi_title": "在月之彼岸邂逅",
        "ep_cut": "",
        "image_url": "https://w.junreimap.com/images/user/1073/bangumi/253621/points/a3s20b4-1769006708116.jpg",
        "location": "",
        "point_id": "a3s20b4",
        "point_name": "鎌倉高校前駅",
        "remark": ""
      },
      "type": "Feature"
    },
    {
      "geometry": {
        "coordinates": [
          139.642664,
          35.452736
        ],
        "type": "Point"
      },
      "properties": {
        "bangumi_id": 253621,
        "bangumi_title": "在月之彼岸邂逅",
        "ep_cut": "",
        "image_url": "https://w.junreimap.com/images/user/1073/bangumi/253621/points/a3syh6t-1769008522512.jpg",
        "location": "",
        "point_id": "a3syh6t",
        "point_name": "横浜赤レンガ倉庫2号館",
        "remark": ""
      },
      "type": "Feature"
    },
    {
      "geometry": {
        "coordinates": [
          139.635011,
          35.455855
        ],
        "type": "Point"
      },
      "properties": {
        "bangumi_id": 253621,
        "bangumi_title": "在月之彼岸邂逅",
        "ep_cut": "",
        "image_url": "https://w.junreimap.com/images/user/1073/bangumi/253621/points/a3tat6w-1769008808662.jpg",
        "location": "",
        "point_id": "a3tat6w",
        "point_name": "みなとみらい 観覧車",
        "remark": "在对岸蓝顶房子边看摩天轮"
      },
      "type": "Feature"
    },
    {
      "geometry": {
        "coordinates": [
          139.473752,
          35.348459
        ],
        "type": "Point"
      },
      "properties": {
        "bangumi_id": 253621,
        "bangumi_title": "在月之彼岸邂逅",
        "ep_cut": "",
        "image_url": "https://w.junreimap.com/images/user/1073/bangumi/253621/points/a3trkq0-1769009594849.jpg",
        "location": "",
        "point_id": "a3trkq0",
        "point_name": "伊勢山緑地",
        "remark": ""
      },
      "type": "Feature"
    },
    {
      "geometry": {
        "coordinates": [
          139.486234,
          35.340018
        ],
        "type": "Point"
      },
      "properties": {
        "bangumi_id": 253621,
        "bangumi_title": "在月之彼岸邂逅",
        "ep_cut": "",
        "image_url": "https://w.junreimap.com/images/user/1073/bangumi/253621/points/a3tw77t-1769009805266.jpg",
        "location": "",
        "point_id": "a3tw77t",
        "point_name": "銀座通り りそな銀行 藤沢支店",
        "remark": ""
      },
      "type": "Feature"
    },
    {
      "geometry": {
        "coordinates": [
          139.480726,
          35.309543
        ],
        "type": "Point"
      },
      "properties": {
        "bangumi_id": 253621,
        "bangumi_title": "在月之彼岸邂逅",
        "ep_cut": "",
        "image_url": "https://w.junreimap.com/images/user/1073/bangumi/253621/points/a3u1axy-1769010041788.jpg",
        "location": "",
        "point_id": "a3u1axy",
        "point_name": "パークハウス江ノ島",
        "remark": "不能直接看到海"
      },
      "type": "Feature"
    },
    {
      "geometry": {
        "coordinates": [
          139.476067,
          35.31185
        ],
        "type": "Point"
      },
      "properties": {
        "bangumi_id": 253621,
        "bangumi_title": "在月之彼岸邂逅",
        "ep_cut": "",
        "image_url": "https://w.junreimap.com/images/user/1073/bangumi/253621/points/a3u87qm-1769010377081.jpg",
        "location": "",
        "point_id": "a3u87qm",
        "point_name": "片瀬西浜海水浴場",
        "remark": ""
      },
      "type": "Feature"
    },
    {
      "geometry": {
        "coordinates": [
          139.503442,
          35.30699
        ],
        "type": "Point"
      },
      "properties": {
        "bangumi_id": 253621,
        "bangumi_title": "在月之彼岸邂逅",
        "ep_cut": "",
        "image_url": "https://w.junreimap.com/images/user/1073/bangumi/253621/points/a3udfh1-1769010635092.jpg",
        "location": "",
        "point_id": "a3udfh1",
        "point_name": "セブンマイルズクラブ付近",
        "remark": "鎌倉市七里ヶ浜2-17-9"
      },
      "type": "Feature"
    },
    {
      "geometry": {
        "coordinates": [
          139.502095,
          35.306626
        ],
        "type": "Point"
      },
      "properties": {
        "bangumi_id": 253621,
        "bangumi_title": "在月之彼岸邂逅",
        "ep_cut": "",
        "image_url": "https://w.junreimap.com/images/user/1073/bangumi/253621/points/a3um4qu-1769011017365.jpg",
        "location": "",
        "point_id": "a3um4qu",
        "point_name": "鎌倉高校踏切前",
        "remark": ""
      },
      "type": "Feature"
    }
  ],
  "type": "FeatureCollection"
}