{
  "features": [
    {
      "geometry": {
        "coordinates": [
          141.528917,
          39.328653
        ],
        "type": "Point"
      },
      "properties": {
        "bangumi_id": 255032,
        "bangumi_title": "玉响未来",
        "ep_cut": "",
        "image_url": "https://w.junreimap.com/images/user/1073/bangumi/255032/points/8h3sewj-1765458992390.jpg",
        "location": "",
        "point_id": "8h3sewj",
        "point_name": "深野駅前　橋",
        "remark": "游戏中深野站前的街道，现实中这座桥离车站的距离要比游戏中看上去的要远点。"
      },
      "type": "Feature"
    },
    {
      "geometry": {
        "coordinates": [
          141.527735,
          39.332236
        ],
        "type": "Point"
      },
      "properties": {
        "bangumi_id": 255032,
        "bangumi_title": "玉响未来",
        "ep_cut": "",
        "image_url": "https://w.junreimap.com/images/user/1073/bangumi/255032/points/8h3zzkg-1765459315929.jpg",
        "location": "",
        "point_id": "8h3zzkg",
        "point_name": "大工町通り",
        "remark": "睦季上学走的路（其实按现实中的位置，从馆舍出发上学根本不用走这里）"
      },
      "type": "Feature"
    },
    {
      "geometry": {
        "coordinates": [
          141.529228,
          39.326817
        ],
        "type": "Point"
      },
      "properties": {
        "bangumi_id": 255032,
        "bangumi_title": "玉响未来",
        "ep_cut": "",
        "image_url": "https://w.junreimap.com/images/user/1073/bangumi/255032/points/8h45k3v-1765459542169.jpg",
        "location": "",
        "point_id": "8h45k3v",
        "point_name": "なべくら展望台前",
        "remark": "城址公园和城址公园的展望台，和美陀璃约会的地方。"
      },
      "type": "Feature"
    },
    {
      "geometry": {
        "coordinates": [
          141.529089,
          39.326756
        ],
        "type": "Point"
      },
      "properties": {
        "bangumi_id": 255032,
        "bangumi_title": "玉响未来",
        "ep_cut": "",
        "image_url": "https://w.junreimap.com/images/user/1073/bangumi/255032/points/8h43956-1765459617074.jpg",
        "location": "",
        "point_id": "8h43956",
        "point_name": "なべくら展望台",
        "remark": "从这里俯瞰就可以看到远野（深野）的市区。"
      },
      "type": "Feature"
    },
    {
      "geometry": {
        "coordinates": [
          141.528324,
          39.327496
        ],
        "type": "Point"
      },
      "properties": {
        "bangumi_id": 255032,
        "bangumi_title": "玉响未来",
        "ep_cut": "",
        "image_url": "https://w.junreimap.com/images/user/1073/bangumi/255032/points/8h4f5uh-1765459967863.jpg",
        "location": "",
        "point_id": "8h4f5uh",
        "point_name": "南部神社　階段",
        "remark": "神社在山上，上山的阶梯即为由岐奈线最后一张CG睦季和由岐奈牵手的地方。"
      },
      "type": "Feature"
    },
    {
      "geometry": {
        "coordinates": [
          141.520283,
          39.327418
        ],
        "type": "Point"
      },
      "properties": {
        "bangumi_id": 255032,
        "bangumi_title": "玉响未来",
        "ep_cut": "",
        "image_url": "https://w.junreimap.com/images/user/1073/bangumi/255032/points/8h4hkby-1765460116546.jpg",
        "location": "",
        "point_id": "8h4hkby",
        "point_name": "遠野高",
        "remark": "岩手县立远野高等学校（深野第一学园）。"
      },
      "type": "Feature"
    },
    {
      "geometry": {
        "coordinates": [
          141.513714,
          39.325262
        ],
        "type": "Point"
      },
      "properties": {
        "bangumi_id": 255032,
        "bangumi_title": "玉响未来",
        "ep_cut": "",
        "image_url": "https://w.junreimap.com/images/user/1073/bangumi/255032/points/8h4oyyi-1765460443254.jpg",
        "location": "",
        "point_id": "8h4oyyi",
        "point_name": "卯子酉神社",
        "remark": "卯子鸟神社"
      },
      "type": "Feature"
    },
    {
      "geometry": {
        "coordinates": [
          141.511346,
          39.325288
        ],
        "type": "Point"
      },
      "properties": {
        "bangumi_id": 255032,
        "bangumi_title": "玉响未来",
        "ep_cut": "",
        "image_url": "https://w.junreimap.com/images/user/1073/bangumi/255032/points/8h4rv2j-1765460618748.jpg",
        "location": "",
        "point_id": "8h4rv2j",
        "point_name": "愛宕神社",
        "remark": "睦季和大树说话的地方。"
      },
      "type": "Feature"
    },
    {
      "geometry": {
        "coordinates": [
          141.512304,
          39.32296
        ],
        "type": "Point"
      },
      "properties": {
        "bangumi_id": 255032,
        "bangumi_title": "玉响未来",
        "ep_cut": "",
        "image_url": "https://w.junreimap.com/images/user/1073/bangumi/255032/points/8h4wjl7-1765460839918.jpg",
        "location": "",
        "point_id": "8h4wjl7",
        "point_name": "五百羅漢",
        "remark": "众人与山神交流的地方。"
      },
      "type": "Feature"
    },
    {
      "geometry": {
        "coordinates": [
          141.517328,
          39.320415
        ],
        "type": "Point"
      },
      "properties": {
        "bangumi_id": 255032,
        "bangumi_title": "玉响未来",
        "ep_cut": "",
        "image_url": "https://w.junreimap.com/images/user/1073/bangumi/255032/points/8h51njp-1765461021739.jpg",
        "location": "",
        "point_id": "8h51njp",
        "point_name": "程洞稲荷神社",
        "remark": "神社旁边的几间房应该就是睦季的馆舍了，但也就入口处的二重鸟居很像，魔法使的馆舍存疑"
      },
      "type": "Feature"
    },
    {
      "geometry": {
        "coordinates": [
          141.43897,
          39.339336
        ],
        "type": "Point"
      },
      "properties": {
        "bangumi_id": 255032,
        "bangumi_title": "玉响未来",
        "ep_cut": "",
        "image_url": "https://w.junreimap.com/images/user/1073/bangumi/255032/points/8h58b7c-1765461362934.jpg",
        "location": "",
        "point_id": "8h58b7c",
        "point_name": "山边的小道",
        "remark": "睦季和白与大树交流的地方（下雨之后担心鸟的去向那段）。"
      },
      "type": "Feature"
    },
    {
      "geometry": {
        "coordinates": [
          141.448381,
          39.337445
        ],
        "type": "Point"
      },
      "properties": {
        "bangumi_id": 255032,
        "bangumi_title": "玉响未来",
        "ep_cut": "",
        "image_url": "https://w.junreimap.com/images/user/1073/bangumi/255032/points/8h5cmd9-1765461532983.jpg",
        "location": "",
        "point_id": "8h5cmd9",
        "point_name": "続石",
        "remark": "这个地方入口的鸟居就是游戏中山姥迷家的入口。"
      },
      "type": "Feature"
    },
    {
      "geometry": {
        "coordinates": [
          141.570634,
          39.354196
        ],
        "type": "Point"
      },
      "properties": {
        "bangumi_id": 255032,
        "bangumi_title": "玉响未来",
        "ep_cut": "",
        "image_url": "https://w.junreimap.com/images/user/1073/bangumi/255032/points/8h5fw7s-1765461699828.jpg",
        "location": "",
        "point_id": "8h5fw7s",
        "point_name": "カッパ淵",
        "remark": "共通线最后选个人线和美陀璃线把污秽者（雄锅）捞起来的地方。"
      },
      "type": "Feature"
    },
    {
      "geometry": {
        "coordinates": [
          141.597178,
          39.352815
        ],
        "type": "Point"
      },
      "properties": {
        "bangumi_id": 255032,
        "bangumi_title": "玉响未来",
        "ep_cut": "",
        "image_url": "https://w.junreimap.com/images/user/1073/bangumi/255032/points/8h5kqg3-1765461943468.jpg",
        "location": "",
        "point_id": "8h5kqg3",
        "point_name": "たかむろ水光園 夢見堂",
        "remark": "游戏中的迷家。地址详细信息https://iwatetabi.jp/spots/5259/"
      },
      "type": "Feature"
    },
    {
      "geometry": {
        "coordinates": [
          141.586181,
          39.302999
        ],
        "type": "Point"
      },
      "properties": {
        "bangumi_id": 255032,
        "bangumi_title": "玉响未来",
        "ep_cut": "",
        "image_url": "https://w.junreimap.com/images/user/1073/bangumi/255032/points/8h688rp-1765463032499.jpg",
        "location": "",
        "point_id": "8h688rp",
        "point_name": "荒神神社附近",
        "remark": "游戏一开始和白相遇的地方。现实中没有路边的那几个石碑。"
      },
      "type": "Feature"
    }
  ],
  "type": "FeatureCollection"
}