{
  "features": [
    {
      "geometry": {
        "coordinates": [
          140.39356,
          35.335655
        ],
        "type": "Point"
      },
      "properties": {
        "bangumi_id": 265372,
        "bangumi_title": "若能与你共乘海浪之上",
        "ep_cut": "",
        "image_url": "https://w.junreimap.com/images/user/1058/bangumi/265372/points/jv5zodjrq-1714186838575.jpg",
        "location": "",
        "point_id": "jv5zodjrq",
        "point_name": "釣ヶ崎海岸広場",
        "remark": ""
      },
      "type": "Feature"
    },
    {
      "geometry": {
        "coordinates": [
          139.40046,
          35.31802
        ],
        "type": "Point"
      },
      "properties": {
        "bangumi_id": 265372,
        "bangumi_title": "若能与你共乘海浪之上",
        "ep_cut": "",
        "image_url": "https://w.junreimap.com/images/points/265372/a1n04z0_1768879843583.jpg",
        "location": "",
        "point_id": "a1n04z0",
        "point_name": "茅ヶ崎サザンC",
        "remark": ""
      },
      "type": "Feature"
    },
    {
      "geometry": {
        "coordinates": [
          140.83815,
          35.70648
        ],
        "type": "Point"
      },
      "properties": {
        "bangumi_id": 265372,
        "bangumi_title": "若能与你共乘海浪之上",
        "ep_cut": "",
        "image_url": "https://w.junreimap.com/images/points/265372/a1nb4ca_1768879867675.jpg",
        "location": "",
        "point_id": "a1nb4ca",
        "point_name": "名洗港海浜公園",
        "remark": ""
      },
      "type": "Feature"
    },
    {
      "geometry": {
        "coordinates": [
          139.8148,
          34.94803
        ],
        "type": "Point"
      },
      "properties": {
        "bangumi_id": 265372,
        "bangumi_title": "若能与你共乘海浪之上",
        "ep_cut": "",
        "image_url": "https://w.junreimap.com/images/points/265372/a1ndmhv_1768879879375.jpg",
        "location": "",
        "point_id": "a1ndmhv",
        "point_name": "RECAMP​館山",
        "remark": ""
      },
      "type": "Feature"
    },
    {
      "geometry": {
        "coordinates": [
          139.831057,
          35.044272
        ],
        "type": "Point"
      },
      "properties": {
        "bangumi_id": 265372,
        "bangumi_title": "若能与你共乘海浪之上",
        "ep_cut": "",
        "image_url": "https://w.junreimap.com/images/user/1058/bangumi/265372/points/jvb029o7j-1714197567277.jpg",
        "location": "",
        "point_id": "jvb029o7j",
        "point_name": "岡本桟橋",
        "remark": ""
      },
      "type": "Feature"
    },
    {
      "geometry": {
        "coordinates": [
          139.785302,
          35.312821
        ],
        "type": "Point"
      },
      "properties": {
        "bangumi_id": 265372,
        "bangumi_title": "若能与你共乘海浪之上",
        "ep_cut": "",
        "image_url": "https://w.junreimap.com/images/points/265372/a1ngdh7_1768879889574.jpg",
        "location": "",
        "point_id": "a1ngdh7",
        "point_name": "明治​百​年​記念​展望​塔（富津岬展望台）",
        "remark": ""
      },
      "type": "Feature"
    },
    {
      "geometry": {
        "coordinates": [
          140.097835,
          35.600413
        ],
        "type": "Point"
      },
      "properties": {
        "bangumi_id": 265372,
        "bangumi_title": "若能与你共乘海浪之上",
        "ep_cut": "",
        "image_url": "https://w.junreimap.com/images/points/265372/a1o2zix_1768879898434.jpg",
        "location": "",
        "point_id": "a1o2zix",
        "point_name": "千葉​ポート​タワー",
        "remark": ""
      },
      "type": "Feature"
    },
    {
      "geometry": {
        "coordinates": [
          139.39732,
          35.32383
        ],
        "type": "Point"
      },
      "properties": {
        "bangumi_id": 265372,
        "bangumi_title": "若能与你共乘海浪之上",
        "ep_cut": "",
        "image_url": "https://w.junreimap.com/images/points/265372/a1njtsz_1768879851881.jpg",
        "location": "",
        "point_id": "a1njtsz",
        "point_name": "茅ヶ崎市​消防署​海岸​出張所",
        "remark": ""
      },
      "type": "Feature"
    },
    {
      "geometry": {
        "coordinates": [
          140.843284,
          35.705985
        ],
        "type": "Point"
      },
      "properties": {
        "bangumi_id": 265372,
        "bangumi_title": "若能与你共乘海浪之上",
        "ep_cut": "",
        "image_url": "https://w.junreimap.com/images/user/1058/bangumi/265372/points/jv6y7vqvm-1714188798987.jpg",
        "location": "",
        "point_id": "jv6y7vqvm",
        "point_name": "千葉科学大学",
        "remark": ""
      },
      "type": "Feature"
    },
    {
      "geometry": {
        "coordinates": [
          139.98939,
          35.686161
        ],
        "type": "Point"
      },
      "properties": {
        "bangumi_id": 265372,
        "bangumi_title": "若能与你共乘海浪之上",
        "ep_cut": "",
        "image_url": "https://w.junreimap.com/images/points/265372/a1nlf2k_1768879909672.jpg",
        "location": "",
        "point_id": "a1nlf2k",
        "point_name": "ららぽーと\nTOKYO​-​BAY",
        "remark": ""
      },
      "type": "Feature"
    },
    {
      "geometry": {
        "coordinates": [
          140.11698,
          35.61859
        ],
        "type": "Point"
      },
      "properties": {
        "bangumi_id": 265372,
        "bangumi_title": "若能与你共乘海浪之上",
        "ep_cut": "",
        "image_url": "https://w.junreimap.com/images/points/265372/a1nnc2c_1768879918105.jpg",
        "location": "",
        "point_id": "a1nnc2c",
        "point_name": "千葉公園",
        "remark": ""
      },
      "type": "Feature"
    },
    {
      "geometry": {
        "coordinates": [
          140.38932,
          35.39296
        ],
        "type": "Point"
      },
      "properties": {
        "bangumi_id": 265372,
        "bangumi_title": "若能与你共乘海浪之上",
        "ep_cut": "",
        "image_url": "https://w.junreimap.com/images/points/265372/a1nve8b_1768879927347.jpg",
        "location": "",
        "point_id": "a1nve8b",
        "point_name": "一宮 パーキングエリア",
        "remark": ""
      },
      "type": "Feature"
    },
    {
      "geometry": {
        "coordinates": [
          140.36193,
          35.37808
        ],
        "type": "Point"
      },
      "properties": {
        "bangumi_id": 265372,
        "bangumi_title": "若能与你共乘海浪之上",
        "ep_cut": "",
        "image_url": "https://w.junreimap.com/images/points/265372/a1nxxwi_1768879934770.jpg",
        "location": "",
        "point_id": "a1nxxwi",
        "point_name": "房総横断道路 一宮橋",
        "remark": ""
      },
      "type": "Feature"
    },
    {
      "geometry": {
        "coordinates": [
          140.435726,
          35.507482
        ],
        "type": "Point"
      },
      "properties": {
        "bangumi_id": 265372,
        "bangumi_title": "若能与你共乘海浪之上",
        "ep_cut": "",
        "image_url": "https://w.junreimap.com/images/user/1058/bangumi/265372/points/jv6g9zj9m-1714187662277.jpg",
        "location": "",
        "point_id": "jv6g9zj9m",
        "point_name": "県立​九十九里​自然​公園",
        "remark": ""
      },
      "type": "Feature"
    },
    {
      "geometry": {
        "coordinates": [
          140.43567,
          35.50745
        ],
        "type": "Point"
      },
      "properties": {
        "bangumi_id": 265372,
        "bangumi_title": "若能与你共乘海浪之上",
        "ep_cut": "",
        "image_url": "https://w.junreimap.com/images/points/265372/a1nzkj6_1768879943289.jpg",
        "location": "",
        "point_id": "a1nzkj6",
        "point_name": "九十九里ビーチタワー",
        "remark": ""
      },
      "type": "Feature"
    },
    {
      "geometry": {
        "coordinates": [
          140.099443,
          35.59755
        ],
        "type": "Point"
      },
      "properties": {
        "bangumi_id": 265372,
        "bangumi_title": "若能与你共乘海浪之上",
        "ep_cut": "",
        "image_url": "https://w.junreimap.com/images/user/1058/bangumi/265372/points/jvbbfnn05-1714198260226.jpg",
        "location": "",
        "point_id": "jvbbfnn05",
        "point_name": "千葉​ポート​タワー",
        "remark": "从公园远看千叶港塔"
      },
      "type": "Feature"
    },
    {
      "geometry": {
        "coordinates": [
          139.862471,
          35.639948
        ],
        "type": "Point"
      },
      "properties": {
        "bangumi_id": 265372,
        "bangumi_title": "若能与你共乘海浪之上",
        "ep_cut": "",
        "image_url": "https://w.junreimap.com/images/user/0/bangumi/265372/points/vcimqljxh-1746579310827.jpg",
        "location": "",
        "point_id": "vcimqljxh",
        "point_name": "葛西临海公园水族馆",
        "remark": ""
      },
      "type": "Feature"
    }
  ],
  "type": "FeatureCollection"
}