{
  "features": [
    {
      "geometry": {
        "coordinates": [
          139.703839,
          35.671407
        ],
        "type": "Point"
      },
      "properties": {
        "bangumi_id": 267378,
        "bangumi_title": "青夏轨迹",
        "ep_cut": "",
        "image_url": "https://w.junreimap.com/images/points/267378/hdsu4qy_1784850216580.webp",
        "location": "",
        "point_id": "hdsu4qy",
        "point_name": "竹下通り",
        "remark": ""
      },
      "type": "Feature"
    },
    {
      "geometry": {
        "coordinates": [
          139.709972,
          35.666692
        ],
        "type": "Point"
      },
      "properties": {
        "bangumi_id": 267378,
        "bangumi_title": "青夏轨迹",
        "ep_cut": "",
        "image_url": "https://w.junreimap.com/images/points/267378/hdt0fj0_1784850474886.webp",
        "location": "",
        "point_id": "hdt0fj0",
        "point_name": "モスカフェ 表参道店",
        "remark": "已闭店。"
      },
      "type": "Feature"
    },
    {
      "geometry": {
        "coordinates": [
          139.502944,
          35.306919
        ],
        "type": "Point"
      },
      "properties": {
        "bangumi_id": 267378,
        "bangumi_title": "青夏轨迹",
        "ep_cut": "",
        "image_url": "https://w.junreimap.com/images/points/267378/hdpihzy_1784844770251.webp",
        "location": "",
        "point_id": "hdpihzy",
        "point_name": "通学路",
        "remark": ""
      },
      "type": "Feature"
    },
    {
      "geometry": {
        "coordinates": [
          139.501042,
          35.306721
        ],
        "type": "Point"
      },
      "properties": {
        "bangumi_id": 267378,
        "bangumi_title": "青夏轨迹",
        "ep_cut": "",
        "image_url": "https://w.junreimap.com/images/points/267378/hdpshoa_1784845078201.webp",
        "location": "",
        "point_id": "hdpshoa",
        "point_name": "鎌倉高校前駅",
        "remark": "由于和最火圣地之一的点位撞了，所以几乎无法拍摄出如此干净的画面。"
      },
      "type": "Feature"
    },
    {
      "geometry": {
        "coordinates": [
          139.478974,
          35.310056
        ],
        "type": "Point"
      },
      "properties": {
        "bangumi_id": 267378,
        "bangumi_title": "青夏轨迹",
        "ep_cut": "",
        "image_url": "https://w.junreimap.com/images/points/267378/hdqcz9j_1784846002926.webp",
        "location": "",
        "point_id": "hdqcz9j",
        "point_name": "片瀬海岸西浜",
        "remark": "不是很准确的点位，但大致在附近。"
      },
      "type": "Feature"
    },
    {
      "geometry": {
        "coordinates": [
          139.487132,
          35.307693
        ],
        "type": "Point"
      },
      "properties": {
        "bangumi_id": 267378,
        "bangumi_title": "青夏轨迹",
        "ep_cut": "",
        "image_url": "https://w.junreimap.com/images/points/267378/hdsry7k_1784853399164.webp",
        "location": "",
        "point_id": "hdsry7k",
        "point_name": "片瀬海岸東浜",
        "remark": ""
      },
      "type": "Feature"
    },
    {
      "geometry": {
        "coordinates": [
          139.484637,
          35.306686
        ],
        "type": "Point"
      },
      "properties": {
        "bangumi_id": 267378,
        "bangumi_title": "青夏轨迹",
        "ep_cut": "",
        "image_url": "https://w.junreimap.com/images/points/267378/hdv7b9f_1784854133054.webp",
        "location": "",
        "point_id": "hdv7b9f",
        "point_name": "片瀬海岸東浜",
        "remark": ""
      },
      "type": "Feature"
    },
    {
      "geometry": {
        "coordinates": [
          139.482194,
          35.302642
        ],
        "type": "Point"
      },
      "properties": {
        "bangumi_id": 267378,
        "bangumi_title": "青夏轨迹",
        "ep_cut": "",
        "image_url": "https://w.junreimap.com/images/points/267378/hdqi5gs_1784846372525.webp",
        "location": "",
        "point_id": "hdqi5gs",
        "point_name": "湘南港北緑地広場",
        "remark": ""
      },
      "type": "Feature"
    },
    {
      "geometry": {
        "coordinates": [
          139.481927,
          35.302185
        ],
        "type": "Point"
      },
      "properties": {
        "bangumi_id": 267378,
        "bangumi_title": "青夏轨迹",
        "ep_cut": "",
        "image_url": "https://w.junreimap.com/images/points/267378/hdv40sh_1784853977049.webp",
        "location": "",
        "point_id": "hdv40sh",
        "point_name": "湘南港北緑地広場",
        "remark": ""
      },
      "type": "Feature"
    },
    {
      "geometry": {
        "coordinates": [
          139.476953,
          35.299487
        ],
        "type": "Point"
      },
      "properties": {
        "bangumi_id": 267378,
        "bangumi_title": "青夏轨迹",
        "ep_cut": "",
        "image_url": "https://w.junreimap.com/images/points/267378/hdr33p4_1784847215003.webp",
        "location": "",
        "point_id": "hdr33p4",
        "point_name": "江島商店街",
        "remark": ""
      },
      "type": "Feature"
    },
    {
      "geometry": {
        "coordinates": [
          139.53393,
          35.309277
        ],
        "type": "Point"
      },
      "properties": {
        "bangumi_id": 267378,
        "bangumi_title": "青夏轨迹",
        "ep_cut": "",
        "image_url": "https://w.junreimap.com/images/points/267378/hdr6x78_1784847424909.webp",
        "location": "",
        "point_id": "hdr6x78",
        "point_name": "カフェサカノシタ",
        "remark": ""
      },
      "type": "Feature"
    },
    {
      "geometry": {
        "coordinates": [
          139.479794,
          35.300251
        ],
        "type": "Point"
      },
      "properties": {
        "bangumi_id": 267378,
        "bangumi_title": "青夏轨迹",
        "ep_cut": "",
        "image_url": "https://w.junreimap.com/images/points/267378/hdqsb51_1784846891470.webp",
        "location": "",
        "point_id": "hdqsb51",
        "point_name": "江島神社 辺津宮",
        "remark": ""
      },
      "type": "Feature"
    },
    {
      "geometry": {
        "coordinates": [
          139.479139,
          35.299781
        ],
        "type": "Point"
      },
      "properties": {
        "bangumi_id": 267378,
        "bangumi_title": "青夏轨迹",
        "ep_cut": "",
        "image_url": "https://w.junreimap.com/images/points/267378/hdv819t_1784854192967.webp",
        "location": "",
        "point_id": "hdv819t",
        "point_name": "江ノ島シーキャンドル",
        "remark": ""
      },
      "type": "Feature"
    },
    {
      "geometry": {
        "coordinates": [
          139.487854,
          35.338295
        ],
        "type": "Point"
      },
      "properties": {
        "bangumi_id": 267378,
        "bangumi_title": "青夏轨迹",
        "ep_cut": "",
        "image_url": "https://w.junreimap.com/images/points/267378/hdragu9_1784847589149.webp",
        "location": "",
        "point_id": "hdragu9",
        "point_name": "藤沢駅南口",
        "remark": ""
      },
      "type": "Feature"
    },
    {
      "geometry": {
        "coordinates": [
          139.54264,
          35.310267
        ],
        "type": "Point"
      },
      "properties": {
        "bangumi_id": 267378,
        "bangumi_title": "青夏轨迹",
        "ep_cut": "",
        "image_url": "https://w.junreimap.com/images/points/267378/hduyfn8_1784853808306.webp",
        "location": "",
        "point_id": "hduyfn8",
        "point_name": "鎌倉海浜公園由比ヶ浜地区スポーツ広場",
        "remark": ""
      },
      "type": "Feature"
    },
    {
      "geometry": {
        "coordinates": [
          139.528825,
          35.309088
        ],
        "type": "Point"
      },
      "properties": {
        "bangumi_id": 267378,
        "bangumi_title": "青夏轨迹",
        "ep_cut": "",
        "image_url": "https://w.junreimap.com/images/points/267378/hdrcuf0_1784847916251.webp",
        "location": "",
        "point_id": "hdrcuf0",
        "point_name": "極楽寺駅",
        "remark": ""
      },
      "type": "Feature"
    },
    {
      "geometry": {
        "coordinates": [
          139.504485,
          35.306332
        ],
        "type": "Point"
      },
      "properties": {
        "bangumi_id": 267378,
        "bangumi_title": "青夏轨迹",
        "ep_cut": "",
        "image_url": "https://w.junreimap.com/images/points/267378/hdrnfsy_1784848265855.webp",
        "location": "",
        "point_id": "hdrnfsy",
        "point_name": "江ノ島電鉄",
        "remark": "外景应该是在此处。"
      },
      "type": "Feature"
    },
    {
      "geometry": {
        "coordinates": [
          139.4774,
          35.299762
        ],
        "type": "Point"
      },
      "properties": {
        "bangumi_id": 267378,
        "bangumi_title": "青夏轨迹",
        "ep_cut": "",
        "image_url": "https://w.junreimap.com/images/points/267378/hdsmhh1_1784849962613.webp",
        "location": "",
        "point_id": "hdsmhh1",
        "point_name": "遊覧亭",
        "remark": ""
      },
      "type": "Feature"
    },
    {
      "geometry": {
        "coordinates": [
          139.476507,
          35.298678
        ],
        "type": "Point"
      },
      "properties": {
        "bangumi_id": 267378,
        "bangumi_title": "青夏轨迹",
        "ep_cut": "",
        "image_url": "https://w.junreimap.com/images/points/267378/hdsr0qv_1784850014501.webp",
        "location": "",
        "point_id": "hdsr0qv",
        "point_name": "龍恋の鐘",
        "remark": ""
      },
      "type": "Feature"
    },
    {
      "geometry": {
        "coordinates": [
          139.513174,
          35.304532
        ],
        "type": "Point"
      },
      "properties": {
        "bangumi_id": 267378,
        "bangumi_title": "青夏轨迹",
        "ep_cut": "",
        "image_url": "https://w.junreimap.com/images/points/267378/hdu0rpx_1784852174786.webp",
        "location": "",
        "point_id": "hdu0rpx",
        "point_name": "七里ヶ浜海岸駐車場",
        "remark": ""
      },
      "type": "Feature"
    },
    {
      "geometry": {
        "coordinates": [
          139.543991,
          35.317536
        ],
        "type": "Point"
      },
      "properties": {
        "bangumi_id": 267378,
        "bangumi_title": "青夏轨迹",
        "ep_cut": "",
        "image_url": "https://w.junreimap.com/images/points/267378/hduq2rf_1784853354005.webp",
        "location": "",
        "point_id": "hduq2rf",
        "point_name": "通学路",
        "remark": ""
      },
      "type": "Feature"
    }
  ],
  "type": "FeatureCollection"
}