{
  "features": [
    {
      "geometry": {
        "coordinates": [
          -0.121786,
          51.500834
        ],
        "type": "Point"
      },
      "properties": {
        "bangumi_id": 267732,
        "bangumi_title": "君主·埃尔梅罗二世事件簿 魔眼收集列车 Grace note",
        "ep_cut": "",
        "image_url": "https://w.junreimap.com/images/points/267732/lldw5q7h6_1719064828173.jpg",
        "location": "",
        "point_id": "lldw5q7h6",
        "point_name": "Westminster Bridge",
        "remark": ""
      },
      "type": "Feature"
    },
    {
      "geometry": {
        "coordinates": [
          -0.075702,
          51.49936
        ],
        "type": "Point"
      },
      "properties": {
        "bangumi_id": 267732,
        "bangumi_title": "君主·埃尔梅罗二世事件簿 魔眼收集列车 Grace note",
        "ep_cut": "",
        "image_url": "https://w.junreimap.com/images/points/267732/lle5foljp_1719064165987.jpg",
        "location": "",
        "point_id": "lle5foljp",
        "point_name": "Maltby Street Market (The Ropewalk)",
        "remark": "背景中黄色棚子位于Little Bird和LONDON BEER FACTORY的后门之间。"
      },
      "type": "Feature"
    },
    {
      "geometry": {
        "coordinates": [
          -0.075614,
          51.499309
        ],
        "type": "Point"
      },
      "properties": {
        "bangumi_id": 267732,
        "bangumi_title": "君主·埃尔梅罗二世事件簿 魔眼收集列车 Grace note",
        "ep_cut": "",
        "image_url": "https://w.junreimap.com/images/points/267732/llej8lw4e_1719063872660.jpg",
        "location": "",
        "point_id": "llej8lw4e",
        "point_name": "Maltby Street Market (The Ropewalk)",
        "remark": "背景左侧店铺为Little Bird（已关停），右侧写着cafe的店铺为St. John Bakery。"
      },
      "type": "Feature"
    },
    {
      "geometry": {
        "coordinates": [
          -0.076068,
          51.499552
        ],
        "type": "Point"
      },
      "properties": {
        "bangumi_id": 267732,
        "bangumi_title": "君主·埃尔梅罗二世事件簿 魔眼收集列车 Grace note",
        "ep_cut": "",
        "image_url": "https://w.junreimap.com/images/points/267732/llenlz42p_1719064102420.jpg",
        "location": "",
        "point_id": "llenlz42p",
        "point_name": "Maltby Street Market (The Ropewalk) Entrance",
        "remark": "背后的招牌为The Ropewalk的北侧入口。"
      },
      "type": "Feature"
    },
    {
      "geometry": {
        "coordinates": [
          44.420789,
          32.542254
        ],
        "type": "Point"
      },
      "properties": {
        "bangumi_id": 267732,
        "bangumi_title": "君主·埃尔梅罗二世事件簿 魔眼收集列车 Grace note",
        "ep_cut": 1,
        "image_url": "https://w.junreimap.com/images/points/267732/lldh3lev9_1719061671388.jpg",
        "location": "",
        "point_id": "lldh3lev9",
        "point_name": "القصر الجنوبي",
        "remark": "图中角色应站在西侧巴比伦宫（即萨达姆行宫，2025年2月已关闭访问）所在高地面朝东侧。"
      },
      "type": "Feature"
    },
    {
      "geometry": {
        "coordinates": [
          44.421585,
          32.544978
        ],
        "type": "Point"
      },
      "properties": {
        "bangumi_id": 267732,
        "bangumi_title": "君主·埃尔梅罗二世事件簿 魔眼收集列车 Grace note",
        "ep_cut": 1,
        "image_url": "https://w.junreimap.com/images/points/267732/lldl91d3r_1719061985516.jpg",
        "location": "",
        "point_id": "lldl91d3r",
        "point_name": "اسد بابل",
        "remark": ""
      },
      "type": "Feature"
    },
    {
      "geometry": {
        "coordinates": [
          -2.232072,
          51.493875
        ],
        "type": "Point"
      },
      "properties": {
        "bangumi_id": 267732,
        "bangumi_title": "君主·埃尔梅罗二世事件簿 魔眼收集列车 Grace note",
        "ep_cut": 1,
        "image_url": "https://w.junreimap.com/images/user/0/bangumi/267732/points/kvlb7y74i-1717041231209.jpg",
        "location": "",
        "point_id": "kvlb7y74i",
        "point_name": "The Manor House Hotel",
        "remark": ""
      },
      "type": "Feature"
    },
    {
      "geometry": {
        "coordinates": [
          -0.489305,
          51.469565
        ],
        "type": "Point"
      },
      "properties": {
        "bangumi_id": 267732,
        "bangumi_title": "君主·埃尔梅罗二世事件簿 魔眼收集列车 Grace note",
        "ep_cut": 1,
        "image_url": "https://w.junreimap.com/images/user/0/bangumi/267732/points/kdgeg24iv-1715620096959.jpg",
        "location": "",
        "point_id": "ayoy6j4",
        "point_name": "Heathrow Terminal 5",
        "remark": "从廊桥可以确定此建筑为伦敦希思罗机场的T5航站楼。"
      },
      "type": "Feature"
    },
    {
      "geometry": {
        "coordinates": [
          -0.075079,
          51.499097
        ],
        "type": "Point"
      },
      "properties": {
        "bangumi_id": 267732,
        "bangumi_title": "君主·埃尔梅罗二世事件簿 魔眼收集列车 Grace note",
        "ep_cut": 3,
        "image_url": "https://w.junreimap.com/images/points/267732/lld5atzjr_1719060951437.jpg",
        "location": "",
        "point_id": "lld5atzjr",
        "point_name": "Comptoir Gourmand Maltby",
        "remark": ""
      },
      "type": "Feature"
    },
    {
      "geometry": {
        "coordinates": [
          -0.125871,
          51.529926
        ],
        "type": "Point"
      },
      "properties": {
        "bangumi_id": 267732,
        "bangumi_title": "君主·埃尔梅罗二世事件簿 魔眼收集列车 Grace note",
        "ep_cut": 4,
        "image_url": "https://w.junreimap.com/images/points/267732/llewtm0kx_1719064673883.jpg",
        "location": "",
        "point_id": "llewtm0kx",
        "point_name": "St Pancras Renaissance London Hotel",
        "remark": ""
      },
      "type": "Feature"
    },
    {
      "geometry": {
        "coordinates": [
          -0.162888,
          51.499082
        ],
        "type": "Point"
      },
      "properties": {
        "bangumi_id": 267732,
        "bangumi_title": "君主·埃尔梅罗二世事件簿 魔眼收集列车 Grace note",
        "ep_cut": 6,
        "image_url": "https://w.junreimap.com/images/points/267732/lleyfehq8_1719064772602.jpg",
        "location": "",
        "point_id": "lleyfehq8",
        "point_name": "Harrods",
        "remark": ""
      },
      "type": "Feature"
    },
    {
      "geometry": {
        "coordinates": [
          -0.123813,
          51.50084
        ],
        "type": "Point"
      },
      "properties": {
        "bangumi_id": 267732,
        "bangumi_title": "君主·埃尔梅罗二世事件簿 魔眼收集列车 Grace note",
        "ep_cut": 13,
        "image_url": "https://w.junreimap.com/images/points/267732/llhi3ha3a_1719070347275.jpg",
        "location": "",
        "point_id": "llhi3ha3a",
        "point_name": "Big Ben",
        "remark": "时钟塔原型。"
      },
      "type": "Feature"
    },
    {
      "geometry": {
        "coordinates": [
          -0.138358,
          51.508438
        ],
        "type": "Point"
      },
      "properties": {
        "bangumi_id": 267732,
        "bangumi_title": "君主·埃尔梅罗二世事件簿 魔眼收集列车 Grace note",
        "ep_cut": 13,
        "image_url": "https://w.junreimap.com/images/points/267732/llgrgwnf5_1719070349277.jpg",
        "location": "",
        "point_id": "llgrgwnf5",
        "point_name": "Fortnum & Mason",
        "remark": ""
      },
      "type": "Feature"
    },
    {
      "geometry": {
        "coordinates": [
          -0.140061,
          51.508015
        ],
        "type": "Point"
      },
      "properties": {
        "bangumi_id": 267732,
        "bangumi_title": "君主·埃尔梅罗二世事件簿 魔眼收集列车 Grace note",
        "ep_cut": 13,
        "image_url": "https://w.junreimap.com/images/points/267732/llgs8dpeo_1719070349913.jpg",
        "location": "",
        "point_id": "llgs8dpeo",
        "point_name": "Piccadilly",
        "remark": "皮卡迪利街的圣诞天使灯。"
      },
      "type": "Feature"
    },
    {
      "geometry": {
        "coordinates": [
          -0.124571,
          51.500703
        ],
        "type": "Point"
      },
      "properties": {
        "bangumi_id": 267732,
        "bangumi_title": "君主·埃尔梅罗二世事件簿 魔眼收集列车 Grace note",
        "ep_cut": 13,
        "image_url": "https://w.junreimap.com/images/points/267732/llhgcn8kq_1719070347669.jpg",
        "location": "",
        "point_id": "llhgcn8kq",
        "point_name": "Big Ben",
        "remark": "时钟塔原型。"
      },
      "type": "Feature"
    },
    {
      "geometry": {
        "coordinates": [
          -0.12429,
          51.50032
        ],
        "type": "Point"
      },
      "properties": {
        "bangumi_id": 267732,
        "bangumi_title": "君主·埃尔梅罗二世事件簿 魔眼收集列车 Grace note",
        "ep_cut": 13,
        "image_url": "https://w.junreimap.com/images/points/267732/llhei4tpe_1719070346615.jpg",
        "location": "",
        "point_id": "llhei4tpe",
        "point_name": "威斯敏斯特宫 Speakers Court",
        "remark": "现实中为停车场。"
      },
      "type": "Feature"
    },
    {
      "geometry": {
        "coordinates": [
          -0.139411,
          51.508942
        ],
        "type": "Point"
      },
      "properties": {
        "bangumi_id": 267732,
        "bangumi_title": "君主·埃尔梅罗二世事件簿 魔眼收集列车 Grace note",
        "ep_cut": 13,
        "image_url": "https://w.junreimap.com/images/points/267732/llgqpbn36_1719070348386.jpg",
        "location": "",
        "point_id": "llgqpbn36",
        "point_name": "Royal Academy of Arts",
        "remark": "フラッド、スヴィン、カウレスの三人が話し合っていた広場。"
      },
      "type": "Feature"
    },
    {
      "geometry": {
        "coordinates": [
          -0.119662,
          51.503362
        ],
        "type": "Point"
      },
      "properties": {
        "bangumi_id": 267732,
        "bangumi_title": "君主·埃尔梅罗二世事件簿 魔眼收集列车 Grace note",
        "ep_cut": "特别篇",
        "image_url": "https://w.junreimap.com/images/points/267732/n8wg43r2i_1723726440801.jpg",
        "location": "",
        "point_id": "n8wg43r2i",
        "point_name": "London Eye",
        "remark": ""
      },
      "type": "Feature"
    },
    {
      "geometry": {
        "coordinates": [
          -0.074959,
          51.499569
        ],
        "type": "Point"
      },
      "properties": {
        "bangumi_id": 267732,
        "bangumi_title": "君主·埃尔梅罗二世事件簿 魔眼收集列车 Grace note",
        "ep_cut": "",
        "image_url": "",
        "location": "",
        "point_id": "llet1ma1k",
        "point_name": "Druid St",
        "remark": "埃尔梅罗二世居住地。动画中的取景地是位于铁道另一侧的Ropewalk。"
      },
      "type": "Feature"
    }
  ],
  "type": "FeatureCollection"
}