{
  "features": [
    {
      "geometry": {
        "coordinates": [
          139.793556,
          35.630323
        ],
        "type": "Point"
      },
      "properties": {
        "bangumi_id": 268843,
        "bangumi_title": "Still Sick",
        "ep_cut": 3,
        "image_url": "https://w.junreimap.com/images/points/268843/ijjwii7_1787374759667.webp",
        "location": "东京BigSight周边",
        "point_id": "ijjwii7",
        "point_name": "東京​ビッグ​サイト 会議棟",
        "remark": ""
      },
      "type": "Feature"
    },
    {
      "geometry": {
        "coordinates": [
          139.795221,
          35.628464
        ],
        "type": "Point"
      },
      "properties": {
        "bangumi_id": 268843,
        "bangumi_title": "Still Sick",
        "ep_cut": 3,
        "image_url": "https://w.junreimap.com/images/points/268843/ijk6bf8_1787375204025.webp",
        "location": "东京BigSight周边",
        "point_id": "ijk6bf8",
        "point_name": "東京ビッグサイト 西展示棟",
        "remark": ""
      },
      "type": "Feature"
    },
    {
      "geometry": {
        "coordinates": [
          139.793462,
          35.628189
        ],
        "type": "Point"
      },
      "properties": {
        "bangumi_id": 268843,
        "bangumi_title": "Still Sick",
        "ep_cut": 4,
        "image_url": "https://w.junreimap.com/images/points/268843/ijkcsem_1787375622355.webp",
        "location": "东京BigSight周边",
        "point_id": "ijkcsem",
        "point_name": "有明西ふ頭公園",
        "remark": "远处的摩天轮是调色板城大摩天轮，2022年8月停业、11月拆除。这一格的栏杆和后面几格不同，因为这一格是有明西ふ頭公園的栏杆（已拆除重建），后面几格是旁边停车场的栏杆。"
      },
      "type": "Feature"
    },
    {
      "geometry": {
        "coordinates": [
          139.793141,
          35.628486
        ],
        "type": "Point"
      },
      "properties": {
        "bangumi_id": 268843,
        "bangumi_title": "Still Sick",
        "ep_cut": 4,
        "image_url": "https://w.junreimap.com/images/points/268843/ijkeby2_1787375663647.webp",
        "location": "东京BigSight周边",
        "point_id": "ijkeby2",
        "point_name": "有明客船ターミナル 臨時駐車場",
        "remark": ""
      },
      "type": "Feature"
    },
    {
      "geometry": {
        "coordinates": [
          139.793163,
          35.628517
        ],
        "type": "Point"
      },
      "properties": {
        "bangumi_id": 268843,
        "bangumi_title": "Still Sick",
        "ep_cut": 4,
        "image_url": "https://w.junreimap.com/images/points/268843/ijkgwa5_1787375686898.webp",
        "location": "东京BigSight周边",
        "point_id": "ijkgwa5",
        "point_name": "有明客船ターミナル 臨時駐車場",
        "remark": ""
      },
      "type": "Feature"
    },
    {
      "geometry": {
        "coordinates": [
          139.793187,
          35.628476
        ],
        "type": "Point"
      },
      "properties": {
        "bangumi_id": 268843,
        "bangumi_title": "Still Sick",
        "ep_cut": 4,
        "image_url": "https://w.junreimap.com/images/points/268843/ijkhdgk_1787375709016.webp",
        "location": "东京BigSight周边",
        "point_id": "ijkhdgk",
        "point_name": "有明客船ターミナル 臨時駐車場",
        "remark": ""
      },
      "type": "Feature"
    },
    {
      "geometry": {
        "coordinates": [
          139.793172,
          35.628499
        ],
        "type": "Point"
      },
      "properties": {
        "bangumi_id": 268843,
        "bangumi_title": "Still Sick",
        "ep_cut": 4,
        "image_url": "https://w.junreimap.com/images/points/268843/ijkhth1_1787375725603.webp",
        "location": "东京BigSight周边",
        "point_id": "ijkhth1",
        "point_name": "有明客船ターミナル 臨時駐車場",
        "remark": ""
      },
      "type": "Feature"
    },
    {
      "geometry": {
        "coordinates": [
          139.793191,
          35.628464
        ],
        "type": "Point"
      },
      "properties": {
        "bangumi_id": 268843,
        "bangumi_title": "Still Sick",
        "ep_cut": 4,
        "image_url": "https://w.junreimap.com/images/points/268843/ijki8xt_1787375782935.webp",
        "location": "东京BigSight周边",
        "point_id": "ijki8xt",
        "point_name": "有明客船ターミナル 臨時駐車場",
        "remark": ""
      },
      "type": "Feature"
    },
    {
      "geometry": {
        "coordinates": [
          139.793191,
          35.628503
        ],
        "type": "Point"
      },
      "properties": {
        "bangumi_id": 268843,
        "bangumi_title": "Still Sick",
        "ep_cut": 4,
        "image_url": "https://w.junreimap.com/images/points/268843/ijkk6k6_1787375832725.webp",
        "location": "东京BigSight周边",
        "point_id": "ijkk6k6",
        "point_name": "有明客船ターミナル 臨時駐車場",
        "remark": ""
      },
      "type": "Feature"
    },
    {
      "geometry": {
        "coordinates": [
          139.793355,
          35.701084
        ],
        "type": "Point"
      },
      "properties": {
        "bangumi_id": 268843,
        "bangumi_title": "Still Sick",
        "ep_cut": 12,
        "image_url": "https://w.junreimap.com/images/points/268843/ijl8yv0_1787377076393.webp",
        "location": "藏前桥",
        "point_id": "ijl8yv0",
        "point_name": "蔵前橋",
        "remark": "两个主角在藏前桥上，远处是厩桥，右侧可以看到东京天空树。"
      },
      "type": "Feature"
    },
    {
      "geometry": {
        "coordinates": [
          139.793394,
          35.70107
        ],
        "type": "Point"
      },
      "properties": {
        "bangumi_id": 268843,
        "bangumi_title": "Still Sick",
        "ep_cut": 12,
        "image_url": "https://w.junreimap.com/images/points/268843/ijlbuyi_1787377122050.webp",
        "location": "藏前桥",
        "point_id": "ijlbuyi",
        "point_name": "蔵前橋",
        "remark": ""
      },
      "type": "Feature"
    },
    {
      "geometry": {
        "coordinates": [
          139.793406,
          35.701046
        ],
        "type": "Point"
      },
      "properties": {
        "bangumi_id": 268843,
        "bangumi_title": "Still Sick",
        "ep_cut": 12,
        "image_url": "https://w.junreimap.com/images/points/268843/ijlfhzy_1787377295868.webp",
        "location": "藏前桥",
        "point_id": "ijlfhzy",
        "point_name": "蔵前橋",
        "remark": ""
      },
      "type": "Feature"
    },
    {
      "geometry": {
        "coordinates": [
          139.79331,
          35.701103
        ],
        "type": "Point"
      },
      "properties": {
        "bangumi_id": 268843,
        "bangumi_title": "Still Sick",
        "ep_cut": 12,
        "image_url": "https://w.junreimap.com/images/points/268843/ijlglxw_1787377354523.webp",
        "location": "藏前桥",
        "point_id": "ijlglxw",
        "point_name": "蔵前橋",
        "remark": "远处左侧建筑是宮沢模型。"
      },
      "type": "Feature"
    },
    {
      "geometry": {
        "coordinates": [
          139.078776,
          35.086499
        ],
        "type": "Point"
      },
      "properties": {
        "bangumi_id": 268843,
        "bangumi_title": "Still Sick",
        "ep_cut": 14,
        "image_url": "https://w.junreimap.com/images/points/268843/ijlp931_1787377781465.webp",
        "location": "热海",
        "point_id": "ijlp931",
        "point_name": "熱海",
        "remark": "应该是从热海城向北俯瞰的景色。"
      },
      "type": "Feature"
    },
    {
      "geometry": {
        "coordinates": [
          139.076434,
          35.096545
        ],
        "type": "Point"
      },
      "properties": {
        "bangumi_id": 268843,
        "bangumi_title": "Still Sick",
        "ep_cut": 14,
        "image_url": "https://w.junreimap.com/images/points/268843/ijltv2t_1787377973031.webp",
        "location": "热海",
        "point_id": "ijltv2t",
        "point_name": "「釜鳴屋平七夫婦像」澤田政廣",
        "remark": ""
      },
      "type": "Feature"
    },
    {
      "geometry": {
        "coordinates": [
          139.793224,
          35.628546
        ],
        "type": "Point"
      },
      "properties": {
        "bangumi_id": 268843,
        "bangumi_title": "Still Sick",
        "ep_cut": 20,
        "image_url": "https://w.junreimap.com/images/points/268843/ijm47ts_1787378461078.webp",
        "location": "东京BigSight周边",
        "point_id": "ijm47ts",
        "point_name": "有明客船ターミナル 臨時駐車場",
        "remark": ""
      },
      "type": "Feature"
    },
    {
      "geometry": {
        "coordinates": [
          139.793127,
          35.628502
        ],
        "type": "Point"
      },
      "properties": {
        "bangumi_id": 268843,
        "bangumi_title": "Still Sick",
        "ep_cut": 20,
        "image_url": "https://w.junreimap.com/images/points/268843/ijm5nsz_1787378515048.webp",
        "location": "东京BigSight周边",
        "point_id": "ijm5nsz",
        "point_name": "有明客船ターミナル 臨時駐車場",
        "remark": ""
      },
      "type": "Feature"
    },
    {
      "geometry": {
        "coordinates": [
          139.793216,
          35.628517
        ],
        "type": "Point"
      },
      "properties": {
        "bangumi_id": 268843,
        "bangumi_title": "Still Sick",
        "ep_cut": 20,
        "image_url": "https://w.junreimap.com/images/points/268843/ijm5amf_1787378499178.webp",
        "location": "东京BigSight周边",
        "point_id": "ijm5amf",
        "point_name": "有明客船ターミナル 臨時駐車場",
        "remark": ""
      },
      "type": "Feature"
    },
    {
      "geometry": {
        "coordinates": [
          139.793116,
          35.628484
        ],
        "type": "Point"
      },
      "properties": {
        "bangumi_id": 268843,
        "bangumi_title": "Still Sick",
        "ep_cut": 20,
        "image_url": "https://w.junreimap.com/images/points/268843/ijm6e4g_1787378551987.webp",
        "location": "东京BigSight周边",
        "point_id": "ijm6e4g",
        "point_name": "有明客船ターミナル 臨時駐車場",
        "remark": ""
      },
      "type": "Feature"
    },
    {
      "geometry": {
        "coordinates": [
          139.793192,
          35.628494
        ],
        "type": "Point"
      },
      "properties": {
        "bangumi_id": 268843,
        "bangumi_title": "Still Sick",
        "ep_cut": 20,
        "image_url": "https://w.junreimap.com/images/points/268843/ijm6uic_1787378573348.webp",
        "location": "东京BigSight周边",
        "point_id": "ijm6uic",
        "point_name": "有明客船ターミナル 臨時駐車場",
        "remark": ""
      },
      "type": "Feature"
    },
    {
      "geometry": {
        "coordinates": [
          139.793438,
          35.628182
        ],
        "type": "Point"
      },
      "properties": {
        "bangumi_id": 268843,
        "bangumi_title": "Still Sick",
        "ep_cut": 20,
        "image_url": "https://w.junreimap.com/images/points/268843/ijm7ocg_1787378794207.webp",
        "location": "东京BigSight周边",
        "point_id": "ijm7ocg",
        "point_name": "有明西ふ頭公園",
        "remark": "前几格的栏杆为有明客船ターミナル臨時駐車場的栏杆，从这一页开始变为有明西ふ頭公園的栏杆，但后者目前已被更换。"
      },
      "type": "Feature"
    },
    {
      "geometry": {
        "coordinates": [
          139.793426,
          35.628193
        ],
        "type": "Point"
      },
      "properties": {
        "bangumi_id": 268843,
        "bangumi_title": "Still Sick",
        "ep_cut": 20,
        "image_url": "https://w.junreimap.com/images/points/268843/ijme1b3_1787378904694.webp",
        "location": "东京BigSight周边",
        "point_id": "ijme1b3",
        "point_name": "有明西ふ頭公園",
        "remark": "右侧这种造型的栏杆在2014年到2018年4月之前被拆除更换。"
      },
      "type": "Feature"
    },
    {
      "geometry": {
        "coordinates": [
          139.793448,
          35.628171
        ],
        "type": "Point"
      },
      "properties": {
        "bangumi_id": 268843,
        "bangumi_title": "Still Sick",
        "ep_cut": 20,
        "image_url": "https://w.junreimap.com/images/points/268843/ijmq1jo_1787379466391.webp",
        "location": "东京BigSight周边",
        "point_id": "ijmq1jo",
        "point_name": "有明西ふ頭公園",
        "remark": ""
      },
      "type": "Feature"
    },
    {
      "geometry": {
        "coordinates": [
          139.793484,
          35.628191
        ],
        "type": "Point"
      },
      "properties": {
        "bangumi_id": 268843,
        "bangumi_title": "Still Sick",
        "ep_cut": 20,
        "image_url": "https://w.junreimap.com/images/points/268843/ijmept0_1787378940723.webp",
        "location": "东京BigSight周边",
        "point_id": "ijmept0",
        "point_name": "有明西ふ頭公園",
        "remark": ""
      },
      "type": "Feature"
    },
    {
      "geometry": {
        "coordinates": [
          139.793454,
          35.628213
        ],
        "type": "Point"
      },
      "properties": {
        "bangumi_id": 268843,
        "bangumi_title": "Still Sick",
        "ep_cut": 20,
        "image_url": "https://w.junreimap.com/images/points/268843/ijmqy46_1787379516915.webp",
        "location": "东京BigSight周边",
        "point_id": "ijmqy46",
        "point_name": "有明西ふ頭公園",
        "remark": "两人最终没能赶上末班车，选择在附近的宾馆过夜，从房间可以看到东京塔，具体是哪家宾馆无法确认。"
      },
      "type": "Feature"
    }
  ],
  "type": "FeatureCollection"
}