{
  "features": [
    {
      "geometry": {
        "coordinates": [
          139.45498,
          35.651931
        ],
        "type": "Point"
      },
      "properties": {
        "bangumi_id": 272510,
        "bangumi_title": "街角魔族",
        "ep_cut": 1,
        "image_url": "https://w.junreimap.com/images/points/272510/39zlm4io.jpg",
        "location": "",
        "point_id": "39zlm4io",
        "point_name": "関戸橋南からの多摩川北側遠景",
        "remark": ""
      },
      "type": "Feature"
    },
    {
      "geometry": {
        "coordinates": [
          139.43999,
          35.647827
        ],
        "type": "Point"
      },
      "properties": {
        "bangumi_id": 272510,
        "bangumi_title": "街角魔族",
        "ep_cut": 1,
        "image_url": "https://w.junreimap.com/images/points/272510/39zlm4fj.jpg",
        "location": "",
        "point_id": "39zlm4fj",
        "point_name": "大栗川 飛び石",
        "remark": ""
      },
      "type": "Feature"
    },
    {
      "geometry": {
        "coordinates": [
          139.411818,
          35.613478
        ],
        "type": "Point"
      },
      "properties": {
        "bangumi_id": 272510,
        "bangumi_title": "街角魔族",
        "ep_cut": 1,
        "image_url": "https://w.junreimap.com/images/points/272510/39zlm4mj.jpg",
        "location": "",
        "point_id": "39zlm4mj",
        "point_name": "エコにこセンター前",
        "remark": ""
      },
      "type": "Feature"
    },
    {
      "geometry": {
        "coordinates": [
          139.446207,
          35.647498
        ],
        "type": "Point"
      },
      "properties": {
        "bangumi_id": 272510,
        "bangumi_title": "街角魔族",
        "ep_cut": 1,
        "image_url": "https://w.junreimap.com/images/points/272510/39zlm48f.jpg",
        "location": "",
        "point_id": "39zlm48f",
        "point_name": "霞ヶ関橋（参考）",
        "remark": ""
      },
      "type": "Feature"
    },
    {
      "geometry": {
        "coordinates": [
          139.446483,
          35.647536
        ],
        "type": "Point"
      },
      "properties": {
        "bangumi_id": 272510,
        "bangumi_title": "街角魔族",
        "ep_cut": "EP2",
        "image_url": "https://w.junreimap.com/images/user/0/bangumi/272510/points/ncacmvjeo-1723991694557.jpg",
        "location": "",
        "point_id": "ncacmvjeo",
        "point_name": "霞ヶ関橋",
        "remark": "动画里叫多摩川，实际上这里是大栗川，背景的桥是霞ヶ関橋"
      },
      "type": "Feature"
    },
    {
      "geometry": {
        "coordinates": [
          139.438716,
          35.648848
        ],
        "type": "Point"
      },
      "properties": {
        "bangumi_id": 272510,
        "bangumi_title": "街角魔族",
        "ep_cut": 1,
        "image_url": "https://w.junreimap.com/images/points/272510/39zlm45q.jpg",
        "location": "",
        "point_id": "39zlm45q",
        "point_name": "明神橋（参考）",
        "remark": ""
      },
      "type": "Feature"
    },
    {
      "geometry": {
        "coordinates": [
          139.413358,
          35.615434
        ],
        "type": "Point"
      },
      "properties": {
        "bangumi_id": 272510,
        "bangumi_title": "街角魔族",
        "ep_cut": 3,
        "image_url": "https://w.junreimap.com/images/points/272510/39zlm467.jpg",
        "location": "",
        "point_id": "39zlm467",
        "point_name": "多摩市立唐木田図書館",
        "remark": ""
      },
      "type": "Feature"
    },
    {
      "geometry": {
        "coordinates": [
          139.453674,
          35.651789
        ],
        "type": "Point"
      },
      "properties": {
        "bangumi_id": 272510,
        "bangumi_title": "街角魔族",
        "ep_cut": 3,
        "image_url": "https://w.junreimap.com/images/points/272510/39zlm442.jpg",
        "location": "",
        "point_id": "39zlm442",
        "point_name": "多摩川 南側堤防",
        "remark": ""
      },
      "type": "Feature"
    },
    {
      "geometry": {
        "coordinates": [
          139.453206,
          35.652221
        ],
        "type": "Point"
      },
      "properties": {
        "bangumi_id": 272510,
        "bangumi_title": "街角魔族",
        "ep_cut": 3,
        "image_url": "https://w.junreimap.com/images/points/272510/39zlm49j.jpg",
        "location": "",
        "point_id": "39zlm49j",
        "point_name": "多摩川 南側堤防",
        "remark": "3,12話"
      },
      "type": "Feature"
    },
    {
      "geometry": {
        "coordinates": [
          139.412496,
          35.683103
        ],
        "type": "Point"
      },
      "properties": {
        "bangumi_id": 272510,
        "bangumi_title": "街角魔族",
        "ep_cut": 4,
        "image_url": "https://w.junreimap.com/images/points/272510/39zlm4qm.jpg",
        "location": "",
        "point_id": "39zlm4qm",
        "point_name": "立日橋",
        "remark": ""
      },
      "type": "Feature"
    },
    {
      "geometry": {
        "coordinates": [
          139.420334,
          35.644964
        ],
        "type": "Point"
      },
      "properties": {
        "bangumi_id": 272510,
        "bangumi_title": "街角魔族",
        "ep_cut": 4,
        "image_url": "https://w.junreimap.com/images/points/272510/39zlm4kt.jpg",
        "location": "",
        "point_id": "39zlm4kt",
        "point_name": "おふろの王様 多摩百草店",
        "remark": ""
      },
      "type": "Feature"
    },
    {
      "geometry": {
        "coordinates": [
          139.445412,
          35.646039
        ],
        "type": "Point"
      },
      "properties": {
        "bangumi_id": 272510,
        "bangumi_title": "街角魔族",
        "ep_cut": 6,
        "image_url": "https://w.junreimap.com/images/points/272510/39zlm4qf.jpg",
        "location": "",
        "point_id": "39zlm4qf",
        "point_name": "いろは坂",
        "remark": ""
      },
      "type": "Feature"
    },
    {
      "geometry": {
        "coordinates": [
          139.440424,
          35.647997
        ],
        "type": "Point"
      },
      "properties": {
        "bangumi_id": 272510,
        "bangumi_title": "街角魔族",
        "ep_cut": 9,
        "image_url": "https://w.junreimap.com/images/points/272510/39zlm4jq.jpg",
        "location": "",
        "point_id": "39zlm4jq",
        "point_name": "大栗川側の階段",
        "remark": ""
      },
      "type": "Feature"
    },
    {
      "geometry": {
        "coordinates": [
          139.443297,
          35.648496
        ],
        "type": "Point"
      },
      "properties": {
        "bangumi_id": 272510,
        "bangumi_title": "街角魔族",
        "ep_cut": 11,
        "image_url": "https://w.junreimap.com/images/points/272510/39zlm3zl.jpg",
        "location": "",
        "point_id": "39zlm3zl",
        "point_name": "東寺方1丁目",
        "remark": ""
      },
      "type": "Feature"
    },
    {
      "geometry": {
        "coordinates": [
          139.442631,
          35.645675
        ],
        "type": "Point"
      },
      "properties": {
        "bangumi_id": 272510,
        "bangumi_title": "街角魔族",
        "ep_cut": 11,
        "image_url": "https://w.junreimap.com/images/points/272510/39zlm5hu.jpg",
        "location": "",
        "point_id": "39zlm5hu",
        "point_name": "桜ヶ丘4丁目",
        "remark": ""
      },
      "type": "Feature"
    },
    {
      "geometry": {
        "coordinates": [
          139.454569,
          35.652013
        ],
        "type": "Point"
      },
      "properties": {
        "bangumi_id": 272510,
        "bangumi_title": "街角魔族",
        "ep_cut": 12,
        "image_url": "https://w.junreimap.com/images/points/272510/39zlm4zg.jpg",
        "location": "",
        "point_id": "39zlm4zg",
        "point_name": "関戸橋下",
        "remark": ""
      },
      "type": "Feature"
    },
    {
      "geometry": {
        "coordinates": [
          139.455437,
          35.655281
        ],
        "type": "Point"
      },
      "properties": {
        "bangumi_id": 272510,
        "bangumi_title": "街角魔族",
        "ep_cut": 12,
        "image_url": "https://w.junreimap.com/images/points/272510/39zlm4tj.jpg",
        "location": "",
        "point_id": "39zlm4tj",
        "point_name": "関戸橋北",
        "remark": ""
      },
      "type": "Feature"
    },
    {
      "geometry": {
        "coordinates": [
          139.457336,
          35.654993
        ],
        "type": "Point"
      },
      "properties": {
        "bangumi_id": 272510,
        "bangumi_title": "街角魔族",
        "ep_cut": 12,
        "image_url": "https://w.junreimap.com/images/points/272510/39zlm4sj.jpg",
        "location": "",
        "point_id": "39zlm4sj",
        "point_name": "関戸橋北階段",
        "remark": ""
      },
      "type": "Feature"
    },
    {
      "geometry": {
        "coordinates": [
          139.45388,
          35.652022
        ],
        "type": "Point"
      },
      "properties": {
        "bangumi_id": 272510,
        "bangumi_title": "街角魔族",
        "ep_cut": 12,
        "image_url": "https://w.junreimap.com/images/points/272510/39zlm559.jpg",
        "location": "",
        "point_id": "39zlm559",
        "point_name": "多摩川南側堤防",
        "remark": ""
      },
      "type": "Feature"
    },
    {
      "geometry": {
        "coordinates": [
          139.447844,
          35.64793
        ],
        "type": "Point"
      },
      "properties": {
        "bangumi_id": 272510,
        "bangumi_title": "街角魔族",
        "ep_cut": 12,
        "image_url": "https://w.junreimap.com/images/points/272510/39zlm58z.jpg",
        "location": "",
        "point_id": "39zlm58z",
        "point_name": "霞ヶ関橋東",
        "remark": ""
      },
      "type": "Feature"
    },
    {
      "geometry": {
        "coordinates": [
          139.454483,
          35.651958
        ],
        "type": "Point"
      },
      "properties": {
        "bangumi_id": 272510,
        "bangumi_title": "街角魔族",
        "ep_cut": 12,
        "image_url": "https://w.junreimap.com/images/points/272510/39zlm5ih.jpg",
        "location": "",
        "point_id": "39zlm5ih",
        "point_name": "多摩川河川標識",
        "remark": ""
      },
      "type": "Feature"
    },
    {
      "geometry": {
        "coordinates": [
          139.73801,
          35.687562
        ],
        "type": "Point"
      },
      "properties": {
        "bangumi_id": 272510,
        "bangumi_title": "街角魔族",
        "ep_cut": "第1集",
        "image_url": "https://w.junreimap.com/images/user/1468/bangumi/272510/points/ufvtnnosb-1744021329776.jpg",
        "location": "",
        "point_id": "ufvtnnosb",
        "point_name": "女子学院 中学校･高等学校",
        "remark": ""
      },
      "type": "Feature"
    },
    {
      "geometry": {
        "coordinates": [
          139.09667,
          35.809221
        ],
        "type": "Point"
      },
      "properties": {
        "bangumi_id": 272510,
        "bangumi_title": "街角魔族",
        "ep_cut": "第2集",
        "image_url": "https://w.junreimap.com/images/user/1468/bangumi/272510/points/utg22js39-1745084083830.jpg",
        "location": "",
        "point_id": "utg22js39",
        "point_name": "奥多摩駅",
        "remark": ""
      },
      "type": "Feature"
    },
    {
      "geometry": {
        "coordinates": [
          139.703676,
          35.619261
        ],
        "type": "Point"
      },
      "properties": {
        "bangumi_id": 272510,
        "bangumi_title": "街角魔族",
        "ep_cut": "12集",
        "image_url": "https://w.junreimap.com/images/user/1468/bangumi/272510/points/utgn0478x-1745085410355.jpg",
        "location": "",
        "point_id": "utgn0478x",
        "point_name": "武蔵小山商店街 パルム",
        "remark": ""
      },
      "type": "Feature"
    },
    {
      "geometry": {
        "coordinates": [
          139.703804,
          35.619476
        ],
        "type": "Point"
      },
      "properties": {
        "bangumi_id": 272510,
        "bangumi_title": "街角魔族",
        "ep_cut": "第5集",
        "image_url": "https://w.junreimap.com/images/user/1468/bangumi/272510/points/utgsghjho-1745085705897.jpg",
        "location": "",
        "point_id": "utgsghjho",
        "point_name": "武蔵小山商店街 パルム",
        "remark": ""
      },
      "type": "Feature"
    }
  ],
  "type": "FeatureCollection"
}