{
  "features": [
    {
      "geometry": {
        "coordinates": [
          139.452332,
          35.922049
        ],
        "type": "Point"
      },
      "properties": {
        "bangumi_id": 276150,
        "bangumi_title": "恋爱小行星",
        "ep_cut": 2,
        "image_url": "https://w.junreimap.com/images/points/276150/4sd1mkrg6.jpg",
        "location": "",
        "point_id": "4sd1mkrg6",
        "point_name": "OP 霞ケ関東緑地",
        "remark": ""
      },
      "type": "Feature"
    },
    {
      "geometry": {
        "coordinates": [
          139.472411,
          35.914651
        ],
        "type": "Point"
      },
      "properties": {
        "bangumi_id": 276150,
        "bangumi_title": "恋爱小行星",
        "ep_cut": 1,
        "image_url": "https://w.junreimap.com/images/points/276150/4sd1mkrzt.jpg",
        "location": "",
        "point_id": "4sd1mkrzt",
        "point_name": "OP 八幡橋西&電柱",
        "remark": ""
      },
      "type": "Feature"
    },
    {
      "geometry": {
        "coordinates": [
          139.453043,
          35.922696
        ],
        "type": "Point"
      },
      "properties": {
        "bangumi_id": 276150,
        "bangumi_title": "恋爱小行星",
        "ep_cut": "",
        "image_url": "",
        "location": "",
        "point_id": "4sd1mksmf",
        "point_name": "OP 霞ケ関東緑地",
        "remark": ""
      },
      "type": "Feature"
    },
    {
      "geometry": {
        "coordinates": [
          139.481205,
          35.914344
        ],
        "type": "Point"
      },
      "properties": {
        "bangumi_id": 276150,
        "bangumi_title": "恋爱小行星",
        "ep_cut": 2,
        "image_url": "https://w.junreimap.com/images/points/276150/4sd1mksb2.jpg",
        "location": "",
        "point_id": "4sd1mksb2",
        "point_name": "OP 本川越駅西口",
        "remark": ""
      },
      "type": "Feature"
    },
    {
      "geometry": {
        "coordinates": [
          139.472737,
          35.914661
        ],
        "type": "Point"
      },
      "properties": {
        "bangumi_id": 276150,
        "bangumi_title": "恋爱小行星",
        "ep_cut": 2,
        "image_url": "https://w.junreimap.com/images/points/276150/4sd1mks1j.jpg",
        "location": "",
        "point_id": "4sd1mks1j",
        "point_name": "OP八幡橋",
        "remark": ""
      },
      "type": "Feature"
    },
    {
      "geometry": {
        "coordinates": [
          139.481639,
          35.92447
        ],
        "type": "Point"
      },
      "properties": {
        "bangumi_id": 276150,
        "bangumi_title": "恋爱小行星",
        "ep_cut": 1,
        "image_url": "https://w.junreimap.com/images/points/276150/4sd1mksq9.jpg",
        "location": "",
        "point_id": "4sd1mksq9",
        "point_name": "1# 川越ベーカリー楽楽",
        "remark": ""
      },
      "type": "Feature"
    },
    {
      "geometry": {
        "coordinates": [
          139.48245,
          35.923129
        ],
        "type": "Point"
      },
      "properties": {
        "bangumi_id": 276150,
        "bangumi_title": "恋爱小行星",
        "ep_cut": 1,
        "image_url": "https://w.junreimap.com/images/points/276150/4sd1mksx3.jpg",
        "location": "",
        "point_id": "4sd1mksx3",
        "point_name": "1# 陶路子前",
        "remark": ""
      },
      "type": "Feature"
    },
    {
      "geometry": {
        "coordinates": [
          139.48308,
          35.923426
        ],
        "type": "Point"
      },
      "properties": {
        "bangumi_id": 276150,
        "bangumi_title": "恋爱小行星",
        "ep_cut": 2,
        "image_url": "https://w.junreimap.com/images/points/276150/4sd1mkstp.jpg",
        "location": "",
        "point_id": "4sd1mkstp",
        "point_name": "ED 時の鐘",
        "remark": ""
      },
      "type": "Feature"
    },
    {
      "geometry": {
        "coordinates": [
          139.581792,
          35.933882
        ],
        "type": "Point"
      },
      "properties": {
        "bangumi_id": 276150,
        "bangumi_title": "恋爱小行星",
        "ep_cut": 2,
        "image_url": "https://w.junreimap.com/images/points/276150/4sd1mksrv.jpg",
        "location": "",
        "point_id": "4sd1mksrv",
        "point_name": "2# さいたま清河寺温泉",
        "remark": ""
      },
      "type": "Feature"
    },
    {
      "geometry": {
        "coordinates": [
          139.954291,
          36.179501
        ],
        "type": "Point"
      },
      "properties": {
        "bangumi_id": 276150,
        "bangumi_title": "恋爱小行星",
        "ep_cut": 3,
        "image_url": "https://w.junreimap.com/images/points/276150/4sd1mkst3.jpg",
        "location": "",
        "point_id": "4sd1mkst3",
        "point_name": "3# 粉とクリーム 石窯夢工房 下妻店",
        "remark": ""
      },
      "type": "Feature"
    },
    {
      "geometry": {
        "coordinates": [
          139.480727,
          35.914374
        ],
        "type": "Point"
      },
      "properties": {
        "bangumi_id": 276150,
        "bangumi_title": "恋爱小行星",
        "ep_cut": 3,
        "image_url": "https://w.junreimap.com/images/points/276150/4sd1mkthy.jpg",
        "location": "",
        "point_id": "4sd1mkthy",
        "point_name": "3# 本川越駅西口ベンチ",
        "remark": ""
      },
      "type": "Feature"
    },
    {
      "geometry": {
        "coordinates": [
          139.481055,
          35.914505
        ],
        "type": "Point"
      },
      "properties": {
        "bangumi_id": 276150,
        "bangumi_title": "恋爱小行星",
        "ep_cut": 3,
        "image_url": "https://w.junreimap.com/images/points/276150/4sd1mksz9.jpg",
        "location": "",
        "point_id": "4sd1mksz9",
        "point_name": "3# 本川越駅西口Lawson前",
        "remark": ""
      },
      "type": "Feature"
    },
    {
      "geometry": {
        "coordinates": [
          139.481106,
          35.914307
        ],
        "type": "Point"
      },
      "properties": {
        "bangumi_id": 276150,
        "bangumi_title": "恋爱小行星",
        "ep_cut": 3,
        "image_url": "https://w.junreimap.com/images/points/276150/4sd1mktu1.jpg",
        "location": "",
        "point_id": "4sd1mktu1",
        "point_name": "3# 本川越駅西口",
        "remark": ""
      },
      "type": "Feature"
    },
    {
      "geometry": {
        "coordinates": [
          139.482905,
          35.923351
        ],
        "type": "Point"
      },
      "properties": {
        "bangumi_id": 276150,
        "bangumi_title": "恋爱小行星",
        "ep_cut": 3,
        "image_url": "https://w.junreimap.com/images/points/276150/4sd1mktvk.jpg",
        "location": "",
        "point_id": "4sd1mktvk",
        "point_name": "3# 時の鐘入口",
        "remark": ""
      },
      "type": "Feature"
    },
    {
      "geometry": {
        "coordinates": [
          139.483443,
          35.923419
        ],
        "type": "Point"
      },
      "properties": {
        "bangumi_id": 276150,
        "bangumi_title": "恋爱小行星",
        "ep_cut": 3,
        "image_url": "https://w.junreimap.com/images/points/276150/4sd1mku1k.jpg",
        "location": "",
        "point_id": "4sd1mku1k",
        "point_name": "3# 鐘つき通り",
        "remark": ""
      },
      "type": "Feature"
    },
    {
      "geometry": {
        "coordinates": [
          139.483702,
          35.923406
        ],
        "type": "Point"
      },
      "properties": {
        "bangumi_id": 276150,
        "bangumi_title": "恋爱小行星",
        "ep_cut": 3,
        "image_url": "https://w.junreimap.com/images/points/276150/4sd1mktsa.jpg",
        "location": "",
        "point_id": "4sd1mktsa",
        "point_name": "3# 日乃本帆布前",
        "remark": ""
      },
      "type": "Feature"
    },
    {
      "geometry": {
        "coordinates": [
          139.483721,
          35.92327
        ],
        "type": "Point"
      },
      "properties": {
        "bangumi_id": 276150,
        "bangumi_title": "恋爱小行星",
        "ep_cut": 3,
        "image_url": "https://w.junreimap.com/images/points/276150/4sd1mku0s.jpg",
        "location": "",
        "point_id": "4sd1mku0s",
        "point_name": "3# 日乃本帆布前",
        "remark": ""
      },
      "type": "Feature"
    },
    {
      "geometry": {
        "coordinates": [
          139.499976,
          35.868478
        ],
        "type": "Point"
      },
      "properties": {
        "bangumi_id": 276150,
        "bangumi_title": "恋爱小行星",
        "ep_cut": 3,
        "image_url": "https://w.junreimap.com/images/points/276150/4sd1mkv1b.jpg",
        "location": "",
        "point_id": "4sd1mkv1b",
        "point_name": "3# 鶴ケ岡四丁目",
        "remark": ""
      },
      "type": "Feature"
    },
    {
      "geometry": {
        "coordinates": [
          139.499893,
          35.868539
        ],
        "type": "Point"
      },
      "properties": {
        "bangumi_id": 276150,
        "bangumi_title": "恋爱小行星",
        "ep_cut": 3,
        "image_url": "https://w.junreimap.com/images/points/276150/4sd1mkulb.jpg",
        "location": "",
        "point_id": "4sd1mkulb",
        "point_name": "3# 鶴ケ岡四丁目",
        "remark": ""
      },
      "type": "Feature"
    },
    {
      "geometry": {
        "coordinates": [
          139.498082,
          35.8671
        ],
        "type": "Point"
      },
      "properties": {
        "bangumi_id": 276150,
        "bangumi_title": "恋爱小行星",
        "ep_cut": 3,
        "image_url": "https://w.junreimap.com/images/points/276150/4sd1mkucb.jpg",
        "location": "",
        "point_id": "4sd1mkucb",
        "point_name": "3# 鶴ケ岡五丁目3",
        "remark": ""
      },
      "type": "Feature"
    },
    {
      "geometry": {
        "coordinates": [
          139.498285,
          35.8669
        ],
        "type": "Point"
      },
      "properties": {
        "bangumi_id": 276150,
        "bangumi_title": "恋爱小行星",
        "ep_cut": 3,
        "image_url": "https://w.junreimap.com/images/points/276150/4sd1mkv2k.jpg",
        "location": "",
        "point_id": "4sd1mkv2k",
        "point_name": "3# 飛び地",
        "remark": ""
      },
      "type": "Feature"
    },
    {
      "geometry": {
        "coordinates": [
          140.115035,
          36.081108
        ],
        "type": "Point"
      },
      "properties": {
        "bangumi_id": 276150,
        "bangumi_title": "恋爱小行星",
        "ep_cut": 4,
        "image_url": "https://w.junreimap.com/images/points/276150/4sd1mkv1r.jpg",
        "location": "",
        "point_id": "4sd1mkv1r",
        "point_name": "4# 大清水公園前交差点",
        "remark": ""
      },
      "type": "Feature"
    },
    {
      "geometry": {
        "coordinates": [
          140.106466,
          36.089158
        ],
        "type": "Point"
      },
      "properties": {
        "bangumi_id": 276150,
        "bangumi_title": "恋爱小行星",
        "ep_cut": 4,
        "image_url": "https://w.junreimap.com/images/points/276150/4sd1mkven.jpg",
        "location": "",
        "point_id": "4sd1mkven",
        "point_name": "4# つくば看護専門学校",
        "remark": ""
      },
      "type": "Feature"
    },
    {
      "geometry": {
        "coordinates": [
          140.111286,
          36.087385
        ],
        "type": "Point"
      },
      "properties": {
        "bangumi_id": 276150,
        "bangumi_title": "恋爱小行星",
        "ep_cut": 4,
        "image_url": "https://w.junreimap.com/images/points/276150/4sd1mkvqw.jpg",
        "location": "",
        "point_id": "4sd1mkvqw",
        "point_name": "4# H2ロケット実物大モデル付近",
        "remark": ""
      },
      "type": "Feature"
    },
    {
      "geometry": {
        "coordinates": [
          140.111664,
          36.082636
        ],
        "type": "Point"
      },
      "properties": {
        "bangumi_id": 276150,
        "bangumi_title": "恋爱小行星",
        "ep_cut": 4,
        "image_url": "https://w.junreimap.com/images/points/276150/4sd1mkvot.jpg",
        "location": "",
        "point_id": "4sd1mkvot",
        "point_name": "4# つくば駅前交差点",
        "remark": ""
      },
      "type": "Feature"
    },
    {
      "geometry": {
        "coordinates": [
          140.112641,
          36.083312
        ],
        "type": "Point"
      },
      "properties": {
        "bangumi_id": 276150,
        "bangumi_title": "恋爱小行星",
        "ep_cut": 4,
        "image_url": "https://w.junreimap.com/images/points/276150/4sd1mkvkq.jpg",
        "location": "",
        "point_id": "4sd1mkvkq",
        "point_name": "4# 吾妻セントラル歩道橋下",
        "remark": ""
      },
      "type": "Feature"
    },
    {
      "geometry": {
        "coordinates": [
          140.136247,
          36.064511
        ],
        "type": "Point"
      },
      "properties": {
        "bangumi_id": 276150,
        "bangumi_title": "恋爱小行星",
        "ep_cut": 6.5,
        "image_url": "https://w.junreimap.com/images/points/276150/4sd1mkv4h.jpg",
        "location": "",
        "point_id": "4sd1mkv4h",
        "point_name": "4# 並木二丁目交差点",
        "remark": ""
      },
      "type": "Feature"
    },
    {
      "geometry": {
        "coordinates": [
          140.133123,
          36.061862
        ],
        "type": "Point"
      },
      "properties": {
        "bangumi_id": 276150,
        "bangumi_title": "恋爱小行星",
        "ep_cut": 4,
        "image_url": "https://w.junreimap.com/images/points/276150/4sd1mkvny.jpg",
        "location": "",
        "point_id": "4sd1mkvny",
        "point_name": "4# 地質標本館前",
        "remark": ""
      },
      "type": "Feature"
    },
    {
      "geometry": {
        "coordinates": [
          140.1327,
          36.061923
        ],
        "type": "Point"
      },
      "properties": {
        "bangumi_id": 276150,
        "bangumi_title": "恋爱小行星",
        "ep_cut": 4,
        "image_url": "https://w.junreimap.com/images/points/276150/4sd1mkwiz.jpg",
        "location": "",
        "point_id": "4sd1mkwiz",
        "point_name": "4# 地質標本館",
        "remark": ""
      },
      "type": "Feature"
    },
    {
      "geometry": {
        "coordinates": [
          140.130293,
          36.068401
        ],
        "type": "Point"
      },
      "properties": {
        "bangumi_id": 276150,
        "bangumi_title": "恋爱小行星",
        "ep_cut": 4,
        "image_url": "https://w.junreimap.com/images/points/276150/4sd1mkw8k.jpg",
        "location": "",
        "point_id": "4sd1mkw8k",
        "point_name": "4# スペースドーム前",
        "remark": ""
      },
      "type": "Feature"
    },
    {
      "geometry": {
        "coordinates": [
          140.129294,
          36.068163
        ],
        "type": "Point"
      },
      "properties": {
        "bangumi_id": 276150,
        "bangumi_title": "恋爱小行星",
        "ep_cut": 4,
        "image_url": "https://w.junreimap.com/images/points/276150/4sd1mkw0d.jpg",
        "location": "",
        "point_id": "4sd1mkw0d",
        "point_name": "4# H-IIロケット",
        "remark": ""
      },
      "type": "Feature"
    },
    {
      "geometry": {
        "coordinates": [
          140.129869,
          36.068215
        ],
        "type": "Point"
      },
      "properties": {
        "bangumi_id": 276150,
        "bangumi_title": "恋爱小行星",
        "ep_cut": 4,
        "image_url": "https://w.junreimap.com/images/points/276150/4sd1mkw0t.jpg",
        "location": "",
        "point_id": "4sd1mkw0t",
        "point_name": "4# 広報・情報棟 視聴覚室",
        "remark": ""
      },
      "type": "Feature"
    },
    {
      "geometry": {
        "coordinates": [
          140.127118,
          36.067019
        ],
        "type": "Point"
      },
      "properties": {
        "bangumi_id": 276150,
        "bangumi_title": "恋爱小行星",
        "ep_cut": 4,
        "image_url": "https://w.junreimap.com/images/points/276150/4sd1mkvwo.jpg",
        "location": "",
        "point_id": "4sd1mkvwo",
        "point_name": "4# 宇宙飛行士養成棟",
        "remark": ""
      },
      "type": "Feature"
    },
    {
      "geometry": {
        "coordinates": [
          140.127424,
          36.067143
        ],
        "type": "Point"
      },
      "properties": {
        "bangumi_id": 276150,
        "bangumi_title": "恋爱小行星",
        "ep_cut": 4,
        "image_url": "https://w.junreimap.com/images/points/276150/4sd1mkwkq.jpg",
        "location": "",
        "point_id": "4sd1mkwkq",
        "point_name": "4# 宇宙飛行士養成棟",
        "remark": ""
      },
      "type": "Feature"
    },
    {
      "geometry": {
        "coordinates": [
          140.130476,
          36.068173
        ],
        "type": "Point"
      },
      "properties": {
        "bangumi_id": 276150,
        "bangumi_title": "恋爱小行星",
        "ep_cut": 4,
        "image_url": "https://w.junreimap.com/images/points/276150/4sd1mkxa6.jpg",
        "location": "",
        "point_id": "4sd1mkxa6",
        "point_name": "4# スペースドーム",
        "remark": ""
      },
      "type": "Feature"
    },
    {
      "geometry": {
        "coordinates": [
          140.130222,
          36.067937
        ],
        "type": "Point"
      },
      "properties": {
        "bangumi_id": 276150,
        "bangumi_title": "恋爱小行星",
        "ep_cut": 4,
        "image_url": "https://w.junreimap.com/images/points/276150/4sd1mkwrw.jpg",
        "location": "",
        "point_id": "4sd1mkwrw",
        "point_name": "4# プラネットキューブ",
        "remark": ""
      },
      "type": "Feature"
    },
    {
      "geometry": {
        "coordinates": [
          140.130281,
          36.068633
        ],
        "type": "Point"
      },
      "properties": {
        "bangumi_id": 276150,
        "bangumi_title": "恋爱小行星",
        "ep_cut": 4,
        "image_url": "https://w.junreimap.com/images/points/276150/4sd1mkx0m.jpg",
        "location": "",
        "point_id": "4sd1mkx0m",
        "point_name": "4# 筑波宇宙センター駐車場",
        "remark": ""
      },
      "type": "Feature"
    },
    {
      "geometry": {
        "coordinates": [
          140.129676,
          36.06802
        ],
        "type": "Point"
      },
      "properties": {
        "bangumi_id": 276150,
        "bangumi_title": "恋爱小行星",
        "ep_cut": 4,
        "image_url": "https://w.junreimap.com/images/points/276150/4sd1mkwy9.jpg",
        "location": "",
        "point_id": "4sd1mkwy9",
        "point_name": "4# 広報・情報棟前",
        "remark": ""
      },
      "type": "Feature"
    },
    {
      "geometry": {
        "coordinates": [
          140.085477,
          36.103717
        ],
        "type": "Point"
      },
      "properties": {
        "bangumi_id": 276150,
        "bangumi_title": "恋爱小行星",
        "ep_cut": 4,
        "image_url": "https://w.junreimap.com/images/points/276150/4sd1mkx6p.jpg",
        "location": "",
        "point_id": "4sd1mkx6p",
        "point_name": "4# 地図と測量の科学館前",
        "remark": ""
      },
      "type": "Feature"
    },
    {
      "geometry": {
        "coordinates": [
          140.085546,
          36.103382
        ],
        "type": "Point"
      },
      "properties": {
        "bangumi_id": 276150,
        "bangumi_title": "恋爱小行星",
        "ep_cut": 6.5,
        "image_url": "https://w.junreimap.com/images/points/276150/4sd1mkxw9.jpg",
        "location": "",
        "point_id": "4sd1mkxw9",
        "point_name": "4# 国土地理院駐車場",
        "remark": ""
      },
      "type": "Feature"
    },
    {
      "geometry": {
        "coordinates": [
          140.085631,
          36.103882
        ],
        "type": "Point"
      },
      "properties": {
        "bangumi_id": 276150,
        "bangumi_title": "恋爱小行星",
        "ep_cut": 4,
        "image_url": "",
        "location": "",
        "point_id": "4sd1mky4y",
        "point_name": "4# 地図と測量の科学館",
        "remark": ""
      },
      "type": "Feature"
    },
    {
      "geometry": {
        "coordinates": [
          140.086088,
          36.103775
        ],
        "type": "Point"
      },
      "properties": {
        "bangumi_id": 276150,
        "bangumi_title": "恋爱小行星",
        "ep_cut": 4,
        "image_url": "https://w.junreimap.com/images/points/276150/4sd1mky3i.jpg",
        "location": "",
        "point_id": "4sd1mky3i",
        "point_name": "4# つくばVLBIアンテナ部品展示",
        "remark": ""
      },
      "type": "Feature"
    },
    {
      "geometry": {
        "coordinates": [
          138.919276,
          34.653196
        ],
        "type": "Point"
      },
      "properties": {
        "bangumi_id": 276150,
        "bangumi_title": "恋爱小行星",
        "ep_cut": 5,
        "image_url": "https://w.junreimap.com/images/points/276150/4sd1mkybd.jpg",
        "location": "",
        "point_id": "4sd1mkybd",
        "point_name": "5# 吉佐美大浜海水浴場？",
        "remark": "未確認"
      },
      "type": "Feature"
    },
    {
      "geometry": {
        "coordinates": [
          138.922029,
          34.654872
        ],
        "type": "Point"
      },
      "properties": {
        "bangumi_id": 276150,
        "bangumi_title": "恋爱小行星",
        "ep_cut": 5,
        "image_url": "https://w.junreimap.com/images/points/276150/4sd1mkyrv.jpg",
        "location": "",
        "point_id": "4sd1mkyrv",
        "point_name": "5# 舞磯浜？",
        "remark": "未確認"
      },
      "type": "Feature"
    },
    {
      "geometry": {
        "coordinates": [
          138.915715,
          34.642832
        ],
        "type": "Point"
      },
      "properties": {
        "bangumi_id": 276150,
        "bangumi_title": "恋爱小行星",
        "ep_cut": 5,
        "image_url": "https://w.junreimap.com/images/points/276150/4sd1mkya2.jpg",
        "location": "",
        "point_id": "4sd1mkya2",
        "point_name": "5# 田牛サンドスキー場",
        "remark": ""
      },
      "type": "Feature"
    },
    {
      "geometry": {
        "coordinates": [
          139.037919,
          34.774
        ],
        "type": "Point"
      },
      "properties": {
        "bangumi_id": 276150,
        "bangumi_title": "恋爱小行星",
        "ep_cut": 5,
        "image_url": "https://w.junreimap.com/images/points/276150/4sd1mkybf.jpg",
        "location": "",
        "point_id": "4sd1mkybf",
        "point_name": "5# 伊豆稻取付近",
        "remark": ""
      },
      "type": "Feature"
    },
    {
      "geometry": {
        "coordinates": [
          139.062252,
          34.802888
        ],
        "type": "Point"
      },
      "properties": {
        "bangumi_id": 276150,
        "bangumi_title": "恋爱小行星",
        "ep_cut": 5,
        "image_url": "https://w.junreimap.com/images/points/276150/4sd1mkyvq.jpg",
        "location": "",
        "point_id": "4sd1mkyvq",
        "point_name": "5# 片瀬白田付近",
        "remark": ""
      },
      "type": "Feature"
    },
    {
      "geometry": {
        "coordinates": [
          139.718158,
          35.729922
        ],
        "type": "Point"
      },
      "properties": {
        "bangumi_id": 276150,
        "bangumi_title": "恋爱小行星",
        "ep_cut": 5,
        "image_url": "https://w.junreimap.com/images/points/276150/4sd1ml0io.jpg",
        "location": "",
        "point_id": "4sd1ml0io",
        "point_name": "5# Sunshine City",
        "remark": ""
      },
      "type": "Feature"
    },
    {
      "geometry": {
        "coordinates": [
          139.478841,
          35.914282
        ],
        "type": "Point"
      },
      "properties": {
        "bangumi_id": 276150,
        "bangumi_title": "恋爱小行星",
        "ep_cut": 5,
        "image_url": "https://w.junreimap.com/images/points/276150/4sd1ml1r6.jpg",
        "location": "",
        "point_id": "4sd1ml1r6",
        "point_name": "5# Chouette",
        "remark": ""
      },
      "type": "Feature"
    },
    {
      "geometry": {
        "coordinates": [
          139.482446,
          35.906894
        ],
        "type": "Point"
      },
      "properties": {
        "bangumi_id": 276150,
        "bangumi_title": "恋爱小行星",
        "ep_cut": 5,
        "image_url": "https://w.junreimap.com/images/points/276150/4sd1ml2n3.jpg",
        "location": "",
        "point_id": "4sd1ml2n3",
        "point_name": "5# 川越駅西口",
        "remark": ""
      },
      "type": "Feature"
    },
    {
      "geometry": {
        "coordinates": [
          139.513868,
          35.922919
        ],
        "type": "Point"
      },
      "properties": {
        "bangumi_id": 276150,
        "bangumi_title": "恋爱小行星",
        "ep_cut": 5,
        "image_url": "https://w.junreimap.com/images/points/276150/4sd1ml37b.jpg",
        "location": "",
        "point_id": "4sd1ml37b",
        "point_name": "7# 伊佐沼公園",
        "remark": ""
      },
      "type": "Feature"
    },
    {
      "geometry": {
        "coordinates": [
          139.514505,
          35.924059
        ],
        "type": "Point"
      },
      "properties": {
        "bangumi_id": 276150,
        "bangumi_title": "恋爱小行星",
        "ep_cut": 7,
        "image_url": "https://w.junreimap.com/images/points/276150/4sd1ml9l0.jpg",
        "location": "",
        "point_id": "4sd1ml9l0",
        "point_name": "7# 伊佐沼",
        "remark": ""
      },
      "type": "Feature"
    },
    {
      "geometry": {
        "coordinates": [
          139.484019,
          35.923416
        ],
        "type": "Point"
      },
      "properties": {
        "bangumi_id": 276150,
        "bangumi_title": "恋爱小行星",
        "ep_cut": 7,
        "image_url": "https://w.junreimap.com/images/points/276150/4sd1ml9lt.jpg",
        "location": "",
        "point_id": "4sd1ml9lt",
        "point_name": "7# 時の鐘東",
        "remark": ""
      },
      "type": "Feature"
    },
    {
      "geometry": {
        "coordinates": [
          139.764311,
          35.724546
        ],
        "type": "Point"
      },
      "properties": {
        "bangumi_id": 276150,
        "bangumi_title": "恋爱小行星",
        "ep_cut": 8,
        "image_url": "https://w.junreimap.com/images/points/276150/4sd1ml9ck.jpg",
        "location": "",
        "point_id": "4sd1ml9ck",
        "point_name": "8# へび道(藍染川跡)",
        "remark": ""
      },
      "type": "Feature"
    },
    {
      "geometry": {
        "coordinates": [
          139.762978,
          35.714954
        ],
        "type": "Point"
      },
      "properties": {
        "bangumi_id": 276150,
        "bangumi_title": "恋爱小行星",
        "ep_cut": 8,
        "image_url": "https://w.junreimap.com/images/points/276150/4sd1ml9ww.jpg",
        "location": "",
        "point_id": "4sd1ml9ww",
        "point_name": "8# 東大弥生門",
        "remark": ""
      },
      "type": "Feature"
    },
    {
      "geometry": {
        "coordinates": [
          139.48151,
          35.914447
        ],
        "type": "Point"
      },
      "properties": {
        "bangumi_id": 276150,
        "bangumi_title": "恋爱小行星",
        "ep_cut": 8,
        "image_url": "https://w.junreimap.com/images/points/276150/4sd1mlaf5.jpg",
        "location": "",
        "point_id": "4sd1mlaf5",
        "point_name": "8# studio CLIP",
        "remark": ""
      },
      "type": "Feature"
    },
    {
      "geometry": {
        "coordinates": [
          139.656611,
          36.100225
        ],
        "type": "Point"
      },
      "properties": {
        "bangumi_id": 276150,
        "bangumi_title": "恋爱小行星",
        "ep_cut": 8,
        "image_url": "https://w.junreimap.com/images/points/276150/4sd1ml9xn.jpg",
        "location": "",
        "point_id": "4sd1ml9xn",
        "point_name": "8# 鷲宮神社 鳥居（元 二の鳥居）",
        "remark": ""
      },
      "type": "Feature"
    },
    {
      "geometry": {
        "coordinates": [
          139.65548,
          36.100057
        ],
        "type": "Point"
      },
      "properties": {
        "bangumi_id": 276150,
        "bangumi_title": "恋爱小行星",
        "ep_cut": 8,
        "image_url": "https://w.junreimap.com/images/points/276150/4sd1mla56.jpg",
        "location": "",
        "point_id": "4sd1mla56",
        "point_name": "8# 鷲宮神社 絵馬掛け所",
        "remark": ""
      },
      "type": "Feature"
    },
    {
      "geometry": {
        "coordinates": [
          139.654987,
          36.09982
        ],
        "type": "Point"
      },
      "properties": {
        "bangumi_id": 276150,
        "bangumi_title": "恋爱小行星",
        "ep_cut": 8,
        "image_url": "https://w.junreimap.com/images/points/276150/4sd1ml9tm.jpg",
        "location": "",
        "point_id": "4sd1ml9tm",
        "point_name": "8# 鹫宫神社",
        "remark": ""
      },
      "type": "Feature"
    },
    {
      "geometry": {
        "coordinates": [
          139.480719,
          35.914381
        ],
        "type": "Point"
      },
      "properties": {
        "bangumi_id": 276150,
        "bangumi_title": "恋爱小行星",
        "ep_cut": 9,
        "image_url": "https://w.junreimap.com/images/points/276150/4sd1mla3h.jpg",
        "location": "",
        "point_id": "4sd1mla3h",
        "point_name": "9# 本川越駅西口ベンチ",
        "remark": ""
      },
      "type": "Feature"
    },
    {
      "geometry": {
        "coordinates": [
          139.481221,
          35.924546
        ],
        "type": "Point"
      },
      "properties": {
        "bangumi_id": 276150,
        "bangumi_title": "恋爱小行星",
        "ep_cut": 10,
        "image_url": "https://w.junreimap.com/images/points/276150/4sd1mlawq.jpg",
        "location": "",
        "point_id": "4sd1mlawq",
        "point_name": "10# 菓子屋橫丁",
        "remark": ""
      },
      "type": "Feature"
    },
    {
      "geometry": {
        "coordinates": [
          139.513891,
          35.92288
        ],
        "type": "Point"
      },
      "properties": {
        "bangumi_id": 276150,
        "bangumi_title": "恋爱小行星",
        "ep_cut": 10,
        "image_url": "https://w.junreimap.com/images/points/276150/4sd1mlbub.jpg",
        "location": "",
        "point_id": "4sd1mlbub",
        "point_name": "10# 伊佐沼公園",
        "remark": ""
      },
      "type": "Feature"
    },
    {
      "geometry": {
        "coordinates": [
          139.483058,
          35.924785
        ],
        "type": "Point"
      },
      "properties": {
        "bangumi_id": 276150,
        "bangumi_title": "恋爱小行星",
        "ep_cut": 10,
        "image_url": "https://w.junreimap.com/images/points/276150/4sd1mlbog.jpg",
        "location": "",
        "point_id": "4sd1mlbog",
        "point_name": "10# 川越元町郵便局",
        "remark": ""
      },
      "type": "Feature"
    },
    {
      "geometry": {
        "coordinates": [
          139.788055,
          35.551173
        ],
        "type": "Point"
      },
      "properties": {
        "bangumi_id": 276150,
        "bangumi_title": "恋爱小行星",
        "ep_cut": 10,
        "image_url": "https://w.junreimap.com/images/points/276150/4sd1mlbit.jpg",
        "location": "",
        "point_id": "4sd1mlbit",
        "point_name": "10# 羽田空港第２ターミナル",
        "remark": ""
      },
      "type": "Feature"
    },
    {
      "geometry": {
        "coordinates": [
          124.246118,
          24.390651
        ],
        "type": "Point"
      },
      "properties": {
        "bangumi_id": 276150,
        "bangumi_title": "恋爱小行星",
        "ep_cut": 10,
        "image_url": "https://w.junreimap.com/images/points/276150/4sd1mlbgo.jpg",
        "location": "",
        "point_id": "4sd1mlbgo",
        "point_name": "10# 石垣空港",
        "remark": ""
      },
      "type": "Feature"
    },
    {
      "geometry": {
        "coordinates": [
          124.237271,
          24.388221
        ],
        "type": "Point"
      },
      "properties": {
        "bangumi_id": 276150,
        "bangumi_title": "恋爱小行星",
        "ep_cut": 11,
        "image_url": "https://w.junreimap.com/images/points/276150/4sd1mlbfb.jpg",
        "location": "",
        "point_id": "4sd1mlbfb",
        "point_name": "11# 国道390号線",
        "remark": ""
      },
      "type": "Feature"
    },
    {
      "geometry": {
        "coordinates": [
          124.198458,
          24.353265
        ],
        "type": "Point"
      },
      "properties": {
        "bangumi_id": 276150,
        "bangumi_title": "恋爱小行星",
        "ep_cut": 11,
        "image_url": "https://w.junreimap.com/images/points/276150/4sd1mlcrv.jpg",
        "location": "",
        "point_id": "4sd1mlcrv",
        "point_name": "11# 国道390号線 道標",
        "remark": ""
      },
      "type": "Feature"
    },
    {
      "geometry": {
        "coordinates": [
          124.144508,
          24.368613
        ],
        "type": "Point"
      },
      "properties": {
        "bangumi_id": 276150,
        "bangumi_title": "恋爱小行星",
        "ep_cut": 11,
        "image_url": "https://w.junreimap.com/images/points/276150/4sd1mlc7p.jpg",
        "location": "",
        "point_id": "4sd1mlc7p",
        "point_name": "11# 石垣青少年の家入口",
        "remark": ""
      },
      "type": "Feature"
    },
    {
      "geometry": {
        "coordinates": [
          124.143995,
          24.368619
        ],
        "type": "Point"
      },
      "properties": {
        "bangumi_id": 276150,
        "bangumi_title": "恋爱小行星",
        "ep_cut": 11,
        "image_url": "https://w.junreimap.com/images/points/276150/4sd1mle6s.jpg",
        "location": "",
        "point_id": "4sd1mle6s",
        "point_name": "11# 石垣青少年の家",
        "remark": ""
      },
      "type": "Feature"
    },
    {
      "geometry": {
        "coordinates": [
          124.171027,
          24.411727
        ],
        "type": "Point"
      },
      "properties": {
        "bangumi_id": 276150,
        "bangumi_title": "恋爱小行星",
        "ep_cut": 11,
        "image_url": "https://w.junreimap.com/images/points/276150/4sd1mldnw.jpg",
        "location": "",
        "point_id": "4sd1mldnw",
        "point_name": "11# VERA石垣島観測局・電波望遠鏡",
        "remark": ""
      },
      "type": "Feature"
    },
    {
      "geometry": {
        "coordinates": [
          140.111973,
          36.086341
        ],
        "type": "Point"
      },
      "properties": {
        "bangumi_id": 276150,
        "bangumi_title": "恋爱小行星",
        "ep_cut": 11,
        "image_url": "https://w.junreimap.com/images/points/276150/4sd1mleq1.jpg",
        "location": "",
        "point_id": "4sd1mleq1",
        "point_name": "11# H2ロケット実物大モデル付近",
        "remark": ""
      },
      "type": "Feature"
    },
    {
      "geometry": {
        "coordinates": [
          140.129646,
          36.068545
        ],
        "type": "Point"
      },
      "properties": {
        "bangumi_id": 276150,
        "bangumi_title": "恋爱小行星",
        "ep_cut": 11,
        "image_url": "https://w.junreimap.com/images/points/276150/4sd1mlejk.jpg",
        "location": "",
        "point_id": "4sd1mlejk",
        "point_name": "11# 筑波宇宙センター",
        "remark": ""
      },
      "type": "Feature"
    },
    {
      "geometry": {
        "coordinates": [
          124.139221,
          24.373296
        ],
        "type": "Point"
      },
      "properties": {
        "bangumi_id": 276150,
        "bangumi_title": "恋爱小行星",
        "ep_cut": 11,
        "image_url": "https://w.junreimap.com/images/points/276150/4sd1mlepd.jpg",
        "location": "",
        "point_id": "4sd1mlepd",
        "point_name": "11# 石垣島天文台",
        "remark": ""
      },
      "type": "Feature"
    },
    {
      "geometry": {
        "coordinates": [
          124.157324,
          24.338718
        ],
        "type": "Point"
      },
      "properties": {
        "bangumi_id": 276150,
        "bangumi_title": "恋爱小行星",
        "ep_cut": 11,
        "image_url": "https://w.junreimap.com/images/points/276150/4sd1mled4.jpg",
        "location": "",
        "point_id": "4sd1mled4",
        "point_name": "11# A&W 石垣店",
        "remark": ""
      },
      "type": "Feature"
    },
    {
      "geometry": {
        "coordinates": [
          124.142229,
          24.370893
        ],
        "type": "Point"
      },
      "properties": {
        "bangumi_id": 276150,
        "bangumi_title": "恋爱小行星",
        "ep_cut": 11,
        "image_url": "https://w.junreimap.com/images/points/276150/4sd1mletk.jpg",
        "location": "",
        "point_id": "4sd1mletk",
        "point_name": "11# 石垣島天文台第1駐車場付近",
        "remark": ""
      },
      "type": "Feature"
    },
    {
      "geometry": {
        "coordinates": [
          124.161299,
          24.340529
        ],
        "type": "Point"
      },
      "properties": {
        "bangumi_id": 276150,
        "bangumi_title": "恋爱小行星",
        "ep_cut": 11,
        "image_url": "https://w.junreimap.com/images/points/276150/4sd1mlfla.jpg",
        "location": "",
        "point_id": "4sd1mlfla",
        "point_name": "11# 民宿 八重山荘",
        "remark": ""
      },
      "type": "Feature"
    },
    {
      "geometry": {
        "coordinates": [
          139.47898,
          35.916207
        ],
        "type": "Point"
      },
      "properties": {
        "bangumi_id": 276150,
        "bangumi_title": "恋爱小行星",
        "ep_cut": 9,
        "image_url": "https://w.junreimap.com/images/points/276150/4sd1mlfjh.jpg",
        "location": "",
        "point_id": "4sd1mlfjh",
        "point_name": "星咲高校のモデル",
        "remark": ""
      },
      "type": "Feature"
    }
  ],
  "type": "FeatureCollection"
}