{
  "features": [
    {
      "geometry": {
        "coordinates": [
          139.671171,
          35.643516
        ],
        "type": "Point"
      },
      "properties": {
        "bangumi_id": 278949,
        "bangumi_title": "女神异闻录5 皇家版",
        "ep_cut": "",
        "image_url": "https://w.junreimap.com/images/user/0/bangumi/278949/points/kqig88e03-1749478473052.jpg",
        "location": "",
        "point_id": "kqig88e03",
        "point_name": "三軒茶屋駅",
        "remark": "注意是東急田園都市線，而不是東急世田谷線"
      },
      "type": "Feature"
    },
    {
      "geometry": {
        "coordinates": [
          139.669272,
          35.642801
        ],
        "type": "Point"
      },
      "properties": {
        "bangumi_id": 278949,
        "bangumi_title": "女神异闻录5 皇家版",
        "ep_cut": "",
        "image_url": "https://w.junreimap.com/images/user/0/bangumi/278949/points/k212285yy-1717425192785.jpg",
        "location": "",
        "point_id": "k212285yy",
        "point_name": "スナック　ニューマリーナ",
        "remark": "卢布朗咖啡店原型。\n预约制酒吧，详见店内公告/谷歌地图评论区，禁止仅拍照不消费（巡礼的人太多了）。台位费4400日元/人次，饮品600日元/杯起。\n一般晚7点后营业，具体日期见店铺ins。店员们只会日语，不建议使用翻译器。可能会偶遇常客ATLUS社员工？\n如果只是想吃午餐的话可以去隔壁たこはる吃咖喱（不过那边就没有P5元素了）"
      },
      "type": "Feature"
    },
    {
      "geometry": {
        "coordinates": [
          139.66948,
          35.642718
        ],
        "type": "Point"
      },
      "properties": {
        "bangumi_id": 278949,
        "bangumi_title": "女神异闻录5 皇家版",
        "ep_cut": "",
        "image_url": "https://w.junreimap.com/images/user/0/bangumi/278949/points/l0hrxpewa-1717425392288.jpg",
        "location": "",
        "point_id": "l0hrxpewa",
        "point_name": "千代の汤",
        "remark": "已于2021年9月停业，据说是老板干不动了"
      },
      "type": "Feature"
    },
    {
      "geometry": {
        "coordinates": [
          139.669137,
          35.642393
        ],
        "type": "Point"
      },
      "properties": {
        "bangumi_id": 278949,
        "bangumi_title": "女神异闻录5 皇家版",
        "ep_cut": "",
        "image_url": "https://w.junreimap.com/images/user/0/bangumi/278949/points/14tswjo-1749479163291.jpg",
        "location": "",
        "point_id": "14tswjo",
        "point_name": "変電設備",
        "remark": "游戏内为超市旁边破旧的公寓。\n原型为公寓，于2016年前后改造为变电站+自行车停车场"
      },
      "type": "Feature"
    },
    {
      "geometry": {
        "coordinates": [
          139.669089,
          35.642326
        ],
        "type": "Point"
      },
      "properties": {
        "bangumi_id": 278949,
        "bangumi_title": "女神异闻录5 皇家版",
        "ep_cut": "",
        "image_url": "https://w.junreimap.com/images/user/0/bangumi/278949/points/14tx63y-1749479261627.jpg",
        "location": "",
        "point_id": "14tx63y",
        "point_name": "KYO",
        "remark": "游戏内武见诊所旁"
      },
      "type": "Feature"
    },
    {
      "geometry": {
        "coordinates": [
          139.669065,
          35.642922
        ],
        "type": "Point"
      },
      "properties": {
        "bangumi_id": 278949,
        "bangumi_title": "女神异闻录5 皇家版",
        "ep_cut": "",
        "image_url": "https://w.junreimap.com/images/user/0/bangumi/278949/points/14tybp0-1749479325388.jpg",
        "location": "",
        "point_id": "14tybp0",
        "point_name": "肉のハナマサ",
        "remark": "游戏内四轩茶屋的超市。楼上有击球场，但是开不开诸说不一"
      },
      "type": "Feature"
    },
    {
      "geometry": {
        "coordinates": [
          139.669256,
          35.642317
        ],
        "type": "Point"
      },
      "properties": {
        "bangumi_id": 278949,
        "bangumi_title": "女神异闻录5 皇家版",
        "ep_cut": "",
        "image_url": "https://w.junreimap.com/images/user/0/bangumi/278949/points/4fgdaqq-1756652083031.jpg",
        "location": "",
        "point_id": "4fgdaqq",
        "point_name": "ぷくいち",
        "remark": ""
      },
      "type": "Feature"
    },
    {
      "geometry": {
        "coordinates": [
          139.668982,
          35.642715
        ],
        "type": "Point"
      },
      "properties": {
        "bangumi_id": 278949,
        "bangumi_title": "女神异闻录5 皇家版",
        "ep_cut": "",
        "image_url": "https://w.junreimap.com/images/user/0/bangumi/278949/points/14whcji-1749483633666.jpg",
        "location": "",
        "point_id": "14whcji",
        "point_name": "カラオケ ベスト１０",
        "remark": "原三轩茶屋电影院，于2013年前后改造为卡拉OK店"
      },
      "type": "Feature"
    },
    {
      "geometry": {
        "coordinates": [
          139.669001,
          35.643064
        ],
        "type": "Point"
      },
      "properties": {
        "bangumi_id": 278949,
        "bangumi_title": "女神异闻录5 皇家版",
        "ep_cut": "",
        "image_url": "https://w.junreimap.com/images/user/0/bangumi/278949/points/14tz0ze-1749479372939.jpg",
        "location": "",
        "point_id": "14tz0ze",
        "point_name": "ファッション​ビル​第2",
        "remark": "武见诊所原型"
      },
      "type": "Feature"
    },
    {
      "geometry": {
        "coordinates": [
          139.66837,
          35.641695
        ],
        "type": "Point"
      },
      "properties": {
        "bangumi_id": 278949,
        "bangumi_title": "女神异闻录5 皇家版",
        "ep_cut": "",
        "image_url": "https://w.junreimap.com/images/user/0/bangumi/278949/points/14u4oe7-1749479611675.jpg",
        "location": "",
        "point_id": "14u4oe7",
        "point_name": "三軒​茶​屋​お​の​整骨院​はり灸​マッサージ​院",
        "remark": ""
      },
      "type": "Feature"
    },
    {
      "geometry": {
        "coordinates": [
          139.723955,
          35.672839
        ],
        "type": "Point"
      },
      "properties": {
        "bangumi_id": 278949,
        "bangumi_title": "女神异闻录5 皇家版",
        "ep_cut": "",
        "image_url": "https://w.junreimap.com/images/user/0/bangumi/278949/points/4qvpjdq-1757342889830.jpg",
        "location": "",
        "point_id": "4qvpjdq",
        "point_name": "銀座線 青山一丁目",
        "remark": ""
      },
      "type": "Feature"
    },
    {
      "geometry": {
        "coordinates": [
          139.724577,
          35.671968
        ],
        "type": "Point"
      },
      "properties": {
        "bangumi_id": 278949,
        "bangumi_title": "女神异闻录5 皇家版",
        "ep_cut": "",
        "image_url": "https://w.junreimap.com/images/user/0/bangumi/278949/points/4qvg117-1757342547475.jpg",
        "location": "",
        "point_id": "4qvg117",
        "point_name": "赤坂消防署発祥之地碑",
        "remark": "Joker背后的大圆球。实际位于大厦南侧的绿地，是一个“又方又圆”的小型雕塑"
      },
      "type": "Feature"
    },
    {
      "geometry": {
        "coordinates": [
          139.725075,
          35.671004
        ],
        "type": "Point"
      },
      "properties": {
        "bangumi_id": 278949,
        "bangumi_title": "女神异闻录5 皇家版",
        "ep_cut": "",
        "image_url": "https://w.junreimap.com/images/user/0/bangumi/278949/points/mxjmquz3u-1722836480903.jpg",
        "location": "",
        "point_id": "mxjmquz3u",
        "point_name": "港区立青葉公園",
        "remark": "通过对比周边环境可知，游戏中的秀尽学园在现实中位于青叶公园的位置。也是剧情里出现的学校附近的小公园。附近为普通民宅，请不要造成困扰"
      },
      "type": "Feature"
    },
    {
      "geometry": {
        "coordinates": [
          139.700923,
          35.658995
        ],
        "type": "Point"
      },
      "properties": {
        "bangumi_id": 278949,
        "bangumi_title": "女神异闻录5 皇家版",
        "ep_cut": "",
        "image_url": "https://w.junreimap.com/images/user/0/bangumi/278949/points/4qw2bxm-1757343459550.jpg",
        "location": "",
        "point_id": "4qw2bxm",
        "point_name": "渋谷駅A8口",
        "remark": "涩谷站站房大范围拆除改造，图上景色已消失，工地被围挡。目前仅保留地下出口和八公像一小片广场地区"
      },
      "type": "Feature"
    },
    {
      "geometry": {
        "coordinates": [
          139.700728,
          35.659061
        ],
        "type": "Point"
      },
      "properties": {
        "bangumi_id": 278949,
        "bangumi_title": "女神异闻录5 皇家版",
        "ep_cut": "",
        "image_url": "https://w.junreimap.com/images/user/0/bangumi/278949/points/4qvrvk2-1757343005957.jpg",
        "location": "",
        "point_id": "4qvrvk2",
        "point_name": "青ガエル",
        "remark": "2020年该电车被移动到秋田县大管市的“秋田犬の里”。涩谷地下步行街处有一角专门介绍涩谷站的历史，可以看到绿色电车的照片"
      },
      "type": "Feature"
    },
    {
      "geometry": {
        "coordinates": [
          139.701913,
          35.658872
        ],
        "type": "Point"
      },
      "properties": {
        "bangumi_id": 278949,
        "bangumi_title": "女神异闻录5 皇家版",
        "ep_cut": "",
        "image_url": "https://w.junreimap.com/images/user/0/bangumi/278949/points/njf2dtftb-1724550757564.jpg",
        "location": "",
        "point_id": "njf2dtftb",
        "point_name": "東京メトロ銀座線",
        "remark": "（2025.9）因涩谷站改造工程，导致此处广场被围挡无法进入。青汁小店也一并撤除。位置大概是A7出口附近"
      },
      "type": "Feature"
    },
    {
      "geometry": {
        "coordinates": [
          139.700176,
          35.659448
        ],
        "type": "Point"
      },
      "properties": {
        "bangumi_id": 278949,
        "bangumi_title": "女神异闻录5 皇家版",
        "ep_cut": "",
        "image_url": "https://w.junreimap.com/images/user/0/bangumi/278949/points/4qy3a12-1757346914026.jpg",
        "location": "",
        "point_id": "4qy3a12",
        "point_name": "しぶちか",
        "remark": "与游戏内装修有大量差异，但是街道布局整体没动。花店和游戏内位置一致。"
      },
      "type": "Feature"
    },
    {
      "geometry": {
        "coordinates": [
          139.700602,
          35.658795
        ],
        "type": "Point"
      },
      "properties": {
        "bangumi_id": 278949,
        "bangumi_title": "女神异闻录5 皇家版",
        "ep_cut": "",
        "image_url": "https://w.junreimap.com/images/user/0/bangumi/278949/points/14w1rpf-1749482909207.jpg",
        "location": "",
        "point_id": "14w1rpf",
        "point_name": "銀座線と井の頭線連絡通路",
        "remark": "原地点位于旧东急百货楼内，已于2020年拆除，银座线站房也一并搬迁。\n涩谷站内「明日の神話」壁画附近可以拍出类似原作的效果"
      },
      "type": "Feature"
    },
    {
      "geometry": {
        "coordinates": [
          139.700287,
          35.658786
        ],
        "type": "Point"
      },
      "properties": {
        "bangumi_id": 278949,
        "bangumi_title": "女神异闻录5 皇家版",
        "ep_cut": "",
        "image_url": "https://w.junreimap.com/images/user/0/bangumi/278949/points/a7j1y7n-1769233501507.jpg",
        "location": "",
        "point_id": "a7j1y7n",
        "point_name": "涩谷秘密基地",
        "remark": "位于京王井之头线2楼连接通道，搜索“岡本太郎「明日の神話」”也可到达，在这幅画正对面，面向涩谷十字路口即游戏中的秘密基地。2026.1.20此地在装修改造变数较多。"
      },
      "type": "Feature"
    },
    {
      "geometry": {
        "coordinates": [
          139.700583,
          35.659049
        ],
        "type": "Point"
      },
      "properties": {
        "bangumi_id": 278949,
        "bangumi_title": "女神异闻录5 皇家版",
        "ep_cut": "",
        "image_url": "https://w.junreimap.com/images/user/0/bangumi/278949/points/kqiynmhfw-1716644200196.jpg",
        "location": "",
        "point_id": "kqiynmhfw",
        "point_name": "忠犬ハチ公",
        "remark": ""
      },
      "type": "Feature"
    },
    {
      "geometry": {
        "coordinates": [
          139.700075,
          35.659746
        ],
        "type": "Point"
      },
      "properties": {
        "bangumi_id": 278949,
        "bangumi_title": "女神异闻录5 皇家版",
        "ep_cut": "",
        "image_url": "https://w.junreimap.com/images/user/0/bangumi/278949/points/k214qkh03-1716644160667.jpg",
        "location": "",
        "point_id": "k214qkh03",
        "point_name": "太盛堂书店",
        "remark": ""
      },
      "type": "Feature"
    },
    {
      "geometry": {
        "coordinates": [
          139.698958,
          35.660147
        ],
        "type": "Point"
      },
      "properties": {
        "bangumi_id": 278949,
        "bangumi_title": "女神异闻录5 皇家版",
        "ep_cut": "",
        "image_url": "https://w.junreimap.com/images/user/0/bangumi/278949/points/14wokd4-1749483895261.jpg",
        "location": "",
        "point_id": "14wokd4",
        "point_name": "iPhone​修理​救急​便",
        "remark": "涩谷天鹅绒房间/生存游戏专卖店小街入口。现实为各个商铺后门与仓库；街口有显著的“此处仅通过用”告示牌。不建议进入小街巡礼，可能会引起困扰。"
      },
      "type": "Feature"
    },
    {
      "geometry": {
        "coordinates": [
          139.699045,
          35.660336
        ],
        "type": "Point"
      },
      "properties": {
        "bangumi_id": 278949,
        "bangumi_title": "女神异闻录5 皇家版",
        "ep_cut": "",
        "image_url": "https://w.junreimap.com/images/user/0/bangumi/278949/points/14wq1lg-1749483975879.jpg",
        "location": "",
        "point_id": "14wq1lg",
        "point_name": "ファミリー​マート\nスバル​渋谷​センター​街​店",
        "remark": ""
      },
      "type": "Feature"
    },
    {
      "geometry": {
        "coordinates": [
          139.698912,
          35.660173
        ],
        "type": "Point"
      },
      "properties": {
        "bangumi_id": 278949,
        "bangumi_title": "女神异闻录5 皇家版",
        "ep_cut": "",
        "image_url": "https://w.junreimap.com/images/user/0/bangumi/278949/points/14wqnmu-1749484000071.jpg",
        "location": "",
        "point_id": "14wqnmu",
        "point_name": "松屋\n渋谷​センター​街​店",
        "remark": ""
      },
      "type": "Feature"
    },
    {
      "geometry": {
        "coordinates": [
          139.698896,
          35.660348
        ],
        "type": "Point"
      },
      "properties": {
        "bangumi_id": 278949,
        "bangumi_title": "女神异闻录5 皇家版",
        "ep_cut": "",
        "image_url": "https://w.junreimap.com/images/user/0/bangumi/278949/points/14wrh17-1749484046491.jpg",
        "location": "",
        "point_id": "14wrh17",
        "point_name": "バーガーキング 渋谷センター街店",
        "remark": ""
      },
      "type": "Feature"
    },
    {
      "geometry": {
        "coordinates": [
          139.701036,
          35.661275
        ],
        "type": "Point"
      },
      "properties": {
        "bangumi_id": 278949,
        "bangumi_title": "女神异闻录5 皇家版",
        "ep_cut": "",
        "image_url": "https://w.junreimap.com/images/user/0/bangumi/278949/points/14wtt42-1749484185733.jpg",
        "location": "",
        "point_id": "14wtt42",
        "point_name": "パセラ渋谷店",
        "remark": ""
      },
      "type": "Feature"
    },
    {
      "geometry": {
        "coordinates": [
          139.703534,
          35.65897
        ],
        "type": "Point"
      },
      "properties": {
        "bangumi_id": 278949,
        "bangumi_title": "女神异闻录5 皇家版",
        "ep_cut": "",
        "image_url": "https://w.junreimap.com/images/user/0/bangumi/278949/points/4qyiksf-1757347606977.jpg",
        "location": "",
        "point_id": "4qyiksf",
        "point_name": "渋谷ヒカリエ",
        "remark": "游戏中仅说明“班目的个人展览在车站前的商场”。可能是该点的涩谷HIKARIE，也可能是已经被拆除的旧东急百货楼内。"
      },
      "type": "Feature"
    },
    {
      "geometry": {
        "coordinates": [
          139.697106,
          35.659937
        ],
        "type": "Point"
      },
      "properties": {
        "bangumi_id": 278949,
        "bangumi_title": "女神异闻录5 皇家版",
        "ep_cut": "",
        "image_url": "https://w.junreimap.com/images/user/0/bangumi/278949/points/4qxetz0-1757345730525.jpg",
        "location": "",
        "point_id": "4qxetz0",
        "point_name": "ホテルインディゴ 東京渋谷",
        "remark": "无印版最终战的场地附近（空中）"
      },
      "type": "Feature"
    },
    {
      "geometry": {
        "coordinates": [
          139.735691,
          35.691905
        ],
        "type": "Point"
      },
      "properties": {
        "bangumi_id": 278949,
        "bangumi_title": "女神异闻录5 皇家版",
        "ep_cut": "",
        "image_url": "https://w.junreimap.com/images/user/0/bangumi/278949/points/qdfna1kdz-1732544927907.jpg",
        "location": "",
        "point_id": "qdfna1kdz",
        "point_name": "市ヶ谷フィッシュセンター",
        "remark": ""
      },
      "type": "Feature"
    },
    {
      "geometry": {
        "coordinates": [
          139.757603,
          35.69931
        ],
        "type": "Point"
      },
      "properties": {
        "bangumi_id": 278949,
        "bangumi_title": "女神异闻录5 皇家版",
        "ep_cut": "",
        "image_url": "https://w.junreimap.com/images/user/0/bangumi/278949/points/qdfv1yznf-1732545377214.jpg",
        "location": "",
        "point_id": "qdfv1yznf",
        "point_name": "カトリック​神田​教会",
        "remark": ""
      },
      "type": "Feature"
    },
    {
      "geometry": {
        "coordinates": [
          139.701461,
          35.694966
        ],
        "type": "Point"
      },
      "properties": {
        "bangumi_id": 278949,
        "bangumi_title": "女神异闻录5 皇家版",
        "ep_cut": "",
        "image_url": "https://w.junreimap.com/images/user/0/bangumi/278949/points/qdgcnupay-1732546482640.jpg",
        "location": "",
        "point_id": "qdgcnupay",
        "point_name": "新宿東宝ビル",
        "remark": "需参考2009年谷歌地图街景，这一侧为电影院正门。2024年后商场外侧装修，可以绕一圈找比较还原的机位"
      },
      "type": "Feature"
    },
    {
      "geometry": {
        "coordinates": [
          139.70256,
          35.694634
        ],
        "type": "Point"
      },
      "properties": {
        "bangumi_id": 278949,
        "bangumi_title": "女神异闻录5 皇家版",
        "ep_cut": "",
        "image_url": "https://w.junreimap.com/images/user/0/bangumi/278949/points/qdgivxepq-1732546887353.jpg",
        "location": "",
        "point_id": "qdgivxepq",
        "point_name": "新宿歌舞伎町",
        "remark": "恶魔COOP酒吧附近（推测）。歌舞伎街比较乱，注意保管好人身财物安全"
      },
      "type": "Feature"
    },
    {
      "geometry": {
        "coordinates": [
          139.70303,
          35.671577
        ],
        "type": "Point"
      },
      "properties": {
        "bangumi_id": 278949,
        "bangumi_title": "女神异闻录5 皇家版",
        "ep_cut": "",
        "image_url": "https://w.junreimap.com/images/user/0/bangumi/278949/points/a7imt2x-1769232798801.jpg",
        "location": "",
        "point_id": "a7imt2x",
        "point_name": "原宿竹下通り",
        "remark": "游戏中的约会事件原宿竹子通小路，现实中位于原宿jr山手线原宿站竹下口正对面，竹下通商业街入口招牌"
      },
      "type": "Feature"
    },
    {
      "geometry": {
        "coordinates": [
          139.699463,
          35.675621
        ],
        "type": "Point"
      },
      "properties": {
        "bangumi_id": 278949,
        "bangumi_title": "女神异闻录5 皇家版",
        "ep_cut": "",
        "image_url": "https://w.junreimap.com/images/user/0/bangumi/278949/points/a7hn4ic-1769232580662.jpg",
        "location": "",
        "point_id": "a7hn4ic",
        "point_name": "明治神宮",
        "remark": ""
      },
      "type": "Feature"
    },
    {
      "geometry": {
        "coordinates": [
          139.757067,
          35.695772
        ],
        "type": "Point"
      },
      "properties": {
        "bangumi_id": 278949,
        "bangumi_title": "女神异闻录5 皇家版",
        "ep_cut": "",
        "image_url": "https://w.junreimap.com/images/user/0/bangumi/278949/points/qilac51ln-1732949009026.jpg",
        "location": "",
        "point_id": "qilac51ln",
        "point_name": "矢口書店",
        "remark": ""
      },
      "type": "Feature"
    },
    {
      "geometry": {
        "coordinates": [
          139.770538,
          35.698857
        ],
        "type": "Point"
      },
      "properties": {
        "bangumi_id": 278949,
        "bangumi_title": "女神异闻录5 皇家版",
        "ep_cut": "",
        "image_url": "https://w.junreimap.com/images/user/0/bangumi/278949/points/qikxqrtlz-1732948249961.jpg",
        "location": "",
        "point_id": "qikxqrtlz",
        "point_name": "秋葉原電気街",
        "remark": ""
      },
      "type": "Feature"
    },
    {
      "geometry": {
        "coordinates": [
          139.775767,
          35.715285
        ],
        "type": "Point"
      },
      "properties": {
        "bangumi_id": 278949,
        "bangumi_title": "女神异闻录5 皇家版",
        "ep_cut": "",
        "image_url": "",
        "location": "",
        "point_id": "71kl7jk",
        "point_name": "国立西洋美術館",
        "remark": "游戏内最后一天见穷哥们的地方"
      },
      "type": "Feature"
    },
    {
      "geometry": {
        "coordinates": [
          139.691066,
          35.692632
        ],
        "type": "Point"
      },
      "properties": {
        "bangumi_id": 278949,
        "bangumi_title": "女神异闻录5 皇家版",
        "ep_cut": "",
        "image_url": "https://w.junreimap.com/images/user/0/bangumi/278949/points/4qwlf7w-1757344352657.jpg",
        "location": "",
        "point_id": "4qwlf7w",
        "point_name": "ヒルトン東京",
        "remark": "怪盗团建立时的自助餐所在地"
      },
      "type": "Feature"
    },
    {
      "geometry": {
        "coordinates": [
          139.75232,
          35.675259
        ],
        "type": "Point"
      },
      "properties": {
        "bangumi_id": 278949,
        "bangumi_title": "女神异闻录5 皇家版",
        "ep_cut": "",
        "image_url": "https://w.junreimap.com/images/user/0/bangumi/278949/points/4qx6qnk-1757345352327.jpg",
        "location": "",
        "point_id": "4qx6qnk",
        "point_name": "東京高等裁判所",
        "remark": ""
      },
      "type": "Feature"
    },
    {
      "geometry": {
        "coordinates": [
          139.747029,
          35.676302
        ],
        "type": "Point"
      },
      "properties": {
        "bangumi_id": 278949,
        "bangumi_title": "女神异闻录5 皇家版",
        "ep_cut": "",
        "image_url": "https://w.junreimap.com/images/user/0/bangumi/278949/points/4qx92si-1757345460931.jpg",
        "location": "",
        "point_id": "4qx92si",
        "point_name": "國會議事堂",
        "remark": ""
      },
      "type": "Feature"
    },
    {
      "geometry": {
        "coordinates": [
          -157.830757,
          21.277514
        ],
        "type": "Point"
      },
      "properties": {
        "bangumi_id": 278949,
        "bangumi_title": "女神异闻录5 皇家版",
        "ep_cut": "",
        "image_url": "https://w.junreimap.com/images/user/0/bangumi/278949/points/qil6mfwnu-1732948826214.jpg",
        "location": "",
        "point_id": "qil6mfwnu",
        "point_name": "Hilton Hawaiian Village Waikiki Beach Resort",
        "remark": "夏威夷修学旅行时的酒店大堂原型"
      },
      "type": "Feature"
    },
    {
      "geometry": {
        "coordinates": [
          139.579925,
          35.703925
        ],
        "type": "Point"
      },
      "properties": {
        "bangumi_id": 278949,
        "bangumi_title": "女神异闻录5 皇家版",
        "ep_cut": "",
        "image_url": "https://w.junreimap.com/images/user/0/bangumi/278949/points/k2awi8kln-1734240789489.jpg",
        "location": "",
        "point_id": "k2awi8kln",
        "point_name": "吉祥寺町服务站",
        "remark": ""
      },
      "type": "Feature"
    },
    {
      "geometry": {
        "coordinates": [
          139.58043,
          35.706067
        ],
        "type": "Point"
      },
      "properties": {
        "bangumi_id": 278949,
        "bangumi_title": "女神异闻录5 皇家版",
        "ep_cut": "",
        "image_url": "https://w.junreimap.com/images/user/0/bangumi/278949/points/k2anxv9yy-1734240754721.jpg",
        "location": "",
        "point_id": "k2anxv9yy",
        "point_name": "月窓寺",
        "remark": "吉祥寺寺庙"
      },
      "type": "Feature"
    },
    {
      "geometry": {
        "coordinates": [
          139.579022,
          35.704029
        ],
        "type": "Point"
      },
      "properties": {
        "bangumi_id": 278949,
        "bangumi_title": "女神异闻录5 皇家版",
        "ep_cut": "",
        "image_url": "",
        "location": "",
        "point_id": "71kwnxg",
        "point_name": "吉祥寺さとう",
        "remark": "炸牛肉饼真的会排队"
      },
      "type": "Feature"
    },
    {
      "geometry": {
        "coordinates": [
          139.57903,
          35.703671
        ],
        "type": "Point"
      },
      "properties": {
        "bangumi_id": 278949,
        "bangumi_title": "女神异闻录5 皇家版",
        "ep_cut": "",
        "image_url": "",
        "location": "",
        "point_id": "71l8ljp",
        "point_name": "ハモニカ横丁",
        "remark": "以物换物&卖香的小街"
      },
      "type": "Feature"
    },
    {
      "geometry": {
        "coordinates": [
          139.578656,
          35.704641
        ],
        "type": "Point"
      },
      "properties": {
        "bangumi_id": 278949,
        "bangumi_title": "女神异闻录5 皇家版",
        "ep_cut": "",
        "image_url": "",
        "location": "",
        "point_id": "71lcox0",
        "point_name": "ダーツカフェデルタ 吉祥寺店",
        "remark": "台球&飞镖馆"
      },
      "type": "Feature"
    },
    {
      "geometry": {
        "coordinates": [
          139.580148,
          35.704742
        ],
        "type": "Point"
      },
      "properties": {
        "bangumi_id": 278949,
        "bangumi_title": "女神异闻录5 皇家版",
        "ep_cut": "",
        "image_url": "",
        "location": "",
        "point_id": "71ldzz9",
        "point_name": "サムタイム",
        "remark": "爵士酒吧，台位费约2500日元/人（不含餐点饮料）"
      },
      "type": "Feature"
    },
    {
      "geometry": {
        "coordinates": [
          139.880851,
          35.632374
        ],
        "type": "Point"
      },
      "properties": {
        "bangumi_id": 278949,
        "bangumi_title": "女神异闻录5 皇家版",
        "ep_cut": "",
        "image_url": "https://w.junreimap.com/images/user/0/bangumi/278949/points/2q18mxh-1752938275964.jpg",
        "location": "",
        "point_id": "2q18mxh",
        "point_name": "東京ディズニーランド",
        "remark": ""
      },
      "type": "Feature"
    },
    {
      "geometry": {
        "coordinates": [
          139.771046,
          35.633091
        ],
        "type": "Point"
      },
      "properties": {
        "bangumi_id": 278949,
        "bangumi_title": "女神异闻录5 皇家版",
        "ep_cut": "",
        "image_url": "https://w.junreimap.com/images/user/0/bangumi/278949/points/qz4e7qzvp-1734244422766.jpg",
        "location": "",
        "point_id": "qz4e7qzvp",
        "point_name": "台場公園",
        "remark": "桥下没有对应的机位和临海步道，最近的点就是这里。几个大台场只有土路，推荐穿运动鞋前往"
      },
      "type": "Feature"
    },
    {
      "geometry": {
        "coordinates": [
          139.784493,
          35.630703
        ],
        "type": "Point"
      },
      "properties": {
        "bangumi_id": 278949,
        "bangumi_title": "女神异闻录5 皇家版",
        "ep_cut": "",
        "image_url": "https://w.junreimap.com/images/user/0/bangumi/278949/points/qz3rj35l8-1734243241687.jpg",
        "location": "",
        "point_id": "qz3rj35l8",
        "point_name": "水の広場公園",
        "remark": "第三学期殿堂位置，实际为高架桥下荒地"
      },
      "type": "Feature"
    },
    {
      "geometry": {
        "coordinates": [
          139.32496,
          35.644597
        ],
        "type": "Point"
      },
      "properties": {
        "bangumi_id": 278949,
        "bangumi_title": "女神异闻录5 皇家版",
        "ep_cut": "",
        "image_url": "https://w.junreimap.com/images/user/0/bangumi/278949/points/4qxzc4n-1757346681790.jpg",
        "location": "",
        "point_id": "4qxzc4n",
        "point_name": "多摩少年院",
        "remark": "JOKER最后出狱时的少管所原型（推测）。仅外墙疑似，游戏里在南侧的围墙上开了个门。少管所区域禁止入内，巡礼时需注意；而且八王子真的太远了不推荐巡礼"
      },
      "type": "Feature"
    },
    {
      "geometry": {
        "coordinates": [
          140.556444,
          40.286415
        ],
        "type": "Point"
      },
      "properties": {
        "bangumi_id": 278949,
        "bangumi_title": "女神异闻录5 皇家版",
        "ep_cut": "",
        "image_url": "https://w.junreimap.com/images/user/2195/bangumi/278949/points/f3bsd1b-1779863357164.jpg",
        "location": "",
        "point_id": "f3bsd1b",
        "point_name": "青ガエル（秋田犬の里）",
        "remark": "东急5000系电车，俗称“绿青蛙”。退役后其中1辆于2006年于涩谷站的八公广场展出。2020年因涩谷站重新规划，迁到了忠犬八公的家乡秋田。"
      },
      "type": "Feature"
    }
  ],
  "type": "FeatureCollection"
}