{
  "features": [
    {
      "geometry": {
        "coordinates": [
          138.772764,
          34.982442
        ],
        "type": "Point"
      },
      "properties": {
        "bangumi_id": 279450,
        "bangumi_title": "破烂机器迷糊子",
        "ep_cut": "",
        "image_url": "https://w.junreimap.com/images/user/1093/bangumi/279450/points/d1csdq-1747798747115.jpg",
        "location": "",
        "point_id": "d1csdq",
        "point_name": "夕映えの丘(7卷表紙)",
        "remark": ""
      },
      "type": "Feature"
    },
    {
      "geometry": {
        "coordinates": [
          138.777428,
          34.970546
        ],
        "type": "Point"
      },
      "properties": {
        "bangumi_id": 279450,
        "bangumi_title": "破烂机器迷糊子",
        "ep_cut": 1,
        "image_url": "https://w.junreimap.com/images/user/1093/bangumi/279450/points/kr71ouj3b-1750859488934.jpg",
        "location": "",
        "point_id": "kr71ouj3b",
        "point_name": "最初ポン子がバスから降りた場所",
        "remark": ""
      },
      "type": "Feature"
    },
    {
      "geometry": {
        "coordinates": [
          138.777344,
          34.970314
        ],
        "type": "Point"
      },
      "properties": {
        "bangumi_id": 279450,
        "bangumi_title": "破烂机器迷糊子",
        "ep_cut": "",
        "image_url": "https://w.junreimap.com/images/user/1093/bangumi/279450/points/m5cl7jm4z-1720626882839.jpg",
        "location": "",
        "point_id": "m5cl7jm4z",
        "point_name": "海山スーパー（海竹山竹ストア）",
        "remark": "茜の家"
      },
      "type": "Feature"
    },
    {
      "geometry": {
        "coordinates": [
          138.779156,
          34.972872
        ],
        "type": "Point"
      },
      "properties": {
        "bangumi_id": 279450,
        "bangumi_title": "破烂机器迷糊子",
        "ep_cut": "",
        "image_url": "https://w.junreimap.com/images/user/1093/bangumi/279450/points/m5coqzsi2-1720627099528.jpg",
        "location": "",
        "point_id": "m5coqzsi2",
        "point_name": "日坂小学校（沼津市立戸田小学校）",
        "remark": ""
      },
      "type": "Feature"
    },
    {
      "geometry": {
        "coordinates": [
          138.776805,
          34.973753
        ],
        "type": "Point"
      },
      "properties": {
        "bangumi_id": 279450,
        "bangumi_title": "破烂机器迷糊子",
        "ep_cut": 3,
        "image_url": "https://w.junreimap.com/images/user/1093/bangumi/279450/points/m5ce5tmx7-1720626502549.jpg",
        "location": "",
        "point_id": "m5ce5tmx7",
        "point_name": "戸田港",
        "remark": ""
      },
      "type": "Feature"
    },
    {
      "geometry": {
        "coordinates": [
          138.775515,
          34.969496
        ],
        "type": "Point"
      },
      "properties": {
        "bangumi_id": 279450,
        "bangumi_title": "破烂机器迷糊子",
        "ep_cut": "",
        "image_url": "https://w.junreimap.com/images/user/1093/bangumi/279450/points/m5crxqef9-1720627287675.jpg",
        "location": "",
        "point_id": "m5crxqef9",
        "point_name": "海風（喫茶セピア）",
        "remark": "茜打工的店"
      },
      "type": "Feature"
    },
    {
      "geometry": {
        "coordinates": [
          138.776529,
          34.96983
        ],
        "type": "Point"
      },
      "properties": {
        "bangumi_id": 279450,
        "bangumi_title": "破烂机器迷糊子",
        "ep_cut": "",
        "image_url": "https://w.junreimap.com/images/user/1093/bangumi/279450/points/m5cqi3qy0-1720627201101.jpg",
        "location": "",
        "point_id": "m5cqi3qy0",
        "point_name": "漁協直売所",
        "remark": ""
      },
      "type": "Feature"
    },
    {
      "geometry": {
        "coordinates": [
          138.777674,
          34.972062
        ],
        "type": "Point"
      },
      "properties": {
        "bangumi_id": 279450,
        "bangumi_title": "破烂机器迷糊子",
        "ep_cut": "",
        "image_url": "https://w.junreimap.com/images/user/1093/bangumi/279450/points/m5ctpr1l5-1720627394969.jpg",
        "location": "",
        "point_id": "m5ctpr1l5",
        "point_name": "網元直営店（網元光徳丸 食事処 かにや へだ本店）",
        "remark": ""
      },
      "type": "Feature"
    },
    {
      "geometry": {
        "coordinates": [
          138.77911,
          34.996378
        ],
        "type": "Point"
      },
      "properties": {
        "bangumi_id": 279450,
        "bangumi_title": "破烂机器迷糊子",
        "ep_cut": "",
        "image_url": "https://w.junreimap.com/images/user/1093/bangumi/279450/points/aqy3f2-1747660306133.jpg",
        "location": "",
        "point_id": "aqy3f2",
        "point_name": "煌めきの丘",
        "remark": "此处不在户田，在户田北边的井田"
      },
      "type": "Feature"
    },
    {
      "geometry": {
        "coordinates": [
          138.77761,
          34.97095
        ],
        "type": "Point"
      },
      "properties": {
        "bangumi_id": 279450,
        "bangumi_title": "破烂机器迷糊子",
        "ep_cut": "",
        "image_url": "https://w.junreimap.com/images/user/1093/bangumi/279450/points/aq2uuf-1747659343904.jpg",
        "location": "",
        "point_id": "aq2uuf",
        "point_name": "道龍橋",
        "remark": ""
      },
      "type": "Feature"
    },
    {
      "geometry": {
        "coordinates": [
          138.786961,
          34.971462
        ],
        "type": "Point"
      },
      "properties": {
        "bangumi_id": 279450,
        "bangumi_title": "破烂机器迷糊子",
        "ep_cut": "",
        "image_url": "https://w.junreimap.com/images/user/1093/bangumi/279450/points/apu1g7-1747658427402.jpg",
        "location": "",
        "point_id": "apu1g7",
        "point_name": "道の駅 くるら戸田　外の観光案内板",
        "remark": ""
      },
      "type": "Feature"
    },
    {
      "geometry": {
        "coordinates": [
          138.777388,
          34.973074
        ],
        "type": "Point"
      },
      "properties": {
        "bangumi_id": 279450,
        "bangumi_title": "破烂机器迷糊子",
        "ep_cut": "",
        "image_url": "https://w.junreimap.com/images/user/1093/bangumi/279450/points/as9hgg-1747674046952.jpg",
        "location": "",
        "point_id": "as9hgg",
        "point_name": "東海バス戸田待合所",
        "remark": "观光协会在此特别安置了「日坂站」的公交牌，站内贴满了ポン子的海报。\n隔壁的户田观光案内所可以买到ポン子和水水的周边"
      },
      "type": "Feature"
    },
    {
      "geometry": {
        "coordinates": [
          138.767471,
          34.976337
        ],
        "type": "Point"
      },
      "properties": {
        "bangumi_id": 279450,
        "bangumi_title": "破烂机器迷糊子",
        "ep_cut": "",
        "image_url": "https://w.junreimap.com/images/user/1093/bangumi/279450/points/atzgw6-1747665388397.jpg",
        "location": "",
        "point_id": "atzgw6",
        "point_name": "小舟ヶ浜",
        "remark": "旁边有駿河湾深海生物館和戸田造船郷土資料博物館(9:00-16:30)。\n建议租自行车前往"
      },
      "type": "Feature"
    },
    {
      "geometry": {
        "coordinates": [
          138.859574,
          35.102066
        ],
        "type": "Point"
      },
      "properties": {
        "bangumi_id": 279450,
        "bangumi_title": "破烂机器迷糊子",
        "ep_cut": "",
        "image_url": "https://w.junreimap.com/images/user/1093/bangumi/279450/points/axv9ad-1747671985579.jpg",
        "location": "",
        "point_id": "axv9ad",
        "point_name": "沼津駅前",
        "remark": ""
      },
      "type": "Feature"
    },
    {
      "geometry": {
        "coordinates": [
          138.783371,
          34.971972
        ],
        "type": "Point"
      },
      "properties": {
        "bangumi_id": 279450,
        "bangumi_title": "破烂机器迷糊子",
        "ep_cut": "",
        "image_url": "https://w.junreimap.com/images/user/1093/bangumi/279450/points/axz0ms-1747672095234.jpg",
        "location": "",
        "point_id": "axz0ms",
        "point_name": "戸田温泉",
        "remark": ""
      },
      "type": "Feature"
    },
    {
      "geometry": {
        "coordinates": [
          138.790769,
          34.971018
        ],
        "type": "Point"
      },
      "properties": {
        "bangumi_id": 279450,
        "bangumi_title": "破烂机器迷糊子",
        "ep_cut": "",
        "image_url": "https://w.junreimap.com/images/user/1093/bangumi/279450/points/ay1mtm-1747672209045.jpg",
        "location": "",
        "point_id": "ay1mtm",
        "point_name": "部田神社　鳥居",
        "remark": "祭り準備"
      },
      "type": "Feature"
    },
    {
      "geometry": {
        "coordinates": [
          138.766987,
          34.97756
        ],
        "type": "Point"
      },
      "properties": {
        "bangumi_id": 279450,
        "bangumi_title": "破烂机器迷糊子",
        "ep_cut": "",
        "image_url": "https://w.junreimap.com/images/user/1093/bangumi/279450/points/ay3qco-1747672360484.jpg",
        "location": "",
        "point_id": "ay3qco",
        "point_name": "御浜岬",
        "remark": "ゆうな迷路後一个人走到的地方"
      },
      "type": "Feature"
    },
    {
      "geometry": {
        "coordinates": [
          138.788412,
          34.975107
        ],
        "type": "Point"
      },
      "properties": {
        "bangumi_id": 279450,
        "bangumi_title": "破烂机器迷糊子",
        "ep_cut": "",
        "image_url": "https://w.junreimap.com/images/user/1093/bangumi/279450/points/ay8p7y-1747672531241.jpg",
        "location": "",
        "point_id": "ay8p7y",
        "point_name": "吉岡家の場所",
        "remark": "实际上是林间空地（）"
      },
      "type": "Feature"
    },
    {
      "geometry": {
        "coordinates": [
          138.788136,
          34.974856
        ],
        "type": "Point"
      },
      "properties": {
        "bangumi_id": 279450,
        "bangumi_title": "破烂机器迷糊子",
        "ep_cut": "",
        "image_url": "https://w.junreimap.com/images/user/1093/bangumi/279450/points/aygnh3-1747672914579.jpg",
        "location": "",
        "point_id": "aygnh3",
        "point_name": "家の外",
        "remark": ""
      },
      "type": "Feature"
    },
    {
      "geometry": {
        "coordinates": [
          138.787573,
          34.974649
        ],
        "type": "Point"
      },
      "properties": {
        "bangumi_id": 279450,
        "bangumi_title": "破烂机器迷糊子",
        "ep_cut": "",
        "image_url": "https://w.junreimap.com/images/user/1093/bangumi/279450/points/ayjgbs-1747673070317.jpg",
        "location": "",
        "point_id": "ayjgbs",
        "point_name": "家外の坂道",
        "remark": ""
      },
      "type": "Feature"
    },
    {
      "geometry": {
        "coordinates": [
          138.786663,
          34.973698
        ],
        "type": "Point"
      },
      "properties": {
        "bangumi_id": 279450,
        "bangumi_title": "破烂机器迷糊子",
        "ep_cut": "",
        "image_url": "https://w.junreimap.com/images/user/1093/bangumi/279450/points/aymjxv-1747673264508.jpg",
        "location": "",
        "point_id": "aymjxv",
        "point_name": "夜道",
        "remark": "当然是偷偷跑去海風玩"
      },
      "type": "Feature"
    },
    {
      "geometry": {
        "coordinates": [
          138.763702,
          34.971228
        ],
        "type": "Point"
      },
      "properties": {
        "bangumi_id": 279450,
        "bangumi_title": "破烂机器迷糊子",
        "ep_cut": "",
        "image_url": "https://w.junreimap.com/images/user/1093/bangumi/279450/points/ayq5bt-1747673350980.jpg",
        "location": "",
        "point_id": "ayq5bt",
        "point_name": "海のほてるいさば",
        "remark": "豪华温泉宾馆，1晚上价格2万-5万\n官网：https://www.isaba.co.jp/\n作品中叫“海のほてるまぐろ”\n似乎有混浴浴场"
      },
      "type": "Feature"
    },
    {
      "geometry": {
        "coordinates": [
          138.777482,
          34.972833
        ],
        "type": "Point"
      },
      "properties": {
        "bangumi_id": 279450,
        "bangumi_title": "破烂机器迷糊子",
        "ep_cut": "",
        "image_url": "https://w.junreimap.com/images/user/1093/bangumi/279450/points/ayw34u-1747673625757.jpg",
        "location": "",
        "point_id": "ayw34u",
        "point_name": "ホテル魚梅(閉館)とヤマザキ戸田店(閉店)",
        "remark": "中间画面原型是Yamazaki戸田店，现在已经拆掉新建了711"
      },
      "type": "Feature"
    },
    {
      "geometry": {
        "coordinates": [
          138.779537,
          34.972914
        ],
        "type": "Point"
      },
      "properties": {
        "bangumi_id": 279450,
        "bangumi_title": "破烂机器迷糊子",
        "ep_cut": "",
        "image_url": "https://w.junreimap.com/images/user/1093/bangumi/279450/points/az14fi-1747673882385.jpg",
        "location": "",
        "point_id": "az14fi",
        "point_name": "高田幸子たばこ店",
        "remark": "店面外观稍微有些不同，但周围建筑的样子和位置完全一致。原作中多次出现"
      },
      "type": "Feature"
    },
    {
      "geometry": {
        "coordinates": [
          138.791573,
          34.971002
        ],
        "type": "Point"
      },
      "properties": {
        "bangumi_id": 279450,
        "bangumi_title": "破烂机器迷糊子",
        "ep_cut": "",
        "image_url": "https://w.junreimap.com/images/user/1093/bangumi/279450/points/az3m12-1747673974730.jpg",
        "location": "",
        "point_id": "az3m12",
        "point_name": "部田神社",
        "remark": ""
      },
      "type": "Feature"
    },
    {
      "geometry": {
        "coordinates": [
          138.775587,
          34.976856
        ],
        "type": "Point"
      },
      "properties": {
        "bangumi_id": 279450,
        "bangumi_title": "破烂机器迷糊子",
        "ep_cut": "",
        "image_url": "https://w.junreimap.com/images/user/1093/bangumi/279450/points/d0yfzy-1747798137897.jpg",
        "location": "",
        "point_id": "d0yfzy",
        "point_name": "ENEOS 戸田SS",
        "remark": "ENEOS加油站\nポン子和さちよ来取灯油，碰到来加油的２代目，一起坐车回家"
      },
      "type": "Feature"
    }
  ],
  "type": "FeatureCollection"
}