{
  "features": [
    {
      "geometry": {
        "coordinates": [
          130.505354,
          32.307138
        ],
        "type": "Point"
      },
      "properties": {
        "bangumi_id": 280678,
        "bangumi_title": "放学后海堤日记",
        "ep_cut": "",
        "image_url": "https://w.junreimap.com/images/points/280678/4ui8sj3aq.jpg",
        "location": "道の駅周辺",
        "point_id": "4ui8sj3aq",
        "point_name": "芦北高校",
        "remark": ""
      },
      "type": "Feature"
    },
    {
      "geometry": {
        "coordinates": [
          130.507493,
          32.303979
        ],
        "type": "Point"
      },
      "properties": {
        "bangumi_id": 280678,
        "bangumi_title": "放学后海堤日记",
        "ep_cut": "",
        "image_url": "https://w.junreimap.com/images/points/280678/4ui8sj3ha.jpg",
        "location": "道の駅周辺",
        "point_id": "4ui8sj3ha",
        "point_name": "セブンイレブン芦北インター店",
        "remark": ""
      },
      "type": "Feature"
    },
    {
      "geometry": {
        "coordinates": [
          130.506564,
          32.303058
        ],
        "type": "Point"
      },
      "properties": {
        "bangumi_id": 280678,
        "bangumi_title": "放学后海堤日记",
        "ep_cut": "",
        "image_url": "https://w.junreimap.com/images/points/280678/4ui8sj3hy.jpg",
        "location": "道の駅周辺",
        "point_id": "4ui8sj3hy",
        "point_name": "藍川橋",
        "remark": ""
      },
      "type": "Feature"
    },
    {
      "geometry": {
        "coordinates": [
          130.506766,
          32.301366
        ],
        "type": "Point"
      },
      "properties": {
        "bangumi_id": 280678,
        "bangumi_title": "放学后海堤日记",
        "ep_cut": "",
        "image_url": "https://w.junreimap.com/images/points/280678/4ui8sj3xn.jpg",
        "location": "道の駅周辺",
        "point_id": "4ui8sj3xn",
        "point_name": "七瀬橋",
        "remark": ""
      },
      "type": "Feature"
    },
    {
      "geometry": {
        "coordinates": [
          130.502641,
          32.303154
        ],
        "type": "Point"
      },
      "properties": {
        "bangumi_id": 280678,
        "bangumi_title": "放学后海堤日记",
        "ep_cut": "",
        "image_url": "https://w.junreimap.com/images/points/280678/4ui8sj3k9.jpg",
        "location": "道の駅周辺",
        "point_id": "4ui8sj3k9",
        "point_name": "佐敷城跡",
        "remark": ""
      },
      "type": "Feature"
    },
    {
      "geometry": {
        "coordinates": [
          130.497177,
          32.302518
        ],
        "type": "Point"
      },
      "properties": {
        "bangumi_id": 280678,
        "bangumi_title": "放学后海堤日记",
        "ep_cut": "",
        "image_url": "https://w.junreimap.com/images/points/280678/4ui8sj3fc.jpg",
        "location": "佐敷駅周辺",
        "point_id": "4ui8sj3fc",
        "point_name": "佐敷駅",
        "remark": ""
      },
      "type": "Feature"
    },
    {
      "geometry": {
        "coordinates": [
          130.498826,
          32.307893
        ],
        "type": "Point"
      },
      "properties": {
        "bangumi_id": 280678,
        "bangumi_title": "放学后海堤日记",
        "ep_cut": "",
        "image_url": "https://w.junreimap.com/images/points/280678/4ui8sj3bu.jpg",
        "location": "佐敷駅周辺",
        "point_id": "4ui8sj3bu",
        "point_name": "白岩踏切",
        "remark": ""
      },
      "type": "Feature"
    },
    {
      "geometry": {
        "coordinates": [
          130.495054,
          32.302051
        ],
        "type": "Point"
      },
      "properties": {
        "bangumi_id": 280678,
        "bangumi_title": "放学后海堤日记",
        "ep_cut": "",
        "image_url": "https://w.junreimap.com/images/points/280678/4ui8sj4p6.jpg",
        "location": "佐敷駅周辺",
        "point_id": "4ui8sj4p6",
        "point_name": "佐敷川緑地公園",
        "remark": ""
      },
      "type": "Feature"
    },
    {
      "geometry": {
        "coordinates": [
          130.494466,
          32.301721
        ],
        "type": "Point"
      },
      "properties": {
        "bangumi_id": 280678,
        "bangumi_title": "放学后海堤日记",
        "ep_cut": "",
        "image_url": "https://w.junreimap.com/images/points/280678/4ui8sj4b6.jpg",
        "location": "佐敷駅周辺",
        "point_id": "4ui8sj4b6",
        "point_name": "森林組合裏",
        "remark": ""
      },
      "type": "Feature"
    },
    {
      "geometry": {
        "coordinates": [
          130.493801,
          32.301355
        ],
        "type": "Point"
      },
      "properties": {
        "bangumi_id": 280678,
        "bangumi_title": "放学后海堤日记",
        "ep_cut": "",
        "image_url": "https://w.junreimap.com/images/points/280678/4ui8sj46s.jpg",
        "location": "佐敷駅周辺",
        "point_id": "4ui8sj46s",
        "point_name": "足北警察署裏の歩道",
        "remark": ""
      },
      "type": "Feature"
    },
    {
      "geometry": {
        "coordinates": [
          130.49277,
          32.300455
        ],
        "type": "Point"
      },
      "properties": {
        "bangumi_id": 280678,
        "bangumi_title": "放学后海堤日记",
        "ep_cut": "",
        "image_url": "https://w.junreimap.com/images/points/280678/4ui8sj44u.jpg",
        "location": "佐敷駅周辺",
        "point_id": "4ui8sj44u",
        "point_name": "鉄塔",
        "remark": ""
      },
      "type": "Feature"
    },
    {
      "geometry": {
        "coordinates": [
          130.491177,
          32.299394
        ],
        "type": "Point"
      },
      "properties": {
        "bangumi_id": 280678,
        "bangumi_title": "放学后海堤日记",
        "ep_cut": "",
        "image_url": "https://w.junreimap.com/images/points/280678/4ui8sj43h.jpg",
        "location": "芦北町役場周辺",
        "point_id": "4ui8sj43h",
        "point_name": "芦北橋",
        "remark": ""
      },
      "type": "Feature"
    },
    {
      "geometry": {
        "coordinates": [
          130.491876,
          32.298881
        ],
        "type": "Point"
      },
      "properties": {
        "bangumi_id": 280678,
        "bangumi_title": "放学后海堤日记",
        "ep_cut": "",
        "image_url": "https://w.junreimap.com/images/points/280678/4ui8sj4dr.jpg",
        "location": "芦北町役場周辺",
        "point_id": "4ui8sj4dr",
        "point_name": "臨港橋",
        "remark": ""
      },
      "type": "Feature"
    },
    {
      "geometry": {
        "coordinates": [
          130.492099,
          32.298834
        ],
        "type": "Point"
      },
      "properties": {
        "bangumi_id": 280678,
        "bangumi_title": "放学后海堤日记",
        "ep_cut": "",
        "image_url": "https://w.junreimap.com/images/points/280678/4ui8sj41x.jpg",
        "location": "芦北町役場周辺",
        "point_id": "4ui8sj41x",
        "point_name": "芦北町役場駐車場",
        "remark": ""
      },
      "type": "Feature"
    },
    {
      "geometry": {
        "coordinates": [
          130.494367,
          32.297933
        ],
        "type": "Point"
      },
      "properties": {
        "bangumi_id": 280678,
        "bangumi_title": "放学后海堤日记",
        "ep_cut": "",
        "image_url": "https://w.junreimap.com/images/points/280678/4ui8sj4ld.jpg",
        "location": "芦北町役場周辺",
        "point_id": "4ui8sj4ld",
        "point_name": "てんぐや",
        "remark": ""
      },
      "type": "Feature"
    },
    {
      "geometry": {
        "coordinates": [
          130.493969,
          32.298336
        ],
        "type": "Point"
      },
      "properties": {
        "bangumi_id": 280678,
        "bangumi_title": "放学后海堤日记",
        "ep_cut": "",
        "image_url": "https://w.junreimap.com/images/points/280678/4ui8sj4dl.jpg",
        "location": "芦北町役場周辺",
        "point_id": "4ui8sj4dl",
        "point_name": "芦北薬局",
        "remark": ""
      },
      "type": "Feature"
    },
    {
      "geometry": {
        "coordinates": [
          130.485319,
          32.300556
        ],
        "type": "Point"
      },
      "properties": {
        "bangumi_id": 280678,
        "bangumi_title": "放学后海堤日记",
        "ep_cut": "",
        "image_url": "https://w.junreimap.com/images/points/280678/4ui8sj4pg.jpg",
        "location": "計石地区",
        "point_id": "4ui8sj4pg",
        "point_name": "計石公民館そばの横断歩道",
        "remark": ""
      },
      "type": "Feature"
    },
    {
      "geometry": {
        "coordinates": [
          130.486964,
          32.300058
        ],
        "type": "Point"
      },
      "properties": {
        "bangumi_id": 280678,
        "bangumi_title": "放学后海堤日记",
        "ep_cut": "",
        "image_url": "https://w.junreimap.com/images/points/280678/4ui8sj4fn.jpg",
        "location": "計石地区",
        "point_id": "4ui8sj4fn",
        "point_name": "計石公民館ちかくの道",
        "remark": ""
      },
      "type": "Feature"
    },
    {
      "geometry": {
        "coordinates": [
          130.487844,
          32.299778
        ],
        "type": "Point"
      },
      "properties": {
        "bangumi_id": 280678,
        "bangumi_title": "放学后海堤日记",
        "ep_cut": "",
        "image_url": "https://w.junreimap.com/images/points/280678/4ui8sj405.jpg",
        "location": "計石地区",
        "point_id": "4ui8sj405",
        "point_name": "芦北大橋",
        "remark": ""
      },
      "type": "Feature"
    },
    {
      "geometry": {
        "coordinates": [
          130.48383,
          32.300234
        ],
        "type": "Point"
      },
      "properties": {
        "bangumi_id": 280678,
        "bangumi_title": "放学后海堤日记",
        "ep_cut": "",
        "image_url": "https://w.junreimap.com/images/points/280678/4ui8sj4fc.jpg",
        "location": "計石地区",
        "point_id": "4ui8sj4fc",
        "point_name": "計石港岸壁",
        "remark": ""
      },
      "type": "Feature"
    },
    {
      "geometry": {
        "coordinates": [
          130.482356,
          32.299487
        ],
        "type": "Point"
      },
      "properties": {
        "bangumi_id": 280678,
        "bangumi_title": "放学后海堤日记",
        "ep_cut": "",
        "image_url": "https://w.junreimap.com/images/points/280678/4ui8sj4na.jpg",
        "location": "計石地区",
        "point_id": "4ui8sj4na",
        "point_name": "計石港岸壁堤防",
        "remark": ""
      },
      "type": "Feature"
    },
    {
      "geometry": {
        "coordinates": [
          130.483608,
          32.303139
        ],
        "type": "Point"
      },
      "properties": {
        "bangumi_id": 280678,
        "bangumi_title": "放学后海堤日记",
        "ep_cut": "",
        "image_url": "https://w.junreimap.com/images/points/280678/4ui8sj4d1.jpg",
        "location": "計石地区",
        "point_id": "4ui8sj4d1",
        "point_name": "計石郵便局横の道",
        "remark": ""
      },
      "type": "Feature"
    },
    {
      "geometry": {
        "coordinates": [
          130.471264,
          32.311542
        ],
        "type": "Point"
      },
      "properties": {
        "bangumi_id": 280678,
        "bangumi_title": "放学后海堤日记",
        "ep_cut": "",
        "image_url": "https://w.junreimap.com/images/points/280678/4ui8sj3z7.jpg",
        "location": "鶴木山港",
        "point_id": "4ui8sj3z7",
        "point_name": "ていぼう部部室",
        "remark": ""
      },
      "type": "Feature"
    },
    {
      "geometry": {
        "coordinates": [
          130.470623,
          32.310689
        ],
        "type": "Point"
      },
      "properties": {
        "bangumi_id": 280678,
        "bangumi_title": "放学后海堤日记",
        "ep_cut": "",
        "image_url": "https://w.junreimap.com/images/points/280678/4ui8sj4ep.jpg",
        "location": "鶴木山港",
        "point_id": "4ui8sj4ep",
        "point_name": "鶴木山港堤防（長い堤防）",
        "remark": ""
      },
      "type": "Feature"
    },
    {
      "geometry": {
        "coordinates": [
          130.471465,
          32.311208
        ],
        "type": "Point"
      },
      "properties": {
        "bangumi_id": 280678,
        "bangumi_title": "放学后海堤日记",
        "ep_cut": "",
        "image_url": "https://w.junreimap.com/images/points/280678/4ui8sj42e.jpg",
        "location": "鶴木山港",
        "point_id": "4ui8sj42e",
        "point_name": "鶴木山港堤防（短い堤防）",
        "remark": ""
      },
      "type": "Feature"
    },
    {
      "geometry": {
        "coordinates": [
          130.472242,
          32.311155
        ],
        "type": "Point"
      },
      "properties": {
        "bangumi_id": 280678,
        "bangumi_title": "放学后海堤日记",
        "ep_cut": "",
        "image_url": "https://w.junreimap.com/images/points/280678/4ui8sj410.jpg",
        "location": "鶴木山港",
        "point_id": "4ui8sj410",
        "point_name": "鶴木山集落センター",
        "remark": ""
      },
      "type": "Feature"
    },
    {
      "geometry": {
        "coordinates": [
          130.469496,
          32.311957
        ],
        "type": "Point"
      },
      "properties": {
        "bangumi_id": 280678,
        "bangumi_title": "放学后海堤日记",
        "ep_cut": "",
        "image_url": "https://w.junreimap.com/images/points/280678/4ui8sj447.jpg",
        "location": "鶴木山港",
        "point_id": "4ui8sj447",
        "point_name": "カーブの祠",
        "remark": ""
      },
      "type": "Feature"
    },
    {
      "geometry": {
        "coordinates": [
          130.469414,
          32.312177
        ],
        "type": "Point"
      },
      "properties": {
        "bangumi_id": 280678,
        "bangumi_title": "放学后海堤日记",
        "ep_cut": "",
        "image_url": "https://w.junreimap.com/images/points/280678/4ui8sj428.jpg",
        "location": "鶴木山港",
        "point_id": "4ui8sj428",
        "point_name": "道路標識",
        "remark": ""
      },
      "type": "Feature"
    },
    {
      "geometry": {
        "coordinates": [
          130.479469,
          32.300933
        ],
        "type": "Point"
      },
      "properties": {
        "bangumi_id": 280678,
        "bangumi_title": "放学后海堤日记",
        "ep_cut": "",
        "image_url": "https://w.junreimap.com/images/points/280678/4ui8sj41v.jpg",
        "location": "鶴木山港",
        "point_id": "4ui8sj41v",
        "point_name": "芦北朝市",
        "remark": ""
      },
      "type": "Feature"
    },
    {
      "geometry": {
        "coordinates": [
          130.472641,
          32.307775
        ],
        "type": "Point"
      },
      "properties": {
        "bangumi_id": 280678,
        "bangumi_title": "放学后海堤日记",
        "ep_cut": "",
        "image_url": "https://w.junreimap.com/images/points/280678/4ui8sj4dk.jpg",
        "location": "鶴木山港",
        "point_id": "4ui8sj4dk",
        "point_name": "鶴木山温泉前バス停付近",
        "remark": ""
      },
      "type": "Feature"
    },
    {
      "geometry": {
        "coordinates": [
          130.471403,
          32.302396
        ],
        "type": "Point"
      },
      "properties": {
        "bangumi_id": 280678,
        "bangumi_title": "放学后海堤日记",
        "ep_cut": "",
        "image_url": "https://w.junreimap.com/images/points/280678/4ui8sj4fw.jpg",
        "location": "鶴木山港",
        "point_id": "4ui8sj4fw",
        "point_name": "佐敷港防波堤",
        "remark": ""
      },
      "type": "Feature"
    },
    {
      "geometry": {
        "coordinates": [
          130.470394,
          32.300596
        ],
        "type": "Point"
      },
      "properties": {
        "bangumi_id": 280678,
        "bangumi_title": "放学后海堤日记",
        "ep_cut": "",
        "image_url": "https://w.junreimap.com/images/points/280678/4ui8sj4bu.jpg",
        "location": "鶴木山港",
        "point_id": "4ui8sj4bu",
        "point_name": "佐敷港計石西防波堤灯台",
        "remark": ""
      },
      "type": "Feature"
    },
    {
      "geometry": {
        "coordinates": [
          130.471961,
          32.303168
        ],
        "type": "Point"
      },
      "properties": {
        "bangumi_id": 280678,
        "bangumi_title": "放学后海堤日记",
        "ep_cut": "",
        "image_url": "https://w.junreimap.com/images/points/280678/4ui8sj436.jpg",
        "location": "鶴木山港",
        "point_id": "4ui8sj436",
        "point_name": "広域農道入り口看板",
        "remark": ""
      },
      "type": "Feature"
    },
    {
      "geometry": {
        "coordinates": [
          130.470977,
          32.317959
        ],
        "type": "Point"
      },
      "properties": {
        "bangumi_id": 280678,
        "bangumi_title": "放学后海堤日记",
        "ep_cut": "",
        "image_url": "https://w.junreimap.com/images/points/280678/4ui8sj4ca.jpg",
        "location": "鶴ヶ浜海水浴場",
        "point_id": "4ui8sj4ca",
        "point_name": "鶴ヶ浜海水浴場",
        "remark": ""
      },
      "type": "Feature"
    },
    {
      "geometry": {
        "coordinates": [
          130.471324,
          32.316316
        ],
        "type": "Point"
      },
      "properties": {
        "bangumi_id": 280678,
        "bangumi_title": "放学后海堤日记",
        "ep_cut": "",
        "image_url": "https://w.junreimap.com/images/points/280678/4ui8sj464.jpg",
        "location": "鶴ヶ浜海水浴場",
        "point_id": "4ui8sj464",
        "point_name": "鶴ヶ浜海水浴場南の堤防",
        "remark": ""
      },
      "type": "Feature"
    },
    {
      "geometry": {
        "coordinates": [
          130.471844,
          32.316494
        ],
        "type": "Point"
      },
      "properties": {
        "bangumi_id": 280678,
        "bangumi_title": "放学后海堤日记",
        "ep_cut": "",
        "image_url": "https://w.junreimap.com/images/points/280678/4ui8sj4mc.jpg",
        "location": "鶴ヶ浜海水浴場",
        "point_id": "4ui8sj4mc",
        "point_name": "道案内標識",
        "remark": ""
      },
      "type": "Feature"
    },
    {
      "geometry": {
        "coordinates": [
          130.47133,
          32.314408
        ],
        "type": "Point"
      },
      "properties": {
        "bangumi_id": 280678,
        "bangumi_title": "放学后海堤日记",
        "ep_cut": "",
        "image_url": "https://w.junreimap.com/images/points/280678/4ui8sj4aj.jpg",
        "location": "鶴ヶ浜海水浴場",
        "point_id": "4ui8sj4aj",
        "point_name": "鶴ヶ浜海水浴場ちかくの県道",
        "remark": ""
      },
      "type": "Feature"
    },
    {
      "geometry": {
        "coordinates": [
          130.474493,
          32.315441
        ],
        "type": "Point"
      },
      "properties": {
        "bangumi_id": 280678,
        "bangumi_title": "放学后海堤日记",
        "ep_cut": "",
        "image_url": "https://w.junreimap.com/images/points/280678/4ui8sj4mg.jpg",
        "location": "鶴ヶ浜海水浴場",
        "point_id": "4ui8sj4mg",
        "point_name": "鶴ヶ浜海水浴場展望ポイント",
        "remark": ""
      },
      "type": "Feature"
    },
    {
      "geometry": {
        "coordinates": [
          130.488673,
          32.327938
        ],
        "type": "Point"
      },
      "properties": {
        "bangumi_id": 280678,
        "bangumi_title": "放学后海堤日记",
        "ep_cut": "",
        "image_url": "https://w.junreimap.com/images/points/280678/4ui8sj4jh.jpg",
        "location": "郊外・遠方",
        "point_id": "4ui8sj4jh",
        "point_name": "海浦駅",
        "remark": ""
      },
      "type": "Feature"
    },
    {
      "geometry": {
        "coordinates": [
          130.702182,
          32.789495
        ],
        "type": "Point"
      },
      "properties": {
        "bangumi_id": 280678,
        "bangumi_title": "放学后海堤日记",
        "ep_cut": "",
        "image_url": "https://w.junreimap.com/images/points/280678/4ui8sj4ec.jpg",
        "location": "郊外・遠方",
        "point_id": "4ui8sj4ec",
        "point_name": "山本釣具センター本店",
        "remark": ""
      },
      "type": "Feature"
    },
    {
      "geometry": {
        "coordinates": [
          130.729932,
          32.224849
        ],
        "type": "Point"
      },
      "properties": {
        "bangumi_id": 280678,
        "bangumi_title": "放学后海堤日记",
        "ep_cut": "",
        "image_url": "https://w.junreimap.com/images/points/280678/4ui8sj49p.jpg",
        "location": "郊外・遠方",
        "point_id": "4ui8sj49p",
        "point_name": "グリルかかし",
        "remark": ""
      },
      "type": "Feature"
    }
  ],
  "type": "FeatureCollection"
}