{
  "features": [
    {
      "geometry": {
        "coordinates": [
          13.047874,
          47.795088
        ],
        "type": "Point"
      },
      "properties": {
        "bangumi_id": 280837,
        "bangumi_title": "紫罗兰永恒花园 外传 - 永远与自动手记人偶 -",
        "ep_cut": "",
        "image_url": "https://w.junreimap.com/images/points/280837/p8qwz5hsc_1729356773554.jpg",
        "location": "",
        "point_id": "p8qwz5hsc",
        "point_name": "Festung Hohensalzburg",
        "remark": "贵族学校城堡的原型之一"
      },
      "type": "Feature"
    },
    {
      "geometry": {
        "coordinates": [
          28.980174,
          41.008459
        ],
        "type": "Point"
      },
      "properties": {
        "bangumi_id": 280837,
        "bangumi_title": "紫罗兰永恒花园 外传 - 永远与自动手记人偶 -",
        "ep_cut": "",
        "image_url": "https://w.junreimap.com/images/points/280837/qzo67mlsg_1734287538652_c16v9.jpg",
        "location": "",
        "point_id": "qzo67mlsg",
        "point_name": "アヤソフィア博物館",
        "remark": "要塞内景"
      },
      "type": "Feature"
    },
    {
      "geometry": {
        "coordinates": [
          7.163167,
          50.150054
        ],
        "type": "Point"
      },
      "properties": {
        "bangumi_id": 280837,
        "bangumi_title": "紫罗兰永恒花园 外传 - 永远与自动手记人偶 -",
        "ep_cut": "",
        "image_url": "https://w.junreimap.com/images/points/280837/65f2355d_1734288376858.jpg",
        "location": "Germany",
        "point_id": "65f2355d",
        "point_name": "Cochem - Pinnerkreuz",
        "remark": "One of the cuts from the beginning of the movie when Violet is traveling to the school (~00:02:28).To get up here, you can either use Cochem ropeway (\"Cochemer Sesselbahn\", 6,90€ roundtrip) or walk up the hill for aprox. 15-20min. "
      },
      "type": "Feature"
    },
    {
      "geometry": {
        "coordinates": [
          7.167337,
          50.142095
        ],
        "type": "Point"
      },
      "properties": {
        "bangumi_id": 280837,
        "bangumi_title": "紫罗兰永恒花园 外传 - 永远与自动手记人偶 -",
        "ep_cut": "",
        "image_url": "https://w.junreimap.com/images/points/280837/069b07ea_1766994281487_cblack.jpg",
        "location": "Germany",
        "point_id": "069b07ea",
        "point_name": "Cochem Castle - Inner Gate",
        "remark": "Inner gate at Cochem castle. In the anime, Amy's room is to the left.There is no room at the castle that looks exactly like her room, but - according to one of the guides - there is one with similar furniture. It is not part of the regular guided tour though."
      },
      "type": "Feature"
    },
    {
      "geometry": {
        "coordinates": [
          7.166369,
          50.142591
        ],
        "type": "Point"
      },
      "properties": {
        "bangumi_id": 280837,
        "bangumi_title": "紫罗兰永恒花园 外传 - 永远与自动手记人偶 -",
        "ep_cut": "",
        "image_url": "https://w.junreimap.com/images/points/280837/324b38f7_1766994287097_cblack.jpg",
        "location": "Germany",
        "point_id": "324b38f7",
        "point_name": "Cochem Castle - Outer Gate",
        "remark": "The Gate matches what is shown in the Animation, but area on the left side is different"
      },
      "type": "Feature"
    },
    {
      "geometry": {
        "coordinates": [
          7.16726,
          50.142544
        ],
        "type": "Point"
      },
      "properties": {
        "bangumi_id": 280837,
        "bangumi_title": "紫罗兰永恒花园 外传 - 永远与自动手记人偶 -",
        "ep_cut": "",
        "image_url": "https://w.junreimap.com/images/points/280837/498f62f7_1766994291119_cblack.jpg",
        "location": "Germany",
        "point_id": "498f62f7",
        "point_name": "Cochem Castle - 00:03:21",
        "remark": "View from the bridge connecting the outer bailey with the inner parts of the castle.For some reason the lion statue didn't make it into the finished anime background. ;-)"
      },
      "type": "Feature"
    },
    {
      "geometry": {
        "coordinates": [
          7.16724,
          50.142061
        ],
        "type": "Point"
      },
      "properties": {
        "bangumi_id": 280837,
        "bangumi_title": "紫罗兰永恒花园 外传 - 永远与自动手记人偶 -",
        "ep_cut": "",
        "image_url": "https://w.junreimap.com/images/points/280837/87ded88d_1766994294271_cblack.jpg",
        "location": "Germany",
        "point_id": "87ded88d",
        "point_name": "Cochem Castle - courtyard",
        "remark": "Only the building on the left side and the well match up with the courtyard in real life. The little tower behind the well, which is one of the few still existing medieval structures has been replaced with a larger building in the animation."
      },
      "type": "Feature"
    },
    {
      "geometry": {
        "coordinates": [
          7.164812,
          50.146921
        ],
        "type": "Point"
      },
      "properties": {
        "bangumi_id": 280837,
        "bangumi_title": "紫罗兰永恒花园 外传 - 永远与自动手记人偶 -",
        "ep_cut": "",
        "image_url": "https://w.junreimap.com/images/points/280837/425e232b_1766994297796_cblack.jpg",
        "location": "Germany",
        "point_id": "425e232b",
        "point_name": "Cochem - Staircases",
        "remark": "On Taylor's first tour with Benedict both of them run down those stairs.The area looks a bit different in real-life though."
      },
      "type": "Feature"
    },
    {
      "geometry": {
        "coordinates": [
          7.17045,
          50.142358
        ],
        "type": "Point"
      },
      "properties": {
        "bangumi_id": 280837,
        "bangumi_title": "紫罗兰永恒花园 外传 - 永远与自动手记人偶 -",
        "ep_cut": "",
        "image_url": "https://w.junreimap.com/images/points/280837/76a79ce7_1766994311783_cblack.jpg",
        "location": "Germany",
        "point_id": "76a79ce7",
        "point_name": "Cochem - Uferstraße",
        "remark": "view of the castle in real life, sourounding area looks different"
      },
      "type": "Feature"
    },
    {
      "geometry": {
        "coordinates": [
          7.173045,
          50.135624
        ],
        "type": "Point"
      },
      "properties": {
        "bangumi_id": 280837,
        "bangumi_title": "紫罗兰永恒花园 外传 - 永远与自动手记人偶 -",
        "ep_cut": "",
        "image_url": "https://w.junreimap.com/images/points/280837/8ba88940_1766994308180_cblack.jpg",
        "location": "Germany",
        "point_id": "8ba88940",
        "point_name": "Cochem - Valley View",
        "remark": "Approximation based on the location of the castle and nearby hills. Might not be be possible to get a 100% matching picture due to vegetation in the area."
      },
      "type": "Feature"
    },
    {
      "geometry": {
        "coordinates": [
          7.165348,
          50.145572
        ],
        "type": "Point"
      },
      "properties": {
        "bangumi_id": 280837,
        "bangumi_title": "紫罗兰永恒花园 外传 - 永远与自动手记人偶 -",
        "ep_cut": "",
        "image_url": "https://w.junreimap.com/images/points/280837/7e3499ac_1766994304870_cblack.jpg",
        "location": "Germany",
        "point_id": "7e3499ac",
        "point_name": "Cochem - Taylors first mail delivery",
        "remark": "This stop on Taylors first tour is at Obergasse, next to a hotel called \"Lohspeicher\". The house looks a bit different in real life and is a private home. So please don't put anything in the actual mailboxes there."
      },
      "type": "Feature"
    },
    {
      "geometry": {
        "coordinates": [
          7.165048,
          50.145315
        ],
        "type": "Point"
      },
      "properties": {
        "bangumi_id": 280837,
        "bangumi_title": "紫罗兰永恒花园 外传 - 永远与自动手记人偶 -",
        "ep_cut": "",
        "image_url": "https://w.junreimap.com/images/points/280837/79963274_1766994301297_cblack.jpg",
        "location": "Germany",
        "point_id": "79963274",
        "point_name": "Cochem - Branntweingässchen",
        "remark": "The last stop of Benedict's and Taylor's tour is only a few steps away from her first mail delivery in real-life."
      },
      "type": "Feature"
    },
    {
      "geometry": {
        "coordinates": [
          8.4617,
          49.482975
        ],
        "type": "Point"
      },
      "properties": {
        "bangumi_id": 280837,
        "bangumi_title": "紫罗兰永恒花园 外传 - 永远与自动手记人偶 -",
        "ep_cut": "",
        "image_url": "https://w.junreimap.com/images/points/280837/94cb5f1f_1734342464194.jpg",
        "location": "Germany",
        "point_id": "94cb5f1f",
        "point_name": "Mannheim Baroque Palace (Knights Hall)",
        "remark": "The Debut dance of Violet and Amy/Isabella is one of my favorite scenes in the movie. Knights Hall is used a the model for the background artwork. A few other backgrounds used for the school, are based on other parts of the palace too.photos/editing by @And3rgraund"
      },
      "type": "Feature"
    },
    {
      "geometry": {
        "coordinates": [
          8.461502,
          49.483625
        ],
        "type": "Point"
      },
      "properties": {
        "bangumi_id": 280837,
        "bangumi_title": "紫罗兰永恒花园 外传 - 永远与自动手记人偶 -",
        "ep_cut": "",
        "image_url": "https://w.junreimap.com/images/points/280837/d4496e1d_1734342478409.jpg",
        "location": "Germany",
        "point_id": "d4496e1d",
        "point_name": "Mannheim Barque Palace (Outside, inner courtyard)",
        "remark": "photos/editing by @And3rgraund"
      },
      "type": "Feature"
    },
    {
      "geometry": {
        "coordinates": [
          11.077768,
          49.451192
        ],
        "type": "Point"
      },
      "properties": {
        "bangumi_id": 280837,
        "bangumi_title": "紫罗兰永恒花园 外传 - 永远与自动手记人偶 -",
        "ep_cut": "",
        "image_url": "https://w.junreimap.com/images/points/280837/d907584e_1766994324036_cblack.jpg",
        "location": "Germany",
        "point_id": "d907584e",
        "point_name": "Nuremberg - Nassauer Haus",
        "remark": ""
      },
      "type": "Feature"
    },
    {
      "geometry": {
        "coordinates": [
          11.07761,
          49.457151
        ],
        "type": "Point"
      },
      "properties": {
        "bangumi_id": 280837,
        "bangumi_title": "紫罗兰永恒花园 外传 - 永远与自动手记人偶 -",
        "ep_cut": "",
        "image_url": "https://w.junreimap.com/images/points/280837/ae656a0b_1766994328913_cblack.jpg",
        "location": "Germany",
        "point_id": "ae656a0b",
        "point_name": "Nuremberg - Schildgasse",
        "remark": "Violet and Taylor walk down this street when they're delivering mail in the \"new town\" of Leiden"
      },
      "type": "Feature"
    },
    {
      "geometry": {
        "coordinates": [
          11.076616,
          49.457583
        ],
        "type": "Point"
      },
      "properties": {
        "bangumi_id": 280837,
        "bangumi_title": "紫罗兰永恒花园 外传 - 永远与自动手记人偶 -",
        "ep_cut": "",
        "image_url": "https://w.junreimap.com/images/points/280837/3be9d0c3_1766994338679_cblack.jpg",
        "location": "Germany",
        "point_id": "3be9d0c3",
        "point_name": "Nuremberg - Kaiserburg",
        "remark": "View from the entrance to Kaiserburg"
      },
      "type": "Feature"
    },
    {
      "geometry": {
        "coordinates": [
          11.077905,
          49.45357
        ],
        "type": "Point"
      },
      "properties": {
        "bangumi_id": 280837,
        "bangumi_title": "紫罗兰永恒花园 外传 - 永远与自动手记人偶 -",
        "ep_cut": "",
        "image_url": "https://w.junreimap.com/images/points/280837/4d91640e_1766994335621_cblack.jpg",
        "location": "Germany",
        "point_id": "4d91640e",
        "point_name": "Nuremberg - Hauptmarkt",
        "remark": "In the movie we're only getting a short glympse at this place. In real-life it's probably mostly known for hosting\"Nuremberg Christkindlesmarkt\", a Christmas market held here annually from the end of November until christmas eve. Outside this period it is mainly uses as a market for local produce or as an event space."
      },
      "type": "Feature"
    },
    {
      "geometry": {
        "coordinates": [
          7.166309,
          50.144773
        ],
        "type": "Point"
      },
      "properties": {
        "bangumi_id": 280837,
        "bangumi_title": "紫罗兰永恒花园 外传 - 永远与自动手记人偶 -",
        "ep_cut": "",
        "image_url": "https://w.junreimap.com/images/points/280837/bcd5c7c8_1766994346133_cblack.jpg",
        "location": "Germany",
        "point_id": "bcd5c7c8",
        "point_name": "Cochem - Alte Gutsschänke",
        "remark": "Some elements on the houses have been slightly changed. It's another stop on Taylors and Benedicts mail delivery tour in the second part of the movie."
      },
      "type": "Feature"
    },
    {
      "geometry": {
        "coordinates": [
          11.080906,
          49.448204
        ],
        "type": "Point"
      },
      "properties": {
        "bangumi_id": 280837,
        "bangumi_title": "紫罗兰永恒花园 外传 - 永远与自动手记人偶 -",
        "ep_cut": "",
        "image_url": "https://w.junreimap.com/images/points/280837/210eb665_1766994353034_cblack.jpg",
        "location": "Germany",
        "point_id": "210eb665",
        "point_name": "Nuremberg - Königsstraße",
        "remark": "Another cut from Violets and Taylors tour to new town. The buildings on the left exist, but the one on the right is either located somewhere else or completely made up."
      },
      "type": "Feature"
    },
    {
      "geometry": {
        "coordinates": [
          11.079358,
          49.449343
        ],
        "type": "Point"
      },
      "properties": {
        "bangumi_id": 280837,
        "bangumi_title": "紫罗兰永恒花园 外传 - 永远与自动手记人偶 -",
        "ep_cut": "",
        "image_url": "https://w.junreimap.com/images/points/280837/e23dbd9e_1766994358660_cblack.jpg",
        "location": "Germany",
        "point_id": "e23dbd9e",
        "point_name": "Nuremberg - Königstraße2",
        "remark": "Unlike most of the cuts using Nuremberg locations in the movie, this one is from Taylors and Benedicts mail delivery tour, not the later one with Violet. The real-life counterpart is located at the intersection of Königstraße and Theatergasse."
      },
      "type": "Feature"
    },
    {
      "geometry": {
        "coordinates": [
          7.420716,
          50.22561
        ],
        "type": "Point"
      },
      "properties": {
        "bangumi_id": 280837,
        "bangumi_title": "紫罗兰永恒花园 外传 - 永远与自动手记人偶 -",
        "ep_cut": "",
        "image_url": "https://w.junreimap.com/images/points/280837/39259cb5_1734288439385.jpg",
        "location": "Germany",
        "point_id": "39259cb5",
        "point_name": "Hatzenport - St. Johannes",
        "remark": "View along the Mosel river as Violet travels to the school"
      },
      "type": "Feature"
    },
    {
      "geometry": {
        "coordinates": [
          12.881584,
          50.226408
        ],
        "type": "Point"
      },
      "properties": {
        "bangumi_id": 280837,
        "bangumi_title": "紫罗兰永恒花园 外传 - 永远与自动手记人偶 -",
        "ep_cut": "剧场版",
        "image_url": "https://w.junreimap.com/images/points/280837/2285tsf_1766994366983_cblack.jpg",
        "location": "",
        "point_id": "2285tsf",
        "point_name": "Karlovy Vary",
        "remark": ""
      },
      "type": "Feature"
    }
  ],
  "type": "FeatureCollection"
}