{
  "features": [
    {
      "geometry": {
        "coordinates": [
          139.698099,
          35.65795
        ],
        "type": "Point"
      },
      "properties": {
        "bangumi_id": 281281,
        "bangumi_title": "女神异闻录5 乱战：魅影攻手",
        "ep_cut": "",
        "image_url": "https://w.junreimap.com/images/user/0/bangumi/281281/points/1yt4qww-1751292014208.jpg",
        "location": "第一监狱 - 涩谷",
        "point_id": "1yt4qww",
        "point_name": "渋谷​マーク​シティ",
        "remark": ""
      },
      "type": "Feature"
    },
    {
      "geometry": {
        "coordinates": [
          139.701164,
          35.659434
        ],
        "type": "Point"
      },
      "properties": {
        "bangumi_id": 281281,
        "bangumi_title": "女神异闻录5 乱战：魅影攻手",
        "ep_cut": "",
        "image_url": "https://w.junreimap.com/images/user/0/bangumi/281281/points/1ywls20-1751297915550.jpg",
        "location": "第一监狱 - 涩谷",
        "point_id": "1ywls20",
        "point_name": "ＪＲ山手線　渋谷辺り",
        "remark": "位于铁路高架桥上。可乘山手线/湘南新宿线/埼京线经过，山手线最佳。"
      },
      "type": "Feature"
    },
    {
      "geometry": {
        "coordinates": [
          139.69866,
          35.659572
        ],
        "type": "Point"
      },
      "properties": {
        "bangumi_id": 281281,
        "bangumi_title": "女神异闻录5 乱战：魅影攻手",
        "ep_cut": "",
        "image_url": "https://w.junreimap.com/images/user/0/bangumi/281281/points/1yt9i6n-1751292206159.jpg",
        "location": "第一监狱 - 涩谷",
        "point_id": "1yt9i6n",
        "point_name": "SHIBUYA109",
        "remark": ""
      },
      "type": "Feature"
    },
    {
      "geometry": {
        "coordinates": [
          139.701855,
          35.657816
        ],
        "type": "Point"
      },
      "properties": {
        "bangumi_id": 281281,
        "bangumi_title": "女神异闻录5 乱战：魅影攻手",
        "ep_cut": "",
        "image_url": "https://w.junreimap.com/images/user/0/bangumi/281281/points/1yu0jpk-1751293546225.jpg",
        "location": "第一监狱 - 涩谷",
        "point_id": "1yu0jpk",
        "point_name": "首都高速3号渋谷線 桥下",
        "remark": "现实为JR涩谷站南面的改造工地"
      },
      "type": "Feature"
    },
    {
      "geometry": {
        "coordinates": [
          139.696683,
          35.660553
        ],
        "type": "Point"
      },
      "properties": {
        "bangumi_id": 281281,
        "bangumi_title": "女神异闻录5 乱战：魅影攻手",
        "ep_cut": "",
        "image_url": "https://w.junreimap.com/images/user/0/bangumi/281281/points/1yvgdob-1751295826144.jpg",
        "location": "第一监狱 - 涩谷",
        "point_id": "1yvgdob",
        "point_name": "Bunkamura",
        "remark": ""
      },
      "type": "Feature"
    },
    {
      "geometry": {
        "coordinates": [
          139.702271,
          35.661436
        ],
        "type": "Point"
      },
      "properties": {
        "bangumi_id": 281281,
        "bangumi_title": "女神异闻录5 乱战：魅影攻手",
        "ep_cut": "",
        "image_url": "https://w.junreimap.com/images/user/0/bangumi/281281/points/24pux5b-1751649225383.jpg",
        "location": "第一监狱 - 涩谷",
        "point_id": "24pux5b",
        "point_name": "宮下第1歩道橋",
        "remark": ""
      },
      "type": "Feature"
    },
    {
      "geometry": {
        "coordinates": [
          139.701913,
          35.661508
        ],
        "type": "Point"
      },
      "properties": {
        "bangumi_id": 281281,
        "bangumi_title": "女神异闻录5 乱战：魅影攻手",
        "ep_cut": "",
        "image_url": "https://w.junreimap.com/images/user/0/bangumi/281281/points/24pwasb-1751649296148.jpg",
        "location": "第一监狱 - 涩谷",
        "point_id": "24pwasb",
        "point_name": "渋谷区立宮下公園",
        "remark": ""
      },
      "type": "Feature"
    },
    {
      "geometry": {
        "coordinates": [
          140.881697,
          38.261329
        ],
        "type": "Point"
      },
      "properties": {
        "bangumi_id": 281281,
        "bangumi_title": "女神异闻录5 乱战：魅影攻手",
        "ep_cut": "",
        "image_url": "https://w.junreimap.com/images/user/0/bangumi/281281/points/208drz9-1751378016771.jpg",
        "location": "第二监狱 - 仙台",
        "point_id": "208drz9",
        "point_name": "ＪＲ仙台駅",
        "remark": ""
      },
      "type": "Feature"
    },
    {
      "geometry": {
        "coordinates": [
          140.881842,
          38.261178
        ],
        "type": "Point"
      },
      "properties": {
        "bangumi_id": 281281,
        "bangumi_title": "女神异闻录5 乱战：魅影攻手",
        "ep_cut": "",
        "image_url": "https://w.junreimap.com/images/user/0/bangumi/281281/points/208rc30-1751378635156.jpg",
        "location": "第二监狱 - 仙台",
        "point_id": "208rc30",
        "point_name": "味の牛たん喜助 JR仙台駅店",
        "remark": "站内牛舌店很多，这家是装潢比较接近的。"
      },
      "type": "Feature"
    },
    {
      "geometry": {
        "coordinates": [
          140.881754,
          38.261738
        ],
        "type": "Point"
      },
      "properties": {
        "bangumi_id": 281281,
        "bangumi_title": "女神异闻录5 乱战：魅影攻手",
        "ep_cut": "",
        "image_url": "https://w.junreimap.com/images/user/0/bangumi/281281/points/208tin6-1751378749284.jpg",
        "location": "第二监狱 - 仙台",
        "point_id": "208tin6",
        "point_name": "仙台PARCO",
        "remark": ""
      },
      "type": "Feature"
    },
    {
      "geometry": {
        "coordinates": [
          140.881511,
          38.262591
        ],
        "type": "Point"
      },
      "properties": {
        "bangumi_id": 281281,
        "bangumi_title": "女神异闻录5 乱战：魅影攻手",
        "ep_cut": "",
        "image_url": "https://w.junreimap.com/images/user/0/bangumi/281281/points/24pyg9r-1751649414146.jpg",
        "location": "第二监狱 - 仙台",
        "point_id": "24pyg9r",
        "point_name": "AER 展望テラス",
        "remark": ""
      },
      "type": "Feature"
    },
    {
      "geometry": {
        "coordinates": [
          140.882028,
          38.261743
        ],
        "type": "Point"
      },
      "properties": {
        "bangumi_id": 281281,
        "bangumi_title": "女神异闻录5 乱战：魅影攻手",
        "ep_cut": "",
        "image_url": "https://w.junreimap.com/images/user/0/bangumi/281281/points/208xb98-1751378918899.jpg",
        "location": "第二监狱 - 仙台",
        "point_id": "208xb98",
        "point_name": "エスパル 仙台 II",
        "remark": ""
      },
      "type": "Feature"
    },
    {
      "geometry": {
        "coordinates": [
          140.880583,
          38.262104
        ],
        "type": "Point"
      },
      "properties": {
        "bangumi_id": 281281,
        "bangumi_title": "女神异闻录5 乱战：魅影攻手",
        "ep_cut": "",
        "image_url": "https://w.junreimap.com/images/user/0/bangumi/281281/points/209d1uy-1751379654864.jpg",
        "location": "第二监狱 - 仙台",
        "point_id": "209d1uy",
        "point_name": "ハピナ名掛丁商店街",
        "remark": ""
      },
      "type": "Feature"
    },
    {
      "geometry": {
        "coordinates": [
          140.876457,
          38.261562
        ],
        "type": "Point"
      },
      "properties": {
        "bangumi_id": 281281,
        "bangumi_title": "女神异闻录5 乱战：魅影攻手",
        "ep_cut": "",
        "image_url": "https://w.junreimap.com/images/user/0/bangumi/281281/points/209hll3-1751379865599.jpg",
        "location": "第二监狱 - 仙台",
        "point_id": "209hll3",
        "point_name": "三瀧山不動院",
        "remark": "游戏内基本会被忽略的小寺庙，位于商店街里"
      },
      "type": "Feature"
    },
    {
      "geometry": {
        "coordinates": [
          140.881536,
          38.262583
        ],
        "type": "Point"
      },
      "properties": {
        "bangumi_id": 281281,
        "bangumi_title": "女神异闻录5 乱战：魅影攻手",
        "ep_cut": "",
        "image_url": "https://w.junreimap.com/images/user/0/bangumi/281281/points/2099uc5-1751379529392.jpg",
        "location": "第二监狱 - 仙台",
        "point_id": "2099uc5",
        "point_name": "丸善 仙台アエル店",
        "remark": ""
      },
      "type": "Feature"
    },
    {
      "geometry": {
        "coordinates": [
          140.856274,
          38.252581
        ],
        "type": "Point"
      },
      "properties": {
        "bangumi_id": 281281,
        "bangumi_title": "女神异闻录5 乱战：魅影攻手",
        "ep_cut": "",
        "image_url": "https://w.junreimap.com/images/user/0/bangumi/281281/points/209qfo0-1751380286325.jpg",
        "location": "第二监狱 - 仙台",
        "point_id": "209qfo0",
        "point_name": "青葉城本丸会館駐車場",
        "remark": "现实中此处没有洗手间，不建议开房车前往"
      },
      "type": "Feature"
    },
    {
      "geometry": {
        "coordinates": [
          140.856739,
          38.253177
        ],
        "type": "Point"
      },
      "properties": {
        "bangumi_id": 281281,
        "bangumi_title": "女神异闻录5 乱战：魅影攻手",
        "ep_cut": "",
        "image_url": "https://w.junreimap.com/images/user/0/bangumi/281281/points/209ras3-1751380323915.jpg",
        "location": "第二监狱 - 仙台",
        "point_id": "209ras3",
        "point_name": "伊達政宗公立像",
        "remark": ""
      },
      "type": "Feature"
    },
    {
      "geometry": {
        "coordinates": [
          140.855558,
          38.252479
        ],
        "type": "Point"
      },
      "properties": {
        "bangumi_id": 281281,
        "bangumi_title": "女神异闻录5 乱战：魅影攻手",
        "ep_cut": "",
        "image_url": "https://w.junreimap.com/images/user/0/bangumi/281281/points/209siak-1751380374422.jpg",
        "location": "第二监狱 - 仙台",
        "point_id": "209siak",
        "point_name": "宮城縣護國神社",
        "remark": ""
      },
      "type": "Feature"
    },
    {
      "geometry": {
        "coordinates": [
          140.855955,
          38.252077
        ],
        "type": "Point"
      },
      "properties": {
        "bangumi_id": 281281,
        "bangumi_title": "女神异闻录5 乱战：魅影攻手",
        "ep_cut": "",
        "image_url": "https://w.junreimap.com/images/user/0/bangumi/281281/points/25dkm9m-1751689052762.jpg",
        "location": "第二监狱 - 仙台",
        "point_id": "25dkm9m",
        "point_name": "青葉城​資料​展示​館",
        "remark": ""
      },
      "type": "Feature"
    },
    {
      "geometry": {
        "coordinates": [
          140.856186,
          38.251831
        ],
        "type": "Point"
      },
      "properties": {
        "bangumi_id": 281281,
        "bangumi_title": "女神异闻录5 乱战：魅影攻手",
        "ep_cut": "",
        "image_url": "https://w.junreimap.com/images/user/0/bangumi/281281/points/209u2tb-1751380469499.jpg",
        "location": "第二监狱 - 仙台",
        "point_id": "209u2tb",
        "point_name": "仙台城下絵図",
        "remark": "位于地面上。"
      },
      "type": "Feature"
    },
    {
      "geometry": {
        "coordinates": [
          140.859457,
          38.257969
        ],
        "type": "Point"
      },
      "properties": {
        "bangumi_id": 281281,
        "bangumi_title": "女神异闻录5 乱战：魅影攻手",
        "ep_cut": "",
        "image_url": "https://w.junreimap.com/images/user/0/bangumi/281281/points/21su6up-1751472854427.jpg",
        "location": "第二监狱 - 仙台",
        "point_id": "21su6up",
        "point_name": "大橋",
        "remark": ""
      },
      "type": "Feature"
    },
    {
      "geometry": {
        "coordinates": [
          140.856827,
          38.256047
        ],
        "type": "Point"
      },
      "properties": {
        "bangumi_id": 281281,
        "bangumi_title": "女神异闻录5 乱战：魅影攻手",
        "ep_cut": "",
        "image_url": "https://w.junreimap.com/images/user/0/bangumi/281281/points/21svg6a-1751472906737.jpg",
        "location": "第二监狱 - 仙台",
        "point_id": "21svg6a",
        "point_name": "仙台市博物館",
        "remark": ""
      },
      "type": "Feature"
    },
    {
      "geometry": {
        "coordinates": [
          140.857817,
          38.258713
        ],
        "type": "Point"
      },
      "properties": {
        "bangumi_id": 281281,
        "bangumi_title": "女神异闻录5 乱战：魅影攻手",
        "ep_cut": "",
        "image_url": "",
        "location": "第二监狱 - 仙台",
        "point_id": "21swk2l",
        "point_name": "仙台​国際​センター",
        "remark": "游戏内“仙台世界中心”存档点位置\n"
      },
      "type": "Feature"
    },
    {
      "geometry": {
        "coordinates": [
          140.865361,
          38.258145
        ],
        "type": "Point"
      },
      "properties": {
        "bangumi_id": 281281,
        "bangumi_title": "女神异闻录5 乱战：魅影攻手",
        "ep_cut": "",
        "image_url": "https://w.junreimap.com/images/user/0/bangumi/281281/points/21szmas-1751473106817.jpg",
        "location": "第二监狱 - 仙台",
        "point_id": "21szmas",
        "point_name": "仙台大神宮",
        "remark": "游戏内“雨之神殿”"
      },
      "type": "Feature"
    },
    {
      "geometry": {
        "coordinates": [
          140.864245,
          38.258959
        ],
        "type": "Point"
      },
      "properties": {
        "bangumi_id": 281281,
        "bangumi_title": "女神异闻录5 乱战：魅影攻手",
        "ep_cut": "",
        "image_url": "https://w.junreimap.com/images/user/0/bangumi/281281/points/21t1thf-1751473182646.jpg",
        "location": "第二监狱 - 仙台",
        "point_id": "21t1thf",
        "point_name": "大町西公園",
        "remark": "游戏内“西庭园”地图"
      },
      "type": "Feature"
    },
    {
      "geometry": {
        "coordinates": [
          140.872071,
          38.259692
        ],
        "type": "Point"
      },
      "properties": {
        "bangumi_id": 281281,
        "bangumi_title": "女神异闻录5 乱战：魅影攻手",
        "ep_cut": "",
        "image_url": "https://w.junreimap.com/images/user/0/bangumi/281281/points/21t3ary-1751473254107.jpg",
        "location": "第二监狱 - 仙台",
        "point_id": "21t3ary",
        "point_name": "青葉通一番町",
        "remark": ""
      },
      "type": "Feature"
    },
    {
      "geometry": {
        "coordinates": [
          140.87363,
          38.259262
        ],
        "type": "Point"
      },
      "properties": {
        "bangumi_id": 281281,
        "bangumi_title": "女神异闻录5 乱战：魅影攻手",
        "ep_cut": "",
        "image_url": "https://w.junreimap.com/images/user/0/bangumi/281281/points/21t5fg0-1751473390527.jpg",
        "location": "第二监狱 - 仙台",
        "point_id": "21t5fg0",
        "point_name": "青葉通パーク",
        "remark": ""
      },
      "type": "Feature"
    },
    {
      "geometry": {
        "coordinates": [
          140.872015,
          38.262188
        ],
        "type": "Point"
      },
      "properties": {
        "bangumi_id": 281281,
        "bangumi_title": "女神异闻录5 乱战：魅影攻手",
        "ep_cut": "",
        "image_url": "https://w.junreimap.com/images/user/0/bangumi/281281/points/21taq9u-1751473597198.jpg",
        "location": "第二监狱 - 仙台",
        "point_id": "21taq9u",
        "point_name": "仙台フォーラス",
        "remark": "2024年3月1日因建筑物老化长期歇业，开业时间未知"
      },
      "type": "Feature"
    },
    {
      "geometry": {
        "coordinates": [
          140.873048,
          38.260592
        ],
        "type": "Point"
      },
      "properties": {
        "bangumi_id": 281281,
        "bangumi_title": "女神异闻录5 乱战：魅影攻手",
        "ep_cut": "",
        "image_url": "https://w.junreimap.com/images/user/0/bangumi/281281/points/24pgtjb-1751648593406.jpg",
        "location": "第二监狱 - 仙台",
        "point_id": "24pgtjb",
        "point_name": "コメダ珈琲店 仙台マーブルロード店",
        "remark": "游戏内实际为附近的多家咖啡馆的特征杂糅而成，该店为具有最多特征且地理位置最符合的（商店街内，距离天桥近，有沙发席，内部装饰有沙发、位于2层，营业时间为7-23点）。\n拆包发现游戏内咖啡馆建模在这附近（游戏内在马路对面）。"
      },
      "type": "Feature"
    },
    {
      "geometry": {
        "coordinates": [
          140.856817,
          38.255952
        ],
        "type": "Point"
      },
      "properties": {
        "bangumi_id": 281281,
        "bangumi_title": "女神异闻录5 乱战：魅影攻手",
        "ep_cut": "",
        "image_url": "https://w.junreimap.com/images/user/0/bangumi/281281/points/24plvzo-1751648821095.jpg",
        "location": "第二监狱 - 仙台",
        "point_id": "24plvzo",
        "point_name": "仙台市博物館",
        "remark": ""
      },
      "type": "Feature"
    },
    {
      "geometry": {
        "coordinates": [
          140.835674,
          38.257747
        ],
        "type": "Point"
      },
      "properties": {
        "bangumi_id": 281281,
        "bangumi_title": "女神异闻录5 乱战：魅影攻手",
        "ep_cut": "",
        "image_url": "https://w.junreimap.com/images/user/0/bangumi/281281/points/25dgag3-1751688867515.jpg",
        "location": "第二监狱 - 仙台",
        "point_id": "25dgag3",
        "point_name": "東北大学 青葉山キャンパス",
        "remark": "仅在对话中提及。"
      },
      "type": "Feature"
    },
    {
      "geometry": {
        "coordinates": [
          140.853953,
          38.258853
        ],
        "type": "Point"
      },
      "properties": {
        "bangumi_id": 281281,
        "bangumi_title": "女神异闻录5 乱战：魅影攻手",
        "ep_cut": "",
        "image_url": "https://w.junreimap.com/images/user/0/bangumi/281281/points/25dhvfr-1751688923243.jpg",
        "location": "第二监狱 - 仙台",
        "point_id": "25dhvfr",
        "point_name": "東北​大学​百​周年​記念​会館\n川内​萩​ホール",
        "remark": "可以从东北大学官网看到照片"
      },
      "type": "Feature"
    },
    {
      "geometry": {
        "coordinates": [
          140.803426,
          40.186875
        ],
        "type": "Point"
      },
      "properties": {
        "bangumi_id": 281281,
        "bangumi_title": "女神异闻录5 乱战：魅影攻手",
        "ep_cut": "",
        "image_url": "https://w.junreimap.com/images/user/0/bangumi/281281/points/25eb932-1751690325779.jpg",
        "location": "第三监狱 - 札幌",
        "point_id": "25eb932",
        "point_name": "花輪サービスエリア (下り)",
        "remark": ""
      },
      "type": "Feature"
    },
    {
      "geometry": {
        "coordinates": [
          141.355847,
          43.060974
        ],
        "type": "Point"
      },
      "properties": {
        "bangumi_id": 281281,
        "bangumi_title": "女神异闻录5 乱战：魅影攻手",
        "ep_cut": "",
        "image_url": "https://w.junreimap.com/images/user/0/bangumi/281281/points/25hx2d8-1751696366066.jpg",
        "location": "第三监狱 - 札幌",
        "point_id": "25hx2d8",
        "point_name": "大通公園西１丁目",
        "remark": ""
      },
      "type": "Feature"
    },
    {
      "geometry": {
        "coordinates": [
          141.352965,
          43.060542
        ],
        "type": "Point"
      },
      "properties": {
        "bangumi_id": 281281,
        "bangumi_title": "女神异闻录5 乱战：魅影攻手",
        "ep_cut": "",
        "image_url": "https://w.junreimap.com/images/user/0/bangumi/281281/points/25hyqbk-1751696424322.jpg",
        "location": "第三监狱 - 札幌",
        "point_id": "25hyqbk",
        "point_name": "大通公園西４丁目",
        "remark": "冬季与春季会撤掉喷泉。\n游戏内比例尺更像三丁目"
      },
      "type": "Feature"
    },
    {
      "geometry": {
        "coordinates": [
          141.351117,
          43.060477
        ],
        "type": "Point"
      },
      "properties": {
        "bangumi_id": 281281,
        "bangumi_title": "女神异闻录5 乱战：魅影攻手",
        "ep_cut": "",
        "image_url": "https://w.junreimap.com/images/user/0/bangumi/281281/points/93neueb-1766822189814.jpg",
        "location": "第三监狱 - 札幌",
        "point_id": "93neueb",
        "point_name": "大通公园西4丁目噴水",
        "remark": ""
      },
      "type": "Feature"
    },
    {
      "geometry": {
        "coordinates": [
          141.353211,
          43.055736
        ],
        "type": "Point"
      },
      "properties": {
        "bangumi_id": 281281,
        "bangumi_title": "女神异闻录5 乱战：魅影攻手",
        "ep_cut": "",
        "image_url": "https://w.junreimap.com/images/user/0/bangumi/281281/points/25i49kh-1751696691476.jpg",
        "location": "第三监狱 - 札幌",
        "point_id": "25i49kh",
        "point_name": "ニッカウヰスキー看板",
        "remark": ""
      },
      "type": "Feature"
    },
    {
      "geometry": {
        "coordinates": [
          141.353345,
          43.055762
        ],
        "type": "Point"
      },
      "properties": {
        "bangumi_id": 281281,
        "bangumi_title": "女神异闻录5 乱战：魅影攻手",
        "ep_cut": "",
        "image_url": "https://w.junreimap.com/images/user/0/bangumi/281281/points/93o0wbh-1766823264733.jpg",
        "location": "第三监狱 - 札幌",
        "point_id": "93o0wbh",
        "point_name": "すすきのビル",
        "remark": ""
      },
      "type": "Feature"
    },
    {
      "geometry": {
        "coordinates": [
          141.35323,
          43.055407
        ],
        "type": "Point"
      },
      "properties": {
        "bangumi_id": 281281,
        "bangumi_title": "女神异闻录5 乱战：魅影攻手",
        "ep_cut": "",
        "image_url": "https://w.junreimap.com/images/user/0/bangumi/281281/points/25i50gs-1751696730505.jpg",
        "location": "第三监狱 - 札幌",
        "point_id": "25i50gs",
        "point_name": "COCONOSUSUKINO",
        "remark": ""
      },
      "type": "Feature"
    },
    {
      "geometry": {
        "coordinates": [
          141.353512,
          43.055952
        ],
        "type": "Point"
      },
      "properties": {
        "bangumi_id": 281281,
        "bangumi_title": "女神异闻录5 乱战：魅影攻手",
        "ep_cut": "",
        "image_url": "https://w.junreimap.com/images/user/0/bangumi/281281/points/25i5x13-1751696762982.jpg",
        "location": "第三监狱 - 札幌",
        "point_id": "25i5x13",
        "point_name": "CoCo壱​番屋\n中央区​すすきの​店",
        "remark": ""
      },
      "type": "Feature"
    },
    {
      "geometry": {
        "coordinates": [
          141.348766,
          43.064032
        ],
        "type": "Point"
      },
      "properties": {
        "bangumi_id": 281281,
        "bangumi_title": "女神异闻录5 乱战：魅影攻手",
        "ep_cut": "",
        "image_url": "https://w.junreimap.com/images/user/0/bangumi/281281/points/25ia72x-1751696975599.jpg",
        "location": "第三监狱 - 札幌",
        "point_id": "25ia72x",
        "point_name": "北海道庁赤れんが庁舎 (旧本庁舎)",
        "remark": ""
      },
      "type": "Feature"
    },
    {
      "geometry": {
        "coordinates": [
          141.353478,
          43.054132
        ],
        "type": "Point"
      },
      "properties": {
        "bangumi_id": 281281,
        "bangumi_title": "女神异闻录5 乱战：魅影攻手",
        "ep_cut": "",
        "image_url": "https://w.junreimap.com/images/user/0/bangumi/281281/points/25iiyn3-1751697372075.jpg",
        "location": "第三监狱 - 札幌",
        "point_id": "25iiyn3",
        "point_name": "あかひげ薬局 札幌店",
        "remark": ""
      },
      "type": "Feature"
    },
    {
      "geometry": {
        "coordinates": [
          141.35291,
          43.056485
        ],
        "type": "Point"
      },
      "properties": {
        "bangumi_id": 281281,
        "bangumi_title": "女神异闻录5 乱战：魅影攻手",
        "ep_cut": "",
        "image_url": "https://w.junreimap.com/images/user/0/bangumi/281281/points/25jjrfi-1751699209347.jpg",
        "location": "第三监狱 - 札幌",
        "point_id": "25jjrfi",
        "point_name": "モスバーガー札幌四番街店",
        "remark": "P5R春家的品牌原型是涉谷的汉堡王，到札幌就变成了mos burger"
      },
      "type": "Feature"
    },
    {
      "geometry": {
        "coordinates": [
          141.352945,
          43.05421
        ],
        "type": "Point"
      },
      "properties": {
        "bangumi_id": 281281,
        "bangumi_title": "女神异闻录5 乱战：魅影攻手",
        "ep_cut": "",
        "image_url": "https://w.junreimap.com/images/user/0/bangumi/281281/points/25kptym-1751701053579.jpg",
        "location": "第三监狱 - 札幌",
        "point_id": "25kptym",
        "point_name": "炭火焼鳥 大",
        "remark": ""
      },
      "type": "Feature"
    },
    {
      "geometry": {
        "coordinates": [
          141.35276,
          43.054093
        ],
        "type": "Point"
      },
      "properties": {
        "bangumi_id": 281281,
        "bangumi_title": "女神异闻录5 乱战：魅影攻手",
        "ep_cut": "",
        "image_url": "https://w.junreimap.com/images/user/0/bangumi/281281/points/25kqj7f-1751701083131.jpg",
        "location": "第三监狱 - 札幌",
        "point_id": "25kqj7f",
        "point_name": "セブン​イレブン\n札幌​南​5条​西​4店",
        "remark": ""
      },
      "type": "Feature"
    },
    {
      "geometry": {
        "coordinates": [
          141.354003,
          43.054917
        ],
        "type": "Point"
      },
      "properties": {
        "bangumi_id": 281281,
        "bangumi_title": "女神异闻录5 乱战：魅影攻手",
        "ep_cut": "",
        "image_url": "https://w.junreimap.com/images/user/0/bangumi/281281/points/25l0y66-1751701653396.jpg",
        "location": "第三监狱 - 札幌",
        "point_id": "25l0y66",
        "point_name": "元祖さっぽろラーメン横丁",
        "remark": ""
      },
      "type": "Feature"
    },
    {
      "geometry": {
        "coordinates": [
          141.351682,
          43.061798
        ],
        "type": "Point"
      },
      "properties": {
        "bangumi_id": 281281,
        "bangumi_title": "女神异闻录5 乱战：魅影攻手",
        "ep_cut": "",
        "image_url": "https://w.junreimap.com/images/user/0/bangumi/281281/points/25lih7d-1751702388072.jpg",
        "location": "第三监狱 - 札幌",
        "point_id": "25lih7d",
        "point_name": "札幌駅前通",
        "remark": ""
      },
      "type": "Feature"
    },
    {
      "geometry": {
        "coordinates": [
          141.353469,
          43.062352
        ],
        "type": "Point"
      },
      "properties": {
        "bangumi_id": 281281,
        "bangumi_title": "女神异闻录5 乱战：魅影攻手",
        "ep_cut": "",
        "image_url": "https://w.junreimap.com/images/user/0/bangumi/281281/points/25lj6n7-1751702430973.jpg",
        "location": "第三监狱 - 札幌",
        "point_id": "25lj6n7",
        "point_name": "札幌市時計台",
        "remark": ""
      },
      "type": "Feature"
    },
    {
      "geometry": {
        "coordinates": [
          141.352905,
          43.055925
        ],
        "type": "Point"
      },
      "properties": {
        "bangumi_id": 281281,
        "bangumi_title": "女神异闻录5 乱战：魅影攻手",
        "ep_cut": "",
        "image_url": "https://w.junreimap.com/images/user/0/bangumi/281281/points/25llf9w-1751702524990.jpg",
        "location": "第三监狱 - 札幌",
        "point_id": "25llf9w",
        "point_name": "マクドナルド\n札幌​すすきの​店",
        "remark": "游戏中为成吉思汗烤肉店"
      },
      "type": "Feature"
    },
    {
      "geometry": {
        "coordinates": [
          141.342511,
          43.063713
        ],
        "type": "Point"
      },
      "properties": {
        "bangumi_id": 281281,
        "bangumi_title": "女神异闻录5 乱战：魅影攻手",
        "ep_cut": "",
        "image_url": "https://w.junreimap.com/images/user/0/bangumi/281281/points/26kkx7h-1751761331819.jpg",
        "location": "第三监狱 - 札幌",
        "point_id": "26kkx7h",
        "point_name": "北海道​大​北方​生物圏\nフィールド​科学​センター​植物園",
        "remark": ""
      },
      "type": "Feature"
    },
    {
      "geometry": {
        "coordinates": [
          141.356472,
          43.061079
        ],
        "type": "Point"
      },
      "properties": {
        "bangumi_id": 281281,
        "bangumi_title": "女神异闻录5 乱战：魅影攻手",
        "ep_cut": "",
        "image_url": "https://w.junreimap.com/images/user/0/bangumi/281281/points/26kmjl3-1751761401130.jpg",
        "location": "第三监狱 - 札幌",
        "point_id": "26kmjl3",
        "point_name": "さっぽろテレビ塔",
        "remark": ""
      },
      "type": "Feature"
    },
    {
      "geometry": {
        "coordinates": [
          141.353699,
          43.06091
        ],
        "type": "Point"
      },
      "properties": {
        "bangumi_id": 281281,
        "bangumi_title": "女神异闻录5 乱战：魅影攻手",
        "ep_cut": "",
        "image_url": "https://w.junreimap.com/images/user/0/bangumi/281281/points/93n1h05-1766821609219.jpg",
        "location": "第三监狱 - 札幌",
        "point_id": "93n1h05",
        "point_name": "札幌テレビ塔",
        "remark": ""
      },
      "type": "Feature"
    },
    {
      "geometry": {
        "coordinates": [
          141.350869,
          43.056085
        ],
        "type": "Point"
      },
      "properties": {
        "bangumi_id": 281281,
        "bangumi_title": "女神异闻录5 乱战：魅影攻手",
        "ep_cut": "",
        "image_url": "https://w.junreimap.com/images/user/0/bangumi/281281/points/26njcg5-1751766296253.jpg",
        "location": "第三监狱 - 札幌",
        "point_id": "26njcg5",
        "point_name": "ケンタッキー​フライド​チキン\nすすき​の​ノルベサ​店",
        "remark": ""
      },
      "type": "Feature"
    },
    {
      "geometry": {
        "coordinates": [
          141.35282,
          43.056654
        ],
        "type": "Point"
      },
      "properties": {
        "bangumi_id": 281281,
        "bangumi_title": "女神异闻录5 乱战：魅影攻手",
        "ep_cut": "",
        "image_url": "https://w.junreimap.com/images/user/0/bangumi/281281/points/26nrl1u-1751766642705.jpg",
        "location": "第三监狱 - 札幌",
        "point_id": "26nrl1u",
        "point_name": "狸小路",
        "remark": "东北方向远处为狸小路商店街"
      },
      "type": "Feature"
    },
    {
      "geometry": {
        "coordinates": [
          141.352754,
          43.060382
        ],
        "type": "Point"
      },
      "properties": {
        "bangumi_id": 281281,
        "bangumi_title": "女神异闻录5 乱战：魅影攻手",
        "ep_cut": "",
        "image_url": "https://w.junreimap.com/images/user/0/bangumi/281281/points/26nz34g-1751766996290.jpg",
        "location": "第三监狱 - 札幌",
        "point_id": "26nz34g",
        "point_name": "大通公園 トイレ(西3丁目)",
        "remark": ""
      },
      "type": "Feature"
    },
    {
      "geometry": {
        "coordinates": [
          141.35106,
          43.056122
        ],
        "type": "Point"
      },
      "properties": {
        "bangumi_id": 281281,
        "bangumi_title": "女神异闻录5 乱战：魅影攻手",
        "ep_cut": "",
        "image_url": "https://w.junreimap.com/images/user/0/bangumi/281281/points/26qq5ny-1751771613272.jpg",
        "location": "第三监狱 - 札幌",
        "point_id": "26qq5ny",
        "point_name": "大観覧車 nORIA 札幌",
        "remark": ""
      },
      "type": "Feature"
    },
    {
      "geometry": {
        "coordinates": [
          129.996974,
          29.518792
        ],
        "type": "Point"
      },
      "properties": {
        "bangumi_id": 281281,
        "bangumi_title": "女神异闻录5 乱战：魅影攻手",
        "ep_cut": "",
        "image_url": "https://w.junreimap.com/images/user/0/bangumi/281281/points/26rs4sv-1751773429380.jpg",
        "location": "第四监狱 - 冲绳",
        "point_id": "26rs4sv",
        "point_name": "マルエーフェリー 鹿児島航路",
        "remark": "游戏中仅提到“从京都/神户坐船到冲绳”。实际考察发现需要在鹿儿岛转船，路线可能是大阪-鹿儿岛-冲绳-久米岛。"
      },
      "type": "Feature"
    },
    {
      "geometry": {
        "coordinates": [
          127.719442,
          26.217035
        ],
        "type": "Point"
      },
      "properties": {
        "bangumi_id": 281281,
        "bangumi_title": "女神异闻录5 乱战：魅影攻手",
        "ep_cut": "",
        "image_url": "https://w.junreimap.com/images/user/0/bangumi/281281/points/2h4kedw-1752399569983.jpg",
        "location": "第四监狱 - 冲绳",
        "point_id": "2h4kedw",
        "point_name": "首里城",
        "remark": "仅过场地标出现"
      },
      "type": "Feature"
    },
    {
      "geometry": {
        "coordinates": [
          126.753458,
          26.341525
        ],
        "type": "Point"
      },
      "properties": {
        "bangumi_id": 281281,
        "bangumi_title": "女神异闻录5 乱战：魅影攻手",
        "ep_cut": "",
        "image_url": "https://w.junreimap.com/images/user/0/bangumi/281281/points/26ur1e7-1751778379505.jpg",
        "location": "第四监狱 - 冲绳",
        "point_id": "26ur1e7",
        "point_name": "兼城港ターミナル",
        "remark": "游戏内“久古岛”港口。与实际久米岛景色差异很大"
      },
      "type": "Feature"
    },
    {
      "geometry": {
        "coordinates": [
          126.745703,
          26.34607
        ],
        "type": "Point"
      },
      "properties": {
        "bangumi_id": 281281,
        "bangumi_title": "女神异闻录5 乱战：魅影攻手",
        "ep_cut": "",
        "image_url": "https://w.junreimap.com/images/user/0/bangumi/281281/points/26ut66s-1751778470969.jpg",
        "location": "第四监狱 - 冲绳",
        "point_id": "26ut66s",
        "point_name": "バードアイランド",
        "remark": ""
      },
      "type": "Feature"
    },
    {
      "geometry": {
        "coordinates": [
          130.419047,
          33.589314
        ],
        "type": "Point"
      },
      "properties": {
        "bangumi_id": 281281,
        "bangumi_title": "女神异闻录5 乱战：魅影攻手",
        "ep_cut": "",
        "image_url": "https://w.junreimap.com/images/user/0/bangumi/281281/points/2h4o24x-1752399692902.jpg",
        "location": "第五监狱 - 京都",
        "point_id": "2h4o24x",
        "point_name": "JR博多駅前広場",
        "remark": ""
      },
      "type": "Feature"
    },
    {
      "geometry": {
        "coordinates": [
          130.408501,
          33.59022
        ],
        "type": "Point"
      },
      "properties": {
        "bangumi_id": 281281,
        "bangumi_title": "女神异闻录5 乱战：魅影攻手",
        "ep_cut": "",
        "image_url": "https://w.junreimap.com/images/user/0/bangumi/281281/points/2h4yh3r-1752400195311.jpg",
        "location": "第五监狱 - 京都",
        "point_id": "2h4yh3r",
        "point_name": "中洲の屋台街",
        "remark": ""
      },
      "type": "Feature"
    },
    {
      "geometry": {
        "coordinates": [
          135.773003,
          34.967083
        ],
        "type": "Point"
      },
      "properties": {
        "bangumi_id": 281281,
        "bangumi_title": "女神异闻录5 乱战：魅影攻手",
        "ep_cut": "",
        "image_url": "https://w.junreimap.com/images/user/0/bangumi/281281/points/2h56mlx-1752400563745.jpg",
        "location": "第五监狱 - 京都",
        "point_id": "2h56mlx",
        "point_name": "伏見稲荷大社",
        "remark": ""
      },
      "type": "Feature"
    },
    {
      "geometry": {
        "coordinates": [
          135.774621,
          34.967032
        ],
        "type": "Point"
      },
      "properties": {
        "bangumi_id": 281281,
        "bangumi_title": "女神异闻录5 乱战：魅影攻手",
        "ep_cut": "",
        "image_url": "https://w.junreimap.com/images/user/0/bangumi/281281/points/2h6ukmg-1752403358505.jpg",
        "location": "第五监狱 - 京都",
        "point_id": "2h6ukmg",
        "point_name": "千本鳥居",
        "remark": ""
      },
      "type": "Feature"
    },
    {
      "geometry": {
        "coordinates": [
          135.501314,
          34.669094
        ],
        "type": "Point"
      },
      "properties": {
        "bangumi_id": 281281,
        "bangumi_title": "女神异闻录5 乱战：魅影攻手",
        "ep_cut": "",
        "image_url": "https://w.junreimap.com/images/user/0/bangumi/281281/points/2h6z3sa-1752403565978.jpg",
        "location": "第六监狱 - 大阪",
        "point_id": "2h6z3sa",
        "point_name": "戎橋",
        "remark": ""
      },
      "type": "Feature"
    },
    {
      "geometry": {
        "coordinates": [
          135.500962,
          34.668944
        ],
        "type": "Point"
      },
      "properties": {
        "bangumi_id": 281281,
        "bangumi_title": "女神异闻录5 乱战：魅影攻手",
        "ep_cut": "",
        "image_url": "https://w.junreimap.com/images/user/0/bangumi/281281/points/2h6zn3j-1752403591832.jpg",
        "location": "第六监狱 - 大阪",
        "point_id": "2h6zn3j",
        "point_name": "グリコサイン",
        "remark": ""
      },
      "type": "Feature"
    },
    {
      "geometry": {
        "coordinates": [
          135.501255,
          34.670338
        ],
        "type": "Point"
      },
      "properties": {
        "bangumi_id": 281281,
        "bangumi_title": "女神异闻录5 乱战：魅影攻手",
        "ep_cut": "",
        "image_url": "https://w.junreimap.com/images/user/0/bangumi/281281/points/2pzm4g0-1752935493615.jpg",
        "location": "第六监狱 - 大阪",
        "point_id": "2pzm4g0",
        "point_name": "心斎橋筋商店街",
        "remark": ""
      },
      "type": "Feature"
    },
    {
      "geometry": {
        "coordinates": [
          135.501436,
          34.668573
        ],
        "type": "Point"
      },
      "properties": {
        "bangumi_id": 281281,
        "bangumi_title": "女神异闻录5 乱战：魅影攻手",
        "ep_cut": "",
        "image_url": "https://w.junreimap.com/images/user/0/bangumi/281281/points/2h71t2b-1752403687531.jpg",
        "location": "第六监狱 - 大阪",
        "point_id": "2h71t2b",
        "point_name": "スターバックス​コーヒー​TSUTAYA ​EBISUBASHI​店",
        "remark": "游戏内为“Book&Cafe”，合并了同一栋楼的书店“Tsutaya Ebisubashi”"
      },
      "type": "Feature"
    },
    {
      "geometry": {
        "coordinates": [
          135.501491,
          34.668753
        ],
        "type": "Point"
      },
      "properties": {
        "bangumi_id": 281281,
        "bangumi_title": "女神异闻录5 乱战：魅影攻手",
        "ep_cut": "",
        "image_url": "https://w.junreimap.com/images/user/0/bangumi/281281/points/2h72y2l-1752403751157.jpg",
        "location": "第六监狱 - 大阪",
        "point_id": "2h72y2l",
        "point_name": "かに道楽 道頓堀本店",
        "remark": ""
      },
      "type": "Feature"
    },
    {
      "geometry": {
        "coordinates": [
          135.501732,
          34.668845
        ],
        "type": "Point"
      },
      "properties": {
        "bangumi_id": 281281,
        "bangumi_title": "女神异闻录5 乱战：魅影攻手",
        "ep_cut": "",
        "image_url": "https://w.junreimap.com/images/user/0/bangumi/281281/points/2h74hgi-1752403813536.jpg",
        "location": "第六监狱 - 大阪",
        "point_id": "2h74hgi",
        "point_name": "びっくり​ドンキー\n道頓堀​店",
        "remark": ""
      },
      "type": "Feature"
    },
    {
      "geometry": {
        "coordinates": [
          135.503044,
          34.668645
        ],
        "type": "Point"
      },
      "properties": {
        "bangumi_id": 281281,
        "bangumi_title": "女神异闻录5 乱战：魅影攻手",
        "ep_cut": "",
        "image_url": "https://w.junreimap.com/images/user/0/bangumi/281281/points/2h79f5u-1752404043821.jpg",
        "location": "第六监狱 - 大阪",
        "point_id": "2h79f5u",
        "point_name": "金龍ラーメン",
        "remark": ""
      },
      "type": "Feature"
    },
    {
      "geometry": {
        "coordinates": [
          135.502101,
          34.668773
        ],
        "type": "Point"
      },
      "properties": {
        "bangumi_id": 281281,
        "bangumi_title": "女神异闻录5 乱战：魅影攻手",
        "ep_cut": "",
        "image_url": "https://w.junreimap.com/images/user/0/bangumi/281281/points/2h7arjs-1752404109956.jpg",
        "location": "第六监狱 - 大阪",
        "point_id": "2h7arjs",
        "point_name": "ゲームハウス ニコニコ",
        "remark": ""
      },
      "type": "Feature"
    },
    {
      "geometry": {
        "coordinates": [
          135.502001,
          34.668846
        ],
        "type": "Point"
      },
      "properties": {
        "bangumi_id": 281281,
        "bangumi_title": "女神异闻录5 乱战：魅影攻手",
        "ep_cut": "",
        "image_url": "https://w.junreimap.com/images/user/0/bangumi/281281/points/2h7bm3v-1752404146990.jpg",
        "location": "第六监狱 - 大阪",
        "point_id": "2h7bm3v",
        "point_name": "大阪​王将​ 道頓堀​本店",
        "remark": ""
      },
      "type": "Feature"
    },
    {
      "geometry": {
        "coordinates": [
          135.502169,
          34.668772
        ],
        "type": "Point"
      },
      "properties": {
        "bangumi_id": 281281,
        "bangumi_title": "女神异闻录5 乱战：魅影攻手",
        "ep_cut": "",
        "image_url": "https://w.junreimap.com/images/user/0/bangumi/281281/points/2h7cxtf-1752404213400.jpg",
        "location": "第六监狱 - 大阪",
        "point_id": "2h7cxtf",
        "point_name": "たこ家道頓堀くくる 道頓堀コナモンミュージアム店",
        "remark": ""
      },
      "type": "Feature"
    },
    {
      "geometry": {
        "coordinates": [
          135.502262,
          34.668592
        ],
        "type": "Point"
      },
      "properties": {
        "bangumi_id": 281281,
        "bangumi_title": "女神异闻录5 乱战：魅影攻手",
        "ep_cut": "",
        "image_url": "https://w.junreimap.com/images/user/0/bangumi/281281/points/2h7f8ap-1752404317546.jpg",
        "location": "第六监狱 - 大阪",
        "point_id": "2h7f8ap",
        "point_name": "よしもと道頓堀シアター",
        "remark": ""
      },
      "type": "Feature"
    },
    {
      "geometry": {
        "coordinates": [
          135.506301,
          34.652409
        ],
        "type": "Point"
      },
      "properties": {
        "bangumi_id": 281281,
        "bangumi_title": "女神异闻录5 乱战：魅影攻手",
        "ep_cut": "",
        "image_url": "https://w.junreimap.com/images/user/0/bangumi/281281/points/2h7ghqq-1752404416909.jpg",
        "location": "第六监狱 - 大阪",
        "point_id": "2h7ghqq",
        "point_name": "新世界通天閣",
        "remark": ""
      },
      "type": "Feature"
    },
    {
      "geometry": {
        "coordinates": [
          135.505783,
          34.651183
        ],
        "type": "Point"
      },
      "properties": {
        "bangumi_id": 281281,
        "bangumi_title": "女神异闻录5 乱战：魅影攻手",
        "ep_cut": "",
        "image_url": "https://w.junreimap.com/images/user/0/bangumi/281281/points/2lq0m9o-1752677652358.jpg",
        "location": "第六监狱 - 大阪",
        "point_id": "2lq0m9o",
        "point_name": "づぼらや新世界店本館",
        "remark": "2020年9月15日因疫情永久停业，撤走标志性的河豚灯笼，仅有建筑物残留。游戏内为疫情前的景色。"
      },
      "type": "Feature"
    },
    {
      "geometry": {
        "coordinates": [
          135.505842,
          34.651168
        ],
        "type": "Point"
      },
      "properties": {
        "bangumi_id": 281281,
        "bangumi_title": "女神异闻录5 乱战：魅影攻手",
        "ep_cut": "",
        "image_url": "https://w.junreimap.com/images/user/0/bangumi/281281/points/2lq6j54-1752677813317.jpg",
        "location": "第六监狱 - 大阪",
        "point_id": "2lq6j54",
        "point_name": "ビリケンさん",
        "remark": ""
      },
      "type": "Feature"
    },
    {
      "geometry": {
        "coordinates": [
          135.505803,
          34.651258
        ],
        "type": "Point"
      },
      "properties": {
        "bangumi_id": 281281,
        "bangumi_title": "女神异闻录5 乱战：魅影攻手",
        "ep_cut": "",
        "image_url": "https://w.junreimap.com/images/user/0/bangumi/281281/points/2lqbu2b-1752677934116.jpg",
        "location": "第六监狱 - 大阪",
        "point_id": "2lqbu2b",
        "point_name": "串カツ 大吉 新世界店",
        "remark": ""
      },
      "type": "Feature"
    },
    {
      "geometry": {
        "coordinates": [
          135.50585,
          34.651392
        ],
        "type": "Point"
      },
      "properties": {
        "bangumi_id": 281281,
        "bangumi_title": "女神异闻录5 乱战：魅影攻手",
        "ep_cut": "",
        "image_url": "https://w.junreimap.com/images/user/0/bangumi/281281/points/2lqkzkq-1752678361099.jpg",
        "location": "第六监狱 - 大阪",
        "point_id": "2lqkzkq",
        "point_name": "お好み焼き・一銭洋食 福○",
        "remark": "于2023年撤店（包括其连锁店）。"
      },
      "type": "Feature"
    },
    {
      "geometry": {
        "coordinates": [
          135.506024,
          34.651706
        ],
        "type": "Point"
      },
      "properties": {
        "bangumi_id": 281281,
        "bangumi_title": "女神异闻录5 乱战：魅影攻手",
        "ep_cut": "",
        "image_url": "https://w.junreimap.com/images/user/0/bangumi/281281/points/2lqtmo4-1752678766150.jpg",
        "location": "第六监狱 - 大阪",
        "point_id": "2lqtmo4",
        "point_name": "新世界 丸かつ タコ焼き",
        "remark": "于2021年前后撤店"
      },
      "type": "Feature"
    },
    {
      "geometry": {
        "coordinates": [
          135.50601,
          34.651825
        ],
        "type": "Point"
      },
      "properties": {
        "bangumi_id": 281281,
        "bangumi_title": "女神异闻录5 乱战：魅影攻手",
        "ep_cut": "",
        "image_url": "https://w.junreimap.com/images/user/0/bangumi/281281/points/2lqyx99-1752679021123.jpg",
        "location": "第六监狱 - 大阪",
        "point_id": "2lqyx99",
        "point_name": "くらぶ あるどーれ",
        "remark": "2018年3月撤店后建筑物改造。现为麦当劳、寿司"
      },
      "type": "Feature"
    },
    {
      "geometry": {
        "coordinates": [
          135.506083,
          34.652247
        ],
        "type": "Point"
      },
      "properties": {
        "bangumi_id": 281281,
        "bangumi_title": "女神异闻录5 乱战：魅影攻手",
        "ep_cut": "",
        "image_url": "https://w.junreimap.com/images/user/0/bangumi/281281/points/2lr0pmc-1752679091458.jpg",
        "location": "第六监狱 - 大阪",
        "point_id": "2lr0pmc",
        "point_name": "新世界おみやげもん横丁",
        "remark": ""
      },
      "type": "Feature"
    },
    {
      "geometry": {
        "coordinates": [
          135.506245,
          34.652261
        ],
        "type": "Point"
      },
      "properties": {
        "bangumi_id": 281281,
        "bangumi_title": "女神异闻录5 乱战：魅影攻手",
        "ep_cut": "",
        "image_url": "https://w.junreimap.com/images/user/0/bangumi/281281/points/2lr1egu-1752679127266.jpg",
        "location": "第六监狱 - 大阪",
        "point_id": "2lr1egu",
        "point_name": "残念石",
        "remark": ""
      },
      "type": "Feature"
    },
    {
      "geometry": {
        "coordinates": [
          135.506255,
          34.652443
        ],
        "type": "Point"
      },
      "properties": {
        "bangumi_id": 281281,
        "bangumi_title": "女神异闻录5 乱战：魅影攻手",
        "ep_cut": "",
        "image_url": "https://w.junreimap.com/images/user/0/bangumi/281281/points/2lr380h-1752679232247.jpg",
        "location": "第六监狱 - 大阪",
        "point_id": "2lr380h",
        "point_name": "通天閣展望台入り口",
        "remark": ""
      },
      "type": "Feature"
    },
    {
      "geometry": {
        "coordinates": [
          135.509742,
          34.65131
        ],
        "type": "Point"
      },
      "properties": {
        "bangumi_id": 281281,
        "bangumi_title": "女神异闻录5 乱战：魅影攻手",
        "ep_cut": "",
        "image_url": "https://w.junreimap.com/images/user/0/bangumi/281281/points/2lr85bw-1752679451987.jpg",
        "location": "第六监狱 - 大阪",
        "point_id": "2lr85bw",
        "point_name": "天王寺動物園",
        "remark": ""
      },
      "type": "Feature"
    },
    {
      "geometry": {
        "coordinates": [
          135.510635,
          34.651472
        ],
        "type": "Point"
      },
      "properties": {
        "bangumi_id": 281281,
        "bangumi_title": "女神异闻录5 乱战：魅影攻手",
        "ep_cut": "",
        "image_url": "https://w.junreimap.com/images/user/0/bangumi/281281/points/2lrai3q-1752679558456.jpg",
        "location": "第六监狱 - 大阪",
        "point_id": "2lrai3q",
        "point_name": "茶臼山",
        "remark": ""
      },
      "type": "Feature"
    },
    {
      "geometry": {
        "coordinates": [
          135.511831,
          34.647856
        ],
        "type": "Point"
      },
      "properties": {
        "bangumi_id": 281281,
        "bangumi_title": "女神异闻录5 乱战：魅影攻手",
        "ep_cut": "",
        "image_url": "https://w.junreimap.com/images/user/0/bangumi/281281/points/2lrftny-1752679844489.jpg",
        "location": "第六监狱 - 大阪",
        "point_id": "2lrftny",
        "point_name": "天王寺公園南側バス駐車場",
        "remark": "大阪环状线附近，拍车圣地"
      },
      "type": "Feature"
    },
    {
      "geometry": {
        "coordinates": [
          135.511583,
          34.64487
        ],
        "type": "Point"
      },
      "properties": {
        "bangumi_id": 281281,
        "bangumi_title": "女神异闻录5 乱战：魅影攻手",
        "ep_cut": "",
        "image_url": "https://w.junreimap.com/images/user/0/bangumi/281281/points/2lrifjf-1752679918609.jpg",
        "location": "第六监狱 - 大阪",
        "point_id": "2lrifjf",
        "point_name": "あべの​キューズタウン",
        "remark": "游戏内“安倍野R Mall”"
      },
      "type": "Feature"
    },
    {
      "geometry": {
        "coordinates": [
          135.515077,
          34.646411
        ],
        "type": "Point"
      },
      "properties": {
        "bangumi_id": 281281,
        "bangumi_title": "女神异闻录5 乱战：魅影攻手",
        "ep_cut": "",
        "image_url": "https://w.junreimap.com/images/user/0/bangumi/281281/points/2lrmh1s-1752680148282.jpg",
        "location": "第六监狱 - 大阪",
        "point_id": "2lrmh1s",
        "point_name": "JR天王寺東口",
        "remark": ""
      },
      "type": "Feature"
    },
    {
      "geometry": {
        "coordinates": [
          135.513855,
          34.647168
        ],
        "type": "Point"
      },
      "properties": {
        "bangumi_id": 281281,
        "bangumi_title": "女神异闻录5 乱战：魅影攻手",
        "ep_cut": "",
        "image_url": "https://w.junreimap.com/images/user/0/bangumi/281281/points/2lrotm6-1752680223211.jpg",
        "location": "第六监狱 - 大阪",
        "point_id": "2lrotm6",
        "point_name": "JR天王寺",
        "remark": ""
      },
      "type": "Feature"
    },
    {
      "geometry": {
        "coordinates": [
          135.515294,
          34.647076
        ],
        "type": "Point"
      },
      "properties": {
        "bangumi_id": 281281,
        "bangumi_title": "女神异闻录5 乱战：魅影攻手",
        "ep_cut": "",
        "image_url": "https://w.junreimap.com/images/user/0/bangumi/281281/points/2lrr1t0-1752680341953.jpg",
        "location": "第六监狱 - 大阪",
        "point_id": "2lrr1t0",
        "point_name": "JR天王寺駅内",
        "remark": ""
      },
      "type": "Feature"
    },
    {
      "geometry": {
        "coordinates": [
          135.51313,
          34.646524
        ],
        "type": "Point"
      },
      "properties": {
        "bangumi_id": 281281,
        "bangumi_title": "女神异闻录5 乱战：魅影攻手",
        "ep_cut": "",
        "image_url": "https://w.junreimap.com/images/user/0/bangumi/281281/points/2lrunsk-1752680502330.jpg",
        "location": "第六监狱 - 大阪",
        "point_id": "2lrunsk",
        "point_name": "阿倍野歩道橋",
        "remark": ""
      },
      "type": "Feature"
    },
    {
      "geometry": {
        "coordinates": [
          135.513409,
          34.646066
        ],
        "type": "Point"
      },
      "properties": {
        "bangumi_id": 281281,
        "bangumi_title": "女神异闻录5 乱战：魅影攻手",
        "ep_cut": "",
        "image_url": "https://w.junreimap.com/images/user/0/bangumi/281281/points/2lrv909-1752680533592.jpg",
        "location": "第六监狱 - 大阪",
        "point_id": "2lrv909",
        "point_name": "あべのハルカス",
        "remark": ""
      },
      "type": "Feature"
    },
    {
      "geometry": {
        "coordinates": [
          135.50636,
          34.652488
        ],
        "type": "Point"
      },
      "properties": {
        "bangumi_id": 281281,
        "bangumi_title": "女神异闻录5 乱战：魅影攻手",
        "ep_cut": "",
        "image_url": "https://w.junreimap.com/images/user/0/bangumi/281281/points/2q0qf8s-1752937293112.jpg",
        "location": "第六监狱 - 大阪",
        "point_id": "2q0qf8s",
        "point_name": "通天閣",
        "remark": ""
      },
      "type": "Feature"
    },
    {
      "geometry": {
        "coordinates": [
          135.431108,
          34.667945
        ],
        "type": "Point"
      },
      "properties": {
        "bangumi_id": 281281,
        "bangumi_title": "女神异闻录5 乱战：魅影攻手",
        "ep_cut": "",
        "image_url": "https://w.junreimap.com/images/user/0/bangumi/281281/points/2q1ckmx-1752938389545.jpg",
        "location": "第六监狱 - 大阪",
        "point_id": "2q1ckmx",
        "point_name": "ユニバーサル・スタジオ・ジャパン 黒い湖",
        "remark": "位于园区内的哈利波特区域内"
      },
      "type": "Feature"
    },
    {
      "geometry": {
        "coordinates": [
          139.65457,
          35.440305
        ],
        "type": "Point"
      },
      "properties": {
        "bangumi_id": 281281,
        "bangumi_title": "女神异闻录5 乱战：魅影攻手",
        "ep_cut": "",
        "image_url": "https://w.junreimap.com/images/user/0/bangumi/281281/points/2q1kaza-1752938686247.jpg",
        "location": "最终迷宫",
        "point_id": "2q1kaza",
        "point_name": "港の見える丘公園 展望台",
        "remark": ""
      },
      "type": "Feature"
    },
    {
      "geometry": {
        "coordinates": [
          139.654445,
          35.440163
        ],
        "type": "Point"
      },
      "properties": {
        "bangumi_id": 281281,
        "bangumi_title": "女神异闻录5 乱战：魅影攻手",
        "ep_cut": "",
        "image_url": "https://w.junreimap.com/images/user/0/bangumi/281281/points/2q1lbtv-1752938731842.jpg",
        "location": "最终迷宫",
        "point_id": "2q1lbtv",
        "point_name": "KKRポートヒル横浜",
        "remark": ""
      },
      "type": "Feature"
    },
    {
      "geometry": {
        "coordinates": [
          139.745335,
          35.659046
        ],
        "type": "Point"
      },
      "properties": {
        "bangumi_id": 281281,
        "bangumi_title": "女神异闻录5 乱战：魅影攻手",
        "ep_cut": "",
        "image_url": "https://w.junreimap.com/images/user/0/bangumi/281281/points/2q1udy8-1752939145334.jpg",
        "location": "最终迷宫",
        "point_id": "2q1udy8",
        "point_name": "東京タワー",
        "remark": ""
      },
      "type": "Feature"
    },
    {
      "geometry": {
        "coordinates": [
          139.745416,
          35.658788
        ],
        "type": "Point"
      },
      "properties": {
        "bangumi_id": 281281,
        "bangumi_title": "女神异闻录5 乱战：魅影攻手",
        "ep_cut": "",
        "image_url": "https://w.junreimap.com/images/user/0/bangumi/281281/points/2q1xvgx-1752939312339.jpg",
        "location": "最终迷宫",
        "point_id": "2q1xvgx",
        "point_name": "東京タワー メインデッキ1階",
        "remark": ""
      },
      "type": "Feature"
    },
    {
      "geometry": {
        "coordinates": [
          139.74564,
          35.65858
        ],
        "type": "Point"
      },
      "properties": {
        "bangumi_id": 281281,
        "bangumi_title": "女神异闻录5 乱战：魅影攻手",
        "ep_cut": "",
        "image_url": "https://w.junreimap.com/images/user/0/bangumi/281281/points/2q20w0z-1752939550281.jpg",
        "location": "最终迷宫",
        "point_id": "2q20w0z",
        "point_name": "東京タワー FOOT TOWN 1F",
        "remark": ""
      },
      "type": "Feature"
    },
    {
      "geometry": {
        "coordinates": [
          139.745303,
          35.658737
        ],
        "type": "Point"
      },
      "properties": {
        "bangumi_id": 281281,
        "bangumi_title": "女神异闻录5 乱战：魅影攻手",
        "ep_cut": "",
        "image_url": "https://w.junreimap.com/images/user/0/bangumi/281281/points/2q261cw-1752939688857.jpg",
        "location": "最终迷宫",
        "point_id": "2q261cw",
        "point_name": "汁なし担々麺 金蠍（きんかつ） 東京タワー店",
        "remark": ""
      },
      "type": "Feature"
    },
    {
      "geometry": {
        "coordinates": [
          139.745286,
          35.658572
        ],
        "type": "Point"
      },
      "properties": {
        "bangumi_id": 281281,
        "bangumi_title": "女神异闻录5 乱战：魅影攻手",
        "ep_cut": "",
        "image_url": "https://w.junreimap.com/images/user/0/bangumi/281281/points/2q2bel8-1752939933924.jpg",
        "location": "最终迷宫",
        "point_id": "2q2bel8",
        "point_name": "サーティワンアイスクリーム 東京タワー店",
        "remark": "位于东京塔FOOT TOWN 2F罗森旁"
      },
      "type": "Feature"
    },
    {
      "geometry": {
        "coordinates": [
          139.745432,
          35.658666
        ],
        "type": "Point"
      },
      "properties": {
        "bangumi_id": 281281,
        "bangumi_title": "女神异闻录5 乱战：魅影攻手",
        "ep_cut": "",
        "image_url": "https://w.junreimap.com/images/user/0/bangumi/281281/points/2q2dpim-1752940060673.jpg",
        "location": "最终迷宫",
        "point_id": "2q2dpim",
        "point_name": "東京タワー エレベーター",
        "remark": ""
      },
      "type": "Feature"
    },
    {
      "geometry": {
        "coordinates": [
          139.745497,
          35.658501
        ],
        "type": "Point"
      },
      "properties": {
        "bangumi_id": 281281,
        "bangumi_title": "女神异闻录5 乱战：魅影攻手",
        "ep_cut": "",
        "image_url": "https://w.junreimap.com/images/user/0/bangumi/281281/points/2q2gg39-1752940190920.jpg",
        "location": "最终迷宫",
        "point_id": "2q2gg39",
        "point_name": "写真ピックアップカウンター",
        "remark": "位于FOOT TOWN 3F"
      },
      "type": "Feature"
    },
    {
      "geometry": {
        "coordinates": [
          139.745467,
          35.658565
        ],
        "type": "Point"
      },
      "properties": {
        "bangumi_id": 281281,
        "bangumi_title": "女神异闻录5 乱战：魅影攻手",
        "ep_cut": "",
        "image_url": "https://w.junreimap.com/images/user/0/bangumi/281281/points/2q2nfjy-1752940502919.jpg",
        "location": "最终迷宫",
        "point_id": "2q2nfjy",
        "point_name": "東京タワー",
        "remark": ""
      },
      "type": "Feature"
    },
    {
      "geometry": {
        "coordinates": [
          139.700759,
          35.659138
        ],
        "type": "Point"
      },
      "properties": {
        "bangumi_id": 281281,
        "bangumi_title": "女神异闻录5 乱战：魅影攻手",
        "ep_cut": "",
        "image_url": "https://w.junreimap.com/images/user/0/bangumi/281281/points/2q2q2wc-1752940632538.jpg",
        "location": "最终迷宫",
        "point_id": "2q2q2wc",
        "point_name": "ハチ公前広場",
        "remark": ""
      },
      "type": "Feature"
    }
  ],
  "type": "FeatureCollection"
}