{
  "features": [
    {
      "geometry": {
        "coordinates": [
          135.784979,
          34.99464
        ],
        "type": "Point"
      },
      "properties": {
        "bangumi_id": 282000,
        "bangumi_title": "五等分的新娘∬",
        "ep_cut": 1,
        "image_url": "https://w.junreimap.com/images/user/0/bangumi/282000/points/nhva0l7e0-1724429048327.jpg",
        "location": "京都府京都市 清水寺",
        "point_id": "nhva0l7e0",
        "point_name": "清水の舞台 西南角",
        "remark": ""
      },
      "type": "Feature"
    },
    {
      "geometry": {
        "coordinates": [
          136.139435,
          35.156052
        ],
        "type": "Point"
      },
      "properties": {
        "bangumi_id": 282000,
        "bangumi_title": "五等分的新娘∬",
        "ep_cut": 1,
        "image_url": "https://w.junreimap.com/images/points/282000/owtahw8t1_1728544634927_c16v9.jpg",
        "location": "滋贺县东近江市",
        "point_id": "owtahw8t1",
        "point_name": "安土城跡",
        "remark": "三玖手上的书的封面"
      },
      "type": "Feature"
    },
    {
      "geometry": {
        "coordinates": [
          136.898385,
          35.002768
        ],
        "type": "Point"
      },
      "properties": {
        "bangumi_id": 282000,
        "bangumi_title": "五等分的新娘∬",
        "ep_cut": 1,
        "image_url": "https://w.junreimap.com/images/points/282000/owtia86sz_1728544640081_c16v9.jpg",
        "location": "爱知县东海市 汐见丘公园",
        "point_id": "owtia86sz",
        "point_name": "汐見が丘公園 秋千",
        "remark": ""
      },
      "type": "Feature"
    },
    {
      "geometry": {
        "coordinates": [
          136.892438,
          35.02052
        ],
        "type": "Point"
      },
      "properties": {
        "bangumi_id": 282000,
        "bangumi_title": "五等分的新娘∬",
        "ep_cut": 1,
        "image_url": "https://w.junreimap.com/images/points/282000/owtl7y7ip_1728544644672_c16v9.jpg",
        "location": "爱知县东海市 太田川站",
        "point_id": "owtl7y7ip",
        "point_name": "太田川站 西出口外",
        "remark": ""
      },
      "type": "Feature"
    },
    {
      "geometry": {
        "coordinates": [
          136.909809,
          35.134908
        ],
        "type": "Point"
      },
      "properties": {
        "bangumi_id": 282000,
        "bangumi_title": "五等分的新娘∬",
        "ep_cut": 1,
        "image_url": "https://w.junreimap.com/images/points/282000/owtpyj49p_1728544648664_c16v9.jpg",
        "location": "爱知县名古屋市 狮子中京大厦",
        "point_id": "owtpyj49p",
        "point_name": "ザ・​ライオンズミッドキャピタルタワー",
        "remark": ""
      },
      "type": "Feature"
    },
    {
      "geometry": {
        "coordinates": [
          136.898817,
          34.998869
        ],
        "type": "Point"
      },
      "properties": {
        "bangumi_id": 282000,
        "bangumi_title": "五等分的新娘∬",
        "ep_cut": 1,
        "image_url": "https://w.junreimap.com/images/points/282000/owtrkasdh_1728544652761_c16v9.jpg",
        "location": "爱知县东海市 西知多综合病院",
        "point_id": "owtrkasdh",
        "point_name": "西知多総合病院",
        "remark": ""
      },
      "type": "Feature"
    },
    {
      "geometry": {
        "coordinates": [
          136.899287,
          34.999156
        ],
        "type": "Point"
      },
      "properties": {
        "bangumi_id": 282000,
        "bangumi_title": "五等分的新娘∬",
        "ep_cut": 1,
        "image_url": "https://w.junreimap.com/images/user/2090/bangumi/282000/points/nuaz3sos8-1725403594261.jpg",
        "location": "爱知县东海市 西知多综合病院",
        "point_id": "nuaz3sos8",
        "point_name": "西知多総合病院 病房",
        "remark": "单人间"
      },
      "type": "Feature"
    },
    {
      "geometry": {
        "coordinates": [
          136.898827,
          34.998877
        ],
        "type": "Point"
      },
      "properties": {
        "bangumi_id": 282000,
        "bangumi_title": "五等分的新娘∬",
        "ep_cut": 1,
        "image_url": "https://w.junreimap.com/images/user/2090/bangumi/282000/points/nuawmnlox-1725403465474.jpg",
        "location": "爱知县东海市 西知多综合病院",
        "point_id": "nuawmnlox",
        "point_name": "西知多総合病院",
        "remark": ""
      },
      "type": "Feature"
    },
    {
      "geometry": {
        "coordinates": [
          135.784969,
          34.994637
        ],
        "type": "Point"
      },
      "properties": {
        "bangumi_id": 282000,
        "bangumi_title": "五等分的新娘∬",
        "ep_cut": 1,
        "image_url": "https://w.junreimap.com/images/points/282000/nw89abhf6_1725652557957_cblack.jpg",
        "location": "京都府京都市 清水寺",
        "point_id": "nw89abhf6",
        "point_name": "清水の舞台 西南角",
        "remark": ""
      },
      "type": "Feature"
    },
    {
      "geometry": {
        "coordinates": [
          135.758774,
          34.986158
        ],
        "type": "Point"
      },
      "properties": {
        "bangumi_id": 282000,
        "bangumi_title": "五等分的新娘∬",
        "ep_cut": 1,
        "image_url": "https://w.junreimap.com/images/user/0/bangumi/282000/points/nhuwgg4bn-1724428251188.jpg",
        "location": "京都府京都市 京都站",
        "point_id": "nhuwgg4bn",
        "point_name": "JR京都駅 中央口",
        "remark": ""
      },
      "type": "Feature"
    },
    {
      "geometry": {
        "coordinates": [
          135.758885,
          34.986345
        ],
        "type": "Point"
      },
      "properties": {
        "bangumi_id": 282000,
        "bangumi_title": "五等分的新娘∬",
        "ep_cut": 1,
        "image_url": "https://w.junreimap.com/images/user/2090/bangumi/282000/points/o1ycfqfen-1726003035687.jpg",
        "location": "京都府京都市 京都站",
        "point_id": "o1ycfqfen",
        "point_name": "Porta Dining",
        "remark": ""
      },
      "type": "Feature"
    },
    {
      "geometry": {
        "coordinates": [
          135.758957,
          34.986395
        ],
        "type": "Point"
      },
      "properties": {
        "bangumi_id": 282000,
        "bangumi_title": "五等分的新娘∬",
        "ep_cut": 1,
        "image_url": "https://w.junreimap.com/images/user/2090/bangumi/282000/points/nw3w4b7a4-1725544938588.jpg",
        "location": "京都府京都市 京都站",
        "point_id": "nw3w4b7a4",
        "point_name": "京都站 公交车站",
        "remark": ""
      },
      "type": "Feature"
    },
    {
      "geometry": {
        "coordinates": [
          135.757832,
          34.985725
        ],
        "type": "Point"
      },
      "properties": {
        "bangumi_id": 282000,
        "bangumi_title": "五等分的新娘∬",
        "ep_cut": 1,
        "image_url": "https://w.junreimap.com/images/user/0/bangumi/282000/points/nhv4kwtqe-1724428728444.jpg",
        "location": "京都府京都市 京都站",
        "point_id": "nhv4kwtqe",
        "point_name": "京都駅ビル 大階段",
        "remark": ""
      },
      "type": "Feature"
    },
    {
      "geometry": {
        "coordinates": [
          135.757811,
          34.985732
        ],
        "type": "Point"
      },
      "properties": {
        "bangumi_id": 282000,
        "bangumi_title": "五等分的新娘∬",
        "ep_cut": 1,
        "image_url": "https://w.junreimap.com/images/user/0/bangumi/282000/points/nhv50npjt-1724428775435.jpg",
        "location": "京都府京都市 京都站",
        "point_id": "nhv50npjt",
        "point_name": "京都駅ビル 大階段",
        "remark": ""
      },
      "type": "Feature"
    },
    {
      "geometry": {
        "coordinates": [
          135.758843,
          34.984513
        ],
        "type": "Point"
      },
      "properties": {
        "bangumi_id": 282000,
        "bangumi_title": "五等分的新娘∬",
        "ep_cut": 1,
        "image_url": "https://w.junreimap.com/images/points/282000/owtxcyhoc_1728544661561_c16v9.jpg",
        "location": "京都府京都市 京都站",
        "point_id": "owtxcyhoc",
        "point_name": "京都駅 站台",
        "remark": ""
      },
      "type": "Feature"
    },
    {
      "geometry": {
        "coordinates": [
          135.75792,
          34.985713
        ],
        "type": "Point"
      },
      "properties": {
        "bangumi_id": 282000,
        "bangumi_title": "五等分的新娘∬",
        "ep_cut": 1,
        "image_url": "https://w.junreimap.com/images/user/0/bangumi/282000/points/nhv3fmldc-1724428687454.jpg",
        "location": "京都府京都市 京都站",
        "point_id": "nhv3fmldc",
        "point_name": "京都駅ビル 大階段",
        "remark": ""
      },
      "type": "Feature"
    },
    {
      "geometry": {
        "coordinates": [
          135.785099,
          34.994743
        ],
        "type": "Point"
      },
      "properties": {
        "bangumi_id": 282000,
        "bangumi_title": "五等分的新娘∬",
        "ep_cut": 1,
        "image_url": "https://w.junreimap.com/images/user/0/bangumi/282000/points/nhvav3v9v-1724429120240.jpg",
        "location": "京都府京都市 清水寺",
        "point_id": "nhvav3v9v",
        "point_name": "清水寺",
        "remark": "买护身符的地方"
      },
      "type": "Feature"
    },
    {
      "geometry": {
        "coordinates": [
          135.785225,
          34.994696
        ],
        "type": "Point"
      },
      "properties": {
        "bangumi_id": 282000,
        "bangumi_title": "五等分的新娘∬",
        "ep_cut": 1,
        "image_url": "https://w.junreimap.com/images/user/2090/bangumi/282000/points/o6th73i41-1726384246036.jpg",
        "location": "京都府京都市 清水寺",
        "point_id": "o6th73i41",
        "point_name": "清水寺本堂",
        "remark": ""
      },
      "type": "Feature"
    },
    {
      "geometry": {
        "coordinates": [
          136.909818,
          35.134994
        ],
        "type": "Point"
      },
      "properties": {
        "bangumi_id": 282000,
        "bangumi_title": "五等分的新娘∬",
        "ep_cut": 1,
        "image_url": "https://w.junreimap.com/images/points/282000/owu8d32jm_1728544664377_c16v9.jpg",
        "location": "爱知县名古屋市 狮子中京大厦",
        "point_id": "owu8d32jm",
        "point_name": "ザ・​ライオンズミッドキャピタルタワー",
        "remark": ""
      },
      "type": "Feature"
    },
    {
      "geometry": {
        "coordinates": [
          136.909809,
          35.134953
        ],
        "type": "Point"
      },
      "properties": {
        "bangumi_id": 282000,
        "bangumi_title": "五等分的新娘∬",
        "ep_cut": 2,
        "image_url": "https://w.junreimap.com/images/points/282000/oxvwsnux8_1728544681002_c16v9.jpg",
        "location": "爱知县名古屋市 狮子中京大厦",
        "point_id": "oxvwsnux8",
        "point_name": "ザ・​ライオンズミッドキャピタルタワー",
        "remark": ""
      },
      "type": "Feature"
    },
    {
      "geometry": {
        "coordinates": [
          136.909815,
          35.134962
        ],
        "type": "Point"
      },
      "properties": {
        "bangumi_id": 282000,
        "bangumi_title": "五等分的新娘∬",
        "ep_cut": 2,
        "image_url": "https://w.junreimap.com/images/points/282000/oxvygk7c1_1728544684878_c16v9.jpg",
        "location": "爱知县名古屋市 狮子中京大厦",
        "point_id": "oxvygk7c1",
        "point_name": "ザ・​ライオンズミッドキャピタルタワー",
        "remark": ""
      },
      "type": "Feature"
    },
    {
      "geometry": {
        "coordinates": [
          139.760657,
          35.674714
        ],
        "type": "Point"
      },
      "properties": {
        "bangumi_id": 282000,
        "bangumi_title": "五等分的新娘∬",
        "ep_cut": 2,
        "image_url": "https://w.junreimap.com/images/user/2090/bangumi/282000/points/np9087auf-1725007561957.jpg",
        "location": "东京都千代田区",
        "point_id": "np9087auf",
        "point_name": "ザ・​ペニンシュラ​東京",
        "remark": ""
      },
      "type": "Feature"
    },
    {
      "geometry": {
        "coordinates": [
          136.909817,
          35.134966
        ],
        "type": "Point"
      },
      "properties": {
        "bangumi_id": 282000,
        "bangumi_title": "五等分的新娘∬",
        "ep_cut": 2,
        "image_url": "https://w.junreimap.com/images/points/282000/oxw5spzwa_1728544694243_c16v9.jpg",
        "location": "爱知县名古屋市 狮子中京大厦",
        "point_id": "oxw5spzwa",
        "point_name": "ザ・​ライオンズミッドキャピタルタワー",
        "remark": ""
      },
      "type": "Feature"
    },
    {
      "geometry": {
        "coordinates": [
          136.894882,
          35.002146
        ],
        "type": "Point"
      },
      "properties": {
        "bangumi_id": 282000,
        "bangumi_title": "五等分的新娘∬",
        "ep_cut": 2,
        "image_url": "https://w.junreimap.com/images/points/282000/oxwkuoein_1728544697725_c16v9.jpg",
        "location": "爱知县东海市 中之池公园",
        "point_id": "oxwkuoein",
        "point_name": "中ノ池公園",
        "remark": "大概也许是这个点位.avi"
      },
      "type": "Feature"
    },
    {
      "geometry": {
        "coordinates": [
          135.757897,
          34.985711
        ],
        "type": "Point"
      },
      "properties": {
        "bangumi_id": 282000,
        "bangumi_title": "五等分的新娘∬",
        "ep_cut": 2,
        "image_url": "https://w.junreimap.com/images/points/282000/oxwad7iik_1728544700791_c16v9.jpg",
        "location": "京都府京都市 京都站",
        "point_id": "oxwad7iik",
        "point_name": "京都站大楼梯",
        "remark": ""
      },
      "type": "Feature"
    },
    {
      "geometry": {
        "coordinates": [
          136.888158,
          35.021497
        ],
        "type": "Point"
      },
      "properties": {
        "bangumi_id": 282000,
        "bangumi_title": "五等分的新娘∬",
        "ep_cut": 2,
        "image_url": "https://w.junreimap.com/images/user/2090/bangumi/282000/points/oxy4uiex7-1728510206584.jpg",
        "location": "爱知县东海市 日本福祉大学",
        "point_id": "oxy4uiex7",
        "point_name": "日本福祉大学 東海キャンパス 后侧的门",
        "remark": ""
      },
      "type": "Feature"
    },
    {
      "geometry": {
        "coordinates": [
          136.888632,
          35.021327
        ],
        "type": "Point"
      },
      "properties": {
        "bangumi_id": 282000,
        "bangumi_title": "五等分的新娘∬",
        "ep_cut": 2,
        "image_url": "https://w.junreimap.com/images/points/282000/oxwxls1ot_1728544707791_c16v9.jpg",
        "location": "爱知县东海市 日本福祉大学",
        "point_id": "oxwxls1ot",
        "point_name": "日本福祉大東海キャンパス 前",
        "remark": ""
      },
      "type": "Feature"
    },
    {
      "geometry": {
        "coordinates": [
          139.760678,
          35.674663
        ],
        "type": "Point"
      },
      "properties": {
        "bangumi_id": 282000,
        "bangumi_title": "五等分的新娘∬",
        "ep_cut": 2,
        "image_url": "https://w.junreimap.com/images/points/282000/oxwzhbd5i_1728696754815_c16v9.jpg",
        "location": "东京都千代田区",
        "point_id": "oxwzhbd5i",
        "point_name": "ThePeninsula东京",
        "remark": ""
      },
      "type": "Feature"
    },
    {
      "geometry": {
        "coordinates": [
          136.894323,
          35.002092
        ],
        "type": "Point"
      },
      "properties": {
        "bangumi_id": 282000,
        "bangumi_title": "五等分的新娘∬",
        "ep_cut": 2,
        "image_url": "https://w.junreimap.com/images/user/2090/bangumi/282000/points/ovjmmfghe-1728322036490.jpg",
        "location": "爱知县东海市 中之池公园",
        "point_id": "ovjmmfghe",
        "point_name": "中ノ池公園 西北侧楼梯",
        "remark": ""
      },
      "type": "Feature"
    },
    {
      "geometry": {
        "coordinates": [
          136.894416,
          35.002106
        ],
        "type": "Point"
      },
      "properties": {
        "bangumi_id": 282000,
        "bangumi_title": "五等分的新娘∬",
        "ep_cut": 2,
        "image_url": "https://w.junreimap.com/images/user/2090/bangumi/282000/points/51i51w8dp-1725406904231.jpg",
        "location": "爱知县东海市 中之池公园",
        "point_id": "51i51w8dp",
        "point_name": "中ノ池公園",
        "remark": ""
      },
      "type": "Feature"
    },
    {
      "geometry": {
        "coordinates": [
          136.894357,
          35.002112
        ],
        "type": "Point"
      },
      "properties": {
        "bangumi_id": 282000,
        "bangumi_title": "五等分的新娘∬",
        "ep_cut": 3,
        "image_url": "https://w.junreimap.com/images/points/282000/oxx2xp5q6_1728696758363_c16v9.jpg",
        "location": "爱知县东海市 中之池公园",
        "point_id": "oxx2xp5q6",
        "point_name": "中ノ池公園",
        "remark": ""
      },
      "type": "Feature"
    },
    {
      "geometry": {
        "coordinates": [
          136.894383,
          35.002111
        ],
        "type": "Point"
      },
      "properties": {
        "bangumi_id": 282000,
        "bangumi_title": "五等分的新娘∬",
        "ep_cut": 3,
        "image_url": "https://w.junreimap.com/images/user/0/bangumi/282000/points/1rw9d5r-1750873939168.jpg",
        "location": "爱知县东海市 中之池公园",
        "point_id": "1rw9d5r",
        "point_name": "中ノ池公園",
        "remark": ""
      },
      "type": "Feature"
    },
    {
      "geometry": {
        "coordinates": [
          136.922684,
          34.918615
        ],
        "type": "Point"
      },
      "properties": {
        "bangumi_id": 282000,
        "bangumi_title": "五等分的新娘∬",
        "ep_cut": 3,
        "image_url": "https://w.junreimap.com/images/user/2090/bangumi/282000/points/ntms3rcpp-1725350950548.jpg",
        "location": "爱知县阿久比町",
        "point_id": "ntms3rcpp",
        "point_name": "ユナイテッド・シネマ阿久比",
        "remark": ""
      },
      "type": "Feature"
    },
    {
      "geometry": {
        "coordinates": [
          136.921908,
          34.918647
        ],
        "type": "Point"
      },
      "properties": {
        "bangumi_id": 282000,
        "bangumi_title": "五等分的新娘∬",
        "ep_cut": 3,
        "image_url": "https://w.junreimap.com/images/user/2090/bangumi/282000/points/ntmqh8h5e-1725350843859.jpg",
        "location": "爱知县阿久比町",
        "point_id": "ntmqh8h5e",
        "point_name": "ユナイテッド・​シネマ​阿久比",
        "remark": ""
      },
      "type": "Feature"
    },
    {
      "geometry": {
        "coordinates": [
          139.760684,
          35.674682
        ],
        "type": "Point"
      },
      "properties": {
        "bangumi_id": 282000,
        "bangumi_title": "五等分的新娘∬",
        "ep_cut": 3,
        "image_url": "https://w.junreimap.com/images/points/282000/oxx7j6dxm_1728696763545_c16v9.jpg",
        "location": "东京都千代田区",
        "point_id": "oxx7j6dxm",
        "point_name": "ThePeninsula东京",
        "remark": ""
      },
      "type": "Feature"
    },
    {
      "geometry": {
        "coordinates": [
          136.894435,
          35.002102
        ],
        "type": "Point"
      },
      "properties": {
        "bangumi_id": 282000,
        "bangumi_title": "五等分的新娘∬",
        "ep_cut": 3,
        "image_url": "https://w.junreimap.com/images/points/282000/oxx9ef8wg_1728696767411_c16v9.jpg",
        "location": "爱知县东海市 中之池公园",
        "point_id": "oxx9ef8wg",
        "point_name": "中ノ池公園",
        "remark": ""
      },
      "type": "Feature"
    },
    {
      "geometry": {
        "coordinates": [
          139.76068,
          35.674686
        ],
        "type": "Point"
      },
      "properties": {
        "bangumi_id": 282000,
        "bangumi_title": "五等分的新娘∬",
        "ep_cut": 3,
        "image_url": "https://w.junreimap.com/images/points/282000/oxxc8abih_1728696771657_c16v9.jpg",
        "location": "东京都千代田区",
        "point_id": "oxxc8abih",
        "point_name": "ThePeninsula东京",
        "remark": ""
      },
      "type": "Feature"
    },
    {
      "geometry": {
        "coordinates": [
          136.889206,
          35.022321
        ],
        "type": "Point"
      },
      "properties": {
        "bangumi_id": 282000,
        "bangumi_title": "五等分的新娘∬",
        "ep_cut": 3,
        "image_url": "https://w.junreimap.com/images/points/282000/oxxil4w1h_1728696777463_c16v9.jpg",
        "location": "爱知县东海市 日本福祉大学",
        "point_id": "oxxil4w1h",
        "point_name": "日本​福祉​大​東海​キャンパス",
        "remark": ""
      },
      "type": "Feature"
    },
    {
      "geometry": {
        "coordinates": [
          136.888145,
          35.021491
        ],
        "type": "Point"
      },
      "properties": {
        "bangumi_id": 282000,
        "bangumi_title": "五等分的新娘∬",
        "ep_cut": 3,
        "image_url": "https://w.junreimap.com/images/user/2090/bangumi/282000/points/oxxzgwimq-1728509881180.jpg",
        "location": "爱知县东海市 日本福祉大学",
        "point_id": "oxxzgwimq",
        "point_name": "日本福祉大学 東海キャンパス 后侧的门",
        "remark": ""
      },
      "type": "Feature"
    },
    {
      "geometry": {
        "coordinates": [
          136.909802,
          35.134967
        ],
        "type": "Point"
      },
      "properties": {
        "bangumi_id": 282000,
        "bangumi_title": "五等分的新娘∬",
        "ep_cut": 3,
        "image_url": "https://w.junreimap.com/images/user/2090/bangumi/282000/points/oxy1q72ka-1728510019646.jpg",
        "location": "爱知县名古屋市 狮子中京大厦",
        "point_id": "oxy1q72ka",
        "point_name": "ザ・​ライオンズミッドキャピタルタワー",
        "remark": ""
      },
      "type": "Feature"
    },
    {
      "geometry": {
        "coordinates": [
          121.549477,
          25.026221
        ],
        "type": "Point"
      },
      "properties": {
        "bangumi_id": 282000,
        "bangumi_title": "五等分的新娘∬",
        "ep_cut": 3,
        "image_url": "https://w.junreimap.com/images/points/282000/ntjckdled_1725343448284.jpg",
        "location": "中国台湾省台北市",
        "point_id": "ntjckdled",
        "point_name": "遠東國際大飯店",
        "remark": ""
      },
      "type": "Feature"
    },
    {
      "geometry": {
        "coordinates": [
          136.891737,
          35.020684
        ],
        "type": "Point"
      },
      "properties": {
        "bangumi_id": 282000,
        "bangumi_title": "五等分的新娘∬",
        "ep_cut": 4,
        "image_url": "https://w.junreimap.com/images/points/282000/nxgahdw2i_1725652475339_c16v9.jpg",
        "location": "爱知县东海市 太田川站",
        "point_id": "nxgahdw2i",
        "point_name": "太田川駅西広場（大屋根広場）",
        "remark": ""
      },
      "type": "Feature"
    },
    {
      "geometry": {
        "coordinates": [
          136.891642,
          35.020541
        ],
        "type": "Point"
      },
      "properties": {
        "bangumi_id": 282000,
        "bangumi_title": "五等分的新娘∬",
        "ep_cut": 4,
        "image_url": "https://w.junreimap.com/images/points/282000/nxgd7fe9o_1725652469810_c16v9.jpg",
        "location": "爱知县东海市 太田川站",
        "point_id": "nxgd7fe9o",
        "point_name": "東海市芸術劇場 北侧2楼走廊",
        "remark": ""
      },
      "type": "Feature"
    },
    {
      "geometry": {
        "coordinates": [
          121.549452,
          25.026285
        ],
        "type": "Point"
      },
      "properties": {
        "bangumi_id": 282000,
        "bangumi_title": "五等分的新娘∬",
        "ep_cut": 4,
        "image_url": "https://w.junreimap.com/images/user/2090/bangumi/282000/points/ntjcr8oqg-1725347741160.jpg",
        "location": "中国台湾省台北市",
        "point_id": "ntjcr8oqg",
        "point_name": "遠東國際大飯店",
        "remark": ""
      },
      "type": "Feature"
    },
    {
      "geometry": {
        "coordinates": [
          136.891689,
          35.020598
        ],
        "type": "Point"
      },
      "properties": {
        "bangumi_id": 282000,
        "bangumi_title": "五等分的新娘∬",
        "ep_cut": 4,
        "image_url": "https://w.junreimap.com/images/user/2090/bangumi/282000/points/oxyax9i7w-1728510600847.jpg",
        "location": "爱知县东海市 太田川站",
        "point_id": "oxyax9i7w",
        "point_name": "东海市艺术剧场附近的天桥 东口南侧",
        "remark": ""
      },
      "type": "Feature"
    },
    {
      "geometry": {
        "coordinates": [
          136.891943,
          35.020546
        ],
        "type": "Point"
      },
      "properties": {
        "bangumi_id": 282000,
        "bangumi_title": "五等分的新娘∬",
        "ep_cut": 4,
        "image_url": "https://w.junreimap.com/images/user/2090/bangumi/282000/points/oxyegncuo-1728510808910.jpg",
        "location": "爱知县东海市 太田川站",
        "point_id": "oxyegncuo",
        "point_name": "太田川駅西広場（大屋根広場）",
        "remark": ""
      },
      "type": "Feature"
    },
    {
      "geometry": {
        "coordinates": [
          136.892237,
          35.020522
        ],
        "type": "Point"
      },
      "properties": {
        "bangumi_id": 282000,
        "bangumi_title": "五等分的新娘∬",
        "ep_cut": 4,
        "image_url": "https://w.junreimap.com/images/points/282000/nxg7c9w4s_1725652485931_c16v9.jpg",
        "location": "爱知县东海市 太田川站",
        "point_id": "nxg7c9w4s",
        "point_name": "太田川站 西侧的天桥",
        "remark": ""
      },
      "type": "Feature"
    },
    {
      "geometry": {
        "coordinates": [
          121.549458,
          25.026281
        ],
        "type": "Point"
      },
      "properties": {
        "bangumi_id": 282000,
        "bangumi_title": "五等分的新娘∬",
        "ep_cut": 4,
        "image_url": "https://w.junreimap.com/images/user/2090/bangumi/282000/points/oxyhbch73-1728510959646.jpg",
        "location": "中国台湾省台北市",
        "point_id": "oxyhbch73",
        "point_name": "遠東國際大飯店",
        "remark": ""
      },
      "type": "Feature"
    },
    {
      "geometry": {
        "coordinates": [
          136.89214,
          35.020358
        ],
        "type": "Point"
      },
      "properties": {
        "bangumi_id": 282000,
        "bangumi_title": "五等分的新娘∬",
        "ep_cut": 4,
        "image_url": "https://w.junreimap.com/images/points/282000/nxgppmf92_1725652447536_c16v9.jpg",
        "location": "爱知县东海市 太田川站",
        "point_id": "nxgppmf92",
        "point_name": "東海市芸術劇場 2楼北侧走廊与东侧走廊交汇处",
        "remark": ""
      },
      "type": "Feature"
    },
    {
      "geometry": {
        "coordinates": [
          136.892219,
          35.020515
        ],
        "type": "Point"
      },
      "properties": {
        "bangumi_id": 282000,
        "bangumi_title": "五等分的新娘∬",
        "ep_cut": 4,
        "image_url": "https://w.junreimap.com/images/user/2090/bangumi/282000/points/nxgwwc5sd-1725651609434.jpg",
        "location": "爱知县东海市 太田川站",
        "point_id": "nxgwwc5sd",
        "point_name": "太田川站 西侧的天桥",
        "remark": ""
      },
      "type": "Feature"
    },
    {
      "geometry": {
        "coordinates": [
          136.889016,
          35.022028
        ],
        "type": "Point"
      },
      "properties": {
        "bangumi_id": 282000,
        "bangumi_title": "五等分的新娘∬",
        "ep_cut": 4,
        "image_url": "https://w.junreimap.com/images/user/2090/bangumi/282000/points/oxyjvj3g7-1728511142539.jpg",
        "location": "爱知县东海市 日本福祉大学",
        "point_id": "oxyjvj3g7",
        "point_name": "日本福祉大学 東海キャンパス",
        "remark": ""
      },
      "type": "Feature"
    },
    {
      "geometry": {
        "coordinates": [
          136.909806,
          35.134939
        ],
        "type": "Point"
      },
      "properties": {
        "bangumi_id": 282000,
        "bangumi_title": "五等分的新娘∬",
        "ep_cut": 4,
        "image_url": "https://w.junreimap.com/images/user/2090/bangumi/282000/points/oxyng6p73-1728511333721.jpg",
        "location": "爱知县名古屋市 狮子中京大厦",
        "point_id": "oxyng6p73",
        "point_name": "ザ・​ライオンズミッドキャピタルタワー",
        "remark": ""
      },
      "type": "Feature"
    },
    {
      "geometry": {
        "coordinates": [
          136.889008,
          35.022117
        ],
        "type": "Point"
      },
      "properties": {
        "bangumi_id": 282000,
        "bangumi_title": "五等分的新娘∬",
        "ep_cut": 4,
        "image_url": "https://w.junreimap.com/images/user/2090/bangumi/282000/points/oxylrlvmg-1728511233170.jpg",
        "location": "爱知县东海市 日本福祉大学",
        "point_id": "oxylrlvmg",
        "point_name": "日本福祉大東海キャンパス 天台",
        "remark": ""
      },
      "type": "Feature"
    },
    {
      "geometry": {
        "coordinates": [
          136.909802,
          35.134935
        ],
        "type": "Point"
      },
      "properties": {
        "bangumi_id": 282000,
        "bangumi_title": "五等分的新娘∬",
        "ep_cut": 4,
        "image_url": "https://w.junreimap.com/images/points/282000/oxyoguq2e_1728696787157_c16v9.jpg",
        "location": "爱知县名古屋市 狮子中京大厦",
        "point_id": "oxyoguq2e",
        "point_name": "ザ・​ライオンズミッドキャピタルタワー",
        "remark": ""
      },
      "type": "Feature"
    },
    {
      "geometry": {
        "coordinates": [
          136.889001,
          35.022115
        ],
        "type": "Point"
      },
      "properties": {
        "bangumi_id": 282000,
        "bangumi_title": "五等分的新娘∬",
        "ep_cut": 5,
        "image_url": "https://w.junreimap.com/images/points/282000/oxzb99wq3_1728696792583_c16v9.jpg",
        "location": "爱知县东海市 日本福祉大学",
        "point_id": "oxzb99wq3",
        "point_name": "日本福祉大東海キャンパス 天台",
        "remark": ""
      },
      "type": "Feature"
    },
    {
      "geometry": {
        "coordinates": [
          136.893508,
          35.019671
        ],
        "type": "Point"
      },
      "properties": {
        "bangumi_id": 282000,
        "bangumi_title": "五等分的新娘∬",
        "ep_cut": 5,
        "image_url": "https://w.junreimap.com/images/points/282000/oxzga6ju1_1728696827546_c16v9.jpg",
        "location": "爱知县东海市 太田川站",
        "point_id": "oxzga6ju1",
        "point_name": "ソラト太田川",
        "remark": ""
      },
      "type": "Feature"
    },
    {
      "geometry": {
        "coordinates": [
          136.89353,
          35.019678
        ],
        "type": "Point"
      },
      "properties": {
        "bangumi_id": 282000,
        "bangumi_title": "五等分的新娘∬",
        "ep_cut": 5,
        "image_url": "https://w.junreimap.com/images/points/282000/oxzhybbqu_1728696830770_c16v9.jpg",
        "location": "爱知县东海市 太田川站",
        "point_id": "oxzhybbqu",
        "point_name": "ソラト太田川",
        "remark": ""
      },
      "type": "Feature"
    },
    {
      "geometry": {
        "coordinates": [
          136.892495,
          35.020471
        ],
        "type": "Point"
      },
      "properties": {
        "bangumi_id": 282000,
        "bangumi_title": "五等分的新娘∬",
        "ep_cut": 5,
        "image_url": "https://w.junreimap.com/images/points/282000/oxzk93tye_1728696834397_c16v9.jpg",
        "location": "爱知县东海市 太田川站",
        "point_id": "oxzk93tye",
        "point_name": "太田川站 西出口",
        "remark": ""
      },
      "type": "Feature"
    },
    {
      "geometry": {
        "coordinates": [
          136.892453,
          35.020668
        ],
        "type": "Point"
      },
      "properties": {
        "bangumi_id": 282000,
        "bangumi_title": "五等分的新娘∬",
        "ep_cut": 5,
        "image_url": "https://w.junreimap.com/images/user/2090/bangumi/282000/points/nuaduopn8-1725402453264.jpg",
        "location": "爱知县东海市 太田川站",
        "point_id": "nuaduopn8",
        "point_name": "スターバックスコーヒー ラスパ太田川店",
        "remark": ""
      },
      "type": "Feature"
    },
    {
      "geometry": {
        "coordinates": [
          136.89247,
          35.020656
        ],
        "type": "Point"
      },
      "properties": {
        "bangumi_id": 282000,
        "bangumi_title": "五等分的新娘∬",
        "ep_cut": 6,
        "image_url": "https://w.junreimap.com/images/points/282000/oxzlw8sza_1728696840509_c16v9.jpg",
        "location": "爱知县东海市 太田川站",
        "point_id": "oxzlw8sza",
        "point_name": "スターバックスコーヒー ラスパ太田川店",
        "remark": ""
      },
      "type": "Feature"
    },
    {
      "geometry": {
        "coordinates": [
          136.889125,
          35.022173
        ],
        "type": "Point"
      },
      "properties": {
        "bangumi_id": 282000,
        "bangumi_title": "五等分的新娘∬",
        "ep_cut": 6,
        "image_url": "https://w.junreimap.com/images/points/282000/oxznf9mjx_1728696843127_c16v9.jpg",
        "location": "爱知县东海市 日本福祉大学",
        "point_id": "oxznf9mjx",
        "point_name": "日本​福祉​大​東海​キャンパス",
        "remark": ""
      },
      "type": "Feature"
    },
    {
      "geometry": {
        "coordinates": [
          136.892505,
          35.020817
        ],
        "type": "Point"
      },
      "properties": {
        "bangumi_id": 282000,
        "bangumi_title": "五等分的新娘∬",
        "ep_cut": 6,
        "image_url": "https://w.junreimap.com/images/points/282000/nxgigtyys_1725652461085_c16v9.jpg",
        "location": "爱知县东海市 太田川站",
        "point_id": "nxgigtyys",
        "point_name": "BOOKSえみたす ラスパ太田川店",
        "remark": ""
      },
      "type": "Feature"
    },
    {
      "geometry": {
        "coordinates": [
          136.89231,
          35.020636
        ],
        "type": "Point"
      },
      "properties": {
        "bangumi_id": 282000,
        "bangumi_title": "五等分的新娘∬",
        "ep_cut": 6,
        "image_url": "https://w.junreimap.com/images/points/282000/oxztdy10b_1728696847255_c16v9.jpg",
        "location": "爱知县东海市 太田川站",
        "point_id": "oxztdy10b",
        "point_name": "ラスパ1F入り口",
        "remark": ""
      },
      "type": "Feature"
    },
    {
      "geometry": {
        "coordinates": [
          136.891899,
          35.02071
        ],
        "type": "Point"
      },
      "properties": {
        "bangumi_id": 282000,
        "bangumi_title": "五等分的新娘∬",
        "ep_cut": 6,
        "image_url": "https://w.junreimap.com/images/points/282000/oxzvoo1dj_1728696849930_c16v9.jpg",
        "location": "爱知县东海市 太田川站",
        "point_id": "oxzvoo1dj",
        "point_name": "太田川駅西広場（大屋根広場）",
        "remark": ""
      },
      "type": "Feature"
    },
    {
      "geometry": {
        "coordinates": [
          136.73118,
          35.028552
        ],
        "type": "Point"
      },
      "properties": {
        "bangumi_id": 282000,
        "bangumi_title": "五等分的新娘∬",
        "ep_cut": 6,
        "image_url": "https://w.junreimap.com/images/user/2090/bangumi/282000/points/nrursjypc-1725211608457.jpg",
        "location": "三重县桑名市",
        "point_id": "nrursjypc",
        "point_name": "旋转木马",
        "remark": ""
      },
      "type": "Feature"
    },
    {
      "geometry": {
        "coordinates": [
          136.73004,
          35.030213
        ],
        "type": "Point"
      },
      "properties": {
        "bangumi_id": 282000,
        "bangumi_title": "五等分的新娘∬",
        "ep_cut": 6,
        "image_url": "https://w.junreimap.com/images/user/2090/bangumi/282000/points/o0x50pcbd-1725922055135.jpg",
        "location": "三重县桑名市",
        "point_id": "o0x50pcbd",
        "point_name": "メインゲート",
        "remark": ""
      },
      "type": "Feature"
    },
    {
      "geometry": {
        "coordinates": [
          136.731861,
          35.030895
        ],
        "type": "Point"
      },
      "properties": {
        "bangumi_id": 282000,
        "bangumi_title": "五等分的新娘∬",
        "ep_cut": 6,
        "image_url": "https://w.junreimap.com/images/user/2090/bangumi/282000/points/nruhe5x44-1725211023522.jpg",
        "location": "三重县桑名市",
        "point_id": "nruhe5x44",
        "point_name": "お化け屋敷",
        "remark": ""
      },
      "type": "Feature"
    },
    {
      "geometry": {
        "coordinates": [
          136.733808,
          35.029856
        ],
        "type": "Point"
      },
      "properties": {
        "bangumi_id": 282000,
        "bangumi_title": "五等分的新娘∬",
        "ep_cut": 6,
        "image_url": "https://w.junreimap.com/images/user/2090/bangumi/282000/points/nrux2d8my-1725211956355.jpg",
        "location": "三重县桑名市",
        "point_id": "nrux2d8my",
        "point_name": "大観覧車オーロラ",
        "remark": ""
      },
      "type": "Feature"
    },
    {
      "geometry": {
        "coordinates": [
          135.202645,
          34.670162
        ],
        "type": "Point"
      },
      "properties": {
        "bangumi_id": 282000,
        "bangumi_title": "五等分的新娘∬",
        "ep_cut": 6,
        "image_url": "https://w.junreimap.com/images/points/282000/nsdregcsh_1728696853798_c16v9.jpg",
        "location": "兵库县神户市",
        "point_id": "nsdregcsh",
        "point_name": "神戸​学院​大学​ポートアイランド​第1​キャンパス​B​号館",
        "remark": ""
      },
      "type": "Feature"
    },
    {
      "geometry": {
        "coordinates": [
          136.888916,
          35.021841
        ],
        "type": "Point"
      },
      "properties": {
        "bangumi_id": 282000,
        "bangumi_title": "五等分的新娘∬",
        "ep_cut": 6,
        "image_url": "https://w.junreimap.com/images/points/282000/oy003zcwz_1728696857080_c16v9.jpg",
        "location": "爱知县东海市 日本福祉大学",
        "point_id": "oy003zcwz",
        "point_name": "日本福祉大東海キャンパス",
        "remark": ""
      },
      "type": "Feature"
    },
    {
      "geometry": {
        "coordinates": [
          136.909823,
          35.134909
        ],
        "type": "Point"
      },
      "properties": {
        "bangumi_id": 282000,
        "bangumi_title": "五等分的新娘∬",
        "ep_cut": 7,
        "image_url": "https://w.junreimap.com/images/points/282000/oy01ll3b8_1728696860028_c16v9.jpg",
        "location": "爱知县名古屋市 狮子中京大厦",
        "point_id": "oy01ll3b8",
        "point_name": "ザ・​ライオンズミッドキャピタルタワー",
        "remark": ""
      },
      "type": "Feature"
    },
    {
      "geometry": {
        "coordinates": [
          136.731841,
          35.030913
        ],
        "type": "Point"
      },
      "properties": {
        "bangumi_id": 282000,
        "bangumi_title": "五等分的新娘∬",
        "ep_cut": 7,
        "image_url": "https://w.junreimap.com/images/points/282000/oy03tfpgb_1728696864629_c16v9.jpg",
        "location": "三重县桑名市",
        "point_id": "oy03tfpgb",
        "point_name": "お化け屋敷",
        "remark": ""
      },
      "type": "Feature"
    },
    {
      "geometry": {
        "coordinates": [
          136.733785,
          35.029892
        ],
        "type": "Point"
      },
      "properties": {
        "bangumi_id": 282000,
        "bangumi_title": "五等分的新娘∬",
        "ep_cut": 7,
        "image_url": "https://w.junreimap.com/images/points/282000/oy05btwj4_1728544822989_c16v9.jpg",
        "location": "三重县桑名市",
        "point_id": "oy05btwj4",
        "point_name": "大観覧車オーロラ",
        "remark": ""
      },
      "type": "Feature"
    },
    {
      "geometry": {
        "coordinates": [
          136.895277,
          35.011523
        ],
        "type": "Point"
      },
      "properties": {
        "bangumi_id": 282000,
        "bangumi_title": "五等分的新娘∬",
        "ep_cut": 7,
        "image_url": "https://w.junreimap.com/images/user/2090/bangumi/282000/points/nubr20vuz-1725405304022.jpg",
        "location": "爱知县东海市 ヤマナカ",
        "point_id": "nubr20vuz",
        "point_name": "ヤマナカ",
        "remark": ""
      },
      "type": "Feature"
    },
    {
      "geometry": {
        "coordinates": [
          137.868314,
          35.477832
        ],
        "type": "Point"
      },
      "properties": {
        "bangumi_id": 282000,
        "bangumi_title": "五等分的新娘∬",
        "ep_cut": 7,
        "image_url": "https://w.junreimap.com/images/user/2090/bangumi/282000/points/np9yllz79-1725009577727.jpg",
        "location": "长野县饭田市",
        "point_id": "np9yllz79",
        "point_name": "虎岩​交流​センター",
        "remark": ""
      },
      "type": "Feature"
    },
    {
      "geometry": {
        "coordinates": [
          134.155729,
          34.625702
        ],
        "type": "Point"
      },
      "properties": {
        "bangumi_id": 282000,
        "bangumi_title": "五等分的新娘∬",
        "ep_cut": 7,
        "image_url": "https://w.junreimap.com/images/user/2090/bangumi/282000/points/nsdcodt0i-1725252105096.jpg",
        "location": "冈山县濑户内市",
        "point_id": "nsdcodt0i",
        "point_name": "牛窓オリーブ園幸福の鐘",
        "remark": ""
      },
      "type": "Feature"
    },
    {
      "geometry": {
        "coordinates": [
          137.005262,
          34.705021
        ],
        "type": "Point"
      },
      "properties": {
        "bangumi_id": 282000,
        "bangumi_title": "五等分的新娘∬",
        "ep_cut": 7,
        "image_url": "https://w.junreimap.com/images/points/282000/oy0dibfee_1728544818457_c16v9.jpg",
        "location": "爱知县南知多町",
        "point_id": "oy0dibfee",
        "point_name": "日間賀島",
        "remark": "风爸手上的地图"
      },
      "type": "Feature"
    },
    {
      "geometry": {
        "coordinates": [
          137.868347,
          35.477749
        ],
        "type": "Point"
      },
      "properties": {
        "bangumi_id": 282000,
        "bangumi_title": "五等分的新娘∬",
        "ep_cut": 7,
        "image_url": "https://w.junreimap.com/images/points/282000/oy0g2wgr2_1728696870629_c16v9.jpg",
        "location": "长野县饭田市",
        "point_id": "oy0g2wgr2",
        "point_name": "虎岩​交流​センター",
        "remark": ""
      },
      "type": "Feature"
    },
    {
      "geometry": {
        "coordinates": [
          137.868352,
          35.477744
        ],
        "type": "Point"
      },
      "properties": {
        "bangumi_id": 282000,
        "bangumi_title": "五等分的新娘∬",
        "ep_cut": 7,
        "image_url": "https://w.junreimap.com/images/points/282000/oy0hnebdx_1728696873631_c16v9.jpg",
        "location": "长野县饭田市",
        "point_id": "oy0hnebdx",
        "point_name": "虎岩​交流​センター",
        "remark": ""
      },
      "type": "Feature"
    },
    {
      "geometry": {
        "coordinates": [
          134.155736,
          34.6257
        ],
        "type": "Point"
      },
      "properties": {
        "bangumi_id": 282000,
        "bangumi_title": "五等分的新娘∬",
        "ep_cut": 8,
        "image_url": "https://w.junreimap.com/images/user/2090/bangumi/282000/points/ovs00ad6r-1728340123329.jpg",
        "location": "冈山县濑户内市",
        "point_id": "ovs00ad6r",
        "point_name": "牛窓オリーブ園幸福の鐘",
        "remark": ""
      },
      "type": "Feature"
    },
    {
      "geometry": {
        "coordinates": [
          137.868381,
          35.477791
        ],
        "type": "Point"
      },
      "properties": {
        "bangumi_id": 282000,
        "bangumi_title": "五等分的新娘∬",
        "ep_cut": 8,
        "image_url": "https://w.junreimap.com/images/points/282000/oy0m1bo0r_1728696876618_c16v9.jpg",
        "location": "长野县饭田市",
        "point_id": "oy0m1bo0r",
        "point_name": "虎岩​交流​センター",
        "remark": ""
      },
      "type": "Feature"
    },
    {
      "geometry": {
        "coordinates": [
          134.155735,
          34.625695
        ],
        "type": "Point"
      },
      "properties": {
        "bangumi_id": 282000,
        "bangumi_title": "五等分的新娘∬",
        "ep_cut": 8,
        "image_url": "https://w.junreimap.com/images/user/2090/bangumi/282000/points/ovs218f6o-1728340245753.jpg",
        "location": "冈山县濑户内市",
        "point_id": "ovs218f6o",
        "point_name": "牛窓オリーブ園幸福の鐘",
        "remark": ""
      },
      "type": "Feature"
    },
    {
      "geometry": {
        "coordinates": [
          134.155736,
          34.625694
        ],
        "type": "Point"
      },
      "properties": {
        "bangumi_id": 282000,
        "bangumi_title": "五等分的新娘∬",
        "ep_cut": 9,
        "image_url": "https://w.junreimap.com/images/points/282000/oy0o5az1z_1728544813407_c16v9.jpg",
        "location": "冈山县濑户内市",
        "point_id": "oy0o5az1z",
        "point_name": "牛窓オリーブ園幸福の鐘",
        "remark": ""
      },
      "type": "Feature"
    },
    {
      "geometry": {
        "coordinates": [
          135.202784,
          34.669139
        ],
        "type": "Point"
      },
      "properties": {
        "bangumi_id": 282000,
        "bangumi_title": "五等分的新娘∬",
        "ep_cut": 10,
        "image_url": "https://w.junreimap.com/images/points/282000/oy0v2bcsv_1728696879214_c16v9.jpg",
        "location": "兵库县神户市",
        "point_id": "oy0v2bcsv",
        "point_name": "Cafeteria BREATH",
        "remark": ""
      },
      "type": "Feature"
    },
    {
      "geometry": {
        "coordinates": [
          135.757585,
          34.985883
        ],
        "type": "Point"
      },
      "properties": {
        "bangumi_id": 282000,
        "bangumi_title": "五等分的新娘∬",
        "ep_cut": 10,
        "image_url": "https://w.junreimap.com/images/user/0/bangumi/282000/points/nhv3cusf5-1724428658078.jpg",
        "location": "京都府京都市 京都站",
        "point_id": "nhv3cusf5",
        "point_name": "京都駅ビル 大階段",
        "remark": "OP画面"
      },
      "type": "Feature"
    },
    {
      "geometry": {
        "coordinates": [
          136.92205,
          34.918644
        ],
        "type": "Point"
      },
      "properties": {
        "bangumi_id": 282000,
        "bangumi_title": "五等分的新娘∬",
        "ep_cut": 10,
        "image_url": "https://w.junreimap.com/images/points/282000/oy16oylux_1728696882615_c16v9.jpg",
        "location": "爱知县阿久比町",
        "point_id": "oy16oylux",
        "point_name": "ユナイテッド・​シネマ​阿久比",
        "remark": ""
      },
      "type": "Feature"
    },
    {
      "geometry": {
        "coordinates": [
          139.762786,
          35.671302
        ],
        "type": "Point"
      },
      "properties": {
        "bangumi_id": 282000,
        "bangumi_title": "五等分的新娘∬",
        "ep_cut": 10,
        "image_url": "https://w.junreimap.com/images/points/282000/oy21pq292_1728696885899_c16v9.jpg",
        "location": "东京都中央区",
        "point_id": "oy21pq292",
        "point_name": "ドルチェ＆ガッバーナ 銀座",
        "remark": ""
      },
      "type": "Feature"
    },
    {
      "geometry": {
        "coordinates": [
          136.898642,
          35.002782
        ],
        "type": "Point"
      },
      "properties": {
        "bangumi_id": 282000,
        "bangumi_title": "五等分的新娘∬",
        "ep_cut": 10,
        "image_url": "https://w.junreimap.com/images/user/2090/bangumi/282000/points/nubjx9mzu-1725404901711.jpg",
        "location": "爱知县东海市 汐见丘公园",
        "point_id": "nubjx9mzu",
        "point_name": "汐見が丘公園",
        "remark": ""
      },
      "type": "Feature"
    },
    {
      "geometry": {
        "coordinates": [
          136.88848,
          35.021262
        ],
        "type": "Point"
      },
      "properties": {
        "bangumi_id": 282000,
        "bangumi_title": "五等分的新娘∬",
        "ep_cut": 10,
        "image_url": "https://w.junreimap.com/images/points/282000/oy23ff9tc_1728696889033_c16v9.jpg",
        "location": "爱知县东海市 日本福祉大学",
        "point_id": "oy23ff9tc",
        "point_name": "日本福祉大東海キャンパス",
        "remark": ""
      },
      "type": "Feature"
    },
    {
      "geometry": {
        "coordinates": [
          135.785124,
          34.994634
        ],
        "type": "Point"
      },
      "properties": {
        "bangumi_id": 282000,
        "bangumi_title": "五等分的新娘∬",
        "ep_cut": 11,
        "image_url": "https://w.junreimap.com/images/user/2090/bangumi/282000/points/qlhvfwn1h-1733176693069.jpg",
        "location": "京都府京都市 清水寺",
        "point_id": "qlhvfwn1h",
        "point_name": "清水の舞台 东南角 南侧的景色",
        "remark": ""
      },
      "type": "Feature"
    },
    {
      "geometry": {
        "coordinates": [
          135.43762,
          34.668019
        ],
        "type": "Point"
      },
      "properties": {
        "bangumi_id": 282000,
        "bangumi_title": "五等分的新娘∬",
        "ep_cut": 11,
        "image_url": "https://w.junreimap.com/images/points/282000/oy26srsgy_1728696892031_c16v9.jpg",
        "location": "大阪府大阪市",
        "point_id": "oy26srsgy",
        "point_name": "日本环球影城公园大酒店",
        "remark": ""
      },
      "type": "Feature"
    },
    {
      "geometry": {
        "coordinates": [
          136.90843,
          35.13768
        ],
        "type": "Point"
      },
      "properties": {
        "bangumi_id": 282000,
        "bangumi_title": "五等分的新娘∬",
        "ep_cut": 11,
        "image_url": "https://w.junreimap.com/images/user/2090/bangumi/282000/points/nsknbsmkr-1725267914351.jpg",
        "location": "爱知县名古屋市 狮子中京大厦",
        "point_id": "nsknbsmkr",
        "point_name": "イオンモール熱田",
        "remark": ""
      },
      "type": "Feature"
    },
    {
      "geometry": {
        "coordinates": [
          135.759432,
          34.98754
        ],
        "type": "Point"
      },
      "properties": {
        "bangumi_id": 282000,
        "bangumi_title": "五等分的新娘∬",
        "ep_cut": 11,
        "image_url": "https://w.junreimap.com/images/points/282000/oy2c9kxmn_1728696896463_c16v9.jpg",
        "location": "京都府京都市 京都站",
        "point_id": "oy2c9kxmn",
        "point_name": "京都塔",
        "remark": ""
      },
      "type": "Feature"
    },
    {
      "geometry": {
        "coordinates": [
          135.758796,
          34.986161
        ],
        "type": "Point"
      },
      "properties": {
        "bangumi_id": 282000,
        "bangumi_title": "五等分的新娘∬",
        "ep_cut": 11,
        "image_url": "https://w.junreimap.com/images/points/282000/oy2dzvjt9_1728696902464_c16v9.jpg",
        "location": "京都府京都市 京都站",
        "point_id": "oy2dzvjt9",
        "point_name": "JR京都站 中央口",
        "remark": ""
      },
      "type": "Feature"
    },
    {
      "geometry": {
        "coordinates": [
          135.759995,
          34.984704
        ],
        "type": "Point"
      },
      "properties": {
        "bangumi_id": 282000,
        "bangumi_title": "五等分的新娘∬",
        "ep_cut": 11,
        "image_url": "https://w.junreimap.com/images/user/2090/bangumi/282000/points/o1y92kxgw-1726002815556.jpg",
        "location": "京都府京都市 京都站",
        "point_id": "o1y92kxgw",
        "point_name": "グランドキヨスク京都 前方",
        "remark": ""
      },
      "type": "Feature"
    },
    {
      "geometry": {
        "coordinates": [
          135.785226,
          34.994701
        ],
        "type": "Point"
      },
      "properties": {
        "bangumi_id": 282000,
        "bangumi_title": "五等分的新娘∬",
        "ep_cut": 11,
        "image_url": "https://w.junreimap.com/images/points/282000/oy2gxgvj1_1728696899868_c16v9.jpg",
        "location": "京都府京都市 清水寺",
        "point_id": "oy2gxgvj1",
        "point_name": "清水寺本堂",
        "remark": "路人手上书的封面"
      },
      "type": "Feature"
    },
    {
      "geometry": {
        "coordinates": [
          135.770956,
          34.967027
        ],
        "type": "Point"
      },
      "properties": {
        "bangumi_id": 282000,
        "bangumi_title": "五等分的新娘∬",
        "ep_cut": 11,
        "image_url": "https://w.junreimap.com/images/user/0/bangumi/282000/points/ns3zxd7yc-1725231681812.jpg",
        "location": "京都府京都市 伏见稻荷大社",
        "point_id": "ns3zxd7yc",
        "point_name": "伏見稻荷大社大鳥居",
        "remark": "EP#11 00:06:20"
      },
      "type": "Feature"
    },
    {
      "geometry": {
        "coordinates": [
          135.774675,
          34.967035
        ],
        "type": "Point"
      },
      "properties": {
        "bangumi_id": 282000,
        "bangumi_title": "五等分的新娘∬",
        "ep_cut": 11,
        "image_url": "https://w.junreimap.com/images/user/0/bangumi/282000/points/ns5c5kmix-1725234598481.jpg",
        "location": "京都府京都市 伏见稻荷大社",
        "point_id": "ns5c5kmix",
        "point_name": "伏見稲荷大社千本鳥居",
        "remark": "EP#11 00:06:31"
      },
      "type": "Feature"
    },
    {
      "geometry": {
        "coordinates": [
          135.781499,
          34.969038
        ],
        "type": "Point"
      },
      "properties": {
        "bangumi_id": 282000,
        "bangumi_title": "五等分的新娘∬",
        "ep_cut": 11,
        "image_url": "https://w.junreimap.com/images/user/2090/bangumi/282000/points/o677rh5oy-1726335795937.jpg",
        "location": "京都府京都市 伏见稻荷大社",
        "point_id": "o677rh5oy",
        "point_name": "四ツ辻​茶屋​にしむら​亭",
        "remark": ""
      },
      "type": "Feature"
    },
    {
      "geometry": {
        "coordinates": [
          135.781379,
          34.968983
        ],
        "type": "Point"
      },
      "properties": {
        "bangumi_id": 282000,
        "bangumi_title": "五等分的新娘∬",
        "ep_cut": 11,
        "image_url": "https://w.junreimap.com/images/user/2090/bangumi/282000/points/nwaxtbhqu-1725560256016.jpg",
        "location": "京都府京都市 伏见稻荷大社",
        "point_id": "nwaxtbhqu",
        "point_name": "四ツ辻​茶屋​にしむら​亭 西边的这个建筑",
        "remark": ""
      },
      "type": "Feature"
    },
    {
      "geometry": {
        "coordinates": [
          135.783536,
          34.969455
        ],
        "type": "Point"
      },
      "properties": {
        "bangumi_id": 282000,
        "bangumi_title": "五等分的新娘∬",
        "ep_cut": 11,
        "image_url": "https://w.junreimap.com/images/user/2090/bangumi/282000/points/o67o78q9v-1726336794230.jpg",
        "location": "京都府京都市 伏见稻荷大社",
        "point_id": "o67o78q9v",
        "point_name": "伏见稻荷大社御膳谷奉拜所",
        "remark": ""
      },
      "type": "Feature"
    },
    {
      "geometry": {
        "coordinates": [
          135.781787,
          34.96824
        ],
        "type": "Point"
      },
      "properties": {
        "bangumi_id": 282000,
        "bangumi_title": "五等分的新娘∬",
        "ep_cut": 11,
        "image_url": "https://w.junreimap.com/images/user/2090/bangumi/282000/points/ovnade8by-1728330045753.jpg",
        "location": "京都府京都市 伏见稻荷大社",
        "point_id": "ovnade8by",
        "point_name": "四つ辻与三ノ峰之间的鸟居",
        "remark": ""
      },
      "type": "Feature"
    },
    {
      "geometry": {
        "coordinates": [
          135.783613,
          34.96953
        ],
        "type": "Point"
      },
      "properties": {
        "bangumi_id": 282000,
        "bangumi_title": "五等分的新娘∬",
        "ep_cut": 11,
        "image_url": "https://w.junreimap.com/images/points/282000/oy2rpkc96_1728696922814_c16v9.jpg",
        "location": "京都府京都市 伏见稻荷大社",
        "point_id": "oy2rpkc96",
        "point_name": "伏见稻荷大社御膳谷奉拜所",
        "remark": ""
      },
      "type": "Feature"
    },
    {
      "geometry": {
        "coordinates": [
          135.78554,
          34.966984
        ],
        "type": "Point"
      },
      "properties": {
        "bangumi_id": 282000,
        "bangumi_title": "五等分的新娘∬",
        "ep_cut": 11,
        "image_url": "https://w.junreimap.com/images/user/2090/bangumi/282000/points/nwba0njn6-1725561017382.jpg",
        "location": "京都府京都市 伏见稻荷大社",
        "point_id": "nwba0njn6",
        "point_name": "一ノ峰",
        "remark": ""
      },
      "type": "Feature"
    },
    {
      "geometry": {
        "coordinates": [
          135.785368,
          34.966973
        ],
        "type": "Point"
      },
      "properties": {
        "bangumi_id": 282000,
        "bangumi_title": "五等分的新娘∬",
        "ep_cut": 11,
        "image_url": "https://w.junreimap.com/images/user/2090/bangumi/282000/points/o67tcx3aj-1726337215378.jpg",
        "location": "京都府京都市 伏见稻荷大社",
        "point_id": "o67tcx3aj",
        "point_name": "一ノ峰 西侧的鸟居",
        "remark": ""
      },
      "type": "Feature"
    },
    {
      "geometry": {
        "coordinates": [
          135.785222,
          34.994699
        ],
        "type": "Point"
      },
      "properties": {
        "bangumi_id": 282000,
        "bangumi_title": "五等分的新娘∬",
        "ep_cut": 11,
        "image_url": "https://w.junreimap.com/images/points/282000/oy2uoqrgb_1728544810128_c16v9.jpg",
        "location": "京都府京都市 清水寺",
        "point_id": "oy2uoqrgb",
        "point_name": "清水寺本堂",
        "remark": "路人手上的书的封面"
      },
      "type": "Feature"
    },
    {
      "geometry": {
        "coordinates": [
          135.772841,
          34.967152
        ],
        "type": "Point"
      },
      "properties": {
        "bangumi_id": 282000,
        "bangumi_title": "五等分的新娘∬",
        "ep_cut": 11,
        "image_url": "https://w.junreimap.com/images/user/0/bangumi/282000/points/ns99bpf0j-1725243130637.jpg",
        "location": "京都府京都市 伏见稻荷大社",
        "point_id": "ns99bpf0j",
        "point_name": "伏見稻荷大社外拝殿",
        "remark": "EP#11 00:13:02"
      },
      "type": "Feature"
    },
    {
      "geometry": {
        "coordinates": [
          135.768506,
          34.968707
        ],
        "type": "Point"
      },
      "properties": {
        "bangumi_id": 282000,
        "bangumi_title": "五等分的新娘∬",
        "ep_cut": 11,
        "image_url": "https://w.junreimap.com/images/user/2090/bangumi/282000/points/o66vn9xgz-1726335075330.jpg",
        "location": "京都府京都市 伏见稻荷大社",
        "point_id": "o66vn9xgz",
        "point_name": "稻荷大社前",
        "remark": "最上面那个红牌子无了.avi"
      },
      "type": "Feature"
    },
    {
      "geometry": {
        "coordinates": [
          135.766742,
          34.989182
        ],
        "type": "Point"
      },
      "properties": {
        "bangumi_id": 282000,
        "bangumi_title": "五等分的新娘∬",
        "ep_cut": 11,
        "image_url": "https://w.junreimap.com/images/user/0/bangumi/282000/points/3o02ms5-1754992216077.jpg",
        "location": "京都府京都市 七条大桥",
        "point_id": "3o02ms5",
        "point_name": "七条大橋",
        "remark": ""
      },
      "type": "Feature"
    },
    {
      "geometry": {
        "coordinates": [
          135.759775,
          34.989284
        ],
        "type": "Point"
      },
      "properties": {
        "bangumi_id": 282000,
        "bangumi_title": "五等分的新娘∬",
        "ep_cut": 11,
        "image_url": "https://w.junreimap.com/images/user/2090/bangumi/282000/points/nw9pjm99y-1725557594795.jpg",
        "location": "京都府京都市 京都站",
        "point_id": "nw9pjm99y",
        "point_name": "烏丸七条",
        "remark": ""
      },
      "type": "Feature"
    },
    {
      "geometry": {
        "coordinates": [
          135.752745,
          34.986025
        ],
        "type": "Point"
      },
      "properties": {
        "bangumi_id": 282000,
        "bangumi_title": "五等分的新娘∬",
        "ep_cut": 11,
        "image_url": "https://w.junreimap.com/images/user/2090/bangumi/282000/points/o35r7wbe8-1726097522177.jpg",
        "location": "京都府京都市 京都丽嘉皇家酒店",
        "point_id": "o35r7wbe8",
        "point_name": "京都丽嘉皇家酒店",
        "remark": ""
      },
      "type": "Feature"
    },
    {
      "geometry": {
        "coordinates": [
          135.758789,
          34.986163
        ],
        "type": "Point"
      },
      "properties": {
        "bangumi_id": 282000,
        "bangumi_title": "五等分的新娘∬",
        "ep_cut": 11,
        "image_url": "https://w.junreimap.com/images/points/282000/oy37jpwt5_1728544806096_c16v9.jpg",
        "location": "京都府京都市 京都站",
        "point_id": "oy37jpwt5",
        "point_name": "JR京都站 中央口",
        "remark": ""
      },
      "type": "Feature"
    },
    {
      "geometry": {
        "coordinates": [
          135.75242,
          34.986486
        ],
        "type": "Point"
      },
      "properties": {
        "bangumi_id": 282000,
        "bangumi_title": "五等分的新娘∬",
        "ep_cut": 11,
        "image_url": "https://w.junreimap.com/images/user/2090/bangumi/282000/points/o6un685bu-1726386824789.jpg",
        "location": "京都府京都市 京都丽嘉皇家酒店",
        "point_id": "o6un685bu",
        "point_name": "ALL DAY DINING KAZA",
        "remark": ""
      },
      "type": "Feature"
    },
    {
      "geometry": {
        "coordinates": [
          135.752495,
          34.986389
        ],
        "type": "Point"
      },
      "properties": {
        "bangumi_id": 282000,
        "bangumi_title": "五等分的新娘∬",
        "ep_cut": 11,
        "image_url": "https://w.junreimap.com/images/user/2090/bangumi/282000/points/o6uifdjzy-1726386496621.jpg",
        "location": "京都府京都市 京都丽嘉皇家酒店",
        "point_id": "o6uifdjzy",
        "point_name": "リーガ​ロイヤル​ホテル​京都 客房走廊",
        "remark": ""
      },
      "type": "Feature"
    },
    {
      "geometry": {
        "coordinates": [
          135.785087,
          34.994636
        ],
        "type": "Point"
      },
      "properties": {
        "bangumi_id": 282000,
        "bangumi_title": "五等分的新娘∬",
        "ep_cut": 11,
        "image_url": "https://w.junreimap.com/images/user/0/bangumi/282000/points/nhv6mhtll-1724428880909.jpg",
        "location": "京都府京都市 清水寺",
        "point_id": "nhv6mhtll",
        "point_name": "清水寺本堂南侧门口",
        "remark": ""
      },
      "type": "Feature"
    },
    {
      "geometry": {
        "coordinates": [
          135.785219,
          34.994704
        ],
        "type": "Point"
      },
      "properties": {
        "bangumi_id": 282000,
        "bangumi_title": "五等分的新娘∬",
        "ep_cut": 11,
        "image_url": "https://w.junreimap.com/images/user/0/bangumi/256114/points/mbfq4ybp1-1721103908614.jpg",
        "location": "京都府京都市 清水寺",
        "point_id": "mbfq4ybp1",
        "point_name": "清水寺本堂",
        "remark": ""
      },
      "type": "Feature"
    },
    {
      "geometry": {
        "coordinates": [
          135.785129,
          34.99464
        ],
        "type": "Point"
      },
      "properties": {
        "bangumi_id": 282000,
        "bangumi_title": "五等分的新娘∬",
        "ep_cut": 11,
        "image_url": "https://w.junreimap.com/images/user/0/bangumi/282000/points/nhv7sr84i-1724428916710.jpg",
        "location": "京都府京都市 清水寺",
        "point_id": "nhv7sr84i",
        "point_name": "清水の舞台 东南角",
        "remark": ""
      },
      "type": "Feature"
    },
    {
      "geometry": {
        "coordinates": [
          135.785106,
          34.994635
        ],
        "type": "Point"
      },
      "properties": {
        "bangumi_id": 282000,
        "bangumi_title": "五等分的新娘∬",
        "ep_cut": 11,
        "image_url": "https://w.junreimap.com/images/user/0/bangumi/282000/points/nhv84blor-1724428939321.jpg",
        "location": "京都府京都市 清水寺",
        "point_id": "nhv84blor",
        "point_name": "清水寺本堂南侧门口",
        "remark": ""
      },
      "type": "Feature"
    },
    {
      "geometry": {
        "coordinates": [
          135.785092,
          34.994636
        ],
        "type": "Point"
      },
      "properties": {
        "bangumi_id": 282000,
        "bangumi_title": "五等分的新娘∬",
        "ep_cut": 11,
        "image_url": "https://w.junreimap.com/images/user/0/bangumi/282000/points/nhv8lfzpd-1724428968438.jpg",
        "location": "京都府京都市 清水寺",
        "point_id": "nhv8lfzpd",
        "point_name": "清水寺本堂南侧门口",
        "remark": ""
      },
      "type": "Feature"
    },
    {
      "geometry": {
        "coordinates": [
          135.785122,
          34.994644
        ],
        "type": "Point"
      },
      "properties": {
        "bangumi_id": 282000,
        "bangumi_title": "五等分的新娘∬",
        "ep_cut": 11,
        "image_url": "https://w.junreimap.com/images/user/0/bangumi/282000/points/nhv9bun7h-1724429009801.jpg",
        "location": "京都府京都市 清水寺",
        "point_id": "nhv9bun7h",
        "point_name": "清水の舞台 东南角",
        "remark": ""
      },
      "type": "Feature"
    },
    {
      "geometry": {
        "coordinates": [
          135.785094,
          34.994748
        ],
        "type": "Point"
      },
      "properties": {
        "bangumi_id": 282000,
        "bangumi_title": "五等分的新娘∬",
        "ep_cut": 11,
        "image_url": "https://w.junreimap.com/images/user/0/bangumi/282000/points/nhvae5rsj-1724429083916.jpg",
        "location": "京都府京都市 清水寺",
        "point_id": "nhvae5rsj",
        "point_name": "清水寺",
        "remark": "卖护身符的地方"
      },
      "type": "Feature"
    },
    {
      "geometry": {
        "coordinates": [
          135.75276,
          34.985925
        ],
        "type": "Point"
      },
      "properties": {
        "bangumi_id": 282000,
        "bangumi_title": "五等分的新娘∬",
        "ep_cut": 12,
        "image_url": "https://w.junreimap.com/images/points/282000/oy3d41pbr_1728544803202_c16v9.jpg",
        "location": "京都府京都市 京都丽嘉皇家酒店",
        "point_id": "oy3d41pbr",
        "point_name": "京都丽嘉皇家酒店",
        "remark": ""
      },
      "type": "Feature"
    },
    {
      "geometry": {
        "coordinates": [
          135.7525,
          34.986366
        ],
        "type": "Point"
      },
      "properties": {
        "bangumi_id": 282000,
        "bangumi_title": "五等分的新娘∬",
        "ep_cut": 12,
        "image_url": "https://w.junreimap.com/images/user/2090/bangumi/282000/points/ovq0ge4s5-1728335807592.jpg",
        "location": "京都府京都市 京都丽嘉皇家酒店",
        "point_id": "ovq0ge4s5",
        "point_name": "京都丽嘉皇家酒店 客房",
        "remark": ""
      },
      "type": "Feature"
    },
    {
      "geometry": {
        "coordinates": [
          135.785322,
          34.992753
        ],
        "type": "Point"
      },
      "properties": {
        "bangumi_id": 282000,
        "bangumi_title": "五等分的新娘∬",
        "ep_cut": 12,
        "image_url": "https://w.junreimap.com/images/points/282000/oy3fwvs63_1728696915984_c16v9.jpg",
        "location": "京都府京都市 清水寺",
        "point_id": "oy3fwvs63",
        "point_name": "子安塔 东南方向的三岔路口",
        "remark": ""
      },
      "type": "Feature"
    },
    {
      "geometry": {
        "coordinates": [
          135.785349,
          34.992763
        ],
        "type": "Point"
      },
      "properties": {
        "bangumi_id": 282000,
        "bangumi_title": "五等分的新娘∬",
        "ep_cut": 12,
        "image_url": "https://w.junreimap.com/images/points/282000/nw9iyynfx_1725652511042_c16v9.jpg",
        "location": "京都府京都市 清水寺",
        "point_id": "nw9iyynfx",
        "point_name": "子安塔 东南方向的三岔路口",
        "remark": "动画里作了镜像处理"
      },
      "type": "Feature"
    },
    {
      "geometry": {
        "coordinates": [
          135.784969,
          34.994642
        ],
        "type": "Point"
      },
      "properties": {
        "bangumi_id": 282000,
        "bangumi_title": "五等分的新娘∬",
        "ep_cut": 12,
        "image_url": "https://w.junreimap.com/images/points/282000/oy3i5s6qk_1728544798787_c16v9.jpg",
        "location": "京都府京都市 清水寺",
        "point_id": "oy3i5s6qk",
        "point_name": "清水の舞台 西南角",
        "remark": ""
      },
      "type": "Feature"
    },
    {
      "geometry": {
        "coordinates": [
          135.784971,
          34.994636
        ],
        "type": "Point"
      },
      "properties": {
        "bangumi_id": 282000,
        "bangumi_title": "五等分的新娘∬",
        "ep_cut": 12,
        "image_url": "https://w.junreimap.com/images/user/2090/bangumi/282000/points/qlh6xchu3-1733175203370.jpg",
        "location": "京都府京都市 清水寺",
        "point_id": "qlh6xchu3",
        "point_name": "清水の舞台 西南角",
        "remark": ""
      },
      "type": "Feature"
    },
    {
      "geometry": {
        "coordinates": [
          135.785094,
          34.994739
        ],
        "type": "Point"
      },
      "properties": {
        "bangumi_id": 282000,
        "bangumi_title": "五等分的新娘∬",
        "ep_cut": 12,
        "image_url": "https://w.junreimap.com/images/points/282000/oy3jq8w3m_1728544795828_c16v9.jpg",
        "location": "京都府京都市 清水寺",
        "point_id": "oy3jq8w3m",
        "point_name": "清水寺本堂",
        "remark": "卖护身符的地方"
      },
      "type": "Feature"
    },
    {
      "geometry": {
        "coordinates": [
          135.785087,
          34.994738
        ],
        "type": "Point"
      },
      "properties": {
        "bangumi_id": 282000,
        "bangumi_title": "五等分的新娘∬",
        "ep_cut": 12,
        "image_url": "https://w.junreimap.com/images/points/282000/oy3l6jyox_1728544792821_c16v9.jpg",
        "location": "京都府京都市 清水寺",
        "point_id": "oy3l6jyox",
        "point_name": "清水寺本堂",
        "remark": "卖护身符的地方"
      },
      "type": "Feature"
    },
    {
      "geometry": {
        "coordinates": [
          135.757887,
          34.985718
        ],
        "type": "Point"
      },
      "properties": {
        "bangumi_id": 282000,
        "bangumi_title": "五等分的新娘∬",
        "ep_cut": 12,
        "image_url": "https://w.junreimap.com/images/points/282000/oy3h97q6f_1728544788905_c16v9.jpg",
        "location": "京都府京都市 京都站",
        "point_id": "oy3h97q6f",
        "point_name": "京都站大楼梯",
        "remark": ""
      },
      "type": "Feature"
    },
    {
      "geometry": {
        "coordinates": [
          135.778544,
          35.003477
        ],
        "type": "Point"
      },
      "properties": {
        "bangumi_id": 282000,
        "bangumi_title": "五等分的新娘∬",
        "ep_cut": 12,
        "image_url": "https://w.junreimap.com/images/points/282000/oy3mysx00_1728544784536_c16v9.jpg",
        "location": "京都府京都市 八坂神社",
        "point_id": "oy3mysx00",
        "point_name": "八坂神社",
        "remark": ""
      },
      "type": "Feature"
    },
    {
      "geometry": {
        "coordinates": [
          135.785306,
          34.992752
        ],
        "type": "Point"
      },
      "properties": {
        "bangumi_id": 282000,
        "bangumi_title": "五等分的新娘∬",
        "ep_cut": 12,
        "image_url": "https://w.junreimap.com/images/points/282000/nw9ma98nz_1725652507201_c16v9.jpg",
        "location": "京都府京都市 清水寺",
        "point_id": "nw9ma98nz",
        "point_name": "子安塔 东南方向的三岔路口",
        "remark": ""
      },
      "type": "Feature"
    },
    {
      "geometry": {
        "coordinates": [
          135.752759,
          34.985924
        ],
        "type": "Point"
      },
      "properties": {
        "bangumi_id": 282000,
        "bangumi_title": "五等分的新娘∬",
        "ep_cut": 12,
        "image_url": "https://w.junreimap.com/images/points/282000/oy3omw48v_1728696912730_c16v9.jpg",
        "location": "京都府京都市 京都丽嘉皇家酒店",
        "point_id": "oy3omw48v",
        "point_name": "京都丽嘉皇家酒店",
        "remark": ""
      },
      "type": "Feature"
    },
    {
      "geometry": {
        "coordinates": [
          135.75275,
          34.985961
        ],
        "type": "Point"
      },
      "properties": {
        "bangumi_id": 282000,
        "bangumi_title": "五等分的新娘∬",
        "ep_cut": 12,
        "image_url": "https://w.junreimap.com/images/user/2090/bangumi/282000/points/ovpyi0pv1-1728335677581.jpg",
        "location": "京都府京都市 京都丽嘉皇家酒店",
        "point_id": "ovpyi0pv1",
        "point_name": "京都丽嘉皇家酒店",
        "remark": ""
      },
      "type": "Feature"
    },
    {
      "geometry": {
        "coordinates": [
          135.708099,
          35.015737
        ],
        "type": "Point"
      },
      "properties": {
        "bangumi_id": 282000,
        "bangumi_title": "五等分的新娘∬",
        "ep_cut": 12,
        "image_url": "https://w.junreimap.com/images/user/2090/bangumi/282000/points/o6rqfn3d1-1726380511101.jpg",
        "location": "京都府京都市 东映太秦映画村",
        "point_id": "o6rqfn3d1",
        "point_name": "江户屋 门口的道路",
        "remark": ""
      },
      "type": "Feature"
    },
    {
      "geometry": {
        "coordinates": [
          135.707485,
          35.01634
        ],
        "type": "Point"
      },
      "properties": {
        "bangumi_id": 282000,
        "bangumi_title": "五等分的新娘∬",
        "ep_cut": 12,
        "image_url": "https://w.junreimap.com/images/user/2090/bangumi/282000/points/o6ravud5j-1726379544665.jpg",
        "location": "京都府京都市 东映太秦映画村",
        "point_id": "o6ravud5j",
        "point_name": "中村座隣の建物",
        "remark": ""
      },
      "type": "Feature"
    },
    {
      "geometry": {
        "coordinates": [
          135.785225,
          34.9947
        ],
        "type": "Point"
      },
      "properties": {
        "bangumi_id": 282000,
        "bangumi_title": "五等分的新娘∬",
        "ep_cut": 12,
        "image_url": "https://w.junreimap.com/images/points/282000/oy3t4dd5g_1728544779277_c16v9.jpg",
        "location": "京都府京都市 清水寺",
        "point_id": "oy3t4dd5g",
        "point_name": "清水寺本堂",
        "remark": "武田手上的书的封面"
      },
      "type": "Feature"
    },
    {
      "geometry": {
        "coordinates": [
          135.707563,
          35.016179
        ],
        "type": "Point"
      },
      "properties": {
        "bangumi_id": 282000,
        "bangumi_title": "五等分的新娘∬",
        "ep_cut": 12,
        "image_url": "https://w.junreimap.com/images/user/2090/bangumi/282000/points/nwgff1pyw-1725572262483.jpg",
        "location": "京都府京都市 东映太秦映画村",
        "point_id": "nwgff1pyw",
        "point_name": "扮装写真館",
        "remark": ""
      },
      "type": "Feature"
    },
    {
      "geometry": {
        "coordinates": [
          135.707243,
          35.01662
        ],
        "type": "Point"
      },
      "properties": {
        "bangumi_id": 282000,
        "bangumi_title": "五等分的新娘∬",
        "ep_cut": 12,
        "image_url": "https://w.junreimap.com/images/user/2090/bangumi/282000/points/nwgy3r93o-1725573351486.jpg",
        "location": "京都府京都市 东映太秦映画村",
        "point_id": "nwgy3r93o",
        "point_name": "東映太秦映画村 施設内トイレ",
        "remark": "是右边那个建筑"
      },
      "type": "Feature"
    },
    {
      "geometry": {
        "coordinates": [
          135.707114,
          35.016771
        ],
        "type": "Point"
      },
      "properties": {
        "bangumi_id": 282000,
        "bangumi_title": "五等分的新娘∬",
        "ep_cut": 12,
        "image_url": "https://w.junreimap.com/images/user/2090/bangumi/282000/points/nwgpcibfo-1725572826084.jpg",
        "location": "京都府京都市 东映太秦映画村",
        "point_id": "nwgpcibfo",
        "point_name": "史上最恐のお化け屋敷",
        "remark": ""
      },
      "type": "Feature"
    },
    {
      "geometry": {
        "coordinates": [
          135.70814,
          35.015705
        ],
        "type": "Point"
      },
      "properties": {
        "bangumi_id": 282000,
        "bangumi_title": "五等分的新娘∬",
        "ep_cut": 12,
        "image_url": "https://w.junreimap.com/images/user/2090/bangumi/282000/points/nwh8k2ryj-1725574008948.jpg",
        "location": "京都府京都市 东映太秦映画村",
        "point_id": "nwh8k2ryj",
        "point_name": "江户屋",
        "remark": ""
      },
      "type": "Feature"
    },
    {
      "geometry": {
        "coordinates": [
          135.708889,
          35.015554
        ],
        "type": "Point"
      },
      "properties": {
        "bangumi_id": 282000,
        "bangumi_title": "五等分的新娘∬",
        "ep_cut": 12,
        "image_url": "https://w.junreimap.com/images/user/2090/bangumi/282000/points/nwhaj8zc9-1725574102017.jpg",
        "location": "京都府京都市 东映太秦映画村",
        "point_id": "nwhaj8zc9",
        "point_name": "射箭游乐场",
        "remark": ""
      },
      "type": "Feature"
    },
    {
      "geometry": {
        "coordinates": [
          135.707667,
          35.016532
        ],
        "type": "Point"
      },
      "properties": {
        "bangumi_id": 282000,
        "bangumi_title": "五等分的新娘∬",
        "ep_cut": 12,
        "image_url": "https://w.junreimap.com/images/user/2090/bangumi/282000/points/nwh11tkqm-1725573529328.jpg",
        "location": "京都府京都市 东映太秦映画村",
        "point_id": "nwh11tkqm",
        "point_name": "中村座",
        "remark": ""
      },
      "type": "Feature"
    },
    {
      "geometry": {
        "coordinates": [
          135.70824,
          35.016351
        ],
        "type": "Point"
      },
      "properties": {
        "bangumi_id": 282000,
        "bangumi_title": "五等分的新娘∬",
        "ep_cut": 12,
        "image_url": "https://w.junreimap.com/images/user/2090/bangumi/282000/points/nwh3pkmif-1725573700531.jpg",
        "location": "京都府京都市 东映太秦映画村",
        "point_id": "nwh3pkmif",
        "point_name": "仲之町游郭街",
        "remark": ""
      },
      "type": "Feature"
    },
    {
      "geometry": {
        "coordinates": [
          135.707948,
          35.015724
        ],
        "type": "Point"
      },
      "properties": {
        "bangumi_id": 282000,
        "bangumi_title": "五等分的新娘∬",
        "ep_cut": 12,
        "image_url": "https://w.junreimap.com/images/points/282000/nwglkxvd9_1725618688172_cblack.jpg",
        "location": "京都府京都市 东映太秦映画村",
        "point_id": "nwglkxvd9",
        "point_name": "日本橋",
        "remark": ""
      },
      "type": "Feature"
    },
    {
      "geometry": {
        "coordinates": [
          135.707514,
          35.016842
        ],
        "type": "Point"
      },
      "properties": {
        "bangumi_id": 282000,
        "bangumi_title": "五等分的新娘∬",
        "ep_cut": 12,
        "image_url": "https://w.junreimap.com/images/user/2090/bangumi/282000/points/nwhdxet9f-1725574271382.jpg",
        "location": "京都府京都市 东映太秦映画村",
        "point_id": "nwhdxet9f",
        "point_name": "怪獣の池",
        "remark": ""
      },
      "type": "Feature"
    },
    {
      "geometry": {
        "coordinates": [
          135.707769,
          35.016771
        ],
        "type": "Point"
      },
      "properties": {
        "bangumi_id": 282000,
        "bangumi_title": "五等分的新娘∬",
        "ep_cut": 12,
        "image_url": "https://w.junreimap.com/images/points/282000/oy471uul1_1728544774444_c16v9.jpg",
        "location": "京都府京都市 东映太秦映画村",
        "point_id": "oy471uul1",
        "point_name": "长屋门对面的座位西南侧",
        "remark": ""
      },
      "type": "Feature"
    },
    {
      "geometry": {
        "coordinates": [
          135.707581,
          35.016181
        ],
        "type": "Point"
      },
      "properties": {
        "bangumi_id": 282000,
        "bangumi_title": "五等分的新娘∬",
        "ep_cut": 12,
        "image_url": "https://w.junreimap.com/images/points/282000/oy44cgbjs_1728544763393_c16v9.jpg",
        "location": "京都府京都市 东映太秦映画村",
        "point_id": "oy44cgbjs",
        "point_name": "扮装写真館",
        "remark": ""
      },
      "type": "Feature"
    },
    {
      "geometry": {
        "coordinates": [
          135.707778,
          35.016789
        ],
        "type": "Point"
      },
      "properties": {
        "bangumi_id": 282000,
        "bangumi_title": "五等分的新娘∬",
        "ep_cut": 12,
        "image_url": "https://w.junreimap.com/images/points/282000/nwhgds6hj_1725618695082_cblack.jpg",
        "location": "京都府京都市 东映太秦映画村",
        "point_id": "nwhgds6hj",
        "point_name": "长屋门对面的座位",
        "remark": ""
      },
      "type": "Feature"
    },
    {
      "geometry": {
        "coordinates": [
          135.707894,
          35.016543
        ],
        "type": "Point"
      },
      "properties": {
        "bangumi_id": 282000,
        "bangumi_title": "五等分的新娘∬",
        "ep_cut": 12,
        "image_url": "https://w.junreimap.com/images/user/2090/bangumi/282000/points/ovnr8946o-1728330934696.jpg",
        "location": "京都府京都市 东映太秦映画村",
        "point_id": "ovnr8946o",
        "point_name": "分铜屋",
        "remark": ""
      },
      "type": "Feature"
    },
    {
      "geometry": {
        "coordinates": [
          135.707741,
          35.015736
        ],
        "type": "Point"
      },
      "properties": {
        "bangumi_id": 282000,
        "bangumi_title": "五等分的新娘∬",
        "ep_cut": 12,
        "image_url": "https://w.junreimap.com/images/user/2090/bangumi/282000/points/o6rnjc48h-1726380275622.jpg",
        "location": "京都府京都市 东映太秦映画村",
        "point_id": "o6rnjc48h",
        "point_name": "日本橋",
        "remark": ""
      },
      "type": "Feature"
    },
    {
      "geometry": {
        "coordinates": [
          135.707659,
          35.016554
        ],
        "type": "Point"
      },
      "properties": {
        "bangumi_id": 282000,
        "bangumi_title": "五等分的新娘∬",
        "ep_cut": 12,
        "image_url": "https://w.junreimap.com/images/user/2090/bangumi/282000/points/o6rgogimo-1726379857605.jpg",
        "location": "京都府京都市 东映太秦映画村",
        "point_id": "o6rgogimo",
        "point_name": "中村座",
        "remark": ""
      },
      "type": "Feature"
    },
    {
      "geometry": {
        "coordinates": [
          135.708408,
          35.016936
        ],
        "type": "Point"
      },
      "properties": {
        "bangumi_id": 282000,
        "bangumi_title": "五等分的新娘∬",
        "ep_cut": 12,
        "image_url": "https://w.junreimap.com/images/points/282000/oy4ertxhz_1728544760325_c16v9.jpg",
        "location": "京都府京都市 东映太秦映画村",
        "point_id": "oy4ertxhz",
        "point_name": "东映太秦映画村入口处的大楼的背面",
        "remark": ""
      },
      "type": "Feature"
    },
    {
      "geometry": {
        "coordinates": [
          135.707786,
          35.016792
        ],
        "type": "Point"
      },
      "properties": {
        "bangumi_id": 282000,
        "bangumi_title": "五等分的新娘∬",
        "ep_cut": 12,
        "image_url": "https://w.junreimap.com/images/user/2090/bangumi/282000/points/ovniypnlq-1728330455919.jpg",
        "location": "京都府京都市 东映太秦映画村",
        "point_id": "ovniypnlq",
        "point_name": "长屋门对面的座位",
        "remark": ""
      },
      "type": "Feature"
    },
    {
      "geometry": {
        "coordinates": [
          135.707619,
          35.016179
        ],
        "type": "Point"
      },
      "properties": {
        "bangumi_id": 282000,
        "bangumi_title": "五等分的新娘∬",
        "ep_cut": 12,
        "image_url": "https://w.junreimap.com/images/user/2090/bangumi/282000/points/o6rhrzaaq-1726379957731.jpg",
        "location": "京都府京都市 东映太秦映画村",
        "point_id": "o6rhrzaaq",
        "point_name": "扮装写真館 门口",
        "remark": ""
      },
      "type": "Feature"
    },
    {
      "geometry": {
        "coordinates": [
          135.70765,
          35.016165
        ],
        "type": "Point"
      },
      "properties": {
        "bangumi_id": 282000,
        "bangumi_title": "五等分的新娘∬",
        "ep_cut": 12,
        "image_url": "https://w.junreimap.com/images/user/2090/bangumi/282000/points/o6rjezwnw-1726380066871.jpg",
        "location": "京都府京都市 东映太秦映画村",
        "point_id": "o6rjezwnw",
        "point_name": "め組の家",
        "remark": ""
      },
      "type": "Feature"
    },
    {
      "geometry": {
        "coordinates": [
          135.752745,
          34.98599
        ],
        "type": "Point"
      },
      "properties": {
        "bangumi_id": 282000,
        "bangumi_title": "五等分的新娘∬",
        "ep_cut": 12,
        "image_url": "https://w.junreimap.com/images/points/282000/oy4hfq4of_1728544753323_c16v9.jpg",
        "location": "京都府京都市 京都丽嘉皇家酒店",
        "point_id": "oy4hfq4of",
        "point_name": "京都丽嘉皇家酒店",
        "remark": ""
      },
      "type": "Feature"
    },
    {
      "geometry": {
        "coordinates": [
          136.924208,
          35.15019
        ],
        "type": "Point"
      },
      "properties": {
        "bangumi_id": 282000,
        "bangumi_title": "五等分的新娘∬",
        "ep_cut": 12,
        "image_url": "https://w.junreimap.com/images/points/282000/oy4j2hhnf_1728544756604_c16v9.jpg",
        "location": "爱知县名古屋市 グラストニア",
        "point_id": "oy4j2hhnf",
        "point_name": "グラストニア",
        "remark": ""
      },
      "type": "Feature"
    },
    {
      "geometry": {
        "coordinates": [
          134.155735,
          34.625693
        ],
        "type": "Point"
      },
      "properties": {
        "bangumi_id": 282000,
        "bangumi_title": "五等分的新娘∬",
        "ep_cut": 12,
        "image_url": "https://w.junreimap.com/images/user/2090/bangumi/282000/points/ovs40h3fq-1728340370098.jpg",
        "location": "冈山县濑户内市",
        "point_id": "ovs40h3fq",
        "point_name": "牛窓オリーブ園幸福の鐘",
        "remark": ""
      },
      "type": "Feature"
    }
  ],
  "type": "FeatureCollection"
}