{
  "features": [
    {
      "geometry": {
        "coordinates": [
          139.65473,
          35.722901
        ],
        "type": "Point"
      },
      "properties": {
        "bangumi_id": 2829,
        "bangumi_title": "Candy boy",
        "ep_cut": "EX1",
        "image_url": "https://w.junreimap.com/images/points/2829/h61gpsa_1784380914865.webp",
        "location": "学生宿舍",
        "point_id": "h61gpsa",
        "point_name": "コープカレッジハウス",
        "remark": ""
      },
      "type": "Feature"
    },
    {
      "geometry": {
        "coordinates": [
          139.654721,
          35.722905
        ],
        "type": "Point"
      },
      "properties": {
        "bangumi_id": 2829,
        "bangumi_title": "Candy boy",
        "ep_cut": "EX1",
        "image_url": "https://w.junreimap.com/images/points/2829/h61gzvp_1784380923006.webp",
        "location": "学生宿舍",
        "point_id": "h61gzvp",
        "point_name": "コープカレッジハウス",
        "remark": ""
      },
      "type": "Feature"
    },
    {
      "geometry": {
        "coordinates": [
          139.654633,
          35.722883
        ],
        "type": "Point"
      },
      "properties": {
        "bangumi_id": 2829,
        "bangumi_title": "Candy boy",
        "ep_cut": "EX1",
        "image_url": "https://w.junreimap.com/images/points/2829/h5q89tt_1784376838788.webp",
        "location": "学生宿舍",
        "point_id": "h5q89tt",
        "point_name": "コープカレッジハウス",
        "remark": "早稻田大学专用学生宿舍，2024年进行了改造，现在外墙颜色与动画中不同，自动售货机也只剩下了红色的那台。"
      },
      "type": "Feature"
    },
    {
      "geometry": {
        "coordinates": [
          139.654752,
          35.722957
        ],
        "type": "Point"
      },
      "properties": {
        "bangumi_id": 2829,
        "bangumi_title": "Candy boy",
        "ep_cut": "EX1",
        "image_url": "https://w.junreimap.com/images/points/2829/h5z1pqv_1784376917916.webp",
        "location": "学生宿舍",
        "point_id": "h5z1pqv",
        "point_name": "コープカレッジハウス",
        "remark": ""
      },
      "type": "Feature"
    },
    {
      "geometry": {
        "coordinates": [
          139.654761,
          35.722941
        ],
        "type": "Point"
      },
      "properties": {
        "bangumi_id": 2829,
        "bangumi_title": "Candy boy",
        "ep_cut": "EX1",
        "image_url": "https://w.junreimap.com/images/points/2829/h5z3d06_1784376927879.webp",
        "location": "学生宿舍",
        "point_id": "h5z3d06",
        "point_name": "コープカレッジハウス",
        "remark": ""
      },
      "type": "Feature"
    },
    {
      "geometry": {
        "coordinates": [
          139.654667,
          35.722958
        ],
        "type": "Point"
      },
      "properties": {
        "bangumi_id": 2829,
        "bangumi_title": "Candy boy",
        "ep_cut": "EX1",
        "image_url": "https://w.junreimap.com/images/points/2829/h5z6ct9_1784377066666.webp",
        "location": "学生宿舍",
        "point_id": "h5z6ct9",
        "point_name": "コープカレッジハウス",
        "remark": "两人的房间是306。"
      },
      "type": "Feature"
    },
    {
      "geometry": {
        "coordinates": [
          139.670578,
          35.723955
        ],
        "type": "Point"
      },
      "properties": {
        "bangumi_id": 2829,
        "bangumi_title": "Candy boy",
        "ep_cut": "EX1",
        "image_url": "https://w.junreimap.com/images/points/2829/h5zcp5d_1784377368089.webp",
        "location": "江古田公园",
        "point_id": "h5zcp5d",
        "point_name": "江古田公園",
        "remark": ""
      },
      "type": "Feature"
    },
    {
      "geometry": {
        "coordinates": [
          139.66997,
          35.723985
        ],
        "type": "Point"
      },
      "properties": {
        "bangumi_id": 2829,
        "bangumi_title": "Candy boy",
        "ep_cut": "EX1",
        "image_url": "https://w.junreimap.com/images/points/2829/h5zeb5f_1784377457264.webp",
        "location": "江古田公园",
        "point_id": "h5zeb5f",
        "point_name": "江古田公園",
        "remark": "https://maps.app.goo.gl/EZMJDYFeTrUnR3uA8"
      },
      "type": "Feature"
    },
    {
      "geometry": {
        "coordinates": [
          139.670545,
          35.723598
        ],
        "type": "Point"
      },
      "properties": {
        "bangumi_id": 2829,
        "bangumi_title": "Candy boy",
        "ep_cut": "EX1",
        "image_url": "https://w.junreimap.com/images/points/2829/h5pokus_1784377117844.webp",
        "location": "江古田公园",
        "point_id": "h5pokus",
        "point_name": "江古田公園",
        "remark": ""
      },
      "type": "Feature"
    },
    {
      "geometry": {
        "coordinates": [
          139.588368,
          35.69908
        ],
        "type": "Point"
      },
      "properties": {
        "bangumi_id": 2829,
        "bangumi_title": "Candy boy",
        "ep_cut": "EX1",
        "image_url": "https://w.junreimap.com/images/points/2829/h5zid78_1784377627724.webp",
        "location": "mini stop吉祥寺南町店",
        "point_id": "h5zid78",
        "point_name": "ミニストップ吉祥寺南町店",
        "remark": ""
      },
      "type": "Feature"
    },
    {
      "geometry": {
        "coordinates": [
          139.58837,
          35.699079
        ],
        "type": "Point"
      },
      "properties": {
        "bangumi_id": 2829,
        "bangumi_title": "Candy boy",
        "ep_cut": "EX1",
        "image_url": "https://w.junreimap.com/images/points/2829/h5ziiy6_1784377634280.webp",
        "location": "mini stop吉祥寺南町店",
        "point_id": "h5ziiy6",
        "point_name": "ミニストップ吉祥寺南町店",
        "remark": ""
      },
      "type": "Feature"
    },
    {
      "geometry": {
        "coordinates": [
          139.588374,
          35.69909
        ],
        "type": "Point"
      },
      "properties": {
        "bangumi_id": 2829,
        "bangumi_title": "Candy boy",
        "ep_cut": "EX1",
        "image_url": "https://w.junreimap.com/images/points/2829/h5zi3va_1784377619601.webp",
        "location": "mini stop吉祥寺南町店",
        "point_id": "h5zi3va",
        "point_name": "ミニストップ吉祥寺南町店",
        "remark": ""
      },
      "type": "Feature"
    },
    {
      "geometry": {
        "coordinates": [
          139.588342,
          35.699017
        ],
        "type": "Point"
      },
      "properties": {
        "bangumi_id": 2829,
        "bangumi_title": "Candy boy",
        "ep_cut": "EX1",
        "image_url": "https://w.junreimap.com/images/points/2829/h5qe14m_1784377592861.webp",
        "location": "mini stop吉祥寺南町店",
        "point_id": "h5qe14m",
        "point_name": "ミニストップ吉祥寺南町店",
        "remark": "原址现为まいばすけっと 吉祥寺南町４丁目店。"
      },
      "type": "Feature"
    },
    {
      "geometry": {
        "coordinates": [
          139.588372,
          35.699083
        ],
        "type": "Point"
      },
      "properties": {
        "bangumi_id": 2829,
        "bangumi_title": "Candy boy",
        "ep_cut": "EX1",
        "image_url": "https://w.junreimap.com/images/points/2829/h5zj7mq_1784377668900.webp",
        "location": "mini stop吉祥寺南町店",
        "point_id": "h5zj7mq",
        "point_name": "ミニストップ吉祥寺南町店",
        "remark": ""
      },
      "type": "Feature"
    },
    {
      "geometry": {
        "coordinates": [
          139.670559,
          35.723583
        ],
        "type": "Point"
      },
      "properties": {
        "bangumi_id": 2829,
        "bangumi_title": "Candy boy",
        "ep_cut": "EX1",
        "image_url": "https://w.junreimap.com/images/points/2829/h5zkozg_1784377739384.webp",
        "location": "江古田公园",
        "point_id": "h5zkozg",
        "point_name": "江古田公園",
        "remark": ""
      },
      "type": "Feature"
    },
    {
      "geometry": {
        "coordinates": [
          139.670456,
          35.723566
        ],
        "type": "Point"
      },
      "properties": {
        "bangumi_id": 2829,
        "bangumi_title": "Candy boy",
        "ep_cut": "EX1",
        "image_url": "https://w.junreimap.com/images/points/2829/h5zlmkf_1784377842462.webp",
        "location": "江古田公园",
        "point_id": "h5zlmkf",
        "point_name": "江古田公園",
        "remark": ""
      },
      "type": "Feature"
    },
    {
      "geometry": {
        "coordinates": [
          139.670555,
          35.723579
        ],
        "type": "Point"
      },
      "properties": {
        "bangumi_id": 2829,
        "bangumi_title": "Candy boy",
        "ep_cut": "EX1",
        "image_url": "https://w.junreimap.com/images/points/2829/h5zndso_1784377863071.webp",
        "location": "江古田公园",
        "point_id": "h5zndso",
        "point_name": "江古田公園",
        "remark": ""
      },
      "type": "Feature"
    },
    {
      "geometry": {
        "coordinates": [
          139.670544,
          35.723566
        ],
        "type": "Point"
      },
      "properties": {
        "bangumi_id": 2829,
        "bangumi_title": "Candy boy",
        "ep_cut": "EX1",
        "image_url": "https://w.junreimap.com/images/points/2829/h5znkg3_1784377870695.webp",
        "location": "江古田公园",
        "point_id": "h5znkg3",
        "point_name": "江古田公園",
        "remark": ""
      },
      "type": "Feature"
    },
    {
      "geometry": {
        "coordinates": [
          139.670522,
          35.723585
        ],
        "type": "Point"
      },
      "properties": {
        "bangumi_id": 2829,
        "bangumi_title": "Candy boy",
        "ep_cut": "EX1",
        "image_url": "https://w.junreimap.com/images/points/2829/h5znq7v_1784377876892.webp",
        "location": "江古田公园",
        "point_id": "h5znq7v",
        "point_name": "江古田公園",
        "remark": ""
      },
      "type": "Feature"
    },
    {
      "geometry": {
        "coordinates": [
          139.670538,
          35.723576
        ],
        "type": "Point"
      },
      "properties": {
        "bangumi_id": 2829,
        "bangumi_title": "Candy boy",
        "ep_cut": "EX1",
        "image_url": "https://w.junreimap.com/images/points/2829/h5znu63_1784377888797.webp",
        "location": "江古田公园",
        "point_id": "h5znu63",
        "point_name": "江古田公園",
        "remark": ""
      },
      "type": "Feature"
    },
    {
      "geometry": {
        "coordinates": [
          139.599582,
          35.703723
        ],
        "type": "Point"
      },
      "properties": {
        "bangumi_id": 2829,
        "bangumi_title": "Candy boy",
        "ep_cut": "",
        "image_url": "https://w.junreimap.com/images/points/2829/h5pj49r_1784368286896.webp",
        "location": "西荻洼站",
        "point_id": "h5pj49r",
        "point_name": "西荻窪駅",
        "remark": "具体站台未确认，可参见https://www.nicovideo.jp/watch/sm5228898。"
      },
      "type": "Feature"
    },
    {
      "geometry": {
        "coordinates": [
          139.599563,
          35.703724
        ],
        "type": "Point"
      },
      "properties": {
        "bangumi_id": 2829,
        "bangumi_title": "Candy boy",
        "ep_cut": "",
        "image_url": "https://w.junreimap.com/images/points/2829/h5tzaza_1784368343906.webp",
        "location": "西荻洼站",
        "point_id": "h5tzaza",
        "point_name": "西荻窪駅",
        "remark": ""
      },
      "type": "Feature"
    },
    {
      "geometry": {
        "coordinates": [
          139.599584,
          35.703695
        ],
        "type": "Point"
      },
      "properties": {
        "bangumi_id": 2829,
        "bangumi_title": "Candy boy",
        "ep_cut": "",
        "image_url": "https://w.junreimap.com/images/points/2829/h5u00t3_1784368374471.webp",
        "location": "西荻洼站",
        "point_id": "h5u00t3",
        "point_name": "西荻窪駅",
        "remark": ""
      },
      "type": "Feature"
    },
    {
      "geometry": {
        "coordinates": [
          139.599552,
          35.703729
        ],
        "type": "Point"
      },
      "properties": {
        "bangumi_id": 2829,
        "bangumi_title": "Candy boy",
        "ep_cut": "",
        "image_url": "https://w.junreimap.com/images/points/2829/h5u06lq_1784368383064.webp",
        "location": "西荻洼站",
        "point_id": "h5u06lq",
        "point_name": "西荻窪駅",
        "remark": ""
      },
      "type": "Feature"
    },
    {
      "geometry": {
        "coordinates": [
          139.599587,
          35.703731
        ],
        "type": "Point"
      },
      "properties": {
        "bangumi_id": 2829,
        "bangumi_title": "Candy boy",
        "ep_cut": "",
        "image_url": "https://w.junreimap.com/images/points/2829/h5u0faf_1784368392992.webp",
        "location": "西荻洼站",
        "point_id": "h5u0faf",
        "point_name": "西荻窪駅",
        "remark": ""
      },
      "type": "Feature"
    },
    {
      "geometry": {
        "coordinates": [
          139.599564,
          35.70373
        ],
        "type": "Point"
      },
      "properties": {
        "bangumi_id": 2829,
        "bangumi_title": "Candy boy",
        "ep_cut": "",
        "image_url": "https://w.junreimap.com/images/points/2829/h5u0r4w_1784368410664.webp",
        "location": "西荻洼站",
        "point_id": "h5u0r4w",
        "point_name": "西荻窪駅",
        "remark": ""
      },
      "type": "Feature"
    },
    {
      "geometry": {
        "coordinates": [
          139.599553,
          35.703724
        ],
        "type": "Point"
      },
      "properties": {
        "bangumi_id": 2829,
        "bangumi_title": "Candy boy",
        "ep_cut": 1,
        "image_url": "https://w.junreimap.com/images/points/2829/h5ufp0l_1784369109939.webp",
        "location": "西荻洼站",
        "point_id": "h5ufp0l",
        "point_name": "西荻窪駅",
        "remark": ""
      },
      "type": "Feature"
    },
    {
      "geometry": {
        "coordinates": [
          139.599592,
          35.703719
        ],
        "type": "Point"
      },
      "properties": {
        "bangumi_id": 2829,
        "bangumi_title": "Candy boy",
        "ep_cut": 1,
        "image_url": "https://w.junreimap.com/images/points/2829/h5ug0bo_1784369122699.webp",
        "location": "西荻洼站",
        "point_id": "h5ug0bo",
        "point_name": "西荻窪駅",
        "remark": ""
      },
      "type": "Feature"
    },
    {
      "geometry": {
        "coordinates": [
          139.599447,
          35.7037
        ],
        "type": "Point"
      },
      "properties": {
        "bangumi_id": 2829,
        "bangumi_title": "Candy boy",
        "ep_cut": 1,
        "image_url": "https://w.junreimap.com/images/points/2829/h5ufgz4_1784369094326.webp",
        "location": "西荻洼站",
        "point_id": "h5ufgz4",
        "point_name": "西荻窪駅",
        "remark": ""
      },
      "type": "Feature"
    },
    {
      "geometry": {
        "coordinates": [
          139.599565,
          35.703682
        ],
        "type": "Point"
      },
      "properties": {
        "bangumi_id": 2829,
        "bangumi_title": "Candy boy",
        "ep_cut": 1,
        "image_url": "https://w.junreimap.com/images/points/2829/h5uf6wv_1784369082900.webp",
        "location": "西荻洼站",
        "point_id": "h5uf6wv",
        "point_name": "西荻窪駅",
        "remark": ""
      },
      "type": "Feature"
    },
    {
      "geometry": {
        "coordinates": [
          139.599582,
          35.703831
        ],
        "type": "Point"
      },
      "properties": {
        "bangumi_id": 2829,
        "bangumi_title": "Candy boy",
        "ep_cut": 1,
        "image_url": "https://w.junreimap.com/images/points/2829/h5tlosx_1784369073286.webp",
        "location": "西荻洼站",
        "point_id": "h5tlosx",
        "point_name": "西荻窪駅",
        "remark": ""
      },
      "type": "Feature"
    },
    {
      "geometry": {
        "coordinates": [
          139.667,
          35.715076
        ],
        "type": "Point"
      },
      "properties": {
        "bangumi_id": 2829,
        "bangumi_title": "Candy boy",
        "ep_cut": 2,
        "image_url": "https://w.junreimap.com/images/points/2829/h5pkl78_1784368255737.webp",
        "location": "新井药师公园",
        "point_id": "h5pkl78",
        "point_name": "新井薬師公園前歩道橋",
        "remark": ""
      },
      "type": "Feature"
    },
    {
      "geometry": {
        "coordinates": [
          139.665683,
          35.709198
        ],
        "type": "Point"
      },
      "properties": {
        "bangumi_id": 2829,
        "bangumi_title": "Candy boy",
        "ep_cut": 2,
        "image_url": "https://w.junreimap.com/images/points/2829/h5u97cc_1784368801873.webp",
        "location": "中野百老汇",
        "point_id": "h5u97cc",
        "point_name": "レンタルショーケース Cube Style",
        "remark": ""
      },
      "type": "Feature"
    },
    {
      "geometry": {
        "coordinates": [
          139.665673,
          35.709197
        ],
        "type": "Point"
      },
      "properties": {
        "bangumi_id": 2829,
        "bangumi_title": "Candy boy",
        "ep_cut": 2,
        "image_url": "https://w.junreimap.com/images/points/2829/h5pl7tq_1784368795384.webp",
        "location": "中野百老汇",
        "point_id": "h5pl7tq",
        "point_name": "レンタルショーケース Cube Style",
        "remark": "位于中野​ブロードウェイ（中野百老汇）2楼。本集其他商场场景应该也位于中野百老汇。"
      },
      "type": "Feature"
    },
    {
      "geometry": {
        "coordinates": [
          139.670549,
          35.723676
        ],
        "type": "Point"
      },
      "properties": {
        "bangumi_id": 2829,
        "bangumi_title": "Candy boy",
        "ep_cut": 2,
        "image_url": "https://w.junreimap.com/images/points/2829/h5plwru_1784369331794.webp",
        "location": "江古田公园",
        "point_id": "h5plwru",
        "point_name": "江古田公園",
        "remark": ""
      },
      "type": "Feature"
    },
    {
      "geometry": {
        "coordinates": [
          139.670439,
          35.723583
        ],
        "type": "Point"
      },
      "properties": {
        "bangumi_id": 2829,
        "bangumi_title": "Candy boy",
        "ep_cut": 2,
        "image_url": "https://w.junreimap.com/images/points/2829/h5uj286_1784369266544.webp",
        "location": "江古田公园",
        "point_id": "h5uj286",
        "point_name": "江古田公園",
        "remark": ""
      },
      "type": "Feature"
    },
    {
      "geometry": {
        "coordinates": [
          139.670557,
          35.723713
        ],
        "type": "Point"
      },
      "properties": {
        "bangumi_id": 2829,
        "bangumi_title": "Candy boy",
        "ep_cut": 2,
        "image_url": "https://w.junreimap.com/images/points/2829/h5ukopf_1784369337546.webp",
        "location": "江古田公园",
        "point_id": "h5ukopf",
        "point_name": "江古田公園",
        "remark": ""
      },
      "type": "Feature"
    },
    {
      "geometry": {
        "coordinates": [
          139.670554,
          35.723711
        ],
        "type": "Point"
      },
      "properties": {
        "bangumi_id": 2829,
        "bangumi_title": "Candy boy",
        "ep_cut": 2,
        "image_url": "https://w.junreimap.com/images/points/2829/h5ukvgg_1784369346054.webp",
        "location": "江古田公园",
        "point_id": "h5ukvgg",
        "point_name": "江古田公園",
        "remark": ""
      },
      "type": "Feature"
    },
    {
      "geometry": {
        "coordinates": [
          139.670512,
          35.723701
        ],
        "type": "Point"
      },
      "properties": {
        "bangumi_id": 2829,
        "bangumi_title": "Candy boy",
        "ep_cut": 2,
        "image_url": "https://w.junreimap.com/images/points/2829/h5ulkxa_1784369379661.webp",
        "location": "江古田公园",
        "point_id": "h5ulkxa",
        "point_name": "江古田公園",
        "remark": ""
      },
      "type": "Feature"
    },
    {
      "geometry": {
        "coordinates": [
          139.670584,
          35.723741
        ],
        "type": "Point"
      },
      "properties": {
        "bangumi_id": 2829,
        "bangumi_title": "Candy boy",
        "ep_cut": 2,
        "image_url": "https://w.junreimap.com/images/points/2829/h5ul6li_1784369362555.webp",
        "location": "江古田公园",
        "point_id": "h5ul6li",
        "point_name": "江古田公園",
        "remark": ""
      },
      "type": "Feature"
    },
    {
      "geometry": {
        "coordinates": [
          139.670526,
          35.72369
        ],
        "type": "Point"
      },
      "properties": {
        "bangumi_id": 2829,
        "bangumi_title": "Candy boy",
        "ep_cut": 2,
        "image_url": "https://w.junreimap.com/images/points/2829/h5ulpz5_1784369386158.webp",
        "location": "江古田公园",
        "point_id": "h5ulpz5",
        "point_name": "江古田公園",
        "remark": ""
      },
      "type": "Feature"
    },
    {
      "geometry": {
        "coordinates": [
          139.670536,
          35.723682
        ],
        "type": "Point"
      },
      "properties": {
        "bangumi_id": 2829,
        "bangumi_title": "Candy boy",
        "ep_cut": 2,
        "image_url": "https://w.junreimap.com/images/points/2829/h5ulu9y_1784369392076.webp",
        "location": "江古田公园",
        "point_id": "h5ulu9y",
        "point_name": "江古田公園",
        "remark": ""
      },
      "type": "Feature"
    },
    {
      "geometry": {
        "coordinates": [
          139.670551,
          35.723707
        ],
        "type": "Point"
      },
      "properties": {
        "bangumi_id": 2829,
        "bangumi_title": "Candy boy",
        "ep_cut": 2,
        "image_url": "https://w.junreimap.com/images/points/2829/h5upyuo_1784369588656.webp",
        "location": "江古田公园",
        "point_id": "h5upyuo",
        "point_name": "江古田公園",
        "remark": ""
      },
      "type": "Feature"
    },
    {
      "geometry": {
        "coordinates": [
          139.670537,
          35.723681
        ],
        "type": "Point"
      },
      "properties": {
        "bangumi_id": 2829,
        "bangumi_title": "Candy boy",
        "ep_cut": 2,
        "image_url": "https://w.junreimap.com/images/points/2829/h5uqeij_1784369605354.webp",
        "location": "江古田公园",
        "point_id": "h5uqeij",
        "point_name": "江古田公園",
        "remark": ""
      },
      "type": "Feature"
    },
    {
      "geometry": {
        "coordinates": [
          142.177307,
          42.456286
        ],
        "type": "Point"
      },
      "properties": {
        "bangumi_id": 2829,
        "bangumi_title": "Candy boy",
        "ep_cut": 3,
        "image_url": "https://w.junreimap.com/images/points/2829/h5vzwz2_1784371761404.webp",
        "location": "清畠站",
        "point_id": "h5vzwz2",
        "point_name": "清畠駅前",
        "remark": "道南バス的巴士总站。「清畠駅前」为该巴士站的曾用名，约在2018年到2021年之间改名为了「清畠」。"
      },
      "type": "Feature"
    },
    {
      "geometry": {
        "coordinates": [
          142.176752,
          42.455975
        ],
        "type": "Point"
      },
      "properties": {
        "bangumi_id": 2829,
        "bangumi_title": "Candy boy",
        "ep_cut": 3,
        "image_url": "https://w.junreimap.com/images/points/2829/h5ve8yk_1784370755120.webp",
        "location": "清畠站",
        "point_id": "h5ve8yk",
        "point_name": "清畠駅",
        "remark": ""
      },
      "type": "Feature"
    },
    {
      "geometry": {
        "coordinates": [
          142.176627,
          42.455901
        ],
        "type": "Point"
      },
      "properties": {
        "bangumi_id": 2829,
        "bangumi_title": "Candy boy",
        "ep_cut": 3,
        "image_url": "https://w.junreimap.com/images/points/2829/h5vghpz_1784370834485.webp",
        "location": "清畠站",
        "point_id": "h5vghpz",
        "point_name": "清畠駅",
        "remark": ""
      },
      "type": "Feature"
    },
    {
      "geometry": {
        "coordinates": [
          142.176647,
          42.455902
        ],
        "type": "Point"
      },
      "properties": {
        "bangumi_id": 2829,
        "bangumi_title": "Candy boy",
        "ep_cut": 3,
        "image_url": "https://w.junreimap.com/images/points/2829/h5vgw7w_1784370839453.webp",
        "location": "清畠站",
        "point_id": "h5vgw7w",
        "point_name": "清畠駅",
        "remark": ""
      },
      "type": "Feature"
    },
    {
      "geometry": {
        "coordinates": [
          142.176678,
          42.455907
        ],
        "type": "Point"
      },
      "properties": {
        "bangumi_id": 2829,
        "bangumi_title": "Candy boy",
        "ep_cut": 3,
        "image_url": "https://w.junreimap.com/images/points/2829/h5vh0ni_1784370847510.webp",
        "location": "清畠站",
        "point_id": "h5vh0ni",
        "point_name": "清畠駅",
        "remark": ""
      },
      "type": "Feature"
    },
    {
      "geometry": {
        "coordinates": [
          142.176634,
          42.455895
        ],
        "type": "Point"
      },
      "properties": {
        "bangumi_id": 2829,
        "bangumi_title": "Candy boy",
        "ep_cut": 3,
        "image_url": "https://w.junreimap.com/images/points/2829/h5vhcy7_1784370871752.webp",
        "location": "清畠站",
        "point_id": "h5vhcy7",
        "point_name": "清畠駅",
        "remark": ""
      },
      "type": "Feature"
    },
    {
      "geometry": {
        "coordinates": [
          142.176605,
          42.455958
        ],
        "type": "Point"
      },
      "properties": {
        "bangumi_id": 2829,
        "bangumi_title": "Candy boy",
        "ep_cut": 3,
        "image_url": "https://w.junreimap.com/images/points/2829/h5vi4xw_1784370898027.webp",
        "location": "清畠站",
        "point_id": "h5vi4xw",
        "point_name": "清畠駅",
        "remark": ""
      },
      "type": "Feature"
    },
    {
      "geometry": {
        "coordinates": [
          142.17672,
          42.45595
        ],
        "type": "Point"
      },
      "properties": {
        "bangumi_id": 2829,
        "bangumi_title": "Candy boy",
        "ep_cut": 3,
        "image_url": "https://w.junreimap.com/images/points/2829/h5vi8vm_1784370905695.webp",
        "location": "清畠站",
        "point_id": "h5vi8vm",
        "point_name": "清畠駅",
        "remark": ""
      },
      "type": "Feature"
    },
    {
      "geometry": {
        "coordinates": [
          142.176661,
          42.455892
        ],
        "type": "Point"
      },
      "properties": {
        "bangumi_id": 2829,
        "bangumi_title": "Candy boy",
        "ep_cut": 3,
        "image_url": "https://w.junreimap.com/images/points/2829/h5viht5_1784370915528.webp",
        "location": "清畠站",
        "point_id": "h5viht5",
        "point_name": "清畠駅",
        "remark": ""
      },
      "type": "Feature"
    },
    {
      "geometry": {
        "coordinates": [
          142.176648,
          42.455907
        ],
        "type": "Point"
      },
      "properties": {
        "bangumi_id": 2829,
        "bangumi_title": "Candy boy",
        "ep_cut": 3,
        "image_url": "https://w.junreimap.com/images/points/2829/h5vin2j_1784370922543.webp",
        "location": "清畠站",
        "point_id": "h5vin2j",
        "point_name": "清畠駅",
        "remark": ""
      },
      "type": "Feature"
    },
    {
      "geometry": {
        "coordinates": [
          142.17661,
          42.455961
        ],
        "type": "Point"
      },
      "properties": {
        "bangumi_id": 2829,
        "bangumi_title": "Candy boy",
        "ep_cut": 3,
        "image_url": "https://w.junreimap.com/images/points/2829/h5viwci_1784370934676.webp",
        "location": "清畠站",
        "point_id": "h5viwci",
        "point_name": "清畠駅",
        "remark": ""
      },
      "type": "Feature"
    },
    {
      "geometry": {
        "coordinates": [
          142.176714,
          42.455945
        ],
        "type": "Point"
      },
      "properties": {
        "bangumi_id": 2829,
        "bangumi_title": "Candy boy",
        "ep_cut": 3,
        "image_url": "https://w.junreimap.com/images/points/2829/h5vj3w9_1784370944875.webp",
        "location": "清畠站",
        "point_id": "h5vj3w9",
        "point_name": "清畠駅",
        "remark": ""
      },
      "type": "Feature"
    },
    {
      "geometry": {
        "coordinates": [
          142.176732,
          42.45596
        ],
        "type": "Point"
      },
      "properties": {
        "bangumi_id": 2829,
        "bangumi_title": "Candy boy",
        "ep_cut": 3,
        "image_url": "https://w.junreimap.com/images/points/2829/h5vjevo_1784370975809.webp",
        "location": "清畠站",
        "point_id": "h5vjevo",
        "point_name": "清畠駅",
        "remark": ""
      },
      "type": "Feature"
    },
    {
      "geometry": {
        "coordinates": [
          142.176633,
          42.455899
        ],
        "type": "Point"
      },
      "properties": {
        "bangumi_id": 2829,
        "bangumi_title": "Candy boy",
        "ep_cut": 3,
        "image_url": "https://w.junreimap.com/images/points/2829/h5vk34t_1784370989189.webp",
        "location": "清畠站",
        "point_id": "h5vk34t",
        "point_name": "清畠駅",
        "remark": ""
      },
      "type": "Feature"
    },
    {
      "geometry": {
        "coordinates": [
          142.176697,
          42.455945
        ],
        "type": "Point"
      },
      "properties": {
        "bangumi_id": 2829,
        "bangumi_title": "Candy boy",
        "ep_cut": 3,
        "image_url": "https://w.junreimap.com/images/points/2829/h5vk7j7_1784371019065.webp",
        "location": "清畠站",
        "point_id": "h5vk7j7",
        "point_name": "清畠駅",
        "remark": ""
      },
      "type": "Feature"
    },
    {
      "geometry": {
        "coordinates": [
          142.196457,
          42.448823
        ],
        "type": "Point"
      },
      "properties": {
        "bangumi_id": 2829,
        "bangumi_title": "Candy boy",
        "ep_cut": 4,
        "image_url": "https://w.junreimap.com/images/points/2829/h5w8oca_1784372138147.webp",
        "location": "国道235号",
        "point_id": "h5w8oca",
        "point_name": "国道235号",
        "remark": "动画中几人在路右侧，不过这部分路右侧现实中是没有栏杆的。"
      },
      "type": "Feature"
    },
    {
      "geometry": {
        "coordinates": [
          142.19659,
          42.448624
        ],
        "type": "Point"
      },
      "properties": {
        "bangumi_id": 2829,
        "bangumi_title": "Candy boy",
        "ep_cut": 4,
        "image_url": "https://w.junreimap.com/images/points/2829/h5w47bf_1784372338099.webp",
        "location": "国道235号",
        "point_id": "h5w47bf",
        "point_name": "国道235号",
        "remark": "动画中远处的电线杆在向右的岔路南侧，现实中在北侧。"
      },
      "type": "Feature"
    },
    {
      "geometry": {
        "coordinates": [
          142.196433,
          42.448825
        ],
        "type": "Point"
      },
      "properties": {
        "bangumi_id": 2829,
        "bangumi_title": "Candy boy",
        "ep_cut": 4,
        "image_url": "https://w.junreimap.com/images/points/2829/h5weafj_1784372398986.webp",
        "location": "国道235号",
        "point_id": "h5weafj",
        "point_name": "国道235号",
        "remark": ""
      },
      "type": "Feature"
    },
    {
      "geometry": {
        "coordinates": [
          142.196419,
          42.448841
        ],
        "type": "Point"
      },
      "properties": {
        "bangumi_id": 2829,
        "bangumi_title": "Candy boy",
        "ep_cut": 4,
        "image_url": "https://w.junreimap.com/images/points/2829/h5wbn9i_1784372391715.webp",
        "location": "国道235号",
        "point_id": "h5wbn9i",
        "point_name": "国道235号",
        "remark": ""
      },
      "type": "Feature"
    },
    {
      "geometry": {
        "coordinates": [
          142.196404,
          42.448843
        ],
        "type": "Point"
      },
      "properties": {
        "bangumi_id": 2829,
        "bangumi_title": "Candy boy",
        "ep_cut": 4,
        "image_url": "https://w.junreimap.com/images/points/2829/h5wphbp_1784372921376.webp",
        "location": "国道235号",
        "point_id": "h5wphbp",
        "point_name": "国道235号",
        "remark": ""
      },
      "type": "Feature"
    },
    {
      "geometry": {
        "coordinates": [
          142.177246,
          42.456357
        ],
        "type": "Point"
      },
      "properties": {
        "bangumi_id": 2829,
        "bangumi_title": "Candy boy",
        "ep_cut": 4,
        "image_url": "https://w.junreimap.com/images/points/2829/h5wkpx1_1784372910907.webp",
        "location": "清畠站",
        "point_id": "h5wkpx1",
        "point_name": "清畠駅前",
        "remark": ""
      },
      "type": "Feature"
    },
    {
      "geometry": {
        "coordinates": [
          142.177083,
          42.456429
        ],
        "type": "Point"
      },
      "properties": {
        "bangumi_id": 2829,
        "bangumi_title": "Candy boy",
        "ep_cut": 4,
        "image_url": "https://w.junreimap.com/images/points/2829/h5x8513_1784373838011.webp",
        "location": "清畠站",
        "point_id": "h5x8513",
        "point_name": "清畠駅前",
        "remark": "两人位于路南的红绿灯下，背景中的三角形路牌在2021年到2023年之间拆除，现已不存。"
      },
      "type": "Feature"
    },
    {
      "geometry": {
        "coordinates": [
          142.177373,
          42.456269
        ],
        "type": "Point"
      },
      "properties": {
        "bangumi_id": 2829,
        "bangumi_title": "Candy boy",
        "ep_cut": 5,
        "image_url": "https://w.junreimap.com/images/points/2829/h5xbfkg_1784374389264.webp",
        "location": "清畠站",
        "point_id": "h5xbfkg",
        "point_name": "清畠駅前",
        "remark": "奏梦中的场景，小屋为清畠站前的公交站。"
      },
      "type": "Feature"
    },
    {
      "geometry": {
        "coordinates": [
          142.20749,
          42.435115
        ],
        "type": "Point"
      },
      "properties": {
        "bangumi_id": 2829,
        "bangumi_title": "Candy boy",
        "ep_cut": 5,
        "image_url": "https://w.junreimap.com/images/points/2829/h5xi1ef_1784374431260.webp",
        "location": "厚贺",
        "point_id": "h5xi1ef",
        "point_name": "厚賀漁港",
        "remark": "此处雪乃的招牌上出现了厚賀漁港四个字，不过暂未确认该建筑具体位置。"
      },
      "type": "Feature"
    },
    {
      "geometry": {
        "coordinates": [
          139.729495,
          35.661538
        ],
        "type": "Point"
      },
      "properties": {
        "bangumi_id": 2829,
        "bangumi_title": "Candy boy",
        "ep_cut": 5,
        "image_url": "https://w.junreimap.com/images/points/2829/h5qjw4w_1784374503942.webp",
        "location": "六本木Hills",
        "point_id": "h5qjw4w",
        "point_name": "六本木ヒルズ メトロハット",
        "remark": "从六本木站前往六本木Hills的电梯。"
      },
      "type": "Feature"
    },
    {
      "geometry": {
        "coordinates": [
          139.729684,
          35.661128
        ],
        "type": "Point"
      },
      "properties": {
        "bangumi_id": 2829,
        "bangumi_title": "Candy boy",
        "ep_cut": 5,
        "image_url": "https://w.junreimap.com/images/points/2829/h5xt7v9_1784374855805.webp",
        "location": "六本木Hills",
        "point_id": "h5xt7v9",
        "point_name": "六本木ヒルズ 66プラザ",
        "remark": "https://maps.app.goo.gl/63jLf3hMnFT8rcUM9"
      },
      "type": "Feature"
    },
    {
      "geometry": {
        "coordinates": [
          139.727835,
          35.659667
        ],
        "type": "Point"
      },
      "properties": {
        "bangumi_id": 2829,
        "bangumi_title": "Candy boy",
        "ep_cut": 5,
        "image_url": "https://w.junreimap.com/images/points/2829/h5qyf13_1784374869140.webp",
        "location": "六本木Hills",
        "point_id": "h5qyf13",
        "point_name": "Grand Hyatt Tokyo",
        "remark": ""
      },
      "type": "Feature"
    },
    {
      "geometry": {
        "coordinates": [
          139.728126,
          35.659886
        ],
        "type": "Point"
      },
      "properties": {
        "bangumi_id": 2829,
        "bangumi_title": "Candy boy",
        "ep_cut": 5,
        "image_url": "https://w.junreimap.com/images/points/2829/h5xzm41_1784375072478.webp",
        "location": "六本木Hills",
        "point_id": "h5xzm41",
        "point_name": "Grand Hyatt Tokyo 2F",
        "remark": ""
      },
      "type": "Feature"
    },
    {
      "geometry": {
        "coordinates": [
          139.728141,
          35.659843
        ],
        "type": "Point"
      },
      "properties": {
        "bangumi_id": 2829,
        "bangumi_title": "Candy boy",
        "ep_cut": 5,
        "image_url": "https://w.junreimap.com/images/points/2829/h5xynr6_1784375034254.webp",
        "location": "六本木Hills",
        "point_id": "h5xynr6",
        "point_name": "Grand Hyatt Tokyo 2F",
        "remark": "https://maps.app.goo.gl/EwPSyqVm6BeYeqDa7"
      },
      "type": "Feature"
    },
    {
      "geometry": {
        "coordinates": [
          139.728153,
          35.659887
        ],
        "type": "Point"
      },
      "properties": {
        "bangumi_id": 2829,
        "bangumi_title": "Candy boy",
        "ep_cut": 5,
        "image_url": "https://w.junreimap.com/images/points/2829/h5xzdpp_1784375061964.webp",
        "location": "六本木Hills",
        "point_id": "h5xzdpp",
        "point_name": "Grand Hyatt Tokyo 2F",
        "remark": ""
      },
      "type": "Feature"
    },
    {
      "geometry": {
        "coordinates": [
          139.728146,
          35.659889
        ],
        "type": "Point"
      },
      "properties": {
        "bangumi_id": 2829,
        "bangumi_title": "Candy boy",
        "ep_cut": 5,
        "image_url": "https://w.junreimap.com/images/points/2829/h5xzxh3_1784375088166.webp",
        "location": "六本木Hills",
        "point_id": "h5xzxh3",
        "point_name": "Grand Hyatt Tokyo 2F",
        "remark": ""
      },
      "type": "Feature"
    },
    {
      "geometry": {
        "coordinates": [
          139.728142,
          35.659887
        ],
        "type": "Point"
      },
      "properties": {
        "bangumi_id": 2829,
        "bangumi_title": "Candy boy",
        "ep_cut": 5,
        "image_url": "https://w.junreimap.com/images/points/2829/h5y083g_1784375100586.webp",
        "location": "六本木Hills",
        "point_id": "h5y083g",
        "point_name": "Grand Hyatt Tokyo 2F",
        "remark": ""
      },
      "type": "Feature"
    },
    {
      "geometry": {
        "coordinates": [
          139.728121,
          35.659881
        ],
        "type": "Point"
      },
      "properties": {
        "bangumi_id": 2829,
        "bangumi_title": "Candy boy",
        "ep_cut": 5,
        "image_url": "https://w.junreimap.com/images/points/2829/h5y0bv1_1784375111180.webp",
        "location": "六本木Hills",
        "point_id": "h5y0bv1",
        "point_name": "Grand Hyatt Tokyo 2F",
        "remark": ""
      },
      "type": "Feature"
    },
    {
      "geometry": {
        "coordinates": [
          139.728153,
          35.659883
        ],
        "type": "Point"
      },
      "properties": {
        "bangumi_id": 2829,
        "bangumi_title": "Candy boy",
        "ep_cut": 5,
        "image_url": "https://w.junreimap.com/images/points/2829/h5y0qdg_1784375124907.webp",
        "location": "六本木Hills",
        "point_id": "h5y0qdg",
        "point_name": "Grand Hyatt Tokyo 2F",
        "remark": ""
      },
      "type": "Feature"
    },
    {
      "geometry": {
        "coordinates": [
          139.728133,
          35.659896
        ],
        "type": "Point"
      },
      "properties": {
        "bangumi_id": 2829,
        "bangumi_title": "Candy boy",
        "ep_cut": 5,
        "image_url": "https://w.junreimap.com/images/points/2829/h5y0u52_1784375157765.webp",
        "location": "六本木Hills",
        "point_id": "h5y0u52",
        "point_name": "Grand Hyatt Tokyo 2F",
        "remark": ""
      },
      "type": "Feature"
    },
    {
      "geometry": {
        "coordinates": [
          139.728131,
          35.659892
        ],
        "type": "Point"
      },
      "properties": {
        "bangumi_id": 2829,
        "bangumi_title": "Candy boy",
        "ep_cut": 5,
        "image_url": "https://w.junreimap.com/images/points/2829/h5y1lmk_1784375164726.webp",
        "location": "六本木Hills",
        "point_id": "h5y1lmk",
        "point_name": "Grand Hyatt Tokyo 2F",
        "remark": ""
      },
      "type": "Feature"
    },
    {
      "geometry": {
        "coordinates": [
          139.728131,
          35.659885
        ],
        "type": "Point"
      },
      "properties": {
        "bangumi_id": 2829,
        "bangumi_title": "Candy boy",
        "ep_cut": 5,
        "image_url": "https://w.junreimap.com/images/points/2829/h5y1r12_1784375172368.webp",
        "location": "六本木Hills",
        "point_id": "h5y1r12",
        "point_name": "Grand Hyatt Tokyo 2F",
        "remark": ""
      },
      "type": "Feature"
    },
    {
      "geometry": {
        "coordinates": [
          139.728168,
          35.659871
        ],
        "type": "Point"
      },
      "properties": {
        "bangumi_id": 2829,
        "bangumi_title": "Candy boy",
        "ep_cut": 5,
        "image_url": "https://w.junreimap.com/images/points/2829/h5y1ygq_1784375182825.webp",
        "location": "六本木Hills",
        "point_id": "h5y1ygq",
        "point_name": "Grand Hyatt Tokyo 2F",
        "remark": ""
      },
      "type": "Feature"
    },
    {
      "geometry": {
        "coordinates": [
          139.728086,
          35.660037
        ],
        "type": "Point"
      },
      "properties": {
        "bangumi_id": 2829,
        "bangumi_title": "Candy boy",
        "ep_cut": 5,
        "image_url": "https://w.junreimap.com/images/points/2829/h5y9eok_1784375567307.webp",
        "location": "六本木Hills",
        "point_id": "h5y9eok",
        "point_name": "Grand Hyatt Tokyo Grand Chapel",
        "remark": "Grand Hyatt Tokyo的举办西式婚礼的会场。\nhttps://maps.app.goo.gl/UiwUUA388UKk5hoE6"
      },
      "type": "Feature"
    },
    {
      "geometry": {
        "coordinates": [
          139.728085,
          35.660034
        ],
        "type": "Point"
      },
      "properties": {
        "bangumi_id": 2829,
        "bangumi_title": "Candy boy",
        "ep_cut": 5,
        "image_url": "https://w.junreimap.com/images/points/2829/h5yagc8_1784375578247.webp",
        "location": "六本木Hills",
        "point_id": "h5yagc8",
        "point_name": "Grand Hyatt Tokyo Grand Chapel",
        "remark": ""
      },
      "type": "Feature"
    },
    {
      "geometry": {
        "coordinates": [
          139.728102,
          35.660051
        ],
        "type": "Point"
      },
      "properties": {
        "bangumi_id": 2829,
        "bangumi_title": "Candy boy",
        "ep_cut": 5,
        "image_url": "https://w.junreimap.com/images/points/2829/h5yala1_1784375587053.webp",
        "location": "六本木Hills",
        "point_id": "h5yala1",
        "point_name": "Grand Hyatt Tokyo Grand Chapel",
        "remark": ""
      },
      "type": "Feature"
    },
    {
      "geometry": {
        "coordinates": [
          139.72809,
          35.660047
        ],
        "type": "Point"
      },
      "properties": {
        "bangumi_id": 2829,
        "bangumi_title": "Candy boy",
        "ep_cut": 5,
        "image_url": "https://w.junreimap.com/images/points/2829/h5yascj_1784375594516.webp",
        "location": "六本木Hills",
        "point_id": "h5yascj",
        "point_name": "Grand Hyatt Tokyo Grand Chapel",
        "remark": ""
      },
      "type": "Feature"
    },
    {
      "geometry": {
        "coordinates": [
          139.710196,
          35.731011
        ],
        "type": "Point"
      },
      "properties": {
        "bangumi_id": 2829,
        "bangumi_title": "Candy boy",
        "ep_cut": 7,
        "image_url": "https://w.junreimap.com/images/points/2829/h605dkc_1784378699764.webp",
        "location": "东武百货店",
        "point_id": "h605dkc",
        "point_name": "池袋西口",
        "remark": ""
      },
      "type": "Feature"
    },
    {
      "geometry": {
        "coordinates": [
          139.710203,
          35.731014
        ],
        "type": "Point"
      },
      "properties": {
        "bangumi_id": 2829,
        "bangumi_title": "Candy boy",
        "ep_cut": 7,
        "image_url": "https://w.junreimap.com/images/points/2829/h603wvb_1784378636434.webp",
        "location": "东武百货店",
        "point_id": "h603wvb",
        "point_name": "池袋西口",
        "remark": ""
      },
      "type": "Feature"
    },
    {
      "geometry": {
        "coordinates": [
          139.710195,
          35.731016
        ],
        "type": "Point"
      },
      "properties": {
        "bangumi_id": 2829,
        "bangumi_title": "Candy boy",
        "ep_cut": 7,
        "image_url": "https://w.junreimap.com/images/points/2829/h604f41_1784378661376.webp",
        "location": "东武百货店",
        "point_id": "h604f41",
        "point_name": "池袋西口",
        "remark": ""
      },
      "type": "Feature"
    },
    {
      "geometry": {
        "coordinates": [
          139.710213,
          35.731053
        ],
        "type": "Point"
      },
      "properties": {
        "bangumi_id": 2829,
        "bangumi_title": "Candy boy",
        "ep_cut": 7,
        "image_url": "https://w.junreimap.com/images/points/2829/h601i5f_1784378666979.webp",
        "location": "东武百货店",
        "point_id": "h601i5f",
        "point_name": "池袋西口 アップルロード",
        "remark": "这里的店铺原型是曾位于池袋西口中央通路·北通路之间的「アップルロード」入口处的「STELLA'S KITCHEN」，现已不存。"
      },
      "type": "Feature"
    },
    {
      "geometry": {
        "coordinates": [
          139.710196,
          35.731004
        ],
        "type": "Point"
      },
      "properties": {
        "bangumi_id": 2829,
        "bangumi_title": "Candy boy",
        "ep_cut": 7,
        "image_url": "https://w.junreimap.com/images/points/2829/h6047m8_1784378646572.webp",
        "location": "东武百货店",
        "point_id": "h6047m8",
        "point_name": "池袋西口",
        "remark": ""
      },
      "type": "Feature"
    },
    {
      "geometry": {
        "coordinates": [
          139.654739,
          35.722921
        ],
        "type": "Point"
      },
      "properties": {
        "bangumi_id": 2829,
        "bangumi_title": "Candy boy",
        "ep_cut": 7,
        "image_url": "https://w.junreimap.com/images/points/2829/h5z0bzq_1784376785280.webp",
        "location": "学生宿舍",
        "point_id": "h5z0bzq",
        "point_name": "コープカレッジハウス",
        "remark": ""
      },
      "type": "Feature"
    },
    {
      "geometry": {
        "coordinates": [
          139.654645,
          35.722888
        ],
        "type": "Point"
      },
      "properties": {
        "bangumi_id": 2829,
        "bangumi_title": "Candy boy",
        "ep_cut": 7,
        "image_url": "https://w.junreimap.com/images/points/2829/h5yrp8b_1784376748838.webp",
        "location": "学生宿舍",
        "point_id": "h5yrp8b",
        "point_name": "コープカレッジハウス",
        "remark": ""
      },
      "type": "Feature"
    },
    {
      "geometry": {
        "coordinates": [
          139.654744,
          35.7229
        ],
        "type": "Point"
      },
      "properties": {
        "bangumi_id": 2829,
        "bangumi_title": "Candy boy",
        "ep_cut": 7,
        "image_url": "https://w.junreimap.com/images/points/2829/h60gqps_1784379240614.webp",
        "location": "学生宿舍",
        "point_id": "h60gqps",
        "point_name": "コープカレッジハウス",
        "remark": ""
      },
      "type": "Feature"
    },
    {
      "geometry": {
        "coordinates": [
          139.654759,
          35.722932
        ],
        "type": "Point"
      },
      "properties": {
        "bangumi_id": 2829,
        "bangumi_title": "Candy boy",
        "ep_cut": 7,
        "image_url": "https://w.junreimap.com/images/points/2829/h60h7pt_1784379253490.webp",
        "location": "学生宿舍",
        "point_id": "h60h7pt",
        "point_name": "コープカレッジハウス",
        "remark": ""
      },
      "type": "Feature"
    },
    {
      "geometry": {
        "coordinates": [
          139.654741,
          35.722932
        ],
        "type": "Point"
      },
      "properties": {
        "bangumi_id": 2829,
        "bangumi_title": "Candy boy",
        "ep_cut": 7,
        "image_url": "https://w.junreimap.com/images/points/2829/h60hgu5_1784379264696.webp",
        "location": "学生宿舍",
        "point_id": "h60hgu5",
        "point_name": "コープカレッジハウス",
        "remark": ""
      },
      "type": "Feature"
    },
    {
      "geometry": {
        "coordinates": [
          139.665708,
          35.706075
        ],
        "type": "Point"
      },
      "properties": {
        "bangumi_id": 2829,
        "bangumi_title": "Candy boy",
        "ep_cut": 7,
        "image_url": "https://w.junreimap.com/images/points/2829/h6198dz_1784380675235.webp",
        "location": "中野站",
        "point_id": "h6198dz",
        "point_name": "中野駅",
        "remark": ""
      },
      "type": "Feature"
    },
    {
      "geometry": {
        "coordinates": [
          139.6657,
          35.70618
        ],
        "type": "Point"
      },
      "properties": {
        "bangumi_id": 2829,
        "bangumi_title": "Candy boy",
        "ep_cut": 7,
        "image_url": "https://w.junreimap.com/images/points/2829/h5qsbtk_1784380550998.webp",
        "location": "中野站",
        "point_id": "h5qsbtk",
        "point_name": "中野駅 北口",
        "remark": ""
      },
      "type": "Feature"
    },
    {
      "geometry": {
        "coordinates": [
          139.665705,
          35.706165
        ],
        "type": "Point"
      },
      "properties": {
        "bangumi_id": 2829,
        "bangumi_title": "Candy boy",
        "ep_cut": 7,
        "image_url": "https://w.junreimap.com/images/points/2829/h60ro82_1784379746415.webp",
        "location": "中野站",
        "point_id": "h60ro82",
        "point_name": "中野駅 北口",
        "remark": "中野站北口在2011年左右改造后，此处新建了二层平台，该场景已无法还原。远处左侧建筑是「中野駅北口中央自転車駐車場」，已拆除。右侧建筑是已关闭的「中野サンプラザ」，预计2030年拆除。"
      },
      "type": "Feature"
    },
    {
      "geometry": {
        "coordinates": [
          139.672477,
          35.721538
        ],
        "type": "Point"
      },
      "properties": {
        "bangumi_id": 2829,
        "bangumi_title": "Candy boy",
        "ep_cut": 7,
        "image_url": "https://w.junreimap.com/images/points/2829/h5qq0f7_1784380722701.webp",
        "location": "哲学堂公园",
        "point_id": "h5qq0f7",
        "point_name": "哲学堂公園",
        "remark": "https://maps.app.goo.gl/HkVgvTeThBXPECPp6"
      },
      "type": "Feature"
    },
    {
      "geometry": {
        "coordinates": [
          139.672559,
          35.721636
        ],
        "type": "Point"
      },
      "properties": {
        "bangumi_id": 2829,
        "bangumi_title": "Candy boy",
        "ep_cut": 7,
        "image_url": "https://w.junreimap.com/images/points/2829/h61c8we_1784380703771.webp",
        "location": "哲学堂公园",
        "point_id": "h61c8we",
        "point_name": "哲学堂公園",
        "remark": ""
      },
      "type": "Feature"
    },
    {
      "geometry": {
        "coordinates": [
          139.672551,
          35.721661
        ],
        "type": "Point"
      },
      "properties": {
        "bangumi_id": 2829,
        "bangumi_title": "Candy boy",
        "ep_cut": 7,
        "image_url": "https://w.junreimap.com/images/points/2829/h61d297_1784380738219.webp",
        "location": "哲学堂公园",
        "point_id": "h61d297",
        "point_name": "哲学堂公園",
        "remark": ""
      },
      "type": "Feature"
    },
    {
      "geometry": {
        "coordinates": [
          139.672543,
          35.721655
        ],
        "type": "Point"
      },
      "properties": {
        "bangumi_id": 2829,
        "bangumi_title": "Candy boy",
        "ep_cut": 7,
        "image_url": "https://w.junreimap.com/images/points/2829/h61d6q5_1784380743741.webp",
        "location": "哲学堂公园",
        "point_id": "h61d6q5",
        "point_name": "哲学堂公園",
        "remark": ""
      },
      "type": "Feature"
    },
    {
      "geometry": {
        "coordinates": [
          139.672548,
          35.72166
        ],
        "type": "Point"
      },
      "properties": {
        "bangumi_id": 2829,
        "bangumi_title": "Candy boy",
        "ep_cut": 7,
        "image_url": "https://w.junreimap.com/images/points/2829/h61ddr5_1784380753631.webp",
        "location": "哲学堂公园",
        "point_id": "h61ddr5",
        "point_name": "哲学堂公園",
        "remark": ""
      },
      "type": "Feature"
    },
    {
      "geometry": {
        "coordinates": [
          139.67255,
          35.721656
        ],
        "type": "Point"
      },
      "properties": {
        "bangumi_id": 2829,
        "bangumi_title": "Candy boy",
        "ep_cut": 7,
        "image_url": "https://w.junreimap.com/images/points/2829/h61dm2b_1784380763939.webp",
        "location": "哲学堂公园",
        "point_id": "h61dm2b",
        "point_name": "哲学堂公園",
        "remark": ""
      },
      "type": "Feature"
    },
    {
      "geometry": {
        "coordinates": [
          139.672547,
          35.721655
        ],
        "type": "Point"
      },
      "properties": {
        "bangumi_id": 2829,
        "bangumi_title": "Candy boy",
        "ep_cut": 7,
        "image_url": "https://w.junreimap.com/images/points/2829/h61dqgk_1784380770277.webp",
        "location": "哲学堂公园",
        "point_id": "h61dqgk",
        "point_name": "哲学堂公園",
        "remark": ""
      },
      "type": "Feature"
    },
    {
      "geometry": {
        "coordinates": [
          139.672553,
          35.721657
        ],
        "type": "Point"
      },
      "properties": {
        "bangumi_id": 2829,
        "bangumi_title": "Candy boy",
        "ep_cut": 7,
        "image_url": "https://w.junreimap.com/images/points/2829/h61dvfp_1784380776088.webp",
        "location": "哲学堂公园",
        "point_id": "h61dvfp",
        "point_name": "哲学堂公園",
        "remark": ""
      },
      "type": "Feature"
    },
    {
      "geometry": {
        "coordinates": [
          139.672545,
          35.721653
        ],
        "type": "Point"
      },
      "properties": {
        "bangumi_id": 2829,
        "bangumi_title": "Candy boy",
        "ep_cut": 7,
        "image_url": "https://w.junreimap.com/images/points/2829/h61dzvg_1784380781653.webp",
        "location": "哲学堂公园",
        "point_id": "h61dzvg",
        "point_name": "哲学堂公園",
        "remark": ""
      },
      "type": "Feature"
    },
    {
      "geometry": {
        "coordinates": [
          139.672547,
          35.721658
        ],
        "type": "Point"
      },
      "properties": {
        "bangumi_id": 2829,
        "bangumi_title": "Candy boy",
        "ep_cut": 7,
        "image_url": "https://w.junreimap.com/images/points/2829/h61e56i_1784380789902.webp",
        "location": "哲学堂公园",
        "point_id": "h61e56i",
        "point_name": "哲学堂公園",
        "remark": ""
      },
      "type": "Feature"
    },
    {
      "geometry": {
        "coordinates": [
          139.672567,
          35.721635
        ],
        "type": "Point"
      },
      "properties": {
        "bangumi_id": 2829,
        "bangumi_title": "Candy boy",
        "ep_cut": 7,
        "image_url": "https://w.junreimap.com/images/points/2829/h61ckea_1784380715383.webp",
        "location": "哲学堂公园",
        "point_id": "h61ckea",
        "point_name": "哲学堂公園",
        "remark": ""
      },
      "type": "Feature"
    },
    {
      "geometry": {
        "coordinates": [
          139.67255,
          35.721654
        ],
        "type": "Point"
      },
      "properties": {
        "bangumi_id": 2829,
        "bangumi_title": "Candy boy",
        "ep_cut": 7,
        "image_url": "https://w.junreimap.com/images/points/2829/h61ead6_1784380795848.webp",
        "location": "哲学堂公园",
        "point_id": "h61ead6",
        "point_name": "哲学堂公園",
        "remark": ""
      },
      "type": "Feature"
    },
    {
      "geometry": {
        "coordinates": [
          139.672542,
          35.721655
        ],
        "type": "Point"
      },
      "properties": {
        "bangumi_id": 2829,
        "bangumi_title": "Candy boy",
        "ep_cut": 7,
        "image_url": "https://w.junreimap.com/images/points/2829/h61embu_1784380812363.webp",
        "location": "哲学堂公园",
        "point_id": "h61embu",
        "point_name": "哲学堂公園",
        "remark": ""
      },
      "type": "Feature"
    },
    {
      "geometry": {
        "coordinates": [
          139.672548,
          35.721656
        ],
        "type": "Point"
      },
      "properties": {
        "bangumi_id": 2829,
        "bangumi_title": "Candy boy",
        "ep_cut": 7,
        "image_url": "https://w.junreimap.com/images/points/2829/h61eg76_1784380805473.webp",
        "location": "哲学堂公园",
        "point_id": "h61eg76",
        "point_name": "哲学堂公園",
        "remark": ""
      },
      "type": "Feature"
    },
    {
      "geometry": {
        "coordinates": [
          139.672545,
          35.721658
        ],
        "type": "Point"
      },
      "properties": {
        "bangumi_id": 2829,
        "bangumi_title": "Candy boy",
        "ep_cut": 7,
        "image_url": "https://w.junreimap.com/images/points/2829/h61etfd_1784380821018.webp",
        "location": "哲学堂公园",
        "point_id": "h61etfd",
        "point_name": "哲学堂公園",
        "remark": ""
      },
      "type": "Feature"
    }
  ],
  "type": "FeatureCollection"
}