{
  "features": [
    {
      "geometry": {
        "coordinates": [
          130.304381,
          33.253106
        ],
        "type": "Point"
      },
      "properties": {
        "bangumi_id": 287488,
        "bangumi_title": "佐贺偶像是传奇 复仇",
        "ep_cut": 10,
        "image_url": "https://w.junreimap.com/images/user/0/bangumi/287488/points/q3ndufeaf-1731778161293.jpg",
        "location": "",
        "point_id": "q3ndufeaf",
        "point_name": "松原3丁目駐車場",
        "remark": ""
      },
      "type": "Feature"
    },
    {
      "geometry": {
        "coordinates": [
          130.301719,
          33.251086
        ],
        "type": "Point"
      },
      "properties": {
        "bangumi_id": 287488,
        "bangumi_title": "佐贺偶像是传奇 复仇",
        "ep_cut": 7,
        "image_url": "https://w.junreimap.com/images/points/287488/6mxexb9_1761457443858.jpg",
        "location": "",
        "point_id": "6mxexb9",
        "point_name": "鶴乃堂本舗 まんじゅう店",
        "remark": ""
      },
      "type": "Feature"
    },
    {
      "geometry": {
        "coordinates": [
          130.302613,
          33.238715
        ],
        "type": "Point"
      },
      "properties": {
        "bangumi_id": 287488,
        "bangumi_title": "佐贺偶像是传奇 复仇",
        "ep_cut": 2,
        "image_url": "https://w.junreimap.com/images/user/0/bangumi/287488/points/q3ng5z8yq-1731778261460.jpg",
        "location": "",
        "point_id": "q3ng5z8yq",
        "point_name": "エフエム佐賀",
        "remark": ""
      },
      "type": "Feature"
    },
    {
      "geometry": {
        "coordinates": [
          130.292851,
          33.274873
        ],
        "type": "Point"
      },
      "properties": {
        "bangumi_id": 287488,
        "bangumi_title": "佐贺偶像是传奇 复仇",
        "ep_cut": 4,
        "image_url": "https://w.junreimap.com/images/user/0/bangumi/252655/points/q3nkwgtqr-1731778532058.jpg",
        "location": "",
        "point_id": "q3nkwgtqr",
        "point_name": "SAGA​アリーナ",
        "remark": ""
      },
      "type": "Feature"
    },
    {
      "geometry": {
        "coordinates": [
          130.374338,
          33.315789
        ],
        "type": "Point"
      },
      "properties": {
        "bangumi_id": 287488,
        "bangumi_title": "佐贺偶像是传奇 复仇",
        "ep_cut": 3,
        "image_url": "https://w.junreimap.com/images/user/0/bangumi/287488/points/q3nmi2h1d-1731778650559.jpg",
        "location": "",
        "point_id": "q3nmi2h1d",
        "point_name": "神埼駅",
        "remark": ""
      },
      "type": "Feature"
    },
    {
      "geometry": {
        "coordinates": [
          130.372554,
          33.31492
        ],
        "type": "Point"
      },
      "properties": {
        "bangumi_id": 287488,
        "bangumi_title": "佐贺偶像是传奇 复仇",
        "ep_cut": 5,
        "image_url": "https://w.junreimap.com/images/user/0/bangumi/287488/points/q3nnskdw9-1731778697370.jpg",
        "location": "",
        "point_id": "q3nnskdw9",
        "point_name": "平ヶ里踏切",
        "remark": ""
      },
      "type": "Feature"
    },
    {
      "geometry": {
        "coordinates": [
          130.520072,
          33.371817
        ],
        "type": "Point"
      },
      "properties": {
        "bangumi_id": 287488,
        "bangumi_title": "佐贺偶像是传奇 复仇",
        "ep_cut": 1,
        "image_url": "https://w.junreimap.com/images/user/0/bangumi/252655/points/q3noujdn0-1731778767717.jpg",
        "location": "",
        "point_id": "q3noujdn0",
        "point_name": "駅前​不動産​スタジアム",
        "remark": ""
      },
      "type": "Feature"
    },
    {
      "geometry": {
        "coordinates": [
          130.297395,
          33.264169
        ],
        "type": "Point"
      },
      "properties": {
        "bangumi_id": 287488,
        "bangumi_title": "佐贺偶像是传奇 复仇",
        "ep_cut": 3,
        "image_url": "https://w.junreimap.com/images/user/0/bangumi/287488/points/q3nqroxcz-1731778880538.jpg",
        "location": "",
        "point_id": "q3nqroxcz",
        "point_name": "佐賀駅",
        "remark": ""
      },
      "type": "Feature"
    },
    {
      "geometry": {
        "coordinates": [
          130.321589,
          33.189452
        ],
        "type": "Point"
      },
      "properties": {
        "bangumi_id": 287488,
        "bangumi_title": "佐贺偶像是传奇 复仇",
        "ep_cut": 1,
        "image_url": "https://w.junreimap.com/images/user/0/bangumi/287488/points/q3ns283od-1731778972219.jpg",
        "location": "",
        "point_id": "q3ns283od",
        "point_name": "恵比寿橋",
        "remark": ""
      },
      "type": "Feature"
    },
    {
      "geometry": {
        "coordinates": [
          130.302738,
          33.255541
        ],
        "type": "Point"
      },
      "properties": {
        "bangumi_id": 287488,
        "bangumi_title": "佐贺偶像是传奇 复仇",
        "ep_cut": "",
        "image_url": "https://w.junreimap.com/images/user/0/bangumi/287488/points/q3ntrbw4f-1731779084040.jpg",
        "location": "",
        "point_id": "q3ntrbw4f",
        "point_name": "バルーン通り商店街",
        "remark": ""
      },
      "type": "Feature"
    },
    {
      "geometry": {
        "coordinates": [
          130.299682,
          33.255848
        ],
        "type": "Point"
      },
      "properties": {
        "bangumi_id": 287488,
        "bangumi_title": "佐贺偶像是传奇 复仇",
        "ep_cut": 1,
        "image_url": "https://w.junreimap.com/images/user/0/bangumi/287488/points/q3nvftmwn-1731779161573.jpg",
        "location": "",
        "point_id": "q3nvftmwn",
        "point_name": "中央橋",
        "remark": ""
      },
      "type": "Feature"
    },
    {
      "geometry": {
        "coordinates": [
          130.299348,
          33.257675
        ],
        "type": "Point"
      },
      "properties": {
        "bangumi_id": 287488,
        "bangumi_title": "佐贺偶像是传奇 复仇",
        "ep_cut": 2,
        "image_url": "https://w.junreimap.com/images/user/0/bangumi/287488/points/q3nwkmx1u-1731779226823.jpg",
        "location": "",
        "point_id": "q3nwkmx1u",
        "point_name": "唐人二丁目",
        "remark": ""
      },
      "type": "Feature"
    },
    {
      "geometry": {
        "coordinates": [
          130.297958,
          33.265473
        ],
        "type": "Point"
      },
      "properties": {
        "bangumi_id": 287488,
        "bangumi_title": "佐贺偶像是传奇 复仇",
        "ep_cut": 1,
        "image_url": "https://w.junreimap.com/images/user/0/bangumi/287488/points/q3nxs981x-1731779316321.jpg",
        "location": "",
        "point_id": "q3nxs981x",
        "point_name": "駅弁あら玉さん",
        "remark": ""
      },
      "type": "Feature"
    },
    {
      "geometry": {
        "coordinates": [
          129.968959,
          33.447494
        ],
        "type": "Point"
      },
      "properties": {
        "bangumi_id": 287488,
        "bangumi_title": "佐贺偶像是传奇 复仇",
        "ep_cut": 5,
        "image_url": "https://w.junreimap.com/images/user/0/bangumi/287488/points/q44dgx7lh-1731815091944.jpg",
        "location": "",
        "point_id": "q44dgx7lh",
        "point_name": "五福の縁結び通り",
        "remark": ""
      },
      "type": "Feature"
    },
    {
      "geometry": {
        "coordinates": [
          129.850663,
          33.556116
        ],
        "type": "Point"
      },
      "properties": {
        "bangumi_id": 287488,
        "bangumi_title": "佐贺偶像是传奇 复仇",
        "ep_cut": 5,
        "image_url": "https://w.junreimap.com/images/user/0/bangumi/287488/points/q44f1ufq5-1731815207962.jpg",
        "location": "",
        "point_id": "q44f1ufq5",
        "point_name": "波戸岬ハートのオブジェ",
        "remark": ""
      },
      "type": "Feature"
    },
    {
      "geometry": {
        "coordinates": [
          129.881502,
          33.566491
        ],
        "type": "Point"
      },
      "properties": {
        "bangumi_id": 287488,
        "bangumi_title": "佐贺偶像是传奇 复仇",
        "ep_cut": 1,
        "image_url": "https://w.junreimap.com/images/points/287488/f2xd3je_1779839063237.jpg",
        "location": "",
        "point_id": "f2xd3je",
        "point_name": "杉ノ原放牧場",
        "remark": ""
      },
      "type": "Feature"
    },
    {
      "geometry": {
        "coordinates": [
          129.95361,
          33.470441
        ],
        "type": "Point"
      },
      "properties": {
        "bangumi_id": 287488,
        "bangumi_title": "佐贺偶像是传奇 复仇",
        "ep_cut": 4,
        "image_url": "https://w.junreimap.com/images/user/0/bangumi/287488/points/q44pmqmto-1731815858226.jpg",
        "location": "",
        "point_id": "q44pmqmto",
        "point_name": "唐津市民俗資料館緑地",
        "remark": ""
      },
      "type": "Feature"
    },
    {
      "geometry": {
        "coordinates": [
          129.969562,
          33.451253
        ],
        "type": "Point"
      },
      "properties": {
        "bangumi_id": 287488,
        "bangumi_title": "佐贺偶像是传奇 复仇",
        "ep_cut": 3,
        "image_url": "https://w.junreimap.com/images/user/0/bangumi/287488/points/q44ta1nd2-1731816050903.jpg",
        "location": "",
        "point_id": "q44ta1nd2",
        "point_name": "唐津神社社務所",
        "remark": ""
      },
      "type": "Feature"
    },
    {
      "geometry": {
        "coordinates": [
          129.995823,
          33.424179
        ],
        "type": "Point"
      },
      "properties": {
        "bangumi_id": 287488,
        "bangumi_title": "佐贺偶像是传奇 复仇",
        "ep_cut": 6,
        "image_url": "https://w.junreimap.com/images/user/0/bangumi/287488/points/q44w2f9qg-1731816201787.jpg",
        "location": "",
        "point_id": "q44w2f9qg",
        "point_name": "唐津競艇場ボート​レース​から​つ",
        "remark": ""
      },
      "type": "Feature"
    },
    {
      "geometry": {
        "coordinates": [
          129.994682,
          33.426084
        ],
        "type": "Point"
      },
      "properties": {
        "bangumi_id": 287488,
        "bangumi_title": "佐贺偶像是传奇 复仇",
        "ep_cut": 2,
        "image_url": "https://w.junreimap.com/images/user/0/bangumi/287488/points/q44xhvkq5-1731816287146.jpg",
        "location": "",
        "point_id": "q44xhvkq5",
        "point_name": "松浦大橋",
        "remark": ""
      },
      "type": "Feature"
    },
    {
      "geometry": {
        "coordinates": [
          129.954827,
          33.469212
        ],
        "type": "Point"
      },
      "properties": {
        "bangumi_id": 287488,
        "bangumi_title": "佐贺偶像是传奇 复仇",
        "ep_cut": 6,
        "image_url": "https://w.junreimap.com/images/user/0/bangumi/287488/points/q4554lyp8-1731816778586.jpg",
        "location": "",
        "point_id": "q4554lyp8",
        "point_name": "妙見恵比寿神社",
        "remark": ""
      },
      "type": "Feature"
    },
    {
      "geometry": {
        "coordinates": [
          129.955672,
          33.468772
        ],
        "type": "Point"
      },
      "properties": {
        "bangumi_id": 287488,
        "bangumi_title": "佐贺偶像是传奇 复仇",
        "ep_cut": 6,
        "image_url": "https://w.junreimap.com/images/user/0/bangumi/287488/points/q457fo751-1731816909880.jpg",
        "location": "",
        "point_id": "q457fo751",
        "point_name": "恵比寿橋",
        "remark": ""
      },
      "type": "Feature"
    },
    {
      "geometry": {
        "coordinates": [
          129.953994,
          33.462715
        ],
        "type": "Point"
      },
      "properties": {
        "bangumi_id": 287488,
        "bangumi_title": "佐贺偶像是传奇 复仇",
        "ep_cut": 6,
        "image_url": "https://w.junreimap.com/images/user/0/bangumi/287488/points/q45a7qlzd-1731817057669.jpg",
        "location": "",
        "point_id": "q45a7qlzd",
        "point_name": "九州電力唐津工務所",
        "remark": ""
      },
      "type": "Feature"
    },
    {
      "geometry": {
        "coordinates": [
          129.955862,
          33.462586
        ],
        "type": "Point"
      },
      "properties": {
        "bangumi_id": 287488,
        "bangumi_title": "佐贺偶像是传奇 复仇",
        "ep_cut": 6,
        "image_url": "https://w.junreimap.com/images/user/0/bangumi/287488/points/q45bb86jp-1731817136819.jpg",
        "location": "",
        "point_id": "q45bb86jp",
        "point_name": "小松飲料",
        "remark": ""
      },
      "type": "Feature"
    },
    {
      "geometry": {
        "coordinates": [
          129.95691,
          33.461793
        ],
        "type": "Point"
      },
      "properties": {
        "bangumi_id": 287488,
        "bangumi_title": "佐贺偶像是传奇 复仇",
        "ep_cut": 6,
        "image_url": "https://w.junreimap.com/images/user/0/bangumi/287488/points/q45cn147g-1731817203589.jpg",
        "location": "",
        "point_id": "q45cn147g",
        "point_name": "西唐津駅前交差点",
        "remark": ""
      },
      "type": "Feature"
    },
    {
      "geometry": {
        "coordinates": [
          129.956984,
          33.461799
        ],
        "type": "Point"
      },
      "properties": {
        "bangumi_id": 287488,
        "bangumi_title": "佐贺偶像是传奇 复仇",
        "ep_cut": 6,
        "image_url": "https://w.junreimap.com/images/user/0/bangumi/287488/points/q45d9c8t8-1731817240917.jpg",
        "location": "",
        "point_id": "q45d9c8t8",
        "point_name": "西唐津駅",
        "remark": ""
      },
      "type": "Feature"
    },
    {
      "geometry": {
        "coordinates": [
          129.957358,
          33.458438
        ],
        "type": "Point"
      },
      "properties": {
        "bangumi_id": 287488,
        "bangumi_title": "佐贺偶像是传奇 复仇",
        "ep_cut": 6,
        "image_url": "https://w.junreimap.com/images/user/0/bangumi/287488/points/q45h7bilf-1731817500494.jpg",
        "location": "",
        "point_id": "q45h7bilf",
        "point_name": "二タ子公民館",
        "remark": ""
      },
      "type": "Feature"
    },
    {
      "geometry": {
        "coordinates": [
          129.957245,
          33.457493
        ],
        "type": "Point"
      },
      "properties": {
        "bangumi_id": 287488,
        "bangumi_title": "佐贺偶像是传奇 复仇",
        "ep_cut": 6,
        "image_url": "https://w.junreimap.com/images/user/0/bangumi/287488/points/q45ifct69-1731817574433.jpg",
        "location": "",
        "point_id": "q45ifct69",
        "point_name": "二夕子児童公園",
        "remark": ""
      },
      "type": "Feature"
    },
    {
      "geometry": {
        "coordinates": [
          129.956976,
          33.443159
        ],
        "type": "Point"
      },
      "properties": {
        "bangumi_id": 287488,
        "bangumi_title": "佐贺偶像是传奇 复仇",
        "ep_cut": 6,
        "image_url": "https://w.junreimap.com/images/user/0/bangumi/287488/points/q45jwzwkb-1731817648473.jpg",
        "location": "",
        "point_id": "q45jwzwkb",
        "point_name": "スーパーモリナガ唐津店",
        "remark": ""
      },
      "type": "Feature"
    },
    {
      "geometry": {
        "coordinates": [
          130.320437,
          33.235973
        ],
        "type": "Point"
      },
      "properties": {
        "bangumi_id": 287488,
        "bangumi_title": "佐贺偶像是传奇 复仇",
        "ep_cut": 7,
        "image_url": "https://w.junreimap.com/images/user/0/bangumi/287488/points/vfwaq9xdk-1746843476433.jpg",
        "location": "",
        "point_id": "vfwaq9xdk",
        "point_name": "佐賀東高",
        "remark": ""
      },
      "type": "Feature"
    },
    {
      "geometry": {
        "coordinates": [
          130.364258,
          33.355935
        ],
        "type": "Point"
      },
      "properties": {
        "bangumi_id": 287488,
        "bangumi_title": "佐贺偶像是传奇 复仇",
        "ep_cut": 9,
        "image_url": "https://w.junreimap.com/images/user/2176/bangumi/287488/points/2a0ac4c-1751969071664.jpg",
        "location": "",
        "point_id": "2a0ac4c",
        "point_name": "伊東玄朴旧宅",
        "remark": "夕雾故居"
      },
      "type": "Feature"
    },
    {
      "geometry": {
        "coordinates": [
          130.364201,
          33.355944
        ],
        "type": "Point"
      },
      "properties": {
        "bangumi_id": 287488,
        "bangumi_title": "佐贺偶像是传奇 复仇",
        "ep_cut": 8,
        "image_url": "https://w.junreimap.com/images/user/2176/bangumi/287488/points/2a0dvgr-1751969228941.jpg",
        "location": "",
        "point_id": "2a0dvgr",
        "point_name": "伊東玄朴旧宅",
        "remark": ""
      },
      "type": "Feature"
    },
    {
      "geometry": {
        "coordinates": [
          130.359126,
          33.246035
        ],
        "type": "Point"
      },
      "properties": {
        "bangumi_id": 287488,
        "bangumi_title": "佐贺偶像是传奇 复仇",
        "ep_cut": 8,
        "image_url": "https://w.junreimap.com/images/user/2176/bangumi/287488/points/2a0psx3-1751969818526.jpg",
        "location": "",
        "point_id": "2a0psx3",
        "point_name": "莲池社迹（东屋）",
        "remark": ""
      },
      "type": "Feature"
    },
    {
      "geometry": {
        "coordinates": [
          130.358531,
          33.244253
        ],
        "type": "Point"
      },
      "properties": {
        "bangumi_id": 287488,
        "bangumi_title": "佐贺偶像是传奇 复仇",
        "ep_cut": 8,
        "image_url": "https://w.junreimap.com/images/user/2176/bangumi/287488/points/2a10g3g-1751970296663.jpg",
        "location": "",
        "point_id": "2a10g3g",
        "point_name": "莲池公园",
        "remark": ""
      },
      "type": "Feature"
    },
    {
      "geometry": {
        "coordinates": [
          130.02092,
          33.188265
        ],
        "type": "Point"
      },
      "properties": {
        "bangumi_id": 287488,
        "bangumi_title": "佐贺偶像是传奇 复仇",
        "ep_cut": 8,
        "image_url": "https://w.junreimap.com/images/user/2176/bangumi/287488/points/2a1deui-1751970897824.jpg",
        "location": "",
        "point_id": "2a1deui",
        "point_name": "武雄神社",
        "remark": "武雄神社的流镝马\n据说该节日起源于封建领主后藤宗昭迎接这一活动并举行了流镝马祭祀。骑手们在 250 米长的马术场上飞奔，扬起尘土，并向三个目标射箭。"
      },
      "type": "Feature"
    },
    {
      "geometry": {
        "coordinates": [
          130.098785,
          33.236911
        ],
        "type": "Point"
      },
      "properties": {
        "bangumi_id": 287488,
        "bangumi_title": "佐贺偶像是传奇 复仇",
        "ep_cut": 10,
        "image_url": "https://w.junreimap.com/images/user/2176/bangumi/287488/points/2a2nrem-1751973052026.jpg",
        "location": "",
        "point_id": "2a2nrem",
        "point_name": "鬼ノ鼻山憩いの森",
        "remark": ""
      },
      "type": "Feature"
    },
    {
      "geometry": {
        "coordinates": [
          130.208042,
          33.247132
        ],
        "type": "Point"
      },
      "properties": {
        "bangumi_id": 287488,
        "bangumi_title": "佐贺偶像是传奇 复仇",
        "ep_cut": 10,
        "image_url": "https://w.junreimap.com/images/user/2176/bangumi/287488/points/2a2pptj-1751973149876.jpg",
        "location": "",
        "point_id": "2a2pptj",
        "point_name": "有浦米穀店",
        "remark": ""
      },
      "type": "Feature"
    },
    {
      "geometry": {
        "coordinates": [
          130.303313,
          33.252555
        ],
        "type": "Point"
      },
      "properties": {
        "bangumi_id": 287488,
        "bangumi_title": "佐贺偶像是传奇 复仇",
        "ep_cut": 10,
        "image_url": "https://w.junreimap.com/images/user/2176/bangumi/287488/points/2a3d1ja-1751974229565.jpg",
        "location": "",
        "point_id": "2a3d1ja",
        "point_name": "末広串焼",
        "remark": "徐福酒吧实际并不存在，这家店仅内部装修和剧中展示的最为相近"
      },
      "type": "Feature"
    },
    {
      "geometry": {
        "coordinates": [
          130.037174,
          33.451828
        ],
        "type": "Point"
      },
      "properties": {
        "bangumi_id": 287488,
        "bangumi_title": "佐贺偶像是传奇 复仇",
        "ep_cut": 11,
        "image_url": "https://w.junreimap.com/images/user/2176/bangumi/287488/points/2a7rjot-1751981624808.jpg",
        "location": "",
        "point_id": "2a7rjot",
        "point_name": "浜崎海岸公園",
        "remark": ""
      },
      "type": "Feature"
    },
    {
      "geometry": {
        "coordinates": [
          130.03728,
          33.451515
        ],
        "type": "Point"
      },
      "properties": {
        "bangumi_id": 287488,
        "bangumi_title": "佐贺偶像是传奇 复仇",
        "ep_cut": 11,
        "image_url": "https://w.junreimap.com/images/user/2176/bangumi/287488/points/2a7sk9b-1751981696000.jpg",
        "location": "",
        "point_id": "2a7sk9b",
        "point_name": "浜崎海岸公園",
        "remark": ""
      },
      "type": "Feature"
    },
    {
      "geometry": {
        "coordinates": [
          130.012315,
          33.436999
        ],
        "type": "Point"
      },
      "properties": {
        "bangumi_id": 287488,
        "bangumi_title": "佐贺偶像是传奇 复仇",
        "ep_cut": 11,
        "image_url": "https://w.junreimap.com/images/user/2176/bangumi/287488/points/2a7v2m0-1751981787924.jpg",
        "location": "永旺唐津店",
        "point_id": "2a7v2m0",
        "point_name": "イオン​ショッピングセンター",
        "remark": ""
      },
      "type": "Feature"
    },
    {
      "geometry": {
        "coordinates": [
          130.012345,
          33.436929
        ],
        "type": "Point"
      },
      "properties": {
        "bangumi_id": 287488,
        "bangumi_title": "佐贺偶像是传奇 复仇",
        "ep_cut": 11,
        "image_url": "https://w.junreimap.com/images/user/2176/bangumi/287488/points/2a7wacs-1751981843553.jpg",
        "location": "永旺唐津店",
        "point_id": "2a7wacs",
        "point_name": "イオン​唐津​ショッピングセンター",
        "remark": ""
      },
      "type": "Feature"
    },
    {
      "geometry": {
        "coordinates": [
          130.297873,
          33.266979
        ],
        "type": "Point"
      },
      "properties": {
        "bangumi_id": 287488,
        "bangumi_title": "佐贺偶像是传奇 复仇",
        "ep_cut": 1,
        "image_url": "https://w.junreimap.com/images/user/0/bangumi/287488/points/2sfgvw3-1753083006548.jpg",
        "location": "",
        "point_id": "2sfgvw3",
        "point_name": "Live House 佐賀GEILS",
        "remark": ""
      },
      "type": "Feature"
    },
    {
      "geometry": {
        "coordinates": [
          -109.990171,
          37.101926
        ],
        "type": "Point"
      },
      "properties": {
        "bangumi_id": 287488,
        "bangumi_title": "佐贺偶像是传奇 复仇",
        "ep_cut": 2,
        "image_url": "https://w.junreimap.com/images/points/287488/cvhx4g6_1775036311137.jpg",
        "location": "",
        "point_id": "cvhx4g6",
        "point_name": "Forrest Gump Point",
        "remark": "阿甘正传里相当经典的取景地"
      },
      "type": "Feature"
    },
    {
      "geometry": {
        "coordinates": [
          130.320347,
          33.236145
        ],
        "type": "Point"
      },
      "properties": {
        "bangumi_id": 287488,
        "bangumi_title": "佐贺偶像是传奇 复仇",
        "ep_cut": 7,
        "image_url": "https://w.junreimap.com/images/user/0/bangumi/252655/points/ojrv38fl4-1727399547422.jpg",
        "location": "",
        "point_id": "ojrv38fl4",
        "point_name": "佐賀東高",
        "remark": ""
      },
      "type": "Feature"
    },
    {
      "geometry": {
        "coordinates": [
          130.36262,
          33.221981
        ],
        "type": "Point"
      },
      "properties": {
        "bangumi_id": 287488,
        "bangumi_title": "佐贺偶像是传奇 复仇",
        "ep_cut": 2,
        "image_url": "https://w.junreimap.com/images/user/0/bangumi/252655/points/ojs07j2uq-1727399805616.jpg",
        "location": "諸富橋",
        "point_id": "ojs07j2uq",
        "point_name": "諸富橋",
        "remark": ""
      },
      "type": "Feature"
    },
    {
      "geometry": {
        "coordinates": [
          130.108207,
          33.073417
        ],
        "type": "Point"
      },
      "properties": {
        "bangumi_id": 287488,
        "bangumi_title": "佐贺偶像是传奇 复仇",
        "ep_cut": 2,
        "image_url": "https://w.junreimap.com/images/user/0/bangumi/252655/points/nhtztjwwz-1724426330402.jpg",
        "location": "",
        "point_id": "nhtztjwwz",
        "point_name": "祐徳稲荷",
        "remark": ""
      },
      "type": "Feature"
    },
    {
      "geometry": {
        "coordinates": [
          130.303469,
          33.149588
        ],
        "type": "Point"
      },
      "properties": {
        "bangumi_id": 287488,
        "bangumi_title": "佐贺偶像是传奇 复仇",
        "ep_cut": 3,
        "image_url": "https://w.junreimap.com/images/user/0/bangumi/252655/points/kdi0yk6nm-1715623429050.jpg",
        "location": "九州​佐賀​国際​空港",
        "point_id": "kdi0yk6nm",
        "point_name": "九州​佐賀​国際​空港",
        "remark": "IATA代码：HSG；ICAO代码：RJFS。日本国内仅有羽田这一条航线（ANA承运），春秋航空有从上海飞往此处的航班（当前航班号为9C6139/6140）"
      },
      "type": "Feature"
    }
  ],
  "type": "FeatureCollection"
}