{
  "features": [
    {
      "geometry": {
        "coordinates": [
          138.436291,
          34.959151
        ],
        "type": "Point"
      },
      "properties": {
        "bangumi_id": 287553,
        "bangumi_title": "水野与茶山",
        "ep_cut": "",
        "image_url": "https://w.junreimap.com/images/points/287553/cf879c95_1752224451777.jpg",
        "location": "",
        "point_id": "cf879c95",
        "point_name": "旧静岡南高校",
        "remark": "水野と茶山が通う高校のモデル。高校は統廃合で無くなり、現在は校舎そのままに県立の博物館「ふじのくに地球環境史ミュージアム」として使用されている。"
      },
      "type": "Feature"
    },
    {
      "geometry": {
        "coordinates": [
          137.925047,
          34.742975
        ],
        "type": "Point"
      },
      "properties": {
        "bangumi_id": 287553,
        "bangumi_title": "水野与茶山",
        "ep_cut": "",
        "image_url": "https://w.junreimap.com/images/points/287553/a189d1f1_1752228096552.jpg",
        "location": "",
        "point_id": "a189d1f1",
        "point_name": "秀英予備校袋井駅前校",
        "remark": "5話など。作中では「駿遠ゼミナール」となっている。"
      },
      "type": "Feature"
    },
    {
      "geometry": {
        "coordinates": [
          137.925178,
          34.742704
        ],
        "type": "Point"
      },
      "properties": {
        "bangumi_id": 287553,
        "bangumi_title": "水野与茶山",
        "ep_cut": "",
        "image_url": "https://w.junreimap.com/images/points/287553/53da70a9_1752228163272.jpg",
        "location": "",
        "point_id": "53da70a9",
        "point_name": "ローソン 袋井駅前通店",
        "remark": "5話。會川がゴミを突っ込んでいたコンビニ。"
      },
      "type": "Feature"
    },
    {
      "geometry": {
        "coordinates": [
          137.935999,
          34.704651
        ],
        "type": "Point"
      },
      "properties": {
        "bangumi_id": 287553,
        "bangumi_title": "水野与茶山",
        "ep_cut": "",
        "image_url": "https://w.junreimap.com/images/points/287553/8640d8d5_1752227721561.jpg",
        "location": "",
        "point_id": "8640d8d5",
        "point_name": "しんしん袋井店",
        "remark": "3話。第二行中间的图"
      },
      "type": "Feature"
    },
    {
      "geometry": {
        "coordinates": [
          137.919854,
          34.724771
        ],
        "type": "Point"
      },
      "properties": {
        "bangumi_id": 287553,
        "bangumi_title": "水野与茶山",
        "ep_cut": "",
        "image_url": "https://w.junreimap.com/images/points/287553/e70c277c_1752227954664.jpg",
        "location": "",
        "point_id": "e70c277c",
        "point_name": "ウエルシア袋井諸井店",
        "remark": "3話。第二行左边的图"
      },
      "type": "Feature"
    },
    {
      "geometry": {
        "coordinates": [
          137.978824,
          34.68194
        ],
        "type": "Point"
      },
      "properties": {
        "bangumi_id": 287553,
        "bangumi_title": "水野与茶山",
        "ep_cut": "",
        "image_url": "https://w.junreimap.com/images/points/287553/34185cd4_1752228325672.jpg",
        "location": "",
        "point_id": "34185cd4",
        "point_name": "清水邸庭園",
        "remark": "茶山の家のモデル。6話。"
      },
      "type": "Feature"
    },
    {
      "geometry": {
        "coordinates": [
          137.925002,
          34.711545
        ],
        "type": "Point"
      },
      "properties": {
        "bangumi_id": 287553,
        "bangumi_title": "水野与茶山",
        "ep_cut": "",
        "image_url": "",
        "location": "",
        "point_id": "71a378f0",
        "point_name": "村松肥料",
        "remark": "最終話。村松肥料店あたりから、Ｙ字路方向を見たカット。作中では左右反転させている。"
      },
      "type": "Feature"
    },
    {
      "geometry": {
        "coordinates": [
          137.934518,
          34.736654
        ],
        "type": "Point"
      },
      "properties": {
        "bangumi_id": 287553,
        "bangumi_title": "水野与茶山",
        "ep_cut": "",
        "image_url": "",
        "location": "",
        "point_id": "b6bc4e9c",
        "point_name": "袋井Ｂ＆Ｇ海洋センター",
        "remark": "12話。作中では「浅葉Ｂ&Ｇセンター」となっている。"
      },
      "type": "Feature"
    },
    {
      "geometry": {
        "coordinates": [
          137.924013,
          34.713543
        ],
        "type": "Point"
      },
      "properties": {
        "bangumi_id": 287553,
        "bangumi_title": "水野与茶山",
        "ep_cut": "",
        "image_url": "",
        "location": "",
        "point_id": "1e250686",
        "point_name": "荻原サイクル",
        "remark": "8話。"
      },
      "type": "Feature"
    },
    {
      "geometry": {
        "coordinates": [
          137.925089,
          34.711218
        ],
        "type": "Point"
      },
      "properties": {
        "bangumi_id": 287553,
        "bangumi_title": "水野与茶山",
        "ep_cut": "",
        "image_url": "",
        "location": "",
        "point_id": "20047876",
        "point_name": "村松肥料店",
        "remark": "15話。"
      },
      "type": "Feature"
    }
  ],
  "type": "FeatureCollection"
}