{
  "features": [
    {
      "geometry": {
        "coordinates": [
          139.546561,
          35.31536
        ],
        "type": "Point"
      },
      "properties": {
        "bangumi_id": 288784,
        "bangumi_title": "海中金丝雀",
        "ep_cut": "",
        "image_url": "",
        "location": "",
        "point_id": "ikete625b",
        "point_name": "六地蔵",
        "remark": "来到这里，人和声音便一口气涌起。车子左右穿行，特别是左边的两车道上有车子嗖嗖地开过来。两条车道之间排着一列地藏菩萨，成了有名的观光景点，现在还有外来的人在拍照。尽管不是周末，游客仍不见少。——《在世界终焉的花园》 神之手／お地蔵さんが六体並ぶ前で観光客が写真を撮っているのを眺めながら通りすぎる。その間も大きな影が常にわたしに寄り添うということは、こちらの歩幅に合わせているということ。——『海のカナリア』／「呃～首先，这里有地藏菩萨。」 不久，人力车的大车轮旁边就出现了一个应该是观光景点的地方。 我们眼前有六座戴着红帽与领巾的地藏菩萨。——《安达与岛村11》／跟着海的指引，我们很快来到了大街上。道路中间有类似鸟居的构筑物，以及巨大的石像……不知道该怎么形容。像是巨大的地藏一样的石像排成一列。石像前有很多外国游客在拍照，后方穿行着载客人力车。——《那个与人拥吻的女孩是我的初恋3》 『向星祈愿』"
      },
      "type": "Feature"
    },
    {
      "geometry": {
        "coordinates": [
          139.546774,
          35.310885
        ],
        "type": "Point"
      },
      "properties": {
        "bangumi_id": 288784,
        "bangumi_title": "海中金丝雀",
        "ep_cut": "",
        "image_url": "",
        "location": "",
        "point_id": "ikeqs14i6",
        "point_name": "KUA`AINA 鎌倉店",
        "remark": "店内は内装もハワーイしている。暖かい木目の色に包まれた壁と床が出迎えて、壁にはサーフボード、屋根には照明付きのファンがくるくる、ゆっくり回っている。ついでに冷房は極端なほどかかっていて、ワイハーに一瞬で好意を抱いてしまう。——『海のカナリア』"
      },
      "type": "Feature"
    },
    {
      "geometry": {
        "coordinates": [
          139.546792,
          35.310929
        ],
        "type": "Point"
      },
      "properties": {
        "bangumi_id": 288784,
        "bangumi_title": "海中金丝雀",
        "ep_cut": "",
        "image_url": "",
        "location": "",
        "point_id": "ikeqs14wc",
        "point_name": "BILLABONG STORE 鎌倉",
        "remark": "木製の階段を上がって、二階の入り口に向かう。一階は同じ経営者が洋服屋を開いている。どちらが繁盛しているかは定かではないけど、休日の昼には駐車場が大体埋まっている。——『海のカナリア』"
      },
      "type": "Feature"
    },
    {
      "geometry": {
        "coordinates": [
          139.549114,
          35.314565
        ],
        "type": "Point"
      },
      "properties": {
        "bangumi_id": 288784,
        "bangumi_title": "海中金丝雀",
        "ep_cut": "",
        "image_url": "",
        "location": "",
        "point_id": "ikeqs14on",
        "point_name": "ピッツェリアGG 鎌倉",
        "remark": "ピザ屋の表には何かしらの選手権で三位に入賞した旨が飾られていた。前に見たときは四位だった気がするけれど、それが『こちら』なのか『あちら』なのか咄嗟に判別がつかない。「出るの少し遅くない？大丈夫？」早くも汗まみれの母が額を拭いながら心配してくる。私は歩道橋から跳ねるように反射する日差しに目を眩ませて、「多分」と暗がりに答える。歩道橋の柱の陰には、駐輪場でもないのに数台の自転車が停められていた。——『海のカナリア』（※ナポリピッツァ職人世界選手権2019）"
      },
      "type": "Feature"
    },
    {
      "geometry": {
        "coordinates": [
          139.549183,
          35.314739
        ],
        "type": "Point"
      },
      "properties": {
        "bangumi_id": 288784,
        "bangumi_title": "海中金丝雀",
        "ep_cut": "",
        "image_url": "",
        "location": "",
        "point_id": "ikeqs14zi",
        "point_name": "由比ガ浜２丁目３−２",
        "remark": "あまり足を広げないように気を遣いながら、夏へと繰り出す。屋根の低い階段に気を遣い、腰を曲げて下りていく。後付けかと思うほど設計に難がある。二階に住む人間の背丈が伸びることを想定していなかったのだろうか？その階段を下りて、道路を挟んだ先には営業前のピザ屋と、掃除のために外へ出された椅子と、母がいる。——『海のカナリア』"
      },
      "type": "Feature"
    },
    {
      "geometry": {
        "coordinates": [
          139.550221,
          35.314113
        ],
        "type": "Point"
      },
      "properties": {
        "bangumi_id": 288784,
        "bangumi_title": "海中金丝雀",
        "ep_cut": "",
        "image_url": "",
        "location": "",
        "point_id": "ikeqs14jw",
        "point_name": "鎌倉女学院中学校・高等学校",
        "remark": "途中、信号に引っかかる。先に待つのは私が通う先とは別の女学校の方々だ。方々と言いたくなるくらい、雰囲気が違う。具体的には集団登校するし、集団下校もする。スカートの規定違反なんてあり得ないし、先頭と最後尾に教師がついて引率するし、冬になると全員が黒タイツを穿く。衣替えが木の葉の色づきのように統一されていた。今はその集団が、交差点のガソリンスタンドの前にうじゃうじゃしている。——『海のカナリア』"
      },
      "type": "Feature"
    },
    {
      "geometry": {
        "coordinates": [
          139.549057,
          35.314517
        ],
        "type": "Point"
      },
      "properties": {
        "bangumi_id": 288784,
        "bangumi_title": "海中金丝雀",
        "ep_cut": "",
        "image_url": "",
        "location": "",
        "point_id": "ikeqs14x6",
        "point_name": "かもめ総合司法書士事務所",
        "remark": "歩道橋を渡る途中、風の流れに沿うように振り返る。ピザ屋の真後ろには直線が幾重にも絡んで壁と輪郭を描く、オシャレティックな建物がある。市民公園のオブジェにでも採用されそうな外観のそこは弁護士事務所らしい。高校生の身の上にはあまり縁のない建物だ。小太りの所長がよく面倒そうに階段を下りているのを見る。——『海のカナリア』"
      },
      "type": "Feature"
    }
  ],
  "type": "FeatureCollection"
}