{
  "features": [
    {
      "geometry": {
        "coordinates": [
          112.419697,
          34.658339
        ],
        "type": "Point"
      },
      "properties": {
        "bangumi_id": 291213,
        "bangumi_title": "大王饶命",
        "ep_cut": "",
        "image_url": "https://w.junreimap.com/images/user/0/bangumi/291213/points/lmoxkhncx-1719164853459.jpg",
        "location": "",
        "point_id": "lmoxkhncx",
        "point_name": "洛阳市外国语初级中学",
        "remark": ""
      },
      "type": "Feature"
    },
    {
      "geometry": {
        "coordinates": [
          112.43035,
          34.687067
        ],
        "type": "Point"
      },
      "properties": {
        "bangumi_id": 291213,
        "bangumi_title": "大王饶命",
        "ep_cut": "",
        "image_url": "https://w.junreimap.com/images/user/0/bangumi/291213/points/lmovp2vyp-1719164746133.jpg",
        "location": "",
        "point_id": "lmovp2vyp",
        "point_name": "洛阳站",
        "remark": ""
      },
      "type": "Feature"
    },
    {
      "geometry": {
        "coordinates": [
          112.422037,
          34.661993
        ],
        "type": "Point"
      },
      "properties": {
        "bangumi_id": 291213,
        "bangumi_title": "大王饶命",
        "ep_cut": "1",
        "image_url": "https://w.junreimap.com/images/user/0/bangumi/291213/points/r1qs863fc-1734449887305.jpg",
        "location": "",
        "point_id": "r1qs863fc",
        "point_name": "洛阳市行署路四号院",
        "remark": ""
      },
      "type": "Feature"
    }
  ],
  "type": "FeatureCollection"
}