{
  "features": [
    {
      "geometry": {
        "coordinates": [
          141.353263,
          43.055719
        ],
        "type": "Point"
      },
      "properties": {
        "bangumi_id": 292359,
        "bangumi_title": "听我的电波吧",
        "ep_cut": 2,
        "image_url": "https://w.junreimap.com/images/user/1058/bangumi/292359/points/m6dwmt0yy-1720708281550.jpg",
        "location": "",
        "point_id": "m6dwmt0yy",
        "point_name": "すすきのビルニッカ大看板",
        "remark": ""
      },
      "type": "Feature"
    },
    {
      "geometry": {
        "coordinates": [
          141.352803,
          43.060664
        ],
        "type": "Point"
      },
      "properties": {
        "bangumi_id": 292359,
        "bangumi_title": "听我的电波吧",
        "ep_cut": 2,
        "image_url": "https://w.junreimap.com/images/user/1058/bangumi/292359/points/m6e4is0xm-1720708678359.jpg",
        "location": "",
        "point_id": "m6e4is0xm",
        "point_name": "西３丁目噴水",
        "remark": ""
      },
      "type": "Feature"
    },
    {
      "geometry": {
        "coordinates": [
          141.322659,
          43.022197
        ],
        "type": "Point"
      },
      "properties": {
        "bangumi_id": 292359,
        "bangumi_title": "听我的电波吧",
        "ep_cut": 1,
        "image_url": "https://w.junreimap.com/images/user/1058/bangumi/292359/points/m6e9hypgh-1720708916948.jpg",
        "location": "",
        "point_id": "m6e9hypgh",
        "point_name": "藻岩山山顶展望台",
        "remark": ""
      },
      "type": "Feature"
    },
    {
      "geometry": {
        "coordinates": [
          141.200777,
          42.900159
        ],
        "type": "Point"
      },
      "properties": {
        "bangumi_id": 292359,
        "bangumi_title": "听我的电波吧",
        "ep_cut": 1,
        "image_url": "https://w.junreimap.com/images/points/292359/f63231bc_1725028327571.jpg",
        "location": "",
        "point_id": "f63231bc",
        "point_name": "1札幌岳",
        "remark": ""
      },
      "type": "Feature"
    },
    {
      "geometry": {
        "coordinates": [
          139.70432,
          35.690588
        ],
        "type": "Point"
      },
      "properties": {
        "bangumi_id": 292359,
        "bangumi_title": "听我的电波吧",
        "ep_cut": 1,
        "image_url": "https://w.junreimap.com/images/points/292359/28ec33fc_1725028356415.jpg",
        "location": "",
        "point_id": "28ec33fc",
        "point_name": "2汤咖喱 東京ドミニカ 新宿",
        "remark": "可以确保大家知道门口在小巷里而不是大路上"
      },
      "type": "Feature"
    },
    {
      "geometry": {
        "coordinates": [
          141.353267,
          43.055712
        ],
        "type": "Point"
      },
      "properties": {
        "bangumi_id": 292359,
        "bangumi_title": "听我的电波吧",
        "ep_cut": 2,
        "image_url": "https://w.junreimap.com/images/points/292359/3a106773_1725028368397.jpg",
        "location": "",
        "point_id": "3a106773",
        "point_name": "3OP路口",
        "remark": ""
      },
      "type": "Feature"
    },
    {
      "geometry": {
        "coordinates": [
          141.353148,
          43.062503
        ],
        "type": "Point"
      },
      "properties": {
        "bangumi_id": 292359,
        "bangumi_title": "听我的电波吧",
        "ep_cut": 4,
        "image_url": "https://w.junreimap.com/images/points/292359/c78117ec_1725028384432.jpg",
        "location": "",
        "point_id": "c78117ec",
        "point_name": "4札幌市钟楼",
        "remark": "视角来自路对面"
      },
      "type": "Feature"
    },
    {
      "geometry": {
        "coordinates": [
          141.354602,
          43.060903
        ],
        "type": "Point"
      },
      "properties": {
        "bangumi_id": 292359,
        "bangumi_title": "听我的电波吧",
        "ep_cut": 1,
        "image_url": "https://w.junreimap.com/images/points/292359/ee22da6b_1725028407854.jpg",
        "location": "",
        "point_id": "ee22da6b",
        "point_name": "5大通公园",
        "remark": ""
      },
      "type": "Feature"
    },
    {
      "geometry": {
        "coordinates": [
          141.32246,
          43.022197
        ],
        "type": "Point"
      },
      "properties": {
        "bangumi_id": 292359,
        "bangumi_title": "听我的电波吧",
        "ep_cut": 9,
        "image_url": "https://w.junreimap.com/images/points/292359/bcf5192e_1725028436235.jpg",
        "location": "",
        "point_id": "bcf5192e",
        "point_name": "6藻岩山山顶展望台",
        "remark": ""
      },
      "type": "Feature"
    },
    {
      "geometry": {
        "coordinates": [
          141.356425,
          43.061105
        ],
        "type": "Point"
      },
      "properties": {
        "bangumi_id": 292359,
        "bangumi_title": "听我的电波吧",
        "ep_cut": "",
        "image_url": "https://w.junreimap.com/images/points/292359/5b42314f_1725028444015.jpg",
        "location": "",
        "point_id": "5b42314f",
        "point_name": "7札幌电视塔",
        "remark": ""
      },
      "type": "Feature"
    },
    {
      "geometry": {
        "coordinates": [
          141.318269,
          43.055595
        ],
        "type": "Point"
      },
      "properties": {
        "bangumi_id": 292359,
        "bangumi_title": "听我的电波吧",
        "ep_cut": 11,
        "image_url": "https://w.junreimap.com/images/points/292359/eb2ec938_1725028451000.jpg",
        "location": "",
        "point_id": "eb2ec938",
        "point_name": "8地铁圆山公园站",
        "remark": ""
      },
      "type": "Feature"
    },
    {
      "geometry": {
        "coordinates": [
          141.321865,
          43.055119
        ],
        "type": "Point"
      },
      "properties": {
        "bangumi_id": 292359,
        "bangumi_title": "听我的电波吧",
        "ep_cut": 2,
        "image_url": "https://w.junreimap.com/images/points/292359/2fd12e21_1725028488395.jpg",
        "location": "",
        "point_id": "2fd12e21",
        "point_name": "10 夏祭典",
        "remark": ""
      },
      "type": "Feature"
    },
    {
      "geometry": {
        "coordinates": [
          141.399565,
          43.102225
        ],
        "type": "Point"
      },
      "properties": {
        "bangumi_id": 292359,
        "bangumi_title": "听我的电波吧",
        "ep_cut": 3,
        "image_url": "https://w.junreimap.com/images/points/292359/56b6d61f_1725028504553.jpg",
        "location": "",
        "point_id": "56b6d61f",
        "point_name": "11ゲートボール場 （疑似）",
        "remark": ""
      },
      "type": "Feature"
    },
    {
      "geometry": {
        "coordinates": [
          141.352462,
          43.058983
        ],
        "type": "Point"
      },
      "properties": {
        "bangumi_id": 292359,
        "bangumi_title": "听我的电波吧",
        "ep_cut": 4,
        "image_url": "https://w.junreimap.com/images/points/292359/c3fd1552_1725028511959.jpg",
        "location": "",
        "point_id": "c3fd1552",
        "point_name": "12四丁目路口",
        "remark": ""
      },
      "type": "Feature"
    },
    {
      "geometry": {
        "coordinates": [
          141.351704,
          43.058857
        ],
        "type": "Point"
      },
      "properties": {
        "bangumi_id": 292359,
        "bangumi_title": "听我的电波吧",
        "ep_cut": 4,
        "image_url": "https://w.junreimap.com/images/points/292359/00750f87_1725028518678.jpg",
        "location": "",
        "point_id": "00750f87",
        "point_name": "13 seice mart",
        "remark": ""
      },
      "type": "Feature"
    },
    {
      "geometry": {
        "coordinates": [
          141.355543,
          43.052191
        ],
        "type": "Point"
      },
      "properties": {
        "bangumi_id": 292359,
        "bangumi_title": "听我的电波吧",
        "ep_cut": 4,
        "image_url": "https://w.junreimap.com/images/points/292359/cccf5ba8_1725028528598.jpg",
        "location": "",
        "point_id": "cccf5ba8",
        "point_name": "14加斯玛广场酒店",
        "remark": "视角在建筑外"
      },
      "type": "Feature"
    },
    {
      "geometry": {
        "coordinates": [
          141.355448,
          43.052223
        ],
        "type": "Point"
      },
      "properties": {
        "bangumi_id": 292359,
        "bangumi_title": "听我的电波吧",
        "ep_cut": 4,
        "image_url": "https://w.junreimap.com/images/points/292359/npioll3nv_1725028541907.jpg",
        "location": "",
        "point_id": "npioll3nv",
        "point_name": "14加斯玛广场酒店",
        "remark": "玻璃幕墙在建筑北侧"
      },
      "type": "Feature"
    },
    {
      "geometry": {
        "coordinates": [
          141.310782,
          43.054055
        ],
        "type": "Point"
      },
      "properties": {
        "bangumi_id": 292359,
        "bangumi_title": "听我的电波吧",
        "ep_cut": 4,
        "image_url": "https://w.junreimap.com/images/points/292359/faf2e411_1725028550538.jpg",
        "location": "",
        "point_id": "faf2e411",
        "point_name": "15北海道神宫",
        "remark": "北海道神社第三鸟居"
      },
      "type": "Feature"
    },
    {
      "geometry": {
        "coordinates": [
          141.310536,
          43.054242
        ],
        "type": "Point"
      },
      "properties": {
        "bangumi_id": 292359,
        "bangumi_title": "听我的电波吧",
        "ep_cut": 4,
        "image_url": "https://w.junreimap.com/images/points/292359/npipdsbim_1725028587379.jpg",
        "location": "",
        "point_id": "npipdsbim",
        "point_name": "15北海道神宫",
        "remark": "北海道神社第三鸟居"
      },
      "type": "Feature"
    },
    {
      "geometry": {
        "coordinates": [
          144.405268,
          43.012825
        ],
        "type": "Point"
      },
      "properties": {
        "bangumi_id": 292359,
        "bangumi_title": "听我的电波吧",
        "ep_cut": 6,
        "image_url": "https://w.junreimap.com/images/points/292359/ac4d62e5_1725028592923.jpg",
        "location": "",
        "point_id": "ac4d62e5",
        "point_name": "16パチンコひまわり釧路店",
        "remark": ""
      },
      "type": "Feature"
    },
    {
      "geometry": {
        "coordinates": [
          141.353814,
          43.054009
        ],
        "type": "Point"
      },
      "properties": {
        "bangumi_id": 292359,
        "bangumi_title": "听我的电波吧",
        "ep_cut": 6,
        "image_url": "https://w.junreimap.com/images/points/292359/638fed6c_1725028598879.jpg",
        "location": "",
        "point_id": "638fed6c",
        "point_name": "17咖喱店设定地址路口",
        "remark": ""
      },
      "type": "Feature"
    },
    {
      "geometry": {
        "coordinates": [
          141.333087,
          43.031613
        ],
        "type": "Point"
      },
      "properties": {
        "bangumi_id": 292359,
        "bangumi_title": "听我的电波吧",
        "ep_cut": 9,
        "image_url": "https://w.junreimap.com/images/points/292359/a44c21ef_1725028606880.jpg",
        "location": "",
        "point_id": "a44c21ef",
        "point_name": "18缆车站",
        "remark": ""
      },
      "type": "Feature"
    },
    {
      "geometry": {
        "coordinates": [
          141.333127,
          43.031535
        ],
        "type": "Point"
      },
      "properties": {
        "bangumi_id": 292359,
        "bangumi_title": "听我的电波吧",
        "ep_cut": 9,
        "image_url": "https://w.junreimap.com/images/points/292359/npipta025_1725028612683.jpg",
        "location": "",
        "point_id": "npipta025",
        "point_name": "18缆车站",
        "remark": ""
      },
      "type": "Feature"
    },
    {
      "geometry": {
        "coordinates": [
          141.337339,
          43.032239
        ],
        "type": "Point"
      },
      "properties": {
        "bangumi_id": 292359,
        "bangumi_title": "听我的电波吧",
        "ep_cut": 9,
        "image_url": "https://w.junreimap.com/images/points/292359/41fb532b_1725028620452.jpg",
        "location": "",
        "point_id": "41fb532b",
        "point_name": "19こうひいはうす",
        "remark": ""
      },
      "type": "Feature"
    },
    {
      "geometry": {
        "coordinates": [
          141.33765,
          43.030509
        ],
        "type": "Point"
      },
      "properties": {
        "bangumi_id": 292359,
        "bangumi_title": "听我的电波吧",
        "ep_cut": 9,
        "image_url": "https://w.junreimap.com/images/points/292359/98405851_1725028627028.jpg",
        "location": "",
        "point_id": "98405851",
        "point_name": "20电车事业所前",
        "remark": ""
      },
      "type": "Feature"
    },
    {
      "geometry": {
        "coordinates": [
          141.350395,
          43.06956
        ],
        "type": "Point"
      },
      "properties": {
        "bangumi_id": 292359,
        "bangumi_title": "听我的电波吧",
        "ep_cut": 12,
        "image_url": "https://w.junreimap.com/images/points/292359/a0ff1bce_1725028632598.jpg",
        "location": "",
        "point_id": "a0ff1bce",
        "point_name": "21札幌站",
        "remark": "从与JR塔的关系来看位于札幌站北广场西侧"
      },
      "type": "Feature"
    },
    {
      "geometry": {
        "coordinates": [
          141.362324,
          43.065294
        ],
        "type": "Point"
      },
      "properties": {
        "bangumi_id": 292359,
        "bangumi_title": "听我的电波吧",
        "ep_cut": "OP1",
        "image_url": "https://w.junreimap.com/images/points/292359/9a525c12_1725028480981.jpg",
        "location": "",
        "point_id": "9a525c12",
        "point_name": "9サッポロファクトリー",
        "remark": "视角在建筑外"
      },
      "type": "Feature"
    },
    {
      "geometry": {
        "coordinates": [
          141.354394,
          43.050986
        ],
        "type": "Point"
      },
      "properties": {
        "bangumi_id": 292359,
        "bangumi_title": "听我的电波吧",
        "ep_cut": 4,
        "image_url": "https://w.junreimap.com/images/user/0/bangumi/292359/points/1r7sjgf-1750832938509.jpg",
        "location": "",
        "point_id": "1r7sjgf",
        "point_name": "セーコーマート 南8条店",
        "remark": ""
      },
      "type": "Feature"
    },
    {
      "geometry": {
        "coordinates": [
          141.353334,
          43.062438
        ],
        "type": "Point"
      },
      "properties": {
        "bangumi_id": 292359,
        "bangumi_title": "听我的电波吧",
        "ep_cut": "",
        "image_url": "https://w.junreimap.com/images/user/0/bangumi/292359/points/1r82tri-1750833297325.jpg",
        "location": "",
        "point_id": "1r82tri",
        "point_name": "OP時計台",
        "remark": ""
      },
      "type": "Feature"
    },
    {
      "geometry": {
        "coordinates": [
          141.325596,
          43.022186
        ],
        "type": "Point"
      },
      "properties": {
        "bangumi_id": 292359,
        "bangumi_title": "听我的电波吧",
        "ep_cut": 9,
        "image_url": "https://w.junreimap.com/images/user/0/bangumi/292359/points/1r87934-1750833496968.jpg",
        "location": "",
        "point_id": "1r87934",
        "point_name": "もーりす",
        "remark": "现实中位置已被移动"
      },
      "type": "Feature"
    },
    {
      "geometry": {
        "coordinates": [
          141.314576,
          43.05506
        ],
        "type": "Point"
      },
      "properties": {
        "bangumi_id": 292359,
        "bangumi_title": "听我的电波吧",
        "ep_cut": "",
        "image_url": "https://w.junreimap.com/images/user/0/bangumi/292359/points/1r8d8kr-1750833796903.jpg",
        "location": "",
        "point_id": "1r8d8kr",
        "point_name": "オーベルジュ・ド・リル サッポロ",
        "remark": ""
      },
      "type": "Feature"
    }
  ],
  "type": "FeatureCollection"
}