{
  "features": [
    {
      "geometry": {
        "coordinates": [
          139.805783,
          33.083852
        ],
        "type": "Point"
      },
      "properties": {
        "bangumi_id": 293800,
        "bangumi_title": "TrymenT ~献给渴望改变的你~",
        "ep_cut": "",
        "image_url": "https://w.junreimap.com/images/user/1073/bangumi/293800/points/jp2g7ckea-1713708771654.jpg",
        "location": "",
        "point_id": "jp2g7ckea",
        "point_name": "硫黄沼",
        "remark": ""
      },
      "type": "Feature"
    },
    {
      "geometry": {
        "coordinates": [
          139.819,
          33.12268
        ],
        "type": "Point"
      },
      "properties": {
        "bangumi_id": 293800,
        "bangumi_title": "TrymenT ~献给渴望改变的你~",
        "ep_cut": "",
        "image_url": "https://w.junreimap.com/images/user/1073/bangumi/293800/points/jp2j5cxll-1713708967724.jpg",
        "location": "",
        "point_id": "jp2j5cxll",
        "point_name": "底土港",
        "remark": ""
      },
      "type": "Feature"
    },
    {
      "geometry": {
        "coordinates": [
          139.806051,
          33.125732
        ],
        "type": "Point"
      },
      "properties": {
        "bangumi_id": 293800,
        "bangumi_title": "TrymenT ~献给渴望改变的你~",
        "ep_cut": "",
        "image_url": "https://w.junreimap.com/images/user/1073/bangumi/293800/points/jp2m1p56d-1713709136615.jpg",
        "location": "",
        "point_id": "jp2m1p56d",
        "point_name": "八丈空港道路",
        "remark": ""
      },
      "type": "Feature"
    },
    {
      "geometry": {
        "coordinates": [
          139.766706,
          33.13002
        ],
        "type": "Point"
      },
      "properties": {
        "bangumi_id": 293800,
        "bangumi_title": "TrymenT ~献给渴望改变的你~",
        "ep_cut": "",
        "image_url": "https://w.junreimap.com/images/user/1073/bangumi/293800/points/jp2qtrkkm-1713709410283.jpg",
        "location": "",
        "point_id": "jp2qtrkkm",
        "point_name": "八丈​富士\nふれあい​牧場",
        "remark": ""
      },
      "type": "Feature"
    },
    {
      "geometry": {
        "coordinates": [
          139.756223,
          33.118135
        ],
        "type": "Point"
      },
      "properties": {
        "bangumi_id": 293800,
        "bangumi_title": "TrymenT ~献给渴望改变的你~",
        "ep_cut": "",
        "image_url": "https://w.junreimap.com/images/user/1073/bangumi/293800/points/jp2rwxvlx-1713709478834.jpg",
        "location": "",
        "point_id": "jp2rwxvlx",
        "point_name": "PiZZAPARADISO",
        "remark": ""
      },
      "type": "Feature"
    },
    {
      "geometry": {
        "coordinates": [
          139.754635,
          33.10926
        ],
        "type": "Point"
      },
      "properties": {
        "bangumi_id": 293800,
        "bangumi_title": "TrymenT ~献给渴望改变的你~",
        "ep_cut": "",
        "image_url": "https://w.junreimap.com/images/user/1073/bangumi/293800/points/jp2tw1evr-1713709626488.jpg",
        "location": "",
        "point_id": "jp2tw1evr",
        "point_name": "南原スポーツ公園 野球場",
        "remark": ""
      },
      "type": "Feature"
    },
    {
      "geometry": {
        "coordinates": [
          139.816529,
          33.063688
        ],
        "type": "Point"
      },
      "properties": {
        "bangumi_id": 293800,
        "bangumi_title": "TrymenT ~献给渴望改变的你~",
        "ep_cut": "",
        "image_url": "https://w.junreimap.com/images/user/1073/bangumi/293800/points/jp2vha0t2-1713709710001.jpg",
        "location": "",
        "point_id": "jp2vha0t2",
        "point_name": "ゆとり​の​湯​裏見​ヶ​滝​温泉",
        "remark": ""
      },
      "type": "Feature"
    },
    {
      "geometry": {
        "coordinates": [
          139.835334,
          33.113428
        ],
        "type": "Point"
      },
      "properties": {
        "bangumi_id": 293800,
        "bangumi_title": "TrymenT ~献给渴望改变的你~",
        "ep_cut": "",
        "image_url": "https://w.junreimap.com/images/user/1073/bangumi/293800/points/jp2zg55n9-1713709937472.jpg",
        "location": "",
        "point_id": "jp2zg55n9",
        "point_name": "登龍峠展望台",
        "remark": ""
      },
      "type": "Feature"
    },
    {
      "geometry": {
        "coordinates": [
          139.80978,
          33.129405
        ],
        "type": "Point"
      },
      "properties": {
        "bangumi_id": 293800,
        "bangumi_title": "TrymenT ~献给渴望改变的你~",
        "ep_cut": "",
        "image_url": "https://w.junreimap.com/images/user/1073/bangumi/293800/points/jp3228eoi-1713710110701.jpg",
        "location": "",
        "point_id": "jp3228eoi",
        "point_name": "海岸の道",
        "remark": ""
      },
      "type": "Feature"
    },
    {
      "geometry": {
        "coordinates": [
          139.797005,
          33.120742
        ],
        "type": "Point"
      },
      "properties": {
        "bangumi_id": 293800,
        "bangumi_title": "TrymenT ~献给渴望改变的你~",
        "ep_cut": "",
        "image_url": "https://w.junreimap.com/images/points/293800/o4ol410qs_1726216865841.jpg",
        "location": "",
        "point_id": "o4ol410qs",
        "point_name": "八丈ストア",
        "remark": ""
      },
      "type": "Feature"
    },
    {
      "geometry": {
        "coordinates": [
          139.815126,
          33.12328
        ],
        "type": "Point"
      },
      "properties": {
        "bangumi_id": 293800,
        "bangumi_title": "TrymenT ~献给渴望改变的你~",
        "ep_cut": "",
        "image_url": "https://w.junreimap.com/images/user/1073/bangumi/293800/points/jp3c9c6yz-1713710707330.jpg",
        "location": "",
        "point_id": "jp3c9c6yz",
        "point_name": "リゾートシーピロス",
        "remark": ""
      },
      "type": "Feature"
    },
    {
      "geometry": {
        "coordinates": [
          139.808112,
          33.168677
        ],
        "type": "Point"
      },
      "properties": {
        "bangumi_id": 293800,
        "bangumi_title": "TrymenT ~献给渴望改变的你~",
        "ep_cut": "",
        "image_url": "https://w.junreimap.com/images/user/1073/bangumi/293800/points/jp3e55o54-1713710896065.jpg",
        "location": "",
        "point_id": "jp3e55o54",
        "point_name": "八丈富士",
        "remark": "在船上远望"
      },
      "type": "Feature"
    },
    {
      "geometry": {
        "coordinates": [
          139.818623,
          33.122543
        ],
        "type": "Point"
      },
      "properties": {
        "bangumi_id": 293800,
        "bangumi_title": "TrymenT ~献给渴望改变的你~",
        "ep_cut": "",
        "image_url": "https://w.junreimap.com/images/user/1073/bangumi/293800/points/jp3kqjfmw-1713711232329.jpg",
        "location": "",
        "point_id": "jp3kqjfmw",
        "point_name": "底土港",
        "remark": "向岛上看去"
      },
      "type": "Feature"
    },
    {
      "geometry": {
        "coordinates": [
          142.195268,
          27.060938
        ],
        "type": "Point"
      },
      "properties": {
        "bangumi_id": 293800,
        "bangumi_title": "TrymenT ~献给渴望改变的你~",
        "ep_cut": "",
        "image_url": "https://w.junreimap.com/images/user/1073/bangumi/293800/points/jp3tndhtq-1713711767674.jpg",
        "location": "",
        "point_id": "jp3tndhtq",
        "point_name": "小港海岸",
        "remark": "取景"
      },
      "type": "Feature"
    },
    {
      "geometry": {
        "coordinates": [
          139.650097,
          35.718896
        ],
        "type": "Point"
      },
      "properties": {
        "bangumi_id": 293800,
        "bangumi_title": "TrymenT ~献给渴望改变的你~",
        "ep_cut": "",
        "image_url": "https://w.junreimap.com/images/user/1073/bangumi/293800/points/jp41ipxuk-1713712256151.jpg",
        "location": "",
        "point_id": "jp41ipxuk",
        "point_name": "BAR 乃方",
        "remark": ""
      },
      "type": "Feature"
    },
    {
      "geometry": {
        "coordinates": [
          139.697832,
          33.119463
        ],
        "type": "Point"
      },
      "properties": {
        "bangumi_id": 293800,
        "bangumi_title": "TrymenT ~献给渴望改变的你~",
        "ep_cut": "",
        "image_url": "https://w.junreimap.com/images/user/1073/bangumi/293800/points/jp4eau2sf-1713713048778.jpg",
        "location": "",
        "point_id": "jp4eau2sf",
        "point_name": "旧宇津木小学校跡",
        "remark": "远处为八丈富士（此为无人岛，房屋早已坍废，仅为取景）"
      },
      "type": "Feature"
    },
    {
      "geometry": {
        "coordinates": [
          139.816137,
          33.123634
        ],
        "type": "Point"
      },
      "properties": {
        "bangumi_id": 293800,
        "bangumi_title": "TrymenT ~献给渴望改变的你~",
        "ep_cut": "",
        "image_url": "https://w.junreimap.com/images/points/293800/o4n6imsgt_1726213858696.jpg",
        "location": "Re:LieF",
        "point_id": "o4n6imsgt",
        "point_name": "底土海水浴場",
        "remark": ""
      },
      "type": "Feature"
    },
    {
      "geometry": {
        "coordinates": [
          139.816797,
          33.123586
        ],
        "type": "Point"
      },
      "properties": {
        "bangumi_id": 293800,
        "bangumi_title": "TrymenT ~献给渴望改变的你~",
        "ep_cut": "",
        "image_url": "https://w.junreimap.com/images/points/293800/o4o7bupju_1726216041879.jpg",
        "location": "Re:LieF",
        "point_id": "o4o7bupju",
        "point_name": "底土海水浴場 海岸",
        "remark": ""
      },
      "type": "Feature"
    },
    {
      "geometry": {
        "coordinates": [
          139.810304,
          33.127845
        ],
        "type": "Point"
      },
      "properties": {
        "bangumi_id": 293800,
        "bangumi_title": "TrymenT ~献给渴望改变的你~",
        "ep_cut": "",
        "image_url": "https://w.junreimap.com/images/points/293800/o4n8irkzr_1726213982145.jpg",
        "location": "Re:LieF",
        "point_id": "o4n8irkzr",
        "point_name": "八丈オリエンタルリゾート",
        "remark": "アイちゃんの住所"
      },
      "type": "Feature"
    },
    {
      "geometry": {
        "coordinates": [
          139.783923,
          33.084997
        ],
        "type": "Point"
      },
      "properties": {
        "bangumi_id": 293800,
        "bangumi_title": "TrymenT ~献给渴望改变的你~",
        "ep_cut": "",
        "image_url": "https://w.junreimap.com/images/points/293800/o4nc3ruyb_1726214325857.jpg",
        "location": "Re:LieF",
        "point_id": "o4nc3ruyb",
        "point_name": "大坂トンネル展望台(内向き)",
        "remark": ""
      },
      "type": "Feature"
    },
    {
      "geometry": {
        "coordinates": [
          139.783989,
          33.085039
        ],
        "type": "Point"
      },
      "properties": {
        "bangumi_id": 293800,
        "bangumi_title": "TrymenT ~献给渴望改变的你~",
        "ep_cut": "",
        "image_url": "https://w.junreimap.com/images/points/293800/o4ndsql2u_1726214253296.jpg",
        "location": "Re:LieF",
        "point_id": "o4ndsql2u",
        "point_name": "大坂トンネル展望台(外向き)",
        "remark": "远处为八丈富士"
      },
      "type": "Feature"
    },
    {
      "geometry": {
        "coordinates": [
          139.783063,
          33.083798
        ],
        "type": "Point"
      },
      "properties": {
        "bangumi_id": 293800,
        "bangumi_title": "TrymenT ~献给渴望改变的你~",
        "ep_cut": "",
        "image_url": "https://w.junreimap.com/images/points/293800/o4nfy0hos_1726214385021.jpg",
        "location": "Re:LieF",
        "point_id": "o4nfy0hos",
        "point_name": "大坂トンネル",
        "remark": ""
      },
      "type": "Feature"
    },
    {
      "geometry": {
        "coordinates": [
          139.8146,
          33.06006
        ],
        "type": "Point"
      },
      "properties": {
        "bangumi_id": 293800,
        "bangumi_title": "TrymenT ~献给渴望改变的你~",
        "ep_cut": "",
        "image_url": "https://w.junreimap.com/images/points/293800/o4njwxyms_1726214643408.jpg",
        "location": "Re:LieF",
        "point_id": "o4njwxyms",
        "point_name": "第二地区 民家",
        "remark": ""
      },
      "type": "Feature"
    },
    {
      "geometry": {
        "coordinates": [
          139.802512,
          33.093095
        ],
        "type": "Point"
      },
      "properties": {
        "bangumi_id": 293800,
        "bangumi_title": "TrymenT ~献给渴望改变的你~",
        "ep_cut": "",
        "image_url": "https://w.junreimap.com/images/points/293800/o4np3rfmh_1726214952192.jpg",
        "location": "Re:LieF",
        "point_id": "o4np3rfmh",
        "point_name": "NTT無線中継所",
        "remark": "管理施設の電波塔、進入禁止"
      },
      "type": "Feature"
    },
    {
      "geometry": {
        "coordinates": [
          139.767718,
          33.130163
        ],
        "type": "Point"
      },
      "properties": {
        "bangumi_id": 293800,
        "bangumi_title": "TrymenT ~献给渴望改变的你~",
        "ep_cut": "",
        "image_url": "https://w.junreimap.com/images/points/293800/o4nw6p1r6_1726215368400.jpg",
        "location": "Re:LieF",
        "point_id": "o4nw6p1r6",
        "point_name": "八丈​富士ふれあい​牧場",
        "remark": ""
      },
      "type": "Feature"
    },
    {
      "geometry": {
        "coordinates": [
          139.78204,
          33.11063
        ],
        "type": "Point"
      },
      "properties": {
        "bangumi_id": 293800,
        "bangumi_title": "TrymenT ~献给渴望改变的你~",
        "ep_cut": "",
        "image_url": "https://w.junreimap.com/images/points/293800/o4nykb7h1_1726215507449.jpg",
        "location": "Re:LieF",
        "point_id": "o4nykb7h1",
        "point_name": "八丈植物公園前　ベンチ",
        "remark": ""
      },
      "type": "Feature"
    },
    {
      "geometry": {
        "coordinates": [
          139.784343,
          33.11197
        ],
        "type": "Point"
      },
      "properties": {
        "bangumi_id": 293800,
        "bangumi_title": "TrymenT ~献给渴望改变的你~",
        "ep_cut": "",
        "image_url": "https://w.junreimap.com/images/points/293800/o4o9hghgz_1726216162785.jpg",
        "location": "Re:LieF",
        "point_id": "o4o9hghgz",
        "point_name": "八丈​ビジター​センター",
        "remark": ""
      },
      "type": "Feature"
    },
    {
      "geometry": {
        "coordinates": [
          139.757029,
          33.10418
        ],
        "type": "Point"
      },
      "properties": {
        "bangumi_id": 293800,
        "bangumi_title": "TrymenT ~献给渴望改变的你~",
        "ep_cut": "",
        "image_url": "https://w.junreimap.com/images/points/293800/o4o2503p5_1726215713008.jpg",
        "location": "Re:LieF",
        "point_id": "o4o2503p5",
        "point_name": "大潟浦園地",
        "remark": "学校の通路"
      },
      "type": "Feature"
    },
    {
      "geometry": {
        "coordinates": [
          139.832642,
          33.097138
        ],
        "type": "Point"
      },
      "properties": {
        "bangumi_id": 293800,
        "bangumi_title": "TrymenT ~献给渴望改变的你~",
        "ep_cut": "",
        "image_url": "https://w.junreimap.com/images/points/293800/o4o5gw4f9_1726215943057.jpg",
        "location": "Re:LieF",
        "point_id": "o4o5gw4f9",
        "point_name": "ポットホール散策路（こん沢林道甌穴群）",
        "remark": ""
      },
      "type": "Feature"
    }
  ],
  "type": "FeatureCollection"
}