{
  "features": [
    {
      "geometry": {
        "coordinates": [
          139.445681,
          35.693703
        ],
        "type": "Point"
      },
      "properties": {
        "bangumi_id": 295308,
        "bangumi_title": "炽焰天穹",
        "ep_cut": "",
        "image_url": "https://w.junreimap.com/images/points/295308/763c398c_1721267236656.jpg",
        "location": "基地&风味街",
        "point_id": "763c398c",
        "point_name": "セラフ基地～講堂～",
        "remark": "原型为一桥大学兼松讲堂。\n原坐标是校园绿化。\n新坐标位置可能是新建的建筑，此处的地图软件没显示，但是谷歌地图上是有的，就是在别馆和本馆中间。"
      },
      "type": "Feature"
    },
    {
      "geometry": {
        "coordinates": [
          139.44483,
          35.693695
        ],
        "type": "Point"
      },
      "properties": {
        "bangumi_id": 295308,
        "bangumi_title": "炽焰天穹",
        "ep_cut": "",
        "image_url": "https://w.junreimap.com/images/points/295308/763c398c_1721267236656.jpg",
        "location": "基地&风味街",
        "point_id": "55bcc77b",
        "point_name": "講堂の見える渡り廊下",
        "remark": ""
      },
      "type": "Feature"
    },
    {
      "geometry": {
        "coordinates": [
          139.444742,
          35.694433
        ],
        "type": "Point"
      },
      "properties": {
        "bangumi_id": 295308,
        "bangumi_title": "炽焰天穹",
        "ep_cut": "",
        "image_url": "https://w.junreimap.com/images/points/295308/7017082b_1721260589603.jpg",
        "location": "基地&风味街",
        "point_id": "7017082b",
        "point_name": "セラフ基地 人類残存メーター",
        "remark": "原型为一橋大学時計台棟。"
      },
      "type": "Feature"
    },
    {
      "geometry": {
        "coordinates": [
          139.444982,
          35.694418
        ],
        "type": "Point"
      },
      "properties": {
        "bangumi_id": 295308,
        "bangumi_title": "炽焰天穹",
        "ep_cut": "",
        "image_url": "https://w.junreimap.com/images/points/295308/763c398c_1721260588508.jpg",
        "location": "基地&风味街",
        "point_id": "44b4ba49",
        "point_name": "基地前にある五角形の水場",
        "remark": "原型为一桥大学的水池，现实中水池不在基地入口前方"
      },
      "type": "Feature"
    },
    {
      "geometry": {
        "coordinates": [
          139.445204,
          35.694089
        ],
        "type": "Point"
      },
      "properties": {
        "bangumi_id": 295308,
        "bangumi_title": "炽焰天穹",
        "ep_cut": "",
        "image_url": "https://w.junreimap.com/images/points/295308/763c398c_1721260588508.jpg",
        "location": "基地&风味街",
        "point_id": "4fc7617e",
        "point_name": "セラフ基地入口",
        "remark": "原型为一桥大学本馆。"
      },
      "type": "Feature"
    },
    {
      "geometry": {
        "coordinates": [
          139.444598,
          35.693805
        ],
        "type": "Point"
      },
      "properties": {
        "bangumi_id": 295308,
        "bangumi_title": "炽焰天穹",
        "ep_cut": "",
        "image_url": "https://w.junreimap.com/images/points/295308/9ecb59ac_1721283443223.jpg",
        "location": "基地&风味街",
        "point_id": "9ecb59ac",
        "point_name": "炽天使基地 告示板",
        "remark": "现实中已被拆除。"
      },
      "type": "Feature"
    },
    {
      "geometry": {
        "coordinates": [
          139.444264,
          35.693543
        ],
        "type": "Point"
      },
      "properties": {
        "bangumi_id": 295308,
        "bangumi_title": "炽焰天穹",
        "ep_cut": "",
        "image_url": "https://w.junreimap.com/images/points/295308/06937e15_1721260590613.jpg",
        "location": "基地&风味街",
        "point_id": "06937e15",
        "point_name": "自動販売機",
        "remark": ""
      },
      "type": "Feature"
    },
    {
      "geometry": {
        "coordinates": [
          139.400203,
          35.703704
        ],
        "type": "Point"
      },
      "properties": {
        "bangumi_id": 295308,
        "bangumi_title": "炽焰天穹",
        "ep_cut": "",
        "image_url": "https://w.junreimap.com/images/points/295308/aeef18df_1721282979443.jpg",
        "location": "基地&风味街",
        "point_id": "aeef18df",
        "point_name": "カフェテリア",
        "remark": "原型为国营昭和纪念公园 FOGLIA Botanical Park Cafe。"
      },
      "type": "Feature"
    },
    {
      "geometry": {
        "coordinates": [
          139.435925,
          35.677139
        ],
        "type": "Point"
      },
      "properties": {
        "bangumi_id": 295308,
        "bangumi_title": "炽焰天穹",
        "ep_cut": "",
        "image_url": "https://w.junreimap.com/images/points/295308/78fab8a5_1721282829908.jpg",
        "location": "基地&风味街",
        "point_id": "78fab8a5",
        "point_name": "セラフ研究所",
        "remark": "原型为ヤクルト​本社​中央​研究所。"
      },
      "type": "Feature"
    },
    {
      "geometry": {
        "coordinates": [
          139.746449,
          35.742794
        ],
        "type": "Point"
      },
      "properties": {
        "bangumi_id": 295308,
        "bangumi_title": "炽焰天穹",
        "ep_cut": "",
        "image_url": "https://w.junreimap.com/images/user/0/bangumi/295308/points/9b2b7ebd-1722526655699.jpg",
        "location": "卡面背景",
        "point_id": "9b2b7ebd",
        "point_name": "",
        "remark": "茅森月歌(残響のカルディナル)"
      },
      "type": "Feature"
    },
    {
      "geometry": {
        "coordinates": [
          139.692996,
          35.689669
        ],
        "type": "Point"
      },
      "properties": {
        "bangumi_id": 295308,
        "bangumi_title": "炽焰天穹",
        "ep_cut": "",
        "image_url": "https://w.junreimap.com/images/points/295308/bad773a9_1722839684760.jpg",
        "location": "卡面背景",
        "point_id": "bad773a9",
        "point_name": "東京都庁",
        "remark": "樋口聖華(宙の探究、星の眩耀)"
      },
      "type": "Feature"
    },
    {
      "geometry": {
        "coordinates": [
          139.689688,
          35.684495
        ],
        "type": "Point"
      },
      "properties": {
        "bangumi_id": 295308,
        "bangumi_title": "炽焰天穹",
        "ep_cut": 1,
        "image_url": "https://w.junreimap.com/images/points/295308/mxm9wc6sx_1722842190087.jpg",
        "location": "主线-第一章",
        "point_id": "mxmexp9xb",
        "point_name": "新宿ドーム",
        "remark": "根据地图可知，新宿避难所大致位于新国立剧场附近。"
      },
      "type": "Feature"
    },
    {
      "geometry": {
        "coordinates": [
          139.705929,
          35.693674
        ],
        "type": "Point"
      },
      "properties": {
        "bangumi_id": 295308,
        "bangumi_title": "炽焰天穹",
        "ep_cut": 1,
        "image_url": "https://w.junreimap.com/images/points/295308/mxm9wc6sx_1722842190087.jpg",
        "location": "主线-第一章",
        "point_id": "mxm9wc6sx",
        "point_name": "デススラッグ",
        "remark": "根据地图可知，死亡蛞蝓出现地为新宿花园神社内。"
      },
      "type": "Feature"
    },
    {
      "geometry": {
        "coordinates": [
          139.208885,
          35.382064
        ],
        "type": "Point"
      },
      "properties": {
        "bangumi_id": 295308,
        "bangumi_title": "炽焰天穹",
        "ep_cut": 2,
        "image_url": "https://w.junreimap.com/images/points/295308/5f7f8873_1722840012008.jpg",
        "location": "主线-第二章",
        "point_id": "5f7f8873",
        "point_name": "秦野盆地",
        "remark": "第二章昴星团行动的目标。"
      },
      "type": "Feature"
    },
    {
      "geometry": {
        "coordinates": [
          139.286879,
          35.412999
        ],
        "type": "Point"
      },
      "properties": {
        "bangumi_id": 295308,
        "bangumi_title": "炽焰天穹",
        "ep_cut": 2,
        "image_url": "https://w.junreimap.com/images/points/295308/5f7f8873_1722840012008.jpg",
        "location": "主线-第二章",
        "point_id": "b9f59689",
        "point_name": "上粕屋",
        "remark": ""
      },
      "type": "Feature"
    },
    {
      "geometry": {
        "coordinates": [
          139.238111,
          35.431594
        ],
        "type": "Point"
      },
      "properties": {
        "bangumi_id": 295308,
        "bangumi_title": "炽焰天穹",
        "ep_cut": 2,
        "image_url": "https://w.junreimap.com/images/points/295308/d82a861d_1722840035691.jpg",
        "location": "主线-第二章",
        "point_id": "d82a861d",
        "point_name": "大山阿夫利神社",
        "remark": ""
      },
      "type": "Feature"
    },
    {
      "geometry": {
        "coordinates": [
          139.219463,
          35.427766
        ],
        "type": "Point"
      },
      "properties": {
        "bangumi_id": 295308,
        "bangumi_title": "炽焰天穹",
        "ep_cut": 2,
        "image_url": "https://w.junreimap.com/images/points/295308/d82a861d_1722840035691.jpg",
        "location": "主线-第二章",
        "point_id": "95459eb3",
        "point_name": "ヤビツ峠",
        "remark": ""
      },
      "type": "Feature"
    },
    {
      "geometry": {
        "coordinates": [
          139.208772,
          35.410011
        ],
        "type": "Point"
      },
      "properties": {
        "bangumi_id": 295308,
        "bangumi_title": "炽焰天穹",
        "ep_cut": 2,
        "image_url": "https://w.junreimap.com/images/points/295308/d82a861d_1722840035691.jpg",
        "location": "主线-第二章",
        "point_id": "25c197e5",
        "point_name": "菜の花台展望台",
        "remark": ""
      },
      "type": "Feature"
    },
    {
      "geometry": {
        "coordinates": [
          139.237378,
          35.397779
        ],
        "type": "Point"
      },
      "properties": {
        "bangumi_id": 295308,
        "bangumi_title": "炽焰天穹",
        "ep_cut": 2,
        "image_url": "https://w.junreimap.com/images/points/295308/4abfdacb_1722840120881.jpg",
        "location": "主线-第二章",
        "point_id": "4abfdacb",
        "point_name": "鹿島神社",
        "remark": ""
      },
      "type": "Feature"
    },
    {
      "geometry": {
        "coordinates": [
          139.235857,
          35.379588
        ],
        "type": "Point"
      },
      "properties": {
        "bangumi_id": 295308,
        "bangumi_title": "炽焰天穹",
        "ep_cut": 2,
        "image_url": "https://w.junreimap.com/images/points/295308/cb6d629e_1722840148658.jpg",
        "location": "主线-第二章",
        "point_id": "cb6d629e",
        "point_name": "名古木交差点",
        "remark": ""
      },
      "type": "Feature"
    },
    {
      "geometry": {
        "coordinates": [
          139.236203,
          35.367941
        ],
        "type": "Point"
      },
      "properties": {
        "bangumi_id": 295308,
        "bangumi_title": "炽焰天穹",
        "ep_cut": 2,
        "image_url": "https://w.junreimap.com/images/points/295308/cb6d629e_1722840148658.jpg",
        "location": "主线-第二章",
        "point_id": "75b6a034",
        "point_name": "31F侵攻ポイント",
        "remark": ""
      },
      "type": "Feature"
    },
    {
      "geometry": {
        "coordinates": [
          139.229578,
          35.364319
        ],
        "type": "Point"
      },
      "properties": {
        "bangumi_id": 295308,
        "bangumi_title": "炽焰天穹",
        "ep_cut": 2,
        "image_url": "https://w.junreimap.com/images/points/295308/cb6d629e_1722840148658.jpg",
        "location": "主线-第二章",
        "point_id": "b59e8787",
        "point_name": "31E侵攻ポイント",
        "remark": ""
      },
      "type": "Feature"
    },
    {
      "geometry": {
        "coordinates": [
          139.221912,
          35.360854
        ],
        "type": "Point"
      },
      "properties": {
        "bangumi_id": 295308,
        "bangumi_title": "炽焰天穹",
        "ep_cut": 2,
        "image_url": "https://w.junreimap.com/images/points/295308/cb6d629e_1722840148658.jpg",
        "location": "主线-第二章",
        "point_id": "82ad0fbb",
        "point_name": "31D侵攻ポイント",
        "remark": ""
      },
      "type": "Feature"
    },
    {
      "geometry": {
        "coordinates": [
          139.215277,
          35.357893
        ],
        "type": "Point"
      },
      "properties": {
        "bangumi_id": 295308,
        "bangumi_title": "炽焰天穹",
        "ep_cut": 2,
        "image_url": "https://w.junreimap.com/images/points/295308/cb6d629e_1722840148658.jpg",
        "location": "主线-第二章",
        "point_id": "f437c34b",
        "point_name": "30B侵攻ポイント",
        "remark": ""
      },
      "type": "Feature"
    },
    {
      "geometry": {
        "coordinates": [
          139.215749,
          35.373707
        ],
        "type": "Point"
      },
      "properties": {
        "bangumi_id": 295308,
        "bangumi_title": "炽焰天穹",
        "ep_cut": 2,
        "image_url": "https://w.junreimap.com/images/points/295308/f6532b19_1722840168737.jpg",
        "location": "主线-第二章",
        "point_id": "f6532b19",
        "point_name": "31F待機ポイント",
        "remark": ""
      },
      "type": "Feature"
    },
    {
      "geometry": {
        "coordinates": [
          139.19884,
          35.381755
        ],
        "type": "Point"
      },
      "properties": {
        "bangumi_id": 295308,
        "bangumi_title": "炽焰天穹",
        "ep_cut": 2,
        "image_url": "https://w.junreimap.com/images/points/295308/f6532b19_1722840168737.jpg",
        "location": "主线-第二章",
        "point_id": "1f15273a",
        "point_name": "31D待機ポイント",
        "remark": ""
      },
      "type": "Feature"
    },
    {
      "geometry": {
        "coordinates": [
          139.182518,
          35.391115
        ],
        "type": "Point"
      },
      "properties": {
        "bangumi_id": 295308,
        "bangumi_title": "炽焰天穹",
        "ep_cut": 2,
        "image_url": "https://w.junreimap.com/images/points/295308/f6532b19_1722840168737.jpg",
        "location": "主线-第二章",
        "point_id": "47ab5825",
        "point_name": "30B待機ポイント",
        "remark": ""
      },
      "type": "Feature"
    },
    {
      "geometry": {
        "coordinates": [
          139.196423,
          35.399651
        ],
        "type": "Point"
      },
      "properties": {
        "bangumi_id": 295308,
        "bangumi_title": "炽焰天穹",
        "ep_cut": 2,
        "image_url": "https://w.junreimap.com/images/points/295308/f6532b19_1722840168737.jpg",
        "location": "主线-第二章",
        "point_id": "d6259fcd",
        "point_name": "31E待機ポイント",
        "remark": ""
      },
      "type": "Feature"
    },
    {
      "geometry": {
        "coordinates": [
          139.15853,
          35.361184
        ],
        "type": "Point"
      },
      "properties": {
        "bangumi_id": 295308,
        "bangumi_title": "炽焰天穹",
        "ep_cut": 2,
        "image_url": "https://w.junreimap.com/images/points/295308/3e538a2a_1722840285176.jpg",
        "location": "主线-第二章",
        "point_id": "3e538a2a",
        "point_name": "ポイントデルタ",
        "remark": ""
      },
      "type": "Feature"
    },
    {
      "geometry": {
        "coordinates": [
          139.177218,
          35.508743
        ],
        "type": "Point"
      },
      "properties": {
        "bangumi_id": 295308,
        "bangumi_title": "炽焰天穹",
        "ep_cut": 2,
        "image_url": "https://w.junreimap.com/images/points/295308/03fa51dc_1722839945492.jpg",
        "location": "主线-第二章",
        "point_id": "03fa51dc",
        "point_name": "レッドクリムゾン初観測",
        "remark": "位于桥头堡11时方向10000米处。"
      },
      "type": "Feature"
    },
    {
      "geometry": {
        "coordinates": [
          138.795347,
          35.335493
        ],
        "type": "Point"
      },
      "properties": {
        "bangumi_id": 295308,
        "bangumi_title": "炽焰天穹",
        "ep_cut": 3,
        "image_url": "https://w.junreimap.com/images/points/295308/mxo77u3yr_1722864001642.jpg",
        "location": "主线-第三章",
        "point_id": "mxo77u3yr",
        "point_name": "御殿場登山口",
        "remark": ""
      },
      "type": "Feature"
    },
    {
      "geometry": {
        "coordinates": [
          138.731708,
          35.360115
        ],
        "type": "Point"
      },
      "properties": {
        "bangumi_id": 295308,
        "bangumi_title": "炽焰天穹",
        "ep_cut": 3,
        "image_url": "https://w.junreimap.com/images/points/295308/mxlfums1f_1722864007205.jpg",
        "location": "主线-第三章",
        "point_id": "mxlfums1f",
        "point_name": "富士山山顶",
        "remark": "游戏中背景为通用背景，和富士山不符。"
      },
      "type": "Feature"
    },
    {
      "geometry": {
        "coordinates": [
          138.943992,
          35.85538
        ],
        "type": "Point"
      },
      "properties": {
        "bangumi_id": 295308,
        "bangumi_title": "炽焰天穹",
        "ep_cut": 3,
        "image_url": "https://w.junreimap.com/images/points/295308/nd5f1o0wu_1724059348251.jpg",
        "location": "主线-第三章",
        "point_id": "nd5f1o0wu",
        "point_name": "雲取山",
        "remark": "第三章中由31C负责攻略的目标。"
      },
      "type": "Feature"
    },
    {
      "geometry": {
        "coordinates": [
          138.656736,
          35.802805
        ],
        "type": "Point"
      },
      "properties": {
        "bangumi_id": 295308,
        "bangumi_title": "炽焰天穹",
        "ep_cut": 3,
        "image_url": "https://w.junreimap.com/images/points/295308/nd58c2a8x_1724059405728.jpg",
        "location": "主线-第三章",
        "point_id": "nd58c2a8x",
        "point_name": "乙女湖",
        "remark": "前往金峰山进行威力侦察的起点。"
      },
      "type": "Feature"
    },
    {
      "geometry": {
        "coordinates": [
          138.625405,
          35.871563
        ],
        "type": "Point"
      },
      "properties": {
        "bangumi_id": 295308,
        "bangumi_title": "炽焰天穹",
        "ep_cut": 3,
        "image_url": "https://w.junreimap.com/images/points/295308/nd57l2st5_1724059460162.jpg",
        "location": "主线-第三章",
        "point_id": "nd57l2st5",
        "point_name": "金峰山",
        "remark": "威力侦察第一地点，高2599m，距离降落地乙女湖约25000m。游戏背景图中可见山顶的五丈岩。"
      },
      "type": "Feature"
    },
    {
      "geometry": {
        "coordinates": [
          138.354056,
          35.67559
        ],
        "type": "Point"
      },
      "properties": {
        "bangumi_id": 295308,
        "bangumi_title": "炽焰天穹",
        "ep_cut": 3,
        "image_url": "https://w.junreimap.com/images/points/295308/nd5c3vq4k_1724059706074.jpg",
        "location": "主线-第三章",
        "point_id": "nd5c3vq4k",
        "point_name": "千頭星山",
        "remark": "前往凤凰山进行威力侦察的起点。"
      },
      "type": "Feature"
    },
    {
      "geometry": {
        "coordinates": [
          138.314443,
          35.702065
        ],
        "type": "Point"
      },
      "properties": {
        "bangumi_id": 295308,
        "bangumi_title": "炽焰天穹",
        "ep_cut": 3,
        "image_url": "https://w.junreimap.com/images/points/295308/nd6nedgox_1724062838766.jpg",
        "location": "主线-第三章",
        "point_id": "nd6nedgox",
        "point_name": "鳳凰山",
        "remark": "威力侦察第二地点。"
      },
      "type": "Feature"
    },
    {
      "geometry": {
        "coordinates": [
          138.311478,
          35.695487
        ],
        "type": "Point"
      },
      "properties": {
        "bangumi_id": 295308,
        "bangumi_title": "炽焰天穹",
        "ep_cut": 3,
        "image_url": "https://w.junreimap.com/images/points/295308/nd5bkqarm_1724059773621.jpg",
        "location": "主线-第三章",
        "point_id": "nd5bkqarm",
        "point_name": "鳳凰山 薬師ケ岳",
        "remark": "威力侦察第二地点凤凰山的山峰之一。"
      },
      "type": "Feature"
    },
    {
      "geometry": {
        "coordinates": [
          138.314419,
          35.706125
        ],
        "type": "Point"
      },
      "properties": {
        "bangumi_id": 295308,
        "bangumi_title": "炽焰天穹",
        "ep_cut": 3,
        "image_url": "https://w.junreimap.com/images/points/295308/nd5o3qqay_1724059846011.jpg",
        "location": "主线-第三章",
        "point_id": "nd5o3qqay",
        "point_name": "五色ケ滝",
        "remark": "30G从药师岳前往观音岳的路线途径之处。"
      },
      "type": "Feature"
    },
    {
      "geometry": {
        "coordinates": [
          138.304473,
          35.701514
        ],
        "type": "Point"
      },
      "properties": {
        "bangumi_id": 295308,
        "bangumi_title": "炽焰天穹",
        "ep_cut": 3,
        "image_url": "https://w.junreimap.com/images/points/295308/nd5blo9lu_1724059874320.jpg",
        "location": "主线-第三章",
        "point_id": "nd5blo9lu",
        "point_name": "鳳凰山 観音ケ岳",
        "remark": "威力侦察第二地点凤凰山的山峰之一。"
      },
      "type": "Feature"
    },
    {
      "geometry": {
        "coordinates": [
          138.299869,
          35.710747
        ],
        "type": "Point"
      },
      "properties": {
        "bangumi_id": 295308,
        "bangumi_title": "炽焰天穹",
        "ep_cut": 3,
        "image_url": "https://w.junreimap.com/images/points/295308/nd5zgpfiw_1724060569338.jpg",
        "location": "主线-第三章",
        "point_id": "nd5zgpfiw",
        "point_name": "鳳凰山 地蔵ケ岳 賽の河原",
        "remark": "地藏岳前方布满沙砾的陡坡被称为赛之河原，并有一些地藏像在此。"
      },
      "type": "Feature"
    },
    {
      "geometry": {
        "coordinates": [
          138.298573,
          35.712009
        ],
        "type": "Point"
      },
      "properties": {
        "bangumi_id": 295308,
        "bangumi_title": "炽焰天穹",
        "ep_cut": 3,
        "image_url": "https://w.junreimap.com/images/points/295308/nd5bmbhnu_1724060657540.jpg",
        "location": "主线-第三章",
        "point_id": "nd5bmbhnu",
        "point_name": "鳳凰山 地蔵ケ岳",
        "remark": "威力侦察第二地点凤凰山的山峰之一。山顶的尖塔被称作地蔵仏岩或オベリスク。"
      },
      "type": "Feature"
    },
    {
      "geometry": {
        "coordinates": [
          138.315891,
          35.767464
        ],
        "type": "Point"
      },
      "properties": {
        "bangumi_id": 295308,
        "bangumi_title": "炽焰天穹",
        "ep_cut": 3,
        "image_url": "https://w.junreimap.com/images/points/295308/nd65x5qh1_1724061071730.jpg",
        "location": "主线-第三章",
        "point_id": "nd65x5qh1",
        "point_name": "大武川",
        "remark": "前往甲斐驹岳进行威力侦察的起点。"
      },
      "type": "Feature"
    },
    {
      "geometry": {
        "coordinates": [
          138.239976,
          35.753043
        ],
        "type": "Point"
      },
      "properties": {
        "bangumi_id": 295308,
        "bangumi_title": "炽焰天穹",
        "ep_cut": 3,
        "image_url": "https://w.junreimap.com/images/points/295308/nd6fquvkn_1724061556236.jpg",
        "location": "主线-第三章",
        "point_id": "nd6fquvkn",
        "point_name": "甲斐駒ヶ岳 摩利支天",
        "remark": "从山脊攀登甲斐驹岳的时会遇到通向摩利支天的岔路。"
      },
      "type": "Feature"
    },
    {
      "geometry": {
        "coordinates": [
          138.236774,
          35.757881
        ],
        "type": "Point"
      },
      "properties": {
        "bangumi_id": 295308,
        "bangumi_title": "炽焰天穹",
        "ep_cut": 3,
        "image_url": "https://w.junreimap.com/images/points/295308/nd66e8myk_1724061591620.jpg",
        "location": "主线-第三章",
        "point_id": "nd66e8myk",
        "point_name": "甲斐駒ヶ岳",
        "remark": "威力侦察第三地点。"
      },
      "type": "Feature"
    },
    {
      "geometry": {
        "coordinates": [
          138.412332,
          35.933602
        ],
        "type": "Point"
      },
      "properties": {
        "bangumi_id": 295308,
        "bangumi_title": "炽焰天穹",
        "ep_cut": 3,
        "image_url": "https://w.junreimap.com/images/points/295308/nd6luyqd9_1724062840352.jpg",
        "location": "主线-第三章",
        "point_id": "nd7nz3b2w",
        "point_name": "川俣川渓谷",
        "remark": "前往八岳进行侦察的起点。"
      },
      "type": "Feature"
    },
    {
      "geometry": {
        "coordinates": [
          138.364697,
          35.974728
        ],
        "type": "Point"
      },
      "properties": {
        "bangumi_id": 295308,
        "bangumi_title": "炽焰天穹",
        "ep_cut": 3,
        "image_url": "https://w.junreimap.com/images/points/295308/nd6luyqd9_1724062840352.jpg",
        "location": "主线-第三章",
        "point_id": "nd6luyqd9",
        "point_name": "八ヶ岳",
        "remark": "威力侦察第四地点。南北约30km的火山群。"
      },
      "type": "Feature"
    },
    {
      "geometry": {
        "coordinates": [
          138.370241,
          35.970833
        ],
        "type": "Point"
      },
      "properties": {
        "bangumi_id": 295308,
        "bangumi_title": "炽焰天穹",
        "ep_cut": 3,
        "image_url": "https://w.junreimap.com/images/points/295308/nd6nah5qg_1724062354930.jpg",
        "location": "主线-第三章",
        "point_id": "nd6nah5qg",
        "point_name": "赤岳",
        "remark": "31A侦察八岳地区的第一个目标。"
      },
      "type": "Feature"
    },
    {
      "geometry": {
        "coordinates": [
          138.372856,
          35.986025
        ],
        "type": "Point"
      },
      "properties": {
        "bangumi_id": 295308,
        "bangumi_title": "炽焰天穹",
        "ep_cut": 3,
        "image_url": "https://w.junreimap.com/images/points/295308/nd6r6bdgg_1724062612046.jpg",
        "location": "主线-第三章",
        "point_id": "nd6r6bdgg",
        "point_name": "横岳",
        "remark": "31A侦察八岳地区的第二个目标。"
      },
      "type": "Feature"
    },
    {
      "geometry": {
        "coordinates": [
          138.358664,
          35.972271
        ],
        "type": "Point"
      },
      "properties": {
        "bangumi_id": 295308,
        "bangumi_title": "炽焰天穹",
        "ep_cut": 3,
        "image_url": "https://w.junreimap.com/images/points/295308/nd6ovtqdy_1724062696538.jpg",
        "location": "主线-第三章",
        "point_id": "nd6ovtqdy",
        "point_name": "阿弥陀岳",
        "remark": "30G侦察八岳地区时的起点。"
      },
      "type": "Feature"
    },
    {
      "geometry": {
        "coordinates": [
          138.364441,
          35.978763
        ],
        "type": "Point"
      },
      "properties": {
        "bangumi_id": 295308,
        "bangumi_title": "炽焰天穹",
        "ep_cut": 3,
        "image_url": "https://w.junreimap.com/images/points/295308/nd6ovtqdy_1724062696538.jpg",
        "location": "主线-第三章",
        "point_id": "nd6pblxyf",
        "point_name": "行者小屋",
        "remark": "30G侦察八岳地区时的途径点。"
      },
      "type": "Feature"
    },
    {
      "geometry": {
        "coordinates": [
          138.361608,
          35.987034
        ],
        "type": "Point"
      },
      "properties": {
        "bangumi_id": 295308,
        "bangumi_title": "炽焰天穹",
        "ep_cut": 3,
        "image_url": "https://w.junreimap.com/images/points/295308/nd6ovtqdy_1724062696538.jpg",
        "location": "主线-第三章",
        "point_id": "nd6p0ow2y",
        "point_name": "赤岳鉱泉",
        "remark": "30G侦察八岳地区时的途径点。"
      },
      "type": "Feature"
    },
    {
      "geometry": {
        "coordinates": [
          138.367948,
          35.998813
        ],
        "type": "Point"
      },
      "properties": {
        "bangumi_id": 295308,
        "bangumi_title": "炽焰天穹",
        "ep_cut": 3,
        "image_url": "https://w.junreimap.com/images/points/295308/nd6qhwk64_1724064374492_c16v9.jpg",
        "location": "主线-第三章",
        "point_id": "nd6qhwk64",
        "point_name": "硫黄岳",
        "remark": "31A侦察八岳时的第三个目标，同时是30G和31A的会合点。图中为硫磺岳爆裂火山口。"
      },
      "type": "Feature"
    },
    {
      "geometry": {
        "coordinates": [
          138.364694,
          36.006201
        ],
        "type": "Point"
      },
      "properties": {
        "bangumi_id": 295308,
        "bangumi_title": "炽焰天穹",
        "ep_cut": 3,
        "image_url": "https://w.junreimap.com/images/points/295308/nd6s8kx93_1724062570452.jpg",
        "location": "主线-第三章",
        "point_id": "nd6s8kx93",
        "point_name": "夏沢峠",
        "remark": "八岳地区侦察的最后一个目标。"
      },
      "type": "Feature"
    },
    {
      "geometry": {
        "coordinates": [
          138.151517,
          35.993783
        ],
        "type": "Point"
      },
      "properties": {
        "bangumi_id": 295308,
        "bangumi_title": "炽焰天穹",
        "ep_cut": 3,
        "image_url": "https://w.junreimap.com/images/points/295308/nd7kp56ub_1724064325358.jpg",
        "location": "主线-第三章",
        "point_id": "nd7kp56ub",
        "point_name": "旧茅野市",
        "remark": "雾峰侦察的起点和终点。"
      },
      "type": "Feature"
    },
    {
      "geometry": {
        "coordinates": [
          138.222979,
          36.085452
        ],
        "type": "Point"
      },
      "properties": {
        "bangumi_id": 295308,
        "bangumi_title": "炽焰天穹",
        "ep_cut": 3,
        "image_url": "https://w.junreimap.com/images/points/295308/nd7kp56ub_1724064325358.jpg",
        "location": "主线-第三章",
        "point_id": "nd7uxqjx5",
        "point_name": "音無川/北山",
        "remark": "雾峰侦察的途径点。"
      },
      "type": "Feature"
    },
    {
      "geometry": {
        "coordinates": [
          138.209228,
          36.100717
        ],
        "type": "Point"
      },
      "properties": {
        "bangumi_id": 295308,
        "bangumi_title": "炽焰天穹",
        "ep_cut": 3,
        "image_url": "https://w.junreimap.com/images/points/295308/nd8bom6xt_1724065826284.jpg",
        "location": "主线-第三章",
        "point_id": "nd8bom6xt",
        "point_name": "車山前",
        "remark": "车山前方的丘陵地带，以北萱草闻名。"
      },
      "type": "Feature"
    },
    {
      "geometry": {
        "coordinates": [
          138.20675,
          36.100638
        ],
        "type": "Point"
      },
      "properties": {
        "bangumi_id": 295308,
        "bangumi_title": "炽焰天穹",
        "ep_cut": 3,
        "image_url": "https://w.junreimap.com/images/points/295308/nd7x92s11_1724064855958.jpg",
        "location": "主线-第三章",
        "point_id": "nd7x92s11",
        "point_name": "FlatHand",
        "remark": "从车山山顶可观测到占据了整个丘陵的巨大星癌体。"
      },
      "type": "Feature"
    },
    {
      "geometry": {
        "coordinates": [
          138.196718,
          36.103123
        ],
        "type": "Point"
      },
      "properties": {
        "bangumi_id": 295308,
        "bangumi_title": "炽焰天穹",
        "ep_cut": 3,
        "image_url": "https://w.junreimap.com/images/points/295308/nd8uv7jm1_1724066787633.jpg",
        "location": "主线-第三章",
        "point_id": "nd8uv7jm1",
        "point_name": "車山",
        "remark": "雾峰主山。"
      },
      "type": "Feature"
    },
    {
      "geometry": {
        "coordinates": [
          138.092819,
          36.035925
        ],
        "type": "Point"
      },
      "properties": {
        "bangumi_id": 295308,
        "bangumi_title": "炽焰天穹",
        "ep_cut": 3,
        "image_url": "https://w.junreimap.com/images/points/295308/nd90w8ioe_1724067239866.jpg",
        "location": "主线-第三章",
        "point_id": "nd90w8ioe",
        "point_name": "イージスタワー",
        "remark": "根据地图推断出的诹访湖南侧的神盾塔（Aegis Tower）的大致位置。"
      },
      "type": "Feature"
    },
    {
      "geometry": {
        "coordinates": [
          138.454807,
          36.052635
        ],
        "type": "Point"
      },
      "properties": {
        "bangumi_id": 295308,
        "bangumi_title": "炽焰天穹",
        "ep_cut": 3,
        "image_url": "https://w.junreimap.com/images/points/295308/nd9eok1qv_1724137269343.jpg",
        "location": "主线-第三章",
        "point_id": "nd9eok1qv",
        "point_name": "松原湖",
        "remark": ""
      },
      "type": "Feature"
    },
    {
      "geometry": {
        "coordinates": [
          138.295066,
          36.103669
        ],
        "type": "Point"
      },
      "properties": {
        "bangumi_id": 295308,
        "bangumi_title": "炽焰天穹",
        "ep_cut": 3,
        "image_url": "https://w.junreimap.com/images/points/295308/nd9eok1qv_1724137269343.jpg",
        "location": "主线-第三章",
        "point_id": "nd9grhh94",
        "point_name": "蓼科山",
        "remark": ""
      },
      "type": "Feature"
    },
    {
      "geometry": {
        "coordinates": [
          138.380124,
          36.063001
        ],
        "type": "Point"
      },
      "properties": {
        "bangumi_id": 295308,
        "bangumi_title": "炽焰天穹",
        "ep_cut": 3,
        "image_url": "https://w.junreimap.com/images/points/295308/ne4mhkt9p_1724168966550.jpg",
        "location": "主线-第三章",
        "point_id": "ne4mhkt9p",
        "point_name": "メルヘン街道",
        "remark": "国道299号在茅野市附近一片区域内的爱称。"
      },
      "type": "Feature"
    },
    {
      "geometry": {
        "coordinates": [
          138.34717,
          36.059085
        ],
        "type": "Point"
      },
      "properties": {
        "bangumi_id": 295308,
        "bangumi_title": "炽焰天穹",
        "ep_cut": 3,
        "image_url": "https://w.junreimap.com/images/points/295308/ne4m8eo5e_1724137159140.jpg",
        "location": "主线-第三章",
        "point_id": "ne4m8eo5e",
        "point_name": "麦草峠",
        "remark": ""
      },
      "type": "Feature"
    },
    {
      "geometry": {
        "coordinates": [
          138.0288,
          36.086157
        ],
        "type": "Point"
      },
      "properties": {
        "bangumi_id": 295308,
        "bangumi_title": "炽焰天穹",
        "ep_cut": 3,
        "image_url": "https://w.junreimap.com/images/points/295308/ne552wu3y_1724137133292.jpg",
        "location": "主线-第三章",
        "point_id": "ne552wu3y",
        "point_name": "塩尻峠",
        "remark": ""
      },
      "type": "Feature"
    },
    {
      "geometry": {
        "coordinates": [
          138.352875,
          35.982366
        ],
        "type": "Point"
      },
      "properties": {
        "bangumi_id": 295308,
        "bangumi_title": "炽焰天穹",
        "ep_cut": 3,
        "image_url": "",
        "location": "主线-第三章",
        "point_id": "nd9li52jr",
        "point_name": "美濃戸中山",
        "remark": ""
      },
      "type": "Feature"
    },
    {
      "geometry": {
        "coordinates": [
          135.805922,
          34.892724
        ],
        "type": "Point"
      },
      "properties": {
        "bangumi_id": 295308,
        "bangumi_title": "炽焰天穹",
        "ep_cut": 5,
        "image_url": "https://w.junreimap.com/images/points/295308/mxmtqro4a_1724064384196_c16v9.jpg",
        "location": "主线-第五章前编",
        "point_id": "mxmtqro4a",
        "point_name": "宇治桥",
        "remark": ""
      },
      "type": "Feature"
    },
    {
      "geometry": {
        "coordinates": [
          135.174105,
          34.723216
        ],
        "type": "Point"
      },
      "properties": {
        "bangumi_id": 295308,
        "bangumi_title": "炽焰天穹",
        "ep_cut": 5,
        "image_url": "https://w.junreimap.com/images/user/1011/bangumi/295308/points/4nyn52m-1757166419715.jpg",
        "location": "主线-第五章前编",
        "point_id": "4nyn52m",
        "point_name": "外国人墓地",
        "remark": "DAY02 10:30(午前02)"
      },
      "type": "Feature"
    },
    {
      "geometry": {
        "coordinates": [
          134.696469,
          34.798253
        ],
        "type": "Point"
      },
      "properties": {
        "bangumi_id": 295308,
        "bangumi_title": "炽焰天穹",
        "ep_cut": 5,
        "image_url": "https://w.junreimap.com/images/user/1011/bangumi/295308/points/4nyynn5-1757166965433.jpg",
        "location": "主线-第五章前编",
        "point_id": "4nyynn5",
        "point_name": "妻鹿城跡(国府山城址)",
        "remark": "DAY03 15:00(午後02)"
      },
      "type": "Feature"
    },
    {
      "geometry": {
        "coordinates": [
          135.111786,
          34.649746
        ],
        "type": "Point"
      },
      "properties": {
        "bangumi_id": 295308,
        "bangumi_title": "炽焰天穹",
        "ep_cut": 5,
        "image_url": "https://w.junreimap.com/images/user/1011/bangumi/295308/points/4nz4b8h-1757167250742.jpg",
        "location": "主线-第五章前编",
        "point_id": "4nz4b8h",
        "point_name": "須磨寺",
        "remark": "DAY04 15:00(午後02)"
      },
      "type": "Feature"
    },
    {
      "geometry": {
        "coordinates": [
          135.570719,
          35.056978
        ],
        "type": "Point"
      },
      "properties": {
        "bangumi_id": 295308,
        "bangumi_title": "炽焰天穹",
        "ep_cut": 5,
        "image_url": "https://w.junreimap.com/images/user/1011/bangumi/295308/points/4nz9ly1-1757167467814.jpg",
        "location": "主线-第五章前编",
        "point_id": "4nz9ly1",
        "point_name": "千歳車塚古墳",
        "remark": "DAY05 15:00(午後02)"
      },
      "type": "Feature"
    },
    {
      "geometry": {
        "coordinates": [
          135.081702,
          34.97388
        ],
        "type": "Point"
      },
      "properties": {
        "bangumi_id": 295308,
        "bangumi_title": "炽焰天穹",
        "ep_cut": 5,
        "image_url": "https://w.junreimap.com/images/user/1011/bangumi/295308/points/4nzqkbo-1757168397179.jpg",
        "location": "主线-第五章前编",
        "point_id": "4nzqkbo",
        "point_name": "滾浄水（おかげの井戸）",
        "remark": "DAY06 15:00(午後02)"
      },
      "type": "Feature"
    },
    {
      "geometry": {
        "coordinates": [
          135.807696,
          34.889281
        ],
        "type": "Point"
      },
      "properties": {
        "bangumi_id": 295308,
        "bangumi_title": "炽焰天穹",
        "ep_cut": 5,
        "image_url": "https://w.junreimap.com/images/user/1011/bangumi/295308/points/4nx9rq2-1757164143997.jpg",
        "location": "主线-第五章前编",
        "point_id": "4nx9rq2",
        "point_name": "平等院鳳凰堂",
        "remark": "DAY09 12:30(昼)"
      },
      "type": "Feature"
    },
    {
      "geometry": {
        "coordinates": [
          135.569377,
          34.863204
        ],
        "type": "Point"
      },
      "properties": {
        "bangumi_id": 295308,
        "bangumi_title": "炽焰天穹",
        "ep_cut": 5,
        "image_url": "https://w.junreimap.com/images/user/1011/bangumi/295308/points/4nxkepe-1757164964080.jpg",
        "location": "主线-第五章前编",
        "point_id": "4nxkepe",
        "point_name": "阿武山古墳",
        "remark": "DAY10 12:30(昼)"
      },
      "type": "Feature"
    },
    {
      "geometry": {
        "coordinates": [
          135.41175,
          34.459083
        ],
        "type": "Point"
      },
      "properties": {
        "bangumi_id": 295308,
        "bangumi_title": "炽焰天穹",
        "ep_cut": 5,
        "image_url": "https://w.junreimap.com/images/user/1011/bangumi/295308/points/4nxzy42-1757165363795.jpg",
        "location": "主线-第五章前编",
        "point_id": "4nxzy42",
        "point_name": "久米田寺",
        "remark": "DAY11 12:30(昼)"
      },
      "type": "Feature"
    },
    {
      "geometry": {
        "coordinates": [
          135.734436,
          34.614491
        ],
        "type": "Point"
      },
      "properties": {
        "bangumi_id": 295308,
        "bangumi_title": "炽焰天穹",
        "ep_cut": 5,
        "image_url": "https://w.junreimap.com/images/user/1011/bangumi/295308/points/4ny5lwm-1757165597087.jpg",
        "location": "主线-第五章前编",
        "point_id": "4ny5lwm",
        "point_name": "法隆寺",
        "remark": "DAY12 12:30(昼)"
      },
      "type": "Feature"
    },
    {
      "geometry": {
        "coordinates": [
          139.406646,
          36.795603
        ],
        "type": "Point"
      },
      "properties": {
        "bangumi_id": 295308,
        "bangumi_title": "炽焰天穹",
        "ep_cut": "",
        "image_url": "https://w.junreimap.com/images/points/295308/nd4nutahm_1724135849582.jpg",
        "location": "活动-大岛屋物语",
        "point_id": "nd4nutahm",
        "point_name": "奥日光 外山",
        "remark": ""
      },
      "type": "Feature"
    },
    {
      "geometry": {
        "coordinates": [
          139.424977,
          36.806057
        ],
        "type": "Point"
      },
      "properties": {
        "bangumi_id": 295308,
        "bangumi_title": "炽焰天穹",
        "ep_cut": "",
        "image_url": "https://w.junreimap.com/images/points/295308/nd9vsixyi_1724135853500.jpg",
        "location": "活动-大岛屋物语",
        "point_id": "nd9vsixyi",
        "point_name": "奥日光 湯元",
        "remark": ""
      },
      "type": "Feature"
    },
    {
      "geometry": {
        "coordinates": [
          139.424709,
          36.818234
        ],
        "type": "Point"
      },
      "properties": {
        "bangumi_id": 295308,
        "bangumi_title": "炽焰天穹",
        "ep_cut": "",
        "image_url": "",
        "location": "活动-大岛屋物语",
        "point_id": "nea1x37gb",
        "point_name": "奥日光  小峠",
        "remark": ""
      },
      "type": "Feature"
    },
    {
      "geometry": {
        "coordinates": [
          139.765607,
          35.681483
        ],
        "type": "Point"
      },
      "properties": {
        "bangumi_id": 295308,
        "bangumi_title": "炽焰天穹",
        "ep_cut": "",
        "image_url": "https://w.junreimap.com/images/points/295308/mdfhlhkuq_1721260591498.jpg",
        "location": "活动-大岛屋物语",
        "point_id": "mdfhlhkuq",
        "point_name": "東京駅",
        "remark": ""
      },
      "type": "Feature"
    },
    {
      "geometry": {
        "coordinates": [
          139.796449,
          35.711844
        ],
        "type": "Point"
      },
      "properties": {
        "bangumi_id": 295308,
        "bangumi_title": "炽焰天穹",
        "ep_cut": "",
        "image_url": "https://w.junreimap.com/images/points/295308/376363ab_1721260592747.jpg",
        "location": "活动-大岛屋物语",
        "point_id": "376363ab",
        "point_name": "仲見世",
        "remark": "仲見世"
      },
      "type": "Feature"
    },
    {
      "geometry": {
        "coordinates": [
          139.796358,
          35.711121
        ],
        "type": "Point"
      },
      "properties": {
        "bangumi_id": 295308,
        "bangumi_title": "炽焰天穹",
        "ep_cut": "",
        "image_url": "https://w.junreimap.com/images/points/295308/e1da8af1_1721260593924.jpg",
        "location": "活动-大岛屋物语",
        "point_id": "e1da8af1",
        "point_name": "雷門",
        "remark": ""
      },
      "type": "Feature"
    },
    {
      "geometry": {
        "coordinates": [
          139.797405,
          35.714793
        ],
        "type": "Point"
      },
      "properties": {
        "bangumi_id": 295308,
        "bangumi_title": "炽焰天穹",
        "ep_cut": "",
        "image_url": "https://w.junreimap.com/images/points/295308/mdfloh93w_1721278796040.jpg",
        "location": "活动-大岛屋物语",
        "point_id": "mdfloh93w",
        "point_name": "浅草神社",
        "remark": ""
      },
      "type": "Feature"
    },
    {
      "geometry": {
        "coordinates": [
          139.797418,
          35.714922
        ],
        "type": "Point"
      },
      "properties": {
        "bangumi_id": 295308,
        "bangumi_title": "炽焰天穹",
        "ep_cut": "",
        "image_url": "https://w.junreimap.com/images/points/295308/mdntcn42c_1721278797205.jpg",
        "location": "活动-大岛屋物语",
        "point_id": "mdntcn42c",
        "point_name": "浅草神社賽銭箱",
        "remark": ""
      },
      "type": "Feature"
    },
    {
      "geometry": {
        "coordinates": [
          139.797325,
          35.714935
        ],
        "type": "Point"
      },
      "properties": {
        "bangumi_id": 295308,
        "bangumi_title": "炽焰天穹",
        "ep_cut": "",
        "image_url": "https://w.junreimap.com/images/points/295308/mdnuemrwf_1721278798408.jpg",
        "location": "活动-大岛屋物语",
        "point_id": "mdnuemrwf",
        "point_name": "浅草神社絵馬",
        "remark": "CG中被放在浅草神社本殿左侧，现实中在另一位置。"
      },
      "type": "Feature"
    },
    {
      "geometry": {
        "coordinates": [
          139.764329,
          35.676582
        ],
        "type": "Point"
      },
      "properties": {
        "bangumi_id": 295308,
        "bangumi_title": "炽焰天穹",
        "ep_cut": "",
        "image_url": "https://w.junreimap.com/images/points/295308/mdfofnjcb_1721260596302.jpg",
        "location": "活动-孤高的善变者们",
        "point_id": "mdfofnjcb",
        "point_name": "東京​国際​フォーラム​ガラス​棟",
        "remark": ""
      },
      "type": "Feature"
    },
    {
      "geometry": {
        "coordinates": [
          139.78532,
          35.627128
        ],
        "type": "Point"
      },
      "properties": {
        "bangumi_id": 295308,
        "bangumi_title": "炽焰天穹",
        "ep_cut": "",
        "image_url": "https://w.junreimap.com/images/points/295308/mxlpz40sf_1722841581719.jpg",
        "location": "迷宫-有明",
        "point_id": "mxlpz40sf",
        "point_name": "東京ベイコート倶楽部 ホテル&スパリゾート",
        "remark": "右侧建筑物为东京BATCOURT俱乐部。"
      },
      "type": "Feature"
    },
    {
      "geometry": {
        "coordinates": [
          139.790477,
          35.634108
        ],
        "type": "Point"
      },
      "properties": {
        "bangumi_id": 295308,
        "bangumi_title": "炽焰天穹",
        "ep_cut": "",
        "image_url": "https://w.junreimap.com/images/points/295308/mxlu8yuj4_1722841589681.jpg",
        "location": "迷宫-有明",
        "point_id": "mxlu8yuj4",
        "point_name": "東京国際展示場",
        "remark": "中间远处建筑物为东京国际展示场，近处高楼为有明フロンティアビル。"
      },
      "type": "Feature"
    },
    {
      "geometry": {
        "coordinates": [
          139.618015,
          35.131629
        ],
        "type": "Point"
      },
      "properties": {
        "bangumi_id": 295308,
        "bangumi_title": "炽焰天穹",
        "ep_cut": "",
        "image_url": "https://w.junreimap.com/images/user/0/bangumi/295308/points/h4xcqln-1784313540848.webp",
        "location": "",
        "point_id": "h4xcqln",
        "point_name": "馬の背洞門",
        "remark": ""
      },
      "type": "Feature"
    }
  ],
  "type": "FeatureCollection"
}