{
  "features": [
    {
      "geometry": {
        "coordinates": [
          139.820631,
          35.748217
        ],
        "type": "Point"
      },
      "properties": {
        "bangumi_id": 296367,
        "bangumi_title": "SSSS.电光机王",
        "ep_cut": 1,
        "image_url": "https://w.junreimap.com/images/points/296367/ug21svmue_1744034870562.jpg",
        "location": "绫濑水门及堀切桥周边",
        "point_id": "ug21svmue",
        "point_name": "绫濑水门",
        "remark": ""
      },
      "type": "Feature"
    },
    {
      "geometry": {
        "coordinates": [
          139.82005,
          35.748233
        ],
        "type": "Point"
      },
      "properties": {
        "bangumi_id": 296367,
        "bangumi_title": "SSSS.电光机王",
        "ep_cut": 1,
        "image_url": "https://w.junreimap.com/images/points/296367/akyaa0f_1770045935149.jpg",
        "location": "绫濑水门及堀切桥周边",
        "point_id": "akyaa0f",
        "point_name": "绫濑水门",
        "remark": ""
      },
      "type": "Feature"
    },
    {
      "geometry": {
        "coordinates": [
          139.820769,
          35.747981
        ],
        "type": "Point"
      },
      "properties": {
        "bangumi_id": 296367,
        "bangumi_title": "SSSS.电光机王",
        "ep_cut": 1,
        "image_url": "https://w.junreimap.com/images/points/296367/akysok9_1770045984904.jpg",
        "location": "绫濑水门及堀切桥周边",
        "point_id": "akysok9",
        "point_name": "绫濑水门",
        "remark": ""
      },
      "type": "Feature"
    },
    {
      "geometry": {
        "coordinates": [
          139.821163,
          35.747313
        ],
        "type": "Point"
      },
      "properties": {
        "bangumi_id": 296367,
        "bangumi_title": "SSSS.电光机王",
        "ep_cut": "",
        "image_url": "https://w.junreimap.com/images/points/296367/al1o8sp_1770050783713.jpg",
        "location": "绫濑水门及堀切桥周边",
        "point_id": "al1o8sp",
        "point_name": "绫濑水门",
        "remark": ""
      },
      "type": "Feature"
    },
    {
      "geometry": {
        "coordinates": [
          139.821407,
          35.746539
        ],
        "type": "Point"
      },
      "properties": {
        "bangumi_id": 296367,
        "bangumi_title": "SSSS.电光机王",
        "ep_cut": 1,
        "image_url": "https://w.junreimap.com/images/user/2176/bangumi/296367/points/uv9pj5wfg-1745227039700.jpg",
        "location": "绫濑水门及堀切桥周边",
        "point_id": "uv9pj5wfg",
        "point_name": "川の手通り",
        "remark": "失马大哥的住所，周围一圈都在施工中，没法进去巡礼，最多隔着围栏拍照"
      },
      "type": "Feature"
    },
    {
      "geometry": {
        "coordinates": [
          139.531178,
          35.624838
        ],
        "type": "Point"
      },
      "properties": {
        "bangumi_id": 296367,
        "bangumi_title": "SSSS.电光机王",
        "ep_cut": 1,
        "image_url": "https://w.junreimap.com/images/user/2176/bangumi/296367/points/uvlw232fn-1745253503563.jpg",
        "location": "",
        "point_id": "uvlw232fn",
        "point_name": "ゆり​ストア​クリエイト​SD",
        "remark": "蓬打工的店"
      },
      "type": "Feature"
    },
    {
      "geometry": {
        "coordinates": [
          139.819197,
          35.745697
        ],
        "type": "Point"
      },
      "properties": {
        "bangumi_id": 296367,
        "bangumi_title": "SSSS.电光机王",
        "ep_cut": 1,
        "image_url": "https://w.junreimap.com/images/points/296367/ug2biyduu_1744035458183.jpg",
        "location": "绫濑水门及堀切桥周边",
        "point_id": "ug2biyduu",
        "point_name": "堀切橋",
        "remark": ""
      },
      "type": "Feature"
    },
    {
      "geometry": {
        "coordinates": [
          139.182485,
          35.800776
        ],
        "type": "Point"
      },
      "properties": {
        "bangumi_id": 296367,
        "bangumi_title": "SSSS.电光机王",
        "ep_cut": 3,
        "image_url": "https://w.junreimap.com/images/user/2176/bangumi/296367/points/uvgpajy0c-1745242193879.jpg",
        "location": "御岳橋",
        "point_id": "uvgpajy0c",
        "point_name": "御岳橋",
        "remark": "河滩的位置在动画里显示位置的反面，画面被镜像过"
      },
      "type": "Feature"
    },
    {
      "geometry": {
        "coordinates": [
          139.183073,
          35.800821
        ],
        "type": "Point"
      },
      "properties": {
        "bangumi_id": 296367,
        "bangumi_title": "SSSS.电光机王",
        "ep_cut": 3,
        "image_url": "https://w.junreimap.com/images/user/2176/bangumi/296367/points/uvgngk1l5-1745242114592.jpg",
        "location": "御岳橋",
        "point_id": "uvgngk1l5",
        "point_name": "御岳橋",
        "remark": ""
      },
      "type": "Feature"
    },
    {
      "geometry": {
        "coordinates": [
          139.599429,
          35.727711
        ],
        "type": "Point"
      },
      "properties": {
        "bangumi_id": 296367,
        "bangumi_title": "SSSS.电光机王",
        "ep_cut": 3,
        "image_url": "https://w.junreimap.com/images/user/2176/bangumi/218712/points/uva6a80u7-1745228004862.jpg",
        "location": "東京都立井草高等学校",
        "point_id": "uva6a80u7",
        "point_name": "東京都立井草高等学校",
        "remark": "蓬和梦芽所在的东京都立不如归台高中"
      },
      "type": "Feature"
    },
    {
      "geometry": {
        "coordinates": [
          139.811515,
          35.74866
        ],
        "type": "Point"
      },
      "properties": {
        "bangumi_id": 296367,
        "bangumi_title": "SSSS.电光机王",
        "ep_cut": 3,
        "image_url": "https://w.junreimap.com/images/user/2176/bangumi/296367/points/uv9udk5gm-1745227288630.jpg",
        "location": "池田屋酒店",
        "point_id": "uv9udk5gm",
        "point_name": "池田屋酒店",
        "remark": ""
      },
      "type": "Feature"
    },
    {
      "geometry": {
        "coordinates": [
          139.619721,
          35.704654
        ],
        "type": "Point"
      },
      "properties": {
        "bangumi_id": 296367,
        "bangumi_title": "SSSS.电光机王",
        "ep_cut": 4,
        "image_url": "https://w.junreimap.com/images/user/2176/bangumi/296367/points/uvlrt9m2o-1745253265669.jpg",
        "location": "荻窪站周边",
        "point_id": "uvlrt9m2o",
        "point_name": "スターバックス​コーヒー​ルミネ​荻窪​店",
        "remark": ""
      },
      "type": "Feature"
    },
    {
      "geometry": {
        "coordinates": [
          139.426363,
          35.623247
        ],
        "type": "Point"
      },
      "properties": {
        "bangumi_id": 296367,
        "bangumi_title": "SSSS.电光机王",
        "ep_cut": 5,
        "image_url": "https://w.junreimap.com/images/user/2176/bangumi/296367/points/uvlfes100-1745252472586.jpg",
        "location": "多摩",
        "point_id": "uvlfes100",
        "point_name": "マクドナルド\n多摩​センター​店",
        "remark": "蓬和梦芽与姐姐的男朋友见面的地点"
      },
      "type": "Feature"
    },
    {
      "geometry": {
        "coordinates": [
          139.774131,
          35.683976
        ],
        "type": "Point"
      },
      "properties": {
        "bangumi_id": 296367,
        "bangumi_title": "SSSS.电光机王",
        "ep_cut": 7,
        "image_url": "https://w.junreimap.com/images/user/2176/bangumi/296367/points/uvm2vdq3w-1745253939807.jpg",
        "location": "日本桥",
        "point_id": "uvm2vdq3w",
        "point_name": "日本橋",
        "remark": ""
      },
      "type": "Feature"
    },
    {
      "geometry": {
        "coordinates": [
          139.774362,
          35.683905
        ],
        "type": "Point"
      },
      "properties": {
        "bangumi_id": 296367,
        "bangumi_title": "SSSS.电光机王",
        "ep_cut": 7,
        "image_url": "https://w.junreimap.com/images/user/2176/bangumi/296367/points/uvm4s5ug5-1745254052518.jpg",
        "location": "日本桥",
        "point_id": "uvm4s5ug5",
        "point_name": "日本橋",
        "remark": "古立特骑士同盟初登场"
      },
      "type": "Feature"
    },
    {
      "geometry": {
        "coordinates": [
          139.87372,
          35.464902
        ],
        "type": "Point"
      },
      "properties": {
        "bangumi_id": 296367,
        "bangumi_title": "SSSS.电光机王",
        "ep_cut": 7,
        "image_url": "https://w.junreimap.com/images/user/2176/bangumi/296367/points/uve4qwge9-1745236614749.jpg",
        "location": "海ほたる",
        "point_id": "uve4qwge9",
        "point_name": "西展望デッキ（海ほたるPA）",
        "remark": "失马一行与古立特骑士同盟初次交涉的地方"
      },
      "type": "Feature"
    },
    {
      "geometry": {
        "coordinates": [
          139.873054,
          35.46528
        ],
        "type": "Point"
      },
      "properties": {
        "bangumi_id": 296367,
        "bangumi_title": "SSSS.电光机王",
        "ep_cut": 7,
        "image_url": "https://w.junreimap.com/images/user/2176/bangumi/296367/points/uveungphw-1745238470394.jpg",
        "location": "海ほたる",
        "point_id": "uveungphw",
        "point_name": "海ほたる",
        "remark": ""
      },
      "type": "Feature"
    },
    {
      "geometry": {
        "coordinates": [
          139.873266,
          35.465155
        ],
        "type": "Point"
      },
      "properties": {
        "bangumi_id": 296367,
        "bangumi_title": "SSSS.电光机王",
        "ep_cut": 7,
        "image_url": "https://w.junreimap.com/images/user/2176/bangumi/296367/points/uvetogt1v-1745238107685.jpg",
        "location": "海ほたる",
        "point_id": "uvetogt1v",
        "point_name": "海ほたる",
        "remark": ""
      },
      "type": "Feature"
    },
    {
      "geometry": {
        "coordinates": [
          139.875011,
          35.463677
        ],
        "type": "Point"
      },
      "properties": {
        "bangumi_id": 296367,
        "bangumi_title": "SSSS.电光机王",
        "ep_cut": 7,
        "image_url": "https://w.junreimap.com/images/user/2176/bangumi/296367/points/uvgity5iq-1745241802526.jpg",
        "location": "海ほたる",
        "point_id": "uvgity5iq",
        "point_name": "海ほたる（バス）",
        "remark": ""
      },
      "type": "Feature"
    },
    {
      "geometry": {
        "coordinates": [
          139.873054,
          35.46528
        ],
        "type": "Point"
      },
      "properties": {
        "bangumi_id": 296367,
        "bangumi_title": "SSSS.电光机王",
        "ep_cut": 7,
        "image_url": "https://w.junreimap.com/images/user/2176/bangumi/296367/points/uves4iq5w-1745238076381.jpg",
        "location": "海ほたる",
        "point_id": "uves4iq5w",
        "point_name": "海ほたる",
        "remark": ""
      },
      "type": "Feature"
    },
    {
      "geometry": {
        "coordinates": [
          139.277306,
          35.717618
        ],
        "type": "Point"
      },
      "properties": {
        "bangumi_id": 296367,
        "bangumi_title": "SSSS.电光机王",
        "ep_cut": 5,
        "image_url": "https://w.junreimap.com/images/user/2176/bangumi/296367/points/uw2rk4wml-1745290213778.jpg",
        "location": "东京夏日乐园",
        "point_id": "uw2rk4wml",
        "point_name": "東京サマーランド",
        "remark": ""
      },
      "type": "Feature"
    },
    {
      "geometry": {
        "coordinates": [
          139.604585,
          35.739702
        ],
        "type": "Point"
      },
      "properties": {
        "bangumi_id": 296367,
        "bangumi_title": "SSSS.电光机王",
        "ep_cut": 3,
        "image_url": "https://w.junreimap.com/images/user/2176/bangumi/296367/points/7lcu5k-1747469507372.jpg",
        "location": "",
        "point_id": "7lcu5k",
        "point_name": "石神井公園",
        "remark": "古立特里还挺重要的场景，本来以为电光机王里没有的，没想到还给了一个画面"
      },
      "type": "Feature"
    },
    {
      "geometry": {
        "coordinates": [
          139.631267,
          35.717045
        ],
        "type": "Point"
      },
      "properties": {
        "bangumi_id": 296367,
        "bangumi_title": "SSSS.电光机王",
        "ep_cut": 12,
        "image_url": "https://w.junreimap.com/images/user/2176/bangumi/296367/points/7mmqeq-1747471656971.jpg",
        "location": "",
        "point_id": "7mmqeq",
        "point_name": "杉並区立東原中学校",
        "remark": "千濑所在的学校"
      },
      "type": "Feature"
    },
    {
      "geometry": {
        "coordinates": [
          139.620041,
          35.704718
        ],
        "type": "Point"
      },
      "properties": {
        "bangumi_id": 296367,
        "bangumi_title": "SSSS.电光机王",
        "ep_cut": 3,
        "image_url": "https://w.junreimap.com/images/user/2176/bangumi/296367/points/7ne8m9-1747472942917.jpg",
        "location": "荻窪站周边",
        "point_id": "7ne8m9",
        "point_name": "ルミネ 荻窪",
        "remark": ""
      },
      "type": "Feature"
    },
    {
      "geometry": {
        "coordinates": [
          139.619255,
          35.704665
        ],
        "type": "Point"
      },
      "properties": {
        "bangumi_id": 296367,
        "bangumi_title": "SSSS.电光机王",
        "ep_cut": 3,
        "image_url": "https://w.junreimap.com/images/user/2176/bangumi/296367/points/7nk06n-1747473283461.jpg",
        "location": "荻窪站周边",
        "point_id": "7nk06n",
        "point_name": "ルミネ 荻窪",
        "remark": ""
      },
      "type": "Feature"
    },
    {
      "geometry": {
        "coordinates": [
          139.315788,
          35.75888
        ],
        "type": "Point"
      },
      "properties": {
        "bangumi_id": 296367,
        "bangumi_title": "SSSS.电光机王",
        "ep_cut": 1,
        "image_url": "https://w.junreimap.com/images/user/2176/bangumi/296367/points/3wy1q9i-1755533018976.jpg",
        "location": "",
        "point_id": "3wy1q9i",
        "point_name": "羽村駅",
        "remark": "ed画面"
      },
      "type": "Feature"
    },
    {
      "geometry": {
        "coordinates": [
          139.637911,
          35.722462
        ],
        "type": "Point"
      },
      "properties": {
        "bangumi_id": 296367,
        "bangumi_title": "SSSS.电光机王",
        "ep_cut": 10,
        "image_url": "https://w.junreimap.com/images/user/2176/bangumi/296367/points/3wydwom-1755533399424.jpg",
        "location": "",
        "point_id": "3wydwom",
        "point_name": "鷺ノ宮駅",
        "remark": ""
      },
      "type": "Feature"
    },
    {
      "geometry": {
        "coordinates": [
          139.605973,
          35.708592
        ],
        "type": "Point"
      },
      "properties": {
        "bangumi_id": 296367,
        "bangumi_title": "SSSS.电光机王",
        "ep_cut": 8,
        "image_url": "https://w.junreimap.com/images/user/2176/bangumi/296367/points/3wyrbde-1755534004457.jpg",
        "location": "",
        "point_id": "3wyrbde",
        "point_name": "社橋",
        "remark": ""
      },
      "type": "Feature"
    },
    {
      "geometry": {
        "coordinates": [
          139.619653,
          35.704784
        ],
        "type": "Point"
      },
      "properties": {
        "bangumi_id": 296367,
        "bangumi_title": "SSSS.电光机王",
        "ep_cut": 11,
        "image_url": "https://w.junreimap.com/images/user/2176/bangumi/296367/points/3wyxmfp-1755534314927.jpg",
        "location": "荻窪站周边",
        "point_id": "3wyxmfp",
        "point_name": "スターバックス コーヒー ルミネ荻窪店",
        "remark": ""
      },
      "type": "Feature"
    },
    {
      "geometry": {
        "coordinates": [
          139.63808,
          35.722475
        ],
        "type": "Point"
      },
      "properties": {
        "bangumi_id": 296367,
        "bangumi_title": "SSSS.电光机王",
        "ep_cut": 10,
        "image_url": "https://w.junreimap.com/images/user/2176/bangumi/296367/points/3wyfidz-1755533454425.jpg",
        "location": "",
        "point_id": "3wyfidz",
        "point_name": "鷺ノ宮駅",
        "remark": ""
      },
      "type": "Feature"
    },
    {
      "geometry": {
        "coordinates": [
          139.619956,
          35.706973
        ],
        "type": "Point"
      },
      "properties": {
        "bangumi_id": 296367,
        "bangumi_title": "SSSS.电光机王",
        "ep_cut": 8,
        "image_url": "https://w.junreimap.com/images/user/2176/bangumi/296367/points/3wz3yzh-1755534598883.jpg",
        "location": "荻窪站周边",
        "point_id": "3wz3yzh",
        "point_name": "イナズマ カフェ前",
        "remark": ""
      },
      "type": "Feature"
    },
    {
      "geometry": {
        "coordinates": [
          139.616442,
          35.707108
        ],
        "type": "Point"
      },
      "properties": {
        "bangumi_id": 296367,
        "bangumi_title": "SSSS.电光机王",
        "ep_cut": 8,
        "image_url": "https://w.junreimap.com/images/user/2176/bangumi/296367/points/3wz77vd-1755534774376.jpg",
        "location": "荻窪站周边",
        "point_id": "3wz77vd",
        "point_name": "杉並公会堂前",
        "remark": ""
      },
      "type": "Feature"
    },
    {
      "geometry": {
        "coordinates": [
          139.622287,
          35.704631
        ],
        "type": "Point"
      },
      "properties": {
        "bangumi_id": 296367,
        "bangumi_title": "SSSS.电光机王",
        "ep_cut": 6,
        "image_url": "https://w.junreimap.com/images/user/0/bangumi/296367/points/3ydyhdb-1755620274391.jpg",
        "location": "荻窪站周边",
        "point_id": "3ydyhdb",
        "point_name": "荻窪地下道",
        "remark": ""
      },
      "type": "Feature"
    },
    {
      "geometry": {
        "coordinates": [
          139.622323,
          35.704629
        ],
        "type": "Point"
      },
      "properties": {
        "bangumi_id": 296367,
        "bangumi_title": "SSSS.电光机王",
        "ep_cut": 6,
        "image_url": "https://w.junreimap.com/images/user/0/bangumi/296367/points/3yeax1a-1755620598942.jpg",
        "location": "荻窪站周边",
        "point_id": "3yeax1a",
        "point_name": "荻窪地下道",
        "remark": ""
      },
      "type": "Feature"
    },
    {
      "geometry": {
        "coordinates": [
          139.817798,
          35.742814
        ],
        "type": "Point"
      },
      "properties": {
        "bangumi_id": 296367,
        "bangumi_title": "SSSS.电光机王",
        "ep_cut": 8,
        "image_url": "https://w.junreimap.com/images/user/0/bangumi/296367/points/43xpemn-1755955563658.jpg",
        "location": "绫濑水门及堀切桥周边",
        "point_id": "43xpemn",
        "point_name": "堀切站前立交桥",
        "remark": ""
      },
      "type": "Feature"
    },
    {
      "geometry": {
        "coordinates": [
          139.817872,
          35.742812
        ],
        "type": "Point"
      },
      "properties": {
        "bangumi_id": 296367,
        "bangumi_title": "SSSS.电光机王",
        "ep_cut": 8,
        "image_url": "https://w.junreimap.com/images/user/0/bangumi/296367/points/43xwb7d-1755955838118.jpg",
        "location": "绫濑水门及堀切桥周边",
        "point_id": "43xwb7d",
        "point_name": "堀切站前立交桥",
        "remark": ""
      },
      "type": "Feature"
    },
    {
      "geometry": {
        "coordinates": [
          139.660185,
          35.707989
        ],
        "type": "Point"
      },
      "properties": {
        "bangumi_id": 296367,
        "bangumi_title": "SSSS.电光机王",
        "ep_cut": 8,
        "image_url": "https://w.junreimap.com/images/user/0/bangumi/296367/points/43ygau9-1755956749249.jpg",
        "location": "",
        "point_id": "43ygau9",
        "point_name": "中野四季の森公園",
        "remark": ""
      },
      "type": "Feature"
    },
    {
      "geometry": {
        "coordinates": [
          139.666188,
          35.706147
        ],
        "type": "Point"
      },
      "properties": {
        "bangumi_id": 296367,
        "bangumi_title": "SSSS.电光机王",
        "ep_cut": 8,
        "image_url": "https://w.junreimap.com/images/user/0/bangumi/296367/points/43yvi6c-1755957470633.jpg",
        "location": "",
        "point_id": "43yvi6c",
        "point_name": "中野駅",
        "remark": ""
      },
      "type": "Feature"
    },
    {
      "geometry": {
        "coordinates": [
          139.603564,
          35.725006
        ],
        "type": "Point"
      },
      "properties": {
        "bangumi_id": 296367,
        "bangumi_title": "SSSS.电光机王",
        "ep_cut": 2,
        "image_url": "https://w.junreimap.com/images/user/0/bangumi/296367/points/43z9ypa-1755958138292.jpg",
        "location": "",
        "point_id": "43z9ypa",
        "point_name": "上井草駅",
        "remark": ""
      },
      "type": "Feature"
    },
    {
      "geometry": {
        "coordinates": [
          139.465711,
          35.698591
        ],
        "type": "Point"
      },
      "properties": {
        "bangumi_id": 296367,
        "bangumi_title": "SSSS.电光机王",
        "ep_cut": 9,
        "image_url": "https://w.junreimap.com/images/user/0/bangumi/296367/points/43zjceh-1755958578406.jpg",
        "location": "",
        "point_id": "43zjceh",
        "point_name": "セブン-イレブン 西国分寺駅南口店",
        "remark": ""
      },
      "type": "Feature"
    },
    {
      "geometry": {
        "coordinates": [
          139.665944,
          35.706208
        ],
        "type": "Point"
      },
      "properties": {
        "bangumi_id": 296367,
        "bangumi_title": "SSSS.电光机王",
        "ep_cut": 4,
        "image_url": "https://w.junreimap.com/images/user/0/bangumi/296367/points/43zg7bx-1755958422584.jpg",
        "location": "",
        "point_id": "43zg7bx",
        "point_name": "中野駅",
        "remark": ""
      },
      "type": "Feature"
    },
    {
      "geometry": {
        "coordinates": [
          139.282251,
          35.718446
        ],
        "type": "Point"
      },
      "properties": {
        "bangumi_id": 296367,
        "bangumi_title": "SSSS.电光机王",
        "ep_cut": 5,
        "image_url": "https://w.junreimap.com/images/points/296367/97nnj5h_1767064388825.jpg",
        "location": "",
        "point_id": "97nnj5h",
        "point_name": "首都圏中央連絡自動車道(茅ヶ崎～大栄)",
        "remark": "标点是四人组站的位置，取景大概是在南边的小山上"
      },
      "type": "Feature"
    },
    {
      "geometry": {
        "coordinates": [
          139.821303,
          35.747091
        ],
        "type": "Point"
      },
      "properties": {
        "bangumi_id": 296367,
        "bangumi_title": "SSSS.电光机王",
        "ep_cut": 2,
        "image_url": "https://w.junreimap.com/images/points/296367/97qvpdp_1767069872346.jpg",
        "location": "绫濑水门及堀切桥周边",
        "point_id": "97qvpdp",
        "point_name": "河堤道路上",
        "remark": ""
      },
      "type": "Feature"
    },
    {
      "geometry": {
        "coordinates": [
          139.820309,
          35.748707
        ],
        "type": "Point"
      },
      "properties": {
        "bangumi_id": 296367,
        "bangumi_title": "SSSS.电光机王",
        "ep_cut": 8,
        "image_url": "https://w.junreimap.com/images/points/296367/97qxhbm_1767070041483.jpg",
        "location": "绫濑水门及堀切桥周边",
        "point_id": "97qxhbm",
        "point_name": "河堤道路上",
        "remark": ""
      },
      "type": "Feature"
    },
    {
      "geometry": {
        "coordinates": [
          139.874526,
          35.464067
        ],
        "type": "Point"
      },
      "properties": {
        "bangumi_id": 296367,
        "bangumi_title": "SSSS.电光机王",
        "ep_cut": 7,
        "image_url": "https://w.junreimap.com/images/points/296367/97r1tl5_1767070159304.jpg",
        "location": "海ほたる",
        "point_id": "97r1tl5",
        "point_name": "海ほたる​4階",
        "remark": ""
      },
      "type": "Feature"
    },
    {
      "geometry": {
        "coordinates": [
          133.841103,
          34.614028
        ],
        "type": "Point"
      },
      "properties": {
        "bangumi_id": 296367,
        "bangumi_title": "SSSS.电光机王",
        "ep_cut": 11,
        "image_url": "https://w.junreimap.com/images/points/296367/afdd14f_1769707659120.jpg",
        "location": "",
        "point_id": "afdd14f",
        "point_name": "元平田食事センター",
        "remark": "平田食事センター是国道沿线的路边食堂，因长期聚集痛车与卡车司机而被公认是圣地。食堂于2015年关闭，大小招牌随后基本拆除，红色的大招牌更换成了二手店的，而建筑物本身也在2023年间完全拆除，现在这片区域是大型废品回收站，不过现新教育会館HJオリーブセンター门前，原平田食事センター的办公场所有一排专用贩卖机，用于纪念闭店的平田食事センター"
      },
      "type": "Feature"
    },
    {
      "geometry": {
        "coordinates": [
          139.677888,
          35.776516
        ],
        "type": "Point"
      },
      "properties": {
        "bangumi_id": 296367,
        "bangumi_title": "SSSS.电光机王",
        "ep_cut": 8,
        "image_url": "https://w.junreimap.com/images/points/296367/aghsff5_1769775539770.jpg",
        "location": "ラウンドワンスタジアム",
        "point_id": "aghsff5",
        "point_name": "ラウンドワンスタジアム",
        "remark": ""
      },
      "type": "Feature"
    },
    {
      "geometry": {
        "coordinates": [
          139.678742,
          35.776624
        ],
        "type": "Point"
      },
      "properties": {
        "bangumi_id": 296367,
        "bangumi_title": "SSSS.电光机王",
        "ep_cut": 8,
        "image_url": "https://w.junreimap.com/images/points/296367/aghxi9z_1769775777780.jpg",
        "location": "ラウンドワンスタジアム",
        "point_id": "aghxi9z",
        "point_name": "ラウンドワンスタジアム",
        "remark": ""
      },
      "type": "Feature"
    },
    {
      "geometry": {
        "coordinates": [
          139.678657,
          35.77664
        ],
        "type": "Point"
      },
      "properties": {
        "bangumi_id": 296367,
        "bangumi_title": "SSSS.电光机王",
        "ep_cut": 8,
        "image_url": "https://w.junreimap.com/images/points/296367/aghyvr8_1769775819541.jpg",
        "location": "ラウンドワンスタジアム",
        "point_id": "aghyvr8",
        "point_name": "ラウンドワンスタジアム",
        "remark": ""
      },
      "type": "Feature"
    },
    {
      "geometry": {
        "coordinates": [
          139.678665,
          35.77659
        ],
        "type": "Point"
      },
      "properties": {
        "bangumi_id": 296367,
        "bangumi_title": "SSSS.电光机王",
        "ep_cut": 8,
        "image_url": "https://w.junreimap.com/images/points/296367/aghv2mc_1769775681646.jpg",
        "location": "ラウンドワンスタジアム",
        "point_id": "aghv2mc",
        "point_name": "ラウンドワンスタジアム",
        "remark": ""
      },
      "type": "Feature"
    },
    {
      "geometry": {
        "coordinates": [
          139.678562,
          35.776588
        ],
        "type": "Point"
      },
      "properties": {
        "bangumi_id": 296367,
        "bangumi_title": "SSSS.电光机王",
        "ep_cut": 8,
        "image_url": "https://w.junreimap.com/images/points/296367/aghv3c2_1769775735599.jpg",
        "location": "ラウンドワンスタジアム",
        "point_id": "aghv3c2",
        "point_name": "ラウンドワンスタジアム",
        "remark": ""
      },
      "type": "Feature"
    },
    {
      "geometry": {
        "coordinates": [
          139.487953,
          35.653589
        ],
        "type": "Point"
      },
      "properties": {
        "bangumi_id": 296367,
        "bangumi_title": "SSSS.电光机王",
        "ep_cut": 1,
        "image_url": "https://w.junreimap.com/images/points/296367/aktj7c4_1770040122993.jpg",
        "location": "",
        "point_id": "aktj7c4",
        "point_name": "是政橋",
        "remark": ""
      },
      "type": "Feature"
    },
    {
      "geometry": {
        "coordinates": [
          139.424139,
          35.673508
        ],
        "type": "Point"
      },
      "properties": {
        "bangumi_id": 296367,
        "bangumi_title": "SSSS.电光机王",
        "ep_cut": 1,
        "image_url": "https://w.junreimap.com/images/points/296367/aktusxy_1770039884988.jpg",
        "location": "",
        "point_id": "aktusxy",
        "point_name": "石田大橋",
        "remark": "ed画面，被反转过"
      },
      "type": "Feature"
    },
    {
      "geometry": {
        "coordinates": [
          139.750726,
          35.641847
        ],
        "type": "Point"
      },
      "properties": {
        "bangumi_id": 296367,
        "bangumi_title": "SSSS.电光机王",
        "ep_cut": 2,
        "image_url": "https://w.junreimap.com/images/points/296367/akxppny_1770044173563.jpg",
        "location": "",
        "point_id": "akxppny",
        "point_name": "渚橋",
        "remark": ""
      },
      "type": "Feature"
    },
    {
      "geometry": {
        "coordinates": [
          139.745647,
          35.623482
        ],
        "type": "Point"
      },
      "properties": {
        "bangumi_id": 296367,
        "bangumi_title": "SSSS.电光机王",
        "ep_cut": 2,
        "image_url": "https://w.junreimap.com/images/points/296367/akxyqpo_1770056216682.jpg",
        "location": "",
        "point_id": "akxyqpo",
        "point_name": "天王洲桥下",
        "remark": ""
      },
      "type": "Feature"
    },
    {
      "geometry": {
        "coordinates": [
          139.747063,
          35.623763
        ],
        "type": "Point"
      },
      "properties": {
        "bangumi_id": 296367,
        "bangumi_title": "SSSS.电光机王",
        "ep_cut": 2,
        "image_url": "https://w.junreimap.com/images/points/296367/al54wek_1770056650127.jpg",
        "location": "",
        "point_id": "al54wek",
        "point_name": "天王洲ふれあい橋下",
        "remark": "向南看"
      },
      "type": "Feature"
    },
    {
      "geometry": {
        "coordinates": [
          139.808717,
          35.758255
        ],
        "type": "Point"
      },
      "properties": {
        "bangumi_id": 296367,
        "bangumi_title": "SSSS.电光机王",
        "ep_cut": 2,
        "image_url": "https://w.junreimap.com/images/points/296367/al5bcfq_1770056897180.jpg",
        "location": "",
        "point_id": "al5bcfq",
        "point_name": "荒川​千住​新橋​緑地",
        "remark": ""
      },
      "type": "Feature"
    }
  ],
  "type": "FeatureCollection"
}