{
  "features": [
    {
      "geometry": {
        "coordinates": [
          140.881725,
          38.260614
        ],
        "type": "Point"
      },
      "properties": {
        "bangumi_id": 299498,
        "bangumi_title": "宇崎学妹想要玩！",
        "ep_cut": 1,
        "image_url": "https://w.junreimap.com/images/user/1073/bangumi/299498/points/pntqtckqd-1730538176127.jpg",
        "location": "仙台",
        "point_id": "pntqtckqd",
        "point_name": "仙台駅西口ペデストリアンデッキ",
        "remark": ""
      },
      "type": "Feature"
    },
    {
      "geometry": {
        "coordinates": [
          140.881705,
          38.260868
        ],
        "type": "Point"
      },
      "properties": {
        "bangumi_id": 299498,
        "bangumi_title": "宇崎学妹想要玩！",
        "ep_cut": 1,
        "image_url": "https://w.junreimap.com/images/points/299498/4gezxx9_1756710183685.jpg",
        "location": "仙台",
        "point_id": "4gezxx9",
        "point_name": "仙台駅",
        "remark": ""
      },
      "type": "Feature"
    },
    {
      "geometry": {
        "coordinates": [
          140.881261,
          38.260618
        ],
        "type": "Point"
      },
      "properties": {
        "bangumi_id": 299498,
        "bangumi_title": "宇崎学妹想要玩！",
        "ep_cut": 7,
        "image_url": "https://w.junreimap.com/images/points/299498/4gf3ns9_1756710370958.jpg",
        "location": "仙台",
        "point_id": "4gf3ns9",
        "point_name": "仙台駅",
        "remark": ""
      },
      "type": "Feature"
    },
    {
      "geometry": {
        "coordinates": [
          140.881115,
          38.260628
        ],
        "type": "Point"
      },
      "properties": {
        "bangumi_id": 299498,
        "bangumi_title": "宇崎学妹想要玩！",
        "ep_cut": 1,
        "image_url": "https://w.junreimap.com/images/points/299498/4gfcnee_1756710816521.jpg",
        "location": "仙台",
        "point_id": "4gfcnee",
        "point_name": "仙台駅",
        "remark": ""
      },
      "type": "Feature"
    },
    {
      "geometry": {
        "coordinates": [
          140.880518,
          38.260809
        ],
        "type": "Point"
      },
      "properties": {
        "bangumi_id": 299498,
        "bangumi_title": "宇崎学妹想要玩！",
        "ep_cut": 1,
        "image_url": "https://w.junreimap.com/images/points/299498/4gfkcuj_1756711198197.jpg",
        "location": "仙台",
        "point_id": "4gfkcuj",
        "point_name": "青葉通",
        "remark": ""
      },
      "type": "Feature"
    },
    {
      "geometry": {
        "coordinates": [
          140.88048,
          38.260833
        ],
        "type": "Point"
      },
      "properties": {
        "bangumi_id": 299498,
        "bangumi_title": "宇崎学妹想要玩！",
        "ep_cut": 1,
        "image_url": "https://w.junreimap.com/images/points/299498/4gfpjc4_1756711326983.jpg",
        "location": "仙台",
        "point_id": "4gfpjc4",
        "point_name": "青葉通",
        "remark": ""
      },
      "type": "Feature"
    },
    {
      "geometry": {
        "coordinates": [
          140.880971,
          38.261179
        ],
        "type": "Point"
      },
      "properties": {
        "bangumi_id": 299498,
        "bangumi_title": "宇崎学妹想要玩！",
        "ep_cut": 3,
        "image_url": "https://w.junreimap.com/images/points/299498/4gftmow_1756711609609.jpg",
        "location": "仙台",
        "point_id": "4gftmow",
        "point_name": "仙台駅前",
        "remark": ""
      },
      "type": "Feature"
    },
    {
      "geometry": {
        "coordinates": [
          134.235503,
          35.542936
        ],
        "type": "Point"
      },
      "properties": {
        "bangumi_id": 299498,
        "bangumi_title": "宇崎学妹想要玩！",
        "ep_cut": 10,
        "image_url": "https://w.junreimap.com/images/points/299498/9rqsaue_1768290501538.jpg",
        "location": "鳥取県",
        "point_id": "9rqsaue",
        "point_name": "鳥取​砂丘",
        "remark": ""
      },
      "type": "Feature"
    },
    {
      "geometry": {
        "coordinates": [
          133.815103,
          35.429454
        ],
        "type": "Point"
      },
      "properties": {
        "bangumi_id": 299498,
        "bangumi_title": "宇崎学妹想要玩！",
        "ep_cut": 10,
        "image_url": "https://w.junreimap.com/images/points/299498/4i02l30_1756806185795.jpg",
        "location": "鳥取県",
        "point_id": "4i02l30",
        "point_name": "円形​劇場\nくら​よし​フィギュア​ミュージアム",
        "remark": ""
      },
      "type": "Feature"
    },
    {
      "geometry": {
        "coordinates": [
          133.893123,
          35.410452
        ],
        "type": "Point"
      },
      "properties": {
        "bangumi_id": 299498,
        "bangumi_title": "宇崎学妹想要玩！",
        "ep_cut": 10,
        "image_url": "https://w.junreimap.com/images/points/299498/4i0cmi6_1756806525341.jpg",
        "location": "鳥取県",
        "point_id": "4i0cmi6",
        "point_name": "三朝温泉街",
        "remark": ""
      },
      "type": "Feature"
    },
    {
      "geometry": {
        "coordinates": [
          133.896523,
          35.410009
        ],
        "type": "Point"
      },
      "properties": {
        "bangumi_id": 299498,
        "bangumi_title": "宇崎学妹想要玩！",
        "ep_cut": 10,
        "image_url": "https://w.junreimap.com/images/points/299498/9rr1unp_1768290515408.jpg",
        "location": "鳥取県",
        "point_id": "9rr1unp",
        "point_name": "恋谷橋",
        "remark": ""
      },
      "type": "Feature"
    },
    {
      "geometry": {
        "coordinates": [
          133.893048,
          35.410513
        ],
        "type": "Point"
      },
      "properties": {
        "bangumi_id": 299498,
        "bangumi_title": "宇崎学妹想要玩！",
        "ep_cut": 10,
        "image_url": "https://w.junreimap.com/images/points/299498/4i0prck_1756807120365.jpg",
        "location": "鳥取県",
        "point_id": "4i0prck",
        "point_name": "河原風呂",
        "remark": ""
      },
      "type": "Feature"
    },
    {
      "geometry": {
        "coordinates": [
          133.893009,
          35.410541
        ],
        "type": "Point"
      },
      "properties": {
        "bangumi_id": 299498,
        "bangumi_title": "宇崎学妹想要玩！",
        "ep_cut": 10,
        "image_url": "https://w.junreimap.com/images/points/299498/4i0rt27_1756807187693.jpg",
        "location": "鳥取県",
        "point_id": "4i0rt27",
        "point_name": "三朝橋",
        "remark": ""
      },
      "type": "Feature"
    },
    {
      "geometry": {
        "coordinates": [
          133.89441,
          35.409964
        ],
        "type": "Point"
      },
      "properties": {
        "bangumi_id": 299498,
        "bangumi_title": "宇崎学妹想要玩！",
        "ep_cut": 10,
        "image_url": "https://w.junreimap.com/images/points/299498/4i15w57_1756807875746.jpg",
        "location": "鳥取県",
        "point_id": "4i15w57",
        "point_name": "藥師堂（藥師足湯）",
        "remark": ""
      },
      "type": "Feature"
    },
    {
      "geometry": {
        "coordinates": [
          134.114923,
          35.526017
        ],
        "type": "Point"
      },
      "properties": {
        "bangumi_id": 299498,
        "bangumi_title": "宇崎学妹想要玩！",
        "ep_cut": 10,
        "image_url": "https://w.junreimap.com/images/points/299498/4i1gc0i_1756808332836.jpg",
        "location": "鳥取県",
        "point_id": "4i1gc0i",
        "point_name": "白兎海岸",
        "remark": "远处的気多岬、淤岐之島"
      },
      "type": "Feature"
    },
    {
      "geometry": {
        "coordinates": [
          134.114976,
          35.52519
        ],
        "type": "Point"
      },
      "properties": {
        "bangumi_id": 299498,
        "bangumi_title": "宇崎学妹想要玩！",
        "ep_cut": 10,
        "image_url": "https://w.junreimap.com/images/points/299498/4i1aysa_1756809292156.jpg",
        "location": "鳥取県",
        "point_id": "4i1aysa",
        "point_name": "白兎神社入口",
        "remark": ""
      },
      "type": "Feature"
    },
    {
      "geometry": {
        "coordinates": [
          134.115066,
          35.524201
        ],
        "type": "Point"
      },
      "properties": {
        "bangumi_id": 299498,
        "bangumi_title": "宇崎学妹想要玩！",
        "ep_cut": 10,
        "image_url": "https://w.junreimap.com/images/points/299498/4i21gih_1756809446812.jpg",
        "location": "鳥取県",
        "point_id": "4i21gih",
        "point_name": "白兎神社 本殿",
        "remark": ""
      },
      "type": "Feature"
    },
    {
      "geometry": {
        "coordinates": [
          134.11496,
          35.524303
        ],
        "type": "Point"
      },
      "properties": {
        "bangumi_id": 299498,
        "bangumi_title": "宇崎学妹想要玩！",
        "ep_cut": 10,
        "image_url": "https://w.junreimap.com/images/points/299498/4i24v1s_1756809552205.jpg",
        "location": "鳥取県",
        "point_id": "4i24v1s",
        "point_name": "白兎神社 社務所",
        "remark": ""
      },
      "type": "Feature"
    },
    {
      "geometry": {
        "coordinates": [
          133.225842,
          35.545718
        ],
        "type": "Point"
      },
      "properties": {
        "bangumi_id": 299498,
        "bangumi_title": "宇崎学妹想要玩！",
        "ep_cut": 10,
        "image_url": "https://w.junreimap.com/images/points/299498/9rr4pta_1768290531422.jpg",
        "location": "鳥取県",
        "point_id": "9rr4pta",
        "point_name": "水木​しげる​ロード 妖怪神社",
        "remark": ""
      },
      "type": "Feature"
    },
    {
      "geometry": {
        "coordinates": [
          134.168196,
          35.52627
        ],
        "type": "Point"
      },
      "properties": {
        "bangumi_id": 299498,
        "bangumi_title": "宇崎学妹想要玩！",
        "ep_cut": 9,
        "image_url": "https://w.junreimap.com/images/user/1073/bangumi/299498/points/4vzppjw-1757651947746.jpg",
        "location": "",
        "point_id": "4vzppjw",
        "point_name": "鳥取砂丘コナン空港",
        "remark": ""
      },
      "type": "Feature"
    },
    {
      "geometry": {
        "coordinates": [
          134.16818,
          35.526459
        ],
        "type": "Point"
      },
      "properties": {
        "bangumi_id": 299498,
        "bangumi_title": "宇崎学妹想要玩！",
        "ep_cut": 9,
        "image_url": "https://w.junreimap.com/images/user/1073/bangumi/299498/points/4vztdcu-1757652119526.jpg",
        "location": "",
        "point_id": "4vztdcu",
        "point_name": "鳥取砂丘コナン空港 到着口",
        "remark": ""
      },
      "type": "Feature"
    },
    {
      "geometry": {
        "coordinates": [
          134.168102,
          35.526621
        ],
        "type": "Point"
      },
      "properties": {
        "bangumi_id": 299498,
        "bangumi_title": "宇崎学妹想要玩！",
        "ep_cut": 9,
        "image_url": "https://w.junreimap.com/images/user/1073/bangumi/299498/points/4vzuoga-1757652177126.jpg",
        "location": "",
        "point_id": "4vzuoga",
        "point_name": "鳥取砂丘コナン空港 エレベーター",
        "remark": ""
      },
      "type": "Feature"
    },
    {
      "geometry": {
        "coordinates": [
          134.168585,
          35.526524
        ],
        "type": "Point"
      },
      "properties": {
        "bangumi_id": 299498,
        "bangumi_title": "宇崎学妹想要玩！",
        "ep_cut": 9,
        "image_url": "https://w.junreimap.com/images/user/1073/bangumi/299498/points/4vzwana-1757652248178.jpg",
        "location": "",
        "point_id": "4vzwana",
        "point_name": "鳥取砂丘コナン空港 コナンホール",
        "remark": ""
      },
      "type": "Feature"
    },
    {
      "geometry": {
        "coordinates": [
          134.167708,
          35.526538
        ],
        "type": "Point"
      },
      "properties": {
        "bangumi_id": 299498,
        "bangumi_title": "宇崎学妹想要玩！",
        "ep_cut": 10,
        "image_url": "https://w.junreimap.com/images/user/1073/bangumi/299498/points/4vzy3uq-1757652329339.jpg",
        "location": "",
        "point_id": "4vzy3uq",
        "point_name": "鳥取砂丘コナン空港 出発口",
        "remark": ""
      },
      "type": "Feature"
    },
    {
      "geometry": {
        "coordinates": [
          134.167483,
          35.526726
        ],
        "type": "Point"
      },
      "properties": {
        "bangumi_id": 299498,
        "bangumi_title": "宇崎学妹想要玩！",
        "ep_cut": 10,
        "image_url": "https://w.junreimap.com/images/user/1073/bangumi/299498/points/4vzz6dd-1757652398108.jpg",
        "location": "",
        "point_id": "4vzz6dd",
        "point_name": "鳥取砂丘コナン空港 送迎デッキ",
        "remark": ""
      },
      "type": "Feature"
    },
    {
      "geometry": {
        "coordinates": [
          134.291359,
          35.5854
        ],
        "type": "Point"
      },
      "properties": {
        "bangumi_id": 299498,
        "bangumi_title": "宇崎学妹想要玩！",
        "ep_cut": "PV1",
        "image_url": "https://w.junreimap.com/images/user/1073/bangumi/299498/points/4w00qa1-1757652442014.jpg",
        "location": "鳥取県",
        "point_id": "4w00qa1",
        "point_name": "浦富海岸",
        "remark": "Key visual"
      },
      "type": "Feature"
    }
  ],
  "type": "FeatureCollection"
}