{
  "features": [
    {
      "geometry": {
        "coordinates": [
          139.750869,
          35.538031
        ],
        "type": "Point"
      },
      "properties": {
        "bangumi_id": 300179,
        "bangumi_title": "MIU404",
        "ep_cut": 7,
        "image_url": "https://w.junreimap.com/images/user/0/bangumi/300179/points/4yo12nn50.jpg",
        "location": "",
        "point_id": "4yo12nn50",
        "point_name": "川崎殿町ヤード",
        "remark": ""
      },
      "type": "Feature"
    },
    {
      "geometry": {
        "coordinates": [
          139.829958,
          35.661437
        ],
        "type": "Point"
      },
      "properties": {
        "bangumi_id": 300179,
        "bangumi_title": "MIU404",
        "ep_cut": 11,
        "image_url": "https://w.junreimap.com/images/user/0/bangumi/300179/points/4yo9h3i86.jpg",
        "location": "",
        "point_id": "4yo9h3i86",
        "point_name": "東京湾マリーナ",
        "remark": ""
      },
      "type": "Feature"
    },
    {
      "geometry": {
        "coordinates": [
          139.782726,
          35.696657
        ],
        "type": "Point"
      },
      "properties": {
        "bangumi_id": 300179,
        "bangumi_title": "MIU404",
        "ep_cut": 7,
        "image_url": "https://w.junreimap.com/images/user/0/bangumi/300179/points/4yoo4xmq0.jpg",
        "location": "",
        "point_id": "4yoo4xmq0",
        "point_name": "左衛門橋",
        "remark": ""
      },
      "type": "Feature"
    },
    {
      "geometry": {
        "coordinates": [
          139.727995,
          35.588965
        ],
        "type": "Point"
      },
      "properties": {
        "bangumi_id": 300179,
        "bangumi_title": "MIU404",
        "ep_cut": 1,
        "image_url": "https://w.junreimap.com/images/user/0/bangumi/300179/points/4ynnub5tx.jpg",
        "location": "",
        "point_id": "4ynnub5tx",
        "point_name": "山王小路飲食店街",
        "remark": ""
      },
      "type": "Feature"
    },
    {
      "geometry": {
        "coordinates": [
          139.80109,
          35.726048
        ],
        "type": "Point"
      },
      "properties": {
        "bangumi_id": 300179,
        "bangumi_title": "MIU404",
        "ep_cut": 4,
        "image_url": "https://w.junreimap.com/images/user/0/bangumi/300179/points/4yn28ktd7.jpg",
        "location": "",
        "point_id": "4yn28ktd7",
        "point_name": "遠州屋本店高尾",
        "remark": "剧中多次出现的居酒屋，阵马哥的第三个家。"
      },
      "type": "Feature"
    },
    {
      "geometry": {
        "coordinates": [
          139.715152,
          35.675492
        ],
        "type": "Point"
      },
      "properties": {
        "bangumi_id": 300179,
        "bangumi_title": "MIU404",
        "ep_cut": 11,
        "image_url": "https://w.junreimap.com/images/user/0/bangumi/300179/points/4ymhwjcae.jpg",
        "location": "",
        "point_id": "4ymhwjcae",
        "point_name": "日本青年館前交差点",
        "remark": ""
      },
      "type": "Feature"
    },
    {
      "geometry": {
        "coordinates": [
          139.48649,
          35.670492
        ],
        "type": "Point"
      },
      "properties": {
        "bangumi_id": 300179,
        "bangumi_title": "MIU404",
        "ep_cut": 6,
        "image_url": "https://w.junreimap.com/images/user/0/bangumi/300179/points/4yly2qazi.jpg",
        "location": "",
        "point_id": "4yly2qazi",
        "point_name": "ヴランカ府中2",
        "remark": "香坂住的公寓楼。"
      },
      "type": "Feature"
    },
    {
      "geometry": {
        "coordinates": [
          138.850437,
          35.422315
        ],
        "type": "Point"
      },
      "properties": {
        "bangumi_id": 300179,
        "bangumi_title": "MIU404",
        "ep_cut": 2,
        "image_url": "https://w.junreimap.com/images/user/0/bangumi/300179/points/4ymtpq6im.jpg",
        "location": "",
        "point_id": "4ymtpq6im",
        "point_name": "ほうとう・​石臼​そば​庄​ヤ",
        "remark": "剧中两人点的是“庄ヤセット”。目前店内有展示电视剧海报和主演签名。"
      },
      "type": "Feature"
    },
    {
      "geometry": {
        "coordinates": [
          139.768155,
          35.783203
        ],
        "type": "Point"
      },
      "properties": {
        "bangumi_id": 300179,
        "bangumi_title": "MIU404",
        "ep_cut": 1,
        "image_url": "https://w.junreimap.com/images/user/0/bangumi/300179/points/4ylh7llq8.jpg",
        "location": "",
        "point_id": "4ylh7llq8",
        "point_name": "おもちゃ屋​さん​の​倉庫​西新井​店",
        "remark": ""
      },
      "type": "Feature"
    },
    {
      "geometry": {
        "coordinates": [
          139.482054,
          35.922497
        ],
        "type": "Point"
      },
      "properties": {
        "bangumi_id": 300179,
        "bangumi_title": "MIU404",
        "ep_cut": 9,
        "image_url": "https://w.junreimap.com/images/user/0/bangumi/300179/points/4yl64g975.jpg",
        "location": "",
        "point_id": "4yl64g975",
        "point_name": "料亭山屋",
        "remark": "工鸟的房子，小羽麦被绑架到的地方。"
      },
      "type": "Feature"
    },
    {
      "geometry": {
        "coordinates": [
          140.00077,
          35.776663
        ],
        "type": "Point"
      },
      "properties": {
        "bangumi_id": 300179,
        "bangumi_title": "MIU404",
        "ep_cut": 1,
        "image_url": "https://w.junreimap.com/images/user/0/bangumi/300179/points/4ylsabw06.jpg",
        "location": "",
        "point_id": "4ylsabw06",
        "point_name": "鎌ケ谷市役所",
        "remark": ""
      },
      "type": "Feature"
    },
    {
      "geometry": {
        "coordinates": [
          138.691977,
          35.477947
        ],
        "type": "Point"
      },
      "properties": {
        "bangumi_id": 300179,
        "bangumi_title": "MIU404",
        "ep_cut": 2,
        "image_url": "https://w.junreimap.com/images/user/0/bangumi/300179/points/4ykl4uisw.jpg",
        "location": "",
        "point_id": "4ykl4uisw",
        "point_name": "道の駅なるさわ",
        "remark": ""
      },
      "type": "Feature"
    },
    {
      "geometry": {
        "coordinates": [
          139.673027,
          35.792185
        ],
        "type": "Point"
      },
      "properties": {
        "bangumi_id": 300179,
        "bangumi_title": "MIU404",
        "ep_cut": 3,
        "image_url": "https://w.junreimap.com/images/user/0/bangumi/300179/points/4yjz4p3m4.jpg",
        "location": "",
        "point_id": "4yjz4p3m4",
        "point_name": "舟渡公園",
        "remark": ""
      },
      "type": "Feature"
    },
    {
      "geometry": {
        "coordinates": [
          139.724168,
          35.624919
        ],
        "type": "Point"
      },
      "properties": {
        "bangumi_id": 300179,
        "bangumi_title": "MIU404",
        "ep_cut": 5,
        "image_url": "https://w.junreimap.com/images/user/0/bangumi/300179/points/4yicjegu5.jpg",
        "location": "",
        "point_id": "4yicjegu5",
        "point_name": "五反田ヒルズ",
        "remark": "ep5，伊吹、志摩去找小梅喝酒的地方"
      },
      "type": "Feature"
    },
    {
      "geometry": {
        "coordinates": [
          139.747741,
          35.634871
        ],
        "type": "Point"
      },
      "properties": {
        "bangumi_id": 300179,
        "bangumi_title": "MIU404",
        "ep_cut": 11,
        "image_url": "https://w.junreimap.com/images/user/0/bangumi/300179/points/4ystf98xa.jpg",
        "location": "",
        "point_id": "4ystf98xa",
        "point_name": "浜路橋",
        "remark": "『刑事やめだりしないよな』"
      },
      "type": "Feature"
    },
    {
      "geometry": {
        "coordinates": [
          139.746167,
          35.624718
        ],
        "type": "Point"
      },
      "properties": {
        "bangumi_id": 300179,
        "bangumi_title": "MIU404",
        "ep_cut": 11,
        "image_url": "https://w.junreimap.com/images/user/0/bangumi/300179/points/4ytj7pb3l.jpg",
        "location": "",
        "point_id": "4ytj7pb3l",
        "point_name": "楽水橋",
        "remark": "久住逃到桥上，被志摩和九重包围，便跳回到船上，故意撞上桥受伤。"
      },
      "type": "Feature"
    },
    {
      "geometry": {
        "coordinates": [
          139.746221,
          35.627307
        ],
        "type": "Point"
      },
      "properties": {
        "bangumi_id": 300179,
        "bangumi_title": "MIU404",
        "ep_cut": 11,
        "image_url": "https://w.junreimap.com/images/user/0/bangumi/300179/points/4ytql3m8p.jpg",
        "location": "",
        "point_id": "4ytql3m8p",
        "point_name": "港南公園Ｂ面の向う側",
        "remark": "伊吹追赶游船跑过的地方。"
      },
      "type": "Feature"
    },
    {
      "geometry": {
        "coordinates": [
          139.746537,
          35.629002
        ],
        "type": "Point"
      },
      "properties": {
        "bangumi_id": 300179,
        "bangumi_title": "MIU404",
        "ep_cut": 11,
        "image_url": "https://w.junreimap.com/images/user/0/bangumi/300179/points/4ytsemlz6.jpg",
        "location": "",
        "point_id": "4ytsemlz6",
        "point_name": "御楯橋",
        "remark": "伊吹追赶着游船跑上桥。（但下一幕跳桥的镜头是在另一座天王洲橋上拍摄的）"
      },
      "type": "Feature"
    },
    {
      "geometry": {
        "coordinates": [
          139.745255,
          35.623198
        ],
        "type": "Point"
      },
      "properties": {
        "bangumi_id": 300179,
        "bangumi_title": "MIU404",
        "ep_cut": 11,
        "image_url": "https://w.junreimap.com/images/user/0/bangumi/300179/points/4ytyrgabf.jpg",
        "location": "",
        "point_id": "4ytyrgabf",
        "point_name": "天王洲橋",
        "remark": "伊吹跳桥到游船上的地方。"
      },
      "type": "Feature"
    },
    {
      "geometry": {
        "coordinates": [
          139.746294,
          35.631738
        ],
        "type": "Point"
      },
      "properties": {
        "bangumi_id": 300179,
        "bangumi_title": "MIU404",
        "ep_cut": 11,
        "image_url": "https://w.junreimap.com/images/user/0/bangumi/300179/points/r.jpg",
        "location": "",
        "point_id": "4zc51zror",
        "point_name": "新港南橋",
        "remark": "久住爬上桥逃跑的地方。"
      },
      "type": "Feature"
    },
    {
      "geometry": {
        "coordinates": [
          139.753928,
          35.558015
        ],
        "type": "Point"
      },
      "properties": {
        "bangumi_id": 300179,
        "bangumi_title": "MIU404",
        "ep_cut": 4,
        "image_url": "https://w.junreimap.com/images/user/0/bangumi/3/points/4zc9h97cu-1672882012023.jpg",
        "location": "",
        "point_id": "4zc9h97cu",
        "point_name": "首都高速1号羽田線",
        "remark": ""
      },
      "type": "Feature"
    },
    {
      "geometry": {
        "coordinates": [
          139.773427,
          35.70401
        ],
        "type": "Point"
      },
      "properties": {
        "bangumi_id": 300179,
        "bangumi_title": "MIU404",
        "ep_cut": 4,
        "image_url": "https://w.junreimap.com/images/user/0/bangumi/3/points/4.jpg",
        "location": "",
        "point_id": "4zce9z00h",
        "point_name": "ユニオンビル",
        "remark": ""
      },
      "type": "Feature"
    },
    {
      "geometry": {
        "coordinates": [
          139.634777,
          35.448927
        ],
        "type": "Point"
      },
      "properties": {
        "bangumi_id": 300179,
        "bangumi_title": "MIU404",
        "ep_cut": 4,
        "image_url": "https://w.junreimap.com/images/user/0/bangumi/3/points/5.jpg",
        "location": "",
        "point_id": "4zcjexati",
        "point_name": "第2須賀ビル ヤマガタ薬局",
        "remark": ""
      },
      "type": "Feature"
    },
    {
      "geometry": {
        "coordinates": [
          139.92463,
          35.368009
        ],
        "type": "Point"
      },
      "properties": {
        "bangumi_id": 300179,
        "bangumi_title": "MIU404",
        "ep_cut": 8,
        "image_url": "https://w.junreimap.com/images/user/0/bangumi/3/points/4zd4zfszk-1672882143054.jpg",
        "location": "",
        "point_id": "4zd4zfszk",
        "point_name": "Panorama Craft",
        "remark": ""
      },
      "type": "Feature"
    },
    {
      "geometry": {
        "coordinates": [
          139.2941,
          35.728828
        ],
        "type": "Point"
      },
      "properties": {
        "bangumi_id": 300179,
        "bangumi_title": "MIU404",
        "ep_cut": 11,
        "image_url": "https://w.junreimap.com/images/user/0/bangumi/300179/points/f.jpg",
        "location": "",
        "point_id": "4zss47rbf",
        "point_name": "あきる野市役所",
        "remark": ""
      },
      "type": "Feature"
    },
    {
      "geometry": {
        "coordinates": [
          139.730012,
          35.584934
        ],
        "type": "Point"
      },
      "properties": {
        "bangumi_id": 300179,
        "bangumi_title": "MIU404",
        "ep_cut": 5,
        "image_url": "https://w.junreimap.com/images/user/0/bangumi/300179/points/w.jpg",
        "location": "",
        "point_id": "4ztsiduhw",
        "point_name": "Milpa広場",
        "remark": ""
      },
      "type": "Feature"
    },
    {
      "geometry": {
        "coordinates": [
          139.705001,
          35.713816
        ],
        "type": "Point"
      },
      "properties": {
        "bangumi_id": 300179,
        "bangumi_title": "MIU404",
        "ep_cut": 7,
        "image_url": "https://w.junreimap.com/images/user/0/bangumi/300179/points/o.jpg",
        "location": "",
        "point_id": "4zv9bk4co",
        "point_name": "喫茶ロマン",
        "remark": ""
      },
      "type": "Feature"
    },
    {
      "geometry": {
        "coordinates": [
          139.791359,
          35.686919
        ],
        "type": "Point"
      },
      "properties": {
        "bangumi_id": 300179,
        "bangumi_title": "MIU404",
        "ep_cut": 7,
        "image_url": "https://w.junreimap.com/images/user/0/bangumi/300179/points/j.jpg",
        "location": "",
        "point_id": "4zcqjj9rj",
        "point_name": "新大橋西",
        "remark": ""
      },
      "type": "Feature"
    },
    {
      "geometry": {
        "coordinates": [
          139.752314,
          35.676908
        ],
        "type": "Point"
      },
      "properties": {
        "bangumi_id": 300179,
        "bangumi_title": "MIU404",
        "ep_cut": 6,
        "image_url": "https://w.junreimap.com/images/points/300179/548m4wrt0_1733395777700.jpg",
        "location": "",
        "point_id": "548m4wrt0",
        "point_name": "警視庁",
        "remark": ""
      },
      "type": "Feature"
    },
    {
      "geometry": {
        "coordinates": [
          139.753995,
          35.677262
        ],
        "type": "Point"
      },
      "properties": {
        "bangumi_id": 300179,
        "bangumi_title": "MIU404",
        "ep_cut": 11,
        "image_url": "https://w.junreimap.com/images/user/0/bangumi/300179/points/5.jpg",
        "location": "",
        "point_id": "548rtgxck",
        "point_name": "桜田門駅出口4",
        "remark": ""
      },
      "type": "Feature"
    },
    {
      "geometry": {
        "coordinates": [
          140.078395,
          36.085359
        ],
        "type": "Point"
      },
      "properties": {
        "bangumi_id": 300179,
        "bangumi_title": "MIU404",
        "ep_cut": 1,
        "image_url": "https://w.junreimap.com/images/points/300179/559gw56es_1733395766774.jpg",
        "location": "",
        "point_id": "559gw56es",
        "point_name": "アクセス​ムーン​研究​学園​店の前",
        "remark": ""
      },
      "type": "Feature"
    },
    {
      "geometry": {
        "coordinates": [
          140.109868,
          36.081845
        ],
        "type": "Point"
      },
      "properties": {
        "bangumi_id": 300179,
        "bangumi_title": "MIU404",
        "ep_cut": 1,
        "image_url": "https://w.junreimap.com/images/user/0/bangumi/300179/points/7.jpg",
        "location": "",
        "point_id": "559ruaye4",
        "point_name": "つくば駅西交差点",
        "remark": ""
      },
      "type": "Feature"
    },
    {
      "geometry": {
        "coordinates": [
          140.115348,
          36.084417
        ],
        "type": "Point"
      },
      "properties": {
        "bangumi_id": 300179,
        "bangumi_title": "MIU404",
        "ep_cut": 1,
        "image_url": "https://w.junreimap.com/images/points/300179/55a2u9c0i_1733395786805.jpg",
        "location": "",
        "point_id": "55a2u9c0i",
        "point_name": "水戸地方法務局つくば出張所前の交差点",
        "remark": ""
      },
      "type": "Feature"
    },
    {
      "geometry": {
        "coordinates": [
          139.737637,
          35.588485
        ],
        "type": "Point"
      },
      "properties": {
        "bangumi_id": 300179,
        "bangumi_title": "MIU404",
        "ep_cut": 3,
        "image_url": "https://w.junreimap.com/images/user/0/bangumi/300179/points/8.jpg",
        "location": "",
        "point_id": "55ac2eb2w",
        "point_name": "しながわ水族館",
        "remark": ""
      },
      "type": "Feature"
    },
    {
      "geometry": {
        "coordinates": [
          139.751324,
          35.667075
        ],
        "type": "Point"
      },
      "properties": {
        "bangumi_id": 300179,
        "bangumi_title": "MIU404",
        "ep_cut": 9,
        "image_url": "https://w.junreimap.com/images/points/300179/55ag3rvof_1733395730900.jpg",
        "location": "",
        "point_id": "55ag3rvof",
        "point_name": "(鯨の胃袋)笠井ビルデング",
        "remark": ""
      },
      "type": "Feature"
    },
    {
      "geometry": {
        "coordinates": [
          139.770548,
          35.634928
        ],
        "type": "Point"
      },
      "properties": {
        "bangumi_id": 300179,
        "bangumi_title": "MIU404",
        "ep_cut": 9,
        "image_url": "https://w.junreimap.com/images/points/300179/55ar07ba7_1733395749466.jpg",
        "location": "",
        "point_id": "55ar07ba7",
        "point_name": "レインボーブリッジ ",
        "remark": ""
      },
      "type": "Feature"
    },
    {
      "geometry": {
        "coordinates": [
          139.758167,
          35.699205
        ],
        "type": "Point"
      },
      "properties": {
        "bangumi_id": 300179,
        "bangumi_title": "MIU404",
        "ep_cut": 1,
        "image_url": "https://w.junreimap.com/images/user/0/bangumi/300179/points/9.jpg",
        "location": "",
        "point_id": "55b29h5yi",
        "point_name": "千代田区​神田猿楽町​々​會​詰所",
        "remark": ""
      },
      "type": "Feature"
    },
    {
      "geometry": {
        "coordinates": [
          139.63416,
          35.89206
        ],
        "type": "Point"
      },
      "properties": {
        "bangumi_id": 300179,
        "bangumi_title": "MIU404",
        "ep_cut": 4,
        "image_url": "https://w.junreimap.com/images/user/0/bangumi/300179/points/5832kw4x0-1672882412772.jpg",
        "location": "",
        "point_id": "5832kw4x0",
        "point_name": "せせらぎ通り と ふじ通りの交差点",
        "remark": ""
      },
      "type": "Feature"
    },
    {
      "geometry": {
        "coordinates": [
          139.485094,
          35.583623
        ],
        "type": "Point"
      },
      "properties": {
        "bangumi_id": 300179,
        "bangumi_title": "MIU404",
        "ep_cut": 6,
        "image_url": "https://w.junreimap.com/images/user/0/bangumi/300179/points/5837s7i18-1672882735464.jpg",
        "location": "",
        "point_id": "5837s7i18",
        "point_name": "パストラル​ハウス/星野ハイツ",
        "remark": ""
      },
      "type": "Feature"
    },
    {
      "geometry": {
        "coordinates": [
          139.797024,
          35.72711
        ],
        "type": "Point"
      },
      "properties": {
        "bangumi_id": 300179,
        "bangumi_title": "MIU404",
        "ep_cut": 9,
        "image_url": "https://w.junreimap.com/images/user/0/bangumi/300179/points/5z7u59qj6-1675008602937.jpg",
        "location": "",
        "point_id": "5z7u59qj6",
        "point_name": "(株)​大王​製作所",
        "remark": "剧中辰井组事务所的取景地"
      },
      "type": "Feature"
    },
    {
      "geometry": {
        "coordinates": [
          139.79615,
          35.726936
        ],
        "type": "Point"
      },
      "properties": {
        "bangumi_id": 300179,
        "bangumi_title": "MIU404",
        "ep_cut": 9,
        "image_url": "https://w.junreimap.com/images/user/0/bangumi/300179/points/5z7w03mex-1675008776274.jpg",
        "location": "",
        "point_id": "5z7w03mex",
        "point_name": "渡辺マンション前",
        "remark": ""
      },
      "type": "Feature"
    },
    {
      "geometry": {
        "coordinates": [
          139.779033,
          35.694973
        ],
        "type": "Point"
      },
      "properties": {
        "bangumi_id": 300179,
        "bangumi_title": "MIU404",
        "ep_cut": 9,
        "image_url": "https://w.junreimap.com/images/user/0/bangumi/300179/points/5z7zy2jcl-1675009088675.jpg",
        "location": "",
        "point_id": "5z7zy2jcl",
        "point_name": "プライム東神田",
        "remark": ""
      },
      "type": "Feature"
    },
    {
      "geometry": {
        "coordinates": [
          139.878097,
          35.681371
        ],
        "type": "Point"
      },
      "properties": {
        "bangumi_id": 300179,
        "bangumi_title": "MIU404",
        "ep_cut": 10,
        "image_url": "https://w.junreimap.com/images/user/0/bangumi/300179/points/61a6vc8lb-1675170502047.jpg",
        "location": "",
        "point_id": "61a6vc8lb",
        "point_name": "二之江中学校南",
        "remark": ""
      },
      "type": "Feature"
    },
    {
      "geometry": {
        "coordinates": [
          139.877289,
          35.680794
        ],
        "type": "Point"
      },
      "properties": {
        "bangumi_id": 300179,
        "bangumi_title": "MIU404",
        "ep_cut": 9,
        "image_url": "https://w.junreimap.com/images/user/0/bangumi/300179/points/61ahnxodv-1675171100539.jpg",
        "location": "",
        "point_id": "61ahnxodv",
        "point_name": "コーシャ​ハイム​春江​五丁目",
        "remark": ""
      },
      "type": "Feature"
    },
    {
      "geometry": {
        "coordinates": [
          139.39822,
          35.681569
        ],
        "type": "Point"
      },
      "properties": {
        "bangumi_id": 300179,
        "bangumi_title": "MIU404",
        "ep_cut": 8,
        "image_url": "https://w.junreimap.com/images/user/0/bangumi/300179/points/6at0qmwb5-1675916766205.jpg",
        "location": "",
        "point_id": "6at0qmwb5",
        "point_name": "一軒家",
        "remark": "蒲郡家"
      },
      "type": "Feature"
    },
    {
      "geometry": {
        "coordinates": [
          139.535524,
          35.788737
        ],
        "type": "Point"
      },
      "properties": {
        "bangumi_id": 300179,
        "bangumi_title": "MIU404",
        "ep_cut": 8,
        "image_url": "https://w.junreimap.com/images/user/0/bangumi/300179/points/6atkf4gor-1675917919530.jpg",
        "location": "",
        "point_id": "6atkf4gor",
        "point_name": "大林​道路​技術​研究所",
        "remark": "UDI实验室"
      },
      "type": "Feature"
    },
    {
      "geometry": {
        "coordinates": [
          139.706138,
          35.691645
        ],
        "type": "Point"
      },
      "properties": {
        "bangumi_id": 300179,
        "bangumi_title": "MIU404",
        "ep_cut": 5,
        "image_url": "https://w.junreimap.com/images/user/0/bangumi/300179/points/6ars57ywk-1675914053487.jpg",
        "location": "",
        "point_id": "6ars57ywk",
        "point_name": "丸港水産",
        "remark": ""
      },
      "type": "Feature"
    },
    {
      "geometry": {
        "coordinates": [
          139.744183,
          35.64519
        ],
        "type": "Point"
      },
      "properties": {
        "bangumi_id": 300179,
        "bangumi_title": "MIU404",
        "ep_cut": 10,
        "image_url": "https://w.junreimap.com/images/user/0/bangumi/300179/points/6arm657z5-1675913745700.jpg",
        "location": "",
        "point_id": "6arm657z5",
        "point_name": "札の辻",
        "remark": ""
      },
      "type": "Feature"
    },
    {
      "geometry": {
        "coordinates": [
          139.460491,
          36.123217
        ],
        "type": "Point"
      },
      "properties": {
        "bangumi_id": 300179,
        "bangumi_title": "MIU404",
        "ep_cut": 4,
        "image_url": "https://w.junreimap.com/images/user/0/bangumi/300179/points/6atax4vhl-1675917346000.jpg",
        "location": "",
        "point_id": "6atax4vhl",
        "point_name": "埼玉カートパーク",
        "remark": ""
      },
      "type": "Feature"
    },
    {
      "geometry": {
        "coordinates": [
          139.70254,
          35.661536
        ],
        "type": "Point"
      },
      "properties": {
        "bangumi_id": 300179,
        "bangumi_title": "MIU404",
        "ep_cut": 11,
        "image_url": "https://w.junreimap.com/images/user/0/bangumi/300179/points/6arwkp4k5-1675914299489.jpg",
        "location": "",
        "point_id": "6arwkp4k5",
        "point_name": "Freeman Cafe",
        "remark": ""
      },
      "type": "Feature"
    },
    {
      "geometry": {
        "coordinates": [
          139.625782,
          35.999756
        ],
        "type": "Point"
      },
      "properties": {
        "bangumi_id": 300179,
        "bangumi_title": "MIU404",
        "ep_cut": "",
        "image_url": "https://w.junreimap.com/images/points/300179/qoa2bciq4_1733394770745.jpg",
        "location": "",
        "point_id": "qoa2bciq4",
        "point_name": "ヤマザキYショップ 伊奈小室店",
        "remark": ""
      },
      "type": "Feature"
    },
    {
      "geometry": {
        "coordinates": [
          139.661177,
          35.681454
        ],
        "type": "Point"
      },
      "properties": {
        "bangumi_id": 300179,
        "bangumi_title": "MIU404",
        "ep_cut": "",
        "image_url": "https://w.junreimap.com/images/points/300179/qoamyyybz_1733396103972.jpg",
        "location": "",
        "point_id": "qoamyyybz",
        "point_name": "クリオ方南町壱番館　旁",
        "remark": ""
      },
      "type": "Feature"
    }
  ],
  "type": "FeatureCollection"
}