{
  "features": [
    {
      "geometry": {
        "coordinates": [
          139.719433,
          35.711707
        ],
        "type": "Point"
      },
      "properties": {
        "bangumi_id": 305058,
        "bangumi_title": "BanG Dream! Episode of Roselia Ⅰ",
        "ep_cut": 1,
        "image_url": "https://w.junreimap.com/images/user/0/bangumi/305058/points/uw4h1h-1748878353777.jpg",
        "location": "",
        "point_id": "uw4h1h",
        "point_name": "都電早稲田駅",
        "remark": "lisa和ykn在高二开学式后乘坐都电荒川线在飞鸟山站下车。并向北走。"
      },
      "type": "Feature"
    },
    {
      "geometry": {
        "coordinates": [
          139.71954,
          35.712499
        ],
        "type": "Point"
      },
      "properties": {
        "bangumi_id": 305058,
        "bangumi_title": "BanG Dream! Episode of Roselia Ⅰ",
        "ep_cut": 1,
        "image_url": "https://w.junreimap.com/images/user/0/bangumi/305058/points/uwctba-1748878703610.jpg",
        "location": "",
        "point_id": "uwctba",
        "point_name": "丰桥",
        "remark": "lisa和ykn从早稻田站北走通过丰桥后沿步道西拐，此处为丰桥东北方往西望去。"
      },
      "type": "Feature"
    },
    {
      "geometry": {
        "coordinates": [
          139.784654,
          35.738182
        ],
        "type": "Point"
      },
      "properties": {
        "bangumi_id": 305058,
        "bangumi_title": "BanG Dream! Episode of Roselia Ⅰ",
        "ep_cut": 1,
        "image_url": "https://w.junreimap.com/images/user/0/bangumi/315490/points/uwm89k-1748879140826.jpg",
        "location": "",
        "point_id": "uwm89k",
        "point_name": "都电荒川二丁目",
        "remark": "lisa和ykn下车回家。"
      },
      "type": "Feature"
    },
    {
      "geometry": {
        "coordinates": [
          139.785416,
          35.739952
        ],
        "type": "Point"
      },
      "properties": {
        "bangumi_id": 305058,
        "bangumi_title": "BanG Dream! Episode of Roselia Ⅰ",
        "ep_cut": 1,
        "image_url": "https://w.junreimap.com/images/user/0/bangumi/315490/points/uwrbav-1748879363925.jpg",
        "location": "",
        "point_id": "uwrbav",
        "point_name": "荒川自然公园·白鸟池",
        "remark": "背景雕塑从西望东望去。"
      },
      "type": "Feature"
    },
    {
      "geometry": {
        "coordinates": [
          139.785364,
          35.739891
        ],
        "type": "Point"
      },
      "properties": {
        "bangumi_id": 305058,
        "bangumi_title": "BanG Dream! Episode of Roselia Ⅰ",
        "ep_cut": 1,
        "image_url": "https://w.junreimap.com/images/user/0/bangumi/305058/points/uwtqvu-1748879485388.jpg",
        "location": "",
        "point_id": "uwtqvu",
        "point_name": "荒川自然公园·白鸟池",
        "remark": ""
      },
      "type": "Feature"
    },
    {
      "geometry": {
        "coordinates": [
          139.785251,
          35.74025
        ],
        "type": "Point"
      },
      "properties": {
        "bangumi_id": 305058,
        "bangumi_title": "BanG Dream! Episode of Roselia Ⅰ",
        "ep_cut": 1,
        "image_url": "https://w.junreimap.com/images/user/0/bangumi/305058/points/uxvibl-1748881242648.jpg",
        "location": "",
        "point_id": "uxvibl",
        "point_name": "荒川自然公园·白鸟池",
        "remark": ""
      },
      "type": "Feature"
    },
    {
      "geometry": {
        "coordinates": [
          139.714269,
          35.713382
        ],
        "type": "Point"
      },
      "properties": {
        "bangumi_id": 305058,
        "bangumi_title": "BanG Dream! Episode of Roselia Ⅰ",
        "ep_cut": 1,
        "image_url": "https://w.junreimap.com/images/user/0/bangumi/305058/points/uy5bbu-1748881708382.jpg",
        "location": "",
        "point_id": "uy5bbu",
        "point_name": "面影橋 北岸西小道",
        "remark": "sayo和lisa望面影桥方向走"
      },
      "type": "Feature"
    },
    {
      "geometry": {
        "coordinates": [
          139.719243,
          35.711781
        ],
        "type": "Point"
      },
      "properties": {
        "bangumi_id": 305058,
        "bangumi_title": "BanG Dream! Episode of Roselia Ⅰ",
        "ep_cut": 1,
        "image_url": "https://w.junreimap.com/images/user/0/bangumi/305058/points/vi9nqn-1748915493794.jpg",
        "location": "",
        "point_id": "vi9nqn",
        "point_name": "都電早稲田駅",
        "remark": "ykn从CiRCLE离开后回到早稻田站。"
      },
      "type": "Feature"
    },
    {
      "geometry": {
        "coordinates": [
          139.784767,
          35.739905
        ],
        "type": "Point"
      },
      "properties": {
        "bangumi_id": 305058,
        "bangumi_title": "BanG Dream! Episode of Roselia Ⅰ",
        "ep_cut": 1,
        "image_url": "https://w.junreimap.com/images/user/0/bangumi/305058/points/visrmb-1748916385313.jpg",
        "location": "",
        "point_id": "visrmb",
        "point_name": "荒川自然公园·西口",
        "remark": "lisa和ykn上学。在坡顶望向荒川二丁目站。"
      },
      "type": "Feature"
    },
    {
      "geometry": {
        "coordinates": [
          139.719296,
          35.711877
        ],
        "type": "Point"
      },
      "properties": {
        "bangumi_id": 305058,
        "bangumi_title": "BanG Dream! Episode of Roselia Ⅰ",
        "ep_cut": 1,
        "image_url": "https://w.junreimap.com/images/user/0/bangumi/305058/points/vj2yjt-1748916888408.jpg",
        "location": "",
        "point_id": "vj2yjt",
        "point_name": "Re:MAKE WASEDA2",
        "remark": "早稻田站十字路口西北侧行人红绿灯。"
      },
      "type": "Feature"
    },
    {
      "geometry": {
        "coordinates": [
          139.784495,
          35.738707
        ],
        "type": "Point"
      },
      "properties": {
        "bangumi_id": 305058,
        "bangumi_title": "BanG Dream! Episode of Roselia Ⅰ",
        "ep_cut": 1,
        "image_url": "https://w.junreimap.com/images/user/0/bangumi/305058/points/vjb9qg-1748917258641.jpg",
        "location": "",
        "point_id": "vjb9qg",
        "point_name": "荒川二丁目踏切",
        "remark": ""
      },
      "type": "Feature"
    },
    {
      "geometry": {
        "coordinates": [
          139.784712,
          35.738713
        ],
        "type": "Point"
      },
      "properties": {
        "bangumi_id": 305058,
        "bangumi_title": "BanG Dream! Episode of Roselia Ⅰ",
        "ep_cut": 1,
        "image_url": "https://w.junreimap.com/images/user/0/bangumi/305058/points/vjeauf-1748917387184.jpg",
        "location": "",
        "point_id": "vjeauf",
        "point_name": "荒川二丁目",
        "remark": ""
      },
      "type": "Feature"
    },
    {
      "geometry": {
        "coordinates": [
          139.785175,
          35.740122
        ],
        "type": "Point"
      },
      "properties": {
        "bangumi_id": 305058,
        "bangumi_title": "BanG Dream! Episode of Roselia Ⅰ",
        "ep_cut": 1,
        "image_url": "https://w.junreimap.com/images/user/0/bangumi/305058/points/vjh623-1748917525452.jpg",
        "location": "",
        "point_id": "vjh623",
        "point_name": "荒川自然公园·白鸟池",
        "remark": "lisa和ykn回家。左侧高塔为晴空塔。"
      },
      "type": "Feature"
    },
    {
      "geometry": {
        "coordinates": [
          139.786821,
          35.74093
        ],
        "type": "Point"
      },
      "properties": {
        "bangumi_id": 305058,
        "bangumi_title": "BanG Dream! Episode of Roselia Ⅰ",
        "ep_cut": 1,
        "image_url": "https://w.junreimap.com/images/user/0/bangumi/305058/points/vjtuop-1748918130178.jpg",
        "location": "",
        "point_id": "vjtuop",
        "point_name": "荒川自然公园·荒川八丁目口",
        "remark": "lisa和ykn通过荒川八丁目口步道桥。应从该点西侧公园望向步道桥，远处右侧俩片状高楼和右侧最高塔楼完全一致。"
      },
      "type": "Feature"
    },
    {
      "geometry": {
        "coordinates": [
          139.78682,
          35.740866
        ],
        "type": "Point"
      },
      "properties": {
        "bangumi_id": 305058,
        "bangumi_title": "BanG Dream! Episode of Roselia Ⅰ",
        "ep_cut": 1,
        "image_url": "https://w.junreimap.com/images/user/0/bangumi/305058/points/vk5txq-1748918680194.jpg",
        "location": "",
        "point_id": "vk5txq",
        "point_name": "荒川八丁目口·步道桥",
        "remark": "从步道桥南向北望去。"
      },
      "type": "Feature"
    },
    {
      "geometry": {
        "coordinates": [
          139.78668,
          35.740826
        ],
        "type": "Point"
      },
      "properties": {
        "bangumi_id": 305058,
        "bangumi_title": "BanG Dream! Episode of Roselia Ⅰ",
        "ep_cut": 1,
        "image_url": "https://w.junreimap.com/images/user/0/bangumi/305058/points/vk965b-1748918826681.jpg",
        "location": "",
        "point_id": "vk965b",
        "point_name": "荒川八丁目口·步道桥",
        "remark": "从西侧桥下望向桥。"
      },
      "type": "Feature"
    },
    {
      "geometry": {
        "coordinates": [
          139.786721,
          35.73962
        ],
        "type": "Point"
      },
      "properties": {
        "bangumi_id": 305058,
        "bangumi_title": "BanG Dream! Episode of Roselia Ⅰ",
        "ep_cut": 1,
        "image_url": "https://w.junreimap.com/images/user/0/bangumi/305058/points/vlectu-1748920749448.jpg",
        "location": "",
        "point_id": "vlectu",
        "point_name": "荒川八丁目公园",
        "remark": "lisa和ykn家门口的公园。从实际公园中间向北望去，中间为草坡，左边为洗手池。公园南半部分设定应该是lisa和ykn的家。"
      },
      "type": "Feature"
    }
  ],
  "type": "FeatureCollection"
}