{
  "features": [
    {
      "geometry": {
        "coordinates": [
          138.680578,
          35.692269
        ],
        "type": "Point"
      },
      "properties": {
        "bangumi_id": 306429,
        "bangumi_title": "成神之日",
        "ep_cut": 1,
        "image_url": "https://w.junreimap.com/images/points/306429/51i52f408_1740553508518.jpg",
        "location": "",
        "point_id": "51i52f408",
        "point_name": "万力大橋西交差点",
        "remark": "第一話"
      },
      "type": "Feature"
    },
    {
      "geometry": {
        "coordinates": [
          138.679192,
          35.68883
        ],
        "type": "Point"
      },
      "properties": {
        "bangumi_id": 306429,
        "bangumi_title": "成神之日",
        "ep_cut": 5,
        "image_url": "https://w.junreimap.com/images/points/306429/51i52f3m8_1740554379255.jpg",
        "location": "",
        "point_id": "51i52f3m8",
        "point_name": "万力公園噴水広場",
        "remark": "第五話"
      },
      "type": "Feature"
    },
    {
      "geometry": {
        "coordinates": [
          138.677359,
          35.688674
        ],
        "type": "Point"
      },
      "properties": {
        "bangumi_id": 306429,
        "bangumi_title": "成神之日",
        "ep_cut": 1,
        "image_url": "https://w.junreimap.com/images/points/306429/51i52f4xl_1740553751127.jpg",
        "location": "",
        "point_id": "51i52f4xl",
        "point_name": "デイリーヤマザキ裏の道",
        "remark": "第一話"
      },
      "type": "Feature"
    },
    {
      "geometry": {
        "coordinates": [
          138.679087,
          35.687014
        ],
        "type": "Point"
      },
      "properties": {
        "bangumi_id": 306429,
        "bangumi_title": "成神之日",
        "ep_cut": 1,
        "image_url": "https://w.junreimap.com/images/points/306429/51i52f50n_1740553944664.jpg",
        "location": "",
        "point_id": "51i52f50n",
        "point_name": "万力公園河川敷",
        "remark": "第一話"
      },
      "type": "Feature"
    },
    {
      "geometry": {
        "coordinates": [
          138.662845,
          35.704513
        ],
        "type": "Point"
      },
      "properties": {
        "bangumi_id": 306429,
        "bangumi_title": "成神之日",
        "ep_cut": 12,
        "image_url": "https://w.junreimap.com/images/points/306429/51i52f4ss_1740552257847.jpg",
        "location": "",
        "point_id": "51i52f4ss",
        "point_name": "笛吹川フルーツ公園 恋人の聖地",
        "remark": "第十二話"
      },
      "type": "Feature"
    },
    {
      "geometry": {
        "coordinates": [
          138.666085,
          35.701607
        ],
        "type": "Point"
      },
      "properties": {
        "bangumi_id": 306429,
        "bangumi_title": "成神之日",
        "ep_cut": "第九话",
        "image_url": "https://w.junreimap.com/images/user/0/bangumi/306429/points/51i52f4s8-1739392717072.jpg",
        "location": "",
        "point_id": "51i52f4s8",
        "point_name": "笛吹川フルーツ公園 くだもの広場近くの階段",
        "remark": "此地为成神阳太带着佐藤雏逃跑时的经过"
      },
      "type": "Feature"
    },
    {
      "geometry": {
        "coordinates": [
          138.662824,
          35.703519
        ],
        "type": "Point"
      },
      "properties": {
        "bangumi_id": 306429,
        "bangumi_title": "成神之日",
        "ep_cut": 7,
        "image_url": "https://w.junreimap.com/images/points/306429/51i52f4nd_1740554801721.jpg",
        "location": "",
        "point_id": "51i52f4nd",
        "point_name": "笛吹川フルーツ公園 富士屋ホテル",
        "remark": "第七話"
      },
      "type": "Feature"
    },
    {
      "geometry": {
        "coordinates": [
          138.668397,
          35.696823
        ],
        "type": "Point"
      },
      "properties": {
        "bangumi_id": 306429,
        "bangumi_title": "成神之日",
        "ep_cut": 1,
        "image_url": "https://w.junreimap.com/images/points/306429/51i52f4hu_1740551876474.jpg",
        "location": "",
        "point_id": "51i52f4hu",
        "point_name": "名前のない展望台",
        "remark": "第一話"
      },
      "type": "Feature"
    },
    {
      "geometry": {
        "coordinates": [
          138.692528,
          35.62278
        ],
        "type": "Point"
      },
      "properties": {
        "bangumi_id": 306429,
        "bangumi_title": "成神之日",
        "ep_cut": 1,
        "image_url": "https://w.junreimap.com/images/points/306429/lqfm29nln_1740554126456.jpg",
        "location": "",
        "point_id": "lqfm29nln",
        "point_name": "日本システムウエア野球場",
        "remark": "第一話"
      },
      "type": "Feature"
    },
    {
      "geometry": {
        "coordinates": [
          138.587853,
          35.62226
        ],
        "type": "Point"
      },
      "properties": {
        "bangumi_id": 306429,
        "bangumi_title": "成神之日",
        "ep_cut": "",
        "image_url": "https://w.junreimap.com/images/points/306429/51i52f514_1740553624479.jpg",
        "location": "",
        "point_id": "51i52f514",
        "point_name": "小瀬スポーツ公園",
        "remark": "PV"
      },
      "type": "Feature"
    },
    {
      "geometry": {
        "coordinates": [
          138.684431,
          35.697046
        ],
        "type": "Point"
      },
      "properties": {
        "bangumi_id": 306429,
        "bangumi_title": "成神之日",
        "ep_cut": 6,
        "image_url": "https://w.junreimap.com/images/points/306429/51i52f4s0_1740553337015.jpg",
        "location": "",
        "point_id": "51i52f4s0",
        "point_name": "差出磯大嶽山神社",
        "remark": "第六話"
      },
      "type": "Feature"
    }
  ],
  "type": "FeatureCollection"
}