{
  "features": [
    {
      "geometry": {
        "coordinates": [
          139.643305,
          35.452416
        ],
        "type": "Point"
      },
      "properties": {
        "bangumi_id": 309316,
        "bangumi_title": "五等分的新娘 五子没办法将拼图五等分",
        "ep_cut": "",
        "image_url": "https://w.junreimap.com/images/user/2090/bangumi/309316/points/2eb2236e-1728336306023.jpg",
        "location": "ベイサイドデート",
        "point_id": "2eb2236e",
        "point_name": "红砖仓库",
        "remark": "“湾边约会”活动 一花觉醒前卡面"
      },
      "type": "Feature"
    },
    {
      "geometry": {
        "coordinates": [
          139.643139,
          35.452389
        ],
        "type": "Point"
      },
      "properties": {
        "bangumi_id": 309316,
        "bangumi_title": "五等分的新娘 五子没办法将拼图五等分",
        "ep_cut": "",
        "image_url": "https://w.junreimap.com/images/user/2090/bangumi/309316/points/f1a88509-1728336380762.jpg",
        "location": "ベイサイドデート",
        "point_id": "f1a88509",
        "point_name": "红砖仓库",
        "remark": "“湾边约会”活动 一花觉醒后卡面"
      },
      "type": "Feature"
    },
    {
      "geometry": {
        "coordinates": [
          139.633215,
          35.452113
        ],
        "type": "Point"
      },
      "properties": {
        "bangumi_id": 309316,
        "bangumi_title": "五等分的新娘 五子没办法将拼图五等分",
        "ep_cut": "",
        "image_url": "https://w.junreimap.com/images/user/2090/bangumi/309316/points/bfc64754-1728336553790.jpg",
        "location": "ベイサイドデート",
        "point_id": "bfc64754",
        "point_name": "Yokohama Air Cabin",
        "remark": "“湾边约会”活动 二乃觉醒前卡面"
      },
      "type": "Feature"
    },
    {
      "geometry": {
        "coordinates": [
          139.632307,
          35.453382
        ],
        "type": "Point"
      },
      "properties": {
        "bangumi_id": 309316,
        "bangumi_title": "五等分的新娘 五子没办法将拼图五等分",
        "ep_cut": "",
        "image_url": "https://w.junreimap.com/images/user/2090/bangumi/309316/points/bd32d578-1728336642821.jpg",
        "location": "ベイサイドデート",
        "point_id": "bd32d578",
        "point_name": "帆船日本丸",
        "remark": "“湾边约会”活动 二乃觉醒后卡面"
      },
      "type": "Feature"
    },
    {
      "geometry": {
        "coordinates": [
          139.637826,
          35.453386
        ],
        "type": "Point"
      },
      "properties": {
        "bangumi_id": 309316,
        "bangumi_title": "五等分的新娘 五子没办法将拼图五等分",
        "ep_cut": "",
        "image_url": "https://w.junreimap.com/images/user/2090/bangumi/309316/points/5e478b33-1728336895002.jpg",
        "location": "ベイサイドデート",
        "point_id": "5e478b33",
        "point_name": "运河公园西侧景色",
        "remark": "“湾边约会”活动 三玖觉醒前卡面"
      },
      "type": "Feature"
    },
    {
      "geometry": {
        "coordinates": [
          139.638027,
          35.458288
        ],
        "type": "Point"
      },
      "properties": {
        "bangumi_id": 309316,
        "bangumi_title": "五等分的新娘 五子没办法将拼图五等分",
        "ep_cut": "",
        "image_url": "https://w.junreimap.com/images/user/2090/bangumi/309316/points/7bf5d1d8-1728337023129.jpg",
        "location": "ベイサイドデート",
        "point_id": "7bf5d1d8",
        "point_name": "みなとみらいぷかり桟橋",
        "remark": "“湾边约会”活动 三玖觉醒后卡面"
      },
      "type": "Feature"
    },
    {
      "geometry": {
        "coordinates": [
          139.6497,
          35.445862
        ],
        "type": "Point"
      },
      "properties": {
        "bangumi_id": 309316,
        "bangumi_title": "五等分的新娘 五子没办法将拼图五等分",
        "ep_cut": "",
        "image_url": "https://w.junreimap.com/images/user/2090/bangumi/309316/points/95cf7001-1728337155145.jpg",
        "location": "ベイサイドデート",
        "point_id": "95cf7001",
        "point_name": "山下公园喷泉",
        "remark": "“湾边约会”活动 四叶觉醒前卡面"
      },
      "type": "Feature"
    },
    {
      "geometry": {
        "coordinates": [
          139.650914,
          35.443936
        ],
        "type": "Point"
      },
      "properties": {
        "bangumi_id": 309316,
        "bangumi_title": "五等分的新娘 五子没办法将拼图五等分",
        "ep_cut": "",
        "image_url": "https://w.junreimap.com/images/user/2090/bangumi/309316/points/nwicg3vgk-1725576408731.jpg",
        "location": "ベイサイドデート",
        "point_id": "nwicg3vgk",
        "point_name": "横浜​マリン​タワー",
        "remark": "“湾边约会”活动 四叶觉醒后卡面"
      },
      "type": "Feature"
    },
    {
      "geometry": {
        "coordinates": [
          139.638669,
          35.443137
        ],
        "type": "Point"
      },
      "properties": {
        "bangumi_id": 309316,
        "bangumi_title": "五等分的新娘 五子没办法将拼图五等分",
        "ep_cut": "",
        "image_url": "https://w.junreimap.com/images/user/2090/bangumi/309316/points/b0fbc6a9-1728337343447.jpg",
        "location": "ベイサイドデート",
        "point_id": "b0fbc6a9",
        "point_name": "横滨体育场西侧门口",
        "remark": "“湾边约会”活动 五月觉醒前卡面"
      },
      "type": "Feature"
    },
    {
      "geometry": {
        "coordinates": [
          139.644137,
          35.443076
        ],
        "type": "Point"
      },
      "properties": {
        "bangumi_id": 309316,
        "bangumi_title": "五等分的新娘 五子没办法将拼图五等分",
        "ep_cut": "",
        "image_url": "https://w.junreimap.com/images/points/309316/ac0d9335_1728337507811.jpg",
        "location": "ベイサイドデート",
        "point_id": "ac0d9335",
        "point_name": "横滨中华街善邻门",
        "remark": "“湾边约会”活动 五月觉醒后卡面"
      },
      "type": "Feature"
    },
    {
      "geometry": {
        "coordinates": [
          139.637823,
          35.453377
        ],
        "type": "Point"
      },
      "properties": {
        "bangumi_id": 309316,
        "bangumi_title": "五等分的新娘 五子没办法将拼图五等分",
        "ep_cut": "",
        "image_url": "https://w.junreimap.com/images/user/2090/bangumi/309316/points/3a96241e-1728337619000.jpg",
        "location": "ベイサイドデート",
        "point_id": "3a96241e",
        "point_name": "运河公园西侧景色",
        "remark": "“湾边约会”活动 全员合照"
      },
      "type": "Feature"
    },
    {
      "geometry": {
        "coordinates": [
          139.643166,
          35.452393
        ],
        "type": "Point"
      },
      "properties": {
        "bangumi_id": 309316,
        "bangumi_title": "五等分的新娘 五子没办法将拼图五等分",
        "ep_cut": "",
        "image_url": "https://w.junreimap.com/images/user/2090/bangumi/309316/points/ovqaoqv24-1728336453218.jpg",
        "location": "ベイサイドデート",
        "point_id": "ovqaoqv24",
        "point_name": "红砖仓库",
        "remark": "“湾边约会”活动 一花背景"
      },
      "type": "Feature"
    },
    {
      "geometry": {
        "coordinates": [
          139.638122,
          35.458285
        ],
        "type": "Point"
      },
      "properties": {
        "bangumi_id": 309316,
        "bangumi_title": "五等分的新娘 五子没办法将拼图五等分",
        "ep_cut": "",
        "image_url": "https://w.junreimap.com/images/user/2090/bangumi/309316/points/ovql77s6t-1728337076784.jpg",
        "location": "ベイサイドデート",
        "point_id": "ovql77s6t",
        "point_name": "みなとみらいぷかり桟橋",
        "remark": "“湾边约会”活动 三玖背景"
      },
      "type": "Feature"
    }
  ],
  "type": "FeatureCollection"
}