{
  "features": [
    {
      "geometry": {
        "coordinates": [
          137.129038,
          35.335063
        ],
        "type": "Point"
      },
      "properties": {
        "bangumi_id": 311615,
        "bangumi_title": "如果烧陶的话也做个马克杯吧",
        "ep_cut": "",
        "image_url": "https://w.junreimap.com/images/points/311615/5bd92b1e_1752750061678.jpg",
        "location": "",
        "point_id": "5bd92b1e",
        "point_name": "多治見橋",
        "remark": "OP、#01、#02、#03"
      },
      "type": "Feature"
    },
    {
      "geometry": {
        "coordinates": [
          137.120908,
          35.335175
        ],
        "type": "Point"
      },
      "properties": {
        "bangumi_id": 311615,
        "bangumi_title": "如果烧陶的话也做个马克杯吧",
        "ep_cut": "",
        "image_url": "https://w.junreimap.com/images/points/311615/33e6638c_1752749892319.jpg",
        "location": "",
        "point_id": "33e6638c",
        "point_name": "多治見駅",
        "remark": "OP、#02、#05"
      },
      "type": "Feature"
    },
    {
      "geometry": {
        "coordinates": [
          137.121183,
          35.334906
        ],
        "type": "Point"
      },
      "properties": {
        "bangumi_id": 311615,
        "bangumi_title": "如果烧陶的话也做个马克杯吧",
        "ep_cut": "",
        "image_url": "https://w.junreimap.com/images/points/311615/2oi3uwx_1752845560230.jpg",
        "location": "",
        "point_id": "2oi3uwx",
        "point_name": "多治見駅南口改札前",
        "remark": "OP"
      },
      "type": "Feature"
    },
    {
      "geometry": {
        "coordinates": [
          137.136839,
          35.332775
        ],
        "type": "Point"
      },
      "properties": {
        "bangumi_id": 311615,
        "bangumi_title": "如果烧陶的话也做个马克杯吧",
        "ep_cut": "",
        "image_url": "https://w.junreimap.com/images/points/311615/07d6fa9b_1752749834632.jpg",
        "location": "",
        "point_id": "07d6fa9b",
        "point_name": "たこ焼きSHOPぺたん",
        "remark": "OP"
      },
      "type": "Feature"
    },
    {
      "geometry": {
        "coordinates": [
          137.133363,
          35.35412
        ],
        "type": "Point"
      },
      "properties": {
        "bangumi_id": 311615,
        "bangumi_title": "如果烧陶的话也做个马克杯吧",
        "ep_cut": "",
        "image_url": "https://w.junreimap.com/images/points/311615/0d7b3571_1752745261935.jpg",
        "location": "",
        "point_id": "0d7b3571",
        "point_name": "虎渓山 水月窯",
        "remark": "OP、#01、#02、#03"
      },
      "type": "Feature"
    },
    {
      "geometry": {
        "coordinates": [
          137.127385,
          35.334405
        ],
        "type": "Point"
      },
      "properties": {
        "bangumi_id": 311615,
        "bangumi_title": "如果烧陶的话也做个马克杯吧",
        "ep_cut": "",
        "image_url": "https://w.junreimap.com/images/points/311615/9c60a897_1752844753478.jpg",
        "location": "",
        "point_id": "9c60a897",
        "point_name": "土岐川 護岸タイル1",
        "remark": "OP"
      },
      "type": "Feature"
    },
    {
      "geometry": {
        "coordinates": [
          137.130151,
          35.342941
        ],
        "type": "Point"
      },
      "properties": {
        "bangumi_id": 311615,
        "bangumi_title": "如果烧陶的话也做个马克杯吧",
        "ep_cut": "",
        "image_url": "https://w.junreimap.com/images/points/311615/8102f44f_1752749728431.jpg",
        "location": "",
        "point_id": "8102f44f",
        "point_name": "虎渓公園 カーブ",
        "remark": "OP"
      },
      "type": "Feature"
    },
    {
      "geometry": {
        "coordinates": [
          137.129034,
          35.343526
        ],
        "type": "Point"
      },
      "properties": {
        "bangumi_id": 311615,
        "bangumi_title": "如果烧陶的话也做个马克杯吧",
        "ep_cut": "",
        "image_url": "https://w.junreimap.com/images/points/311615/c319e504_1752749758208.jpg",
        "location": "",
        "point_id": "c319e504",
        "point_name": "虎渓公園 階段",
        "remark": "OP"
      },
      "type": "Feature"
    },
    {
      "geometry": {
        "coordinates": [
          137.128983,
          35.343597
        ],
        "type": "Point"
      },
      "properties": {
        "bangumi_id": 311615,
        "bangumi_title": "如果烧陶的话也做个马克杯吧",
        "ep_cut": "",
        "image_url": "https://w.junreimap.com/images/points/311615/2ee0255f_1752749796127.jpg",
        "location": "",
        "point_id": "2ee0255f",
        "point_name": "虎渓公園 展望台",
        "remark": "OP"
      },
      "type": "Feature"
    },
    {
      "geometry": {
        "coordinates": [
          137.126713,
          35.345153
        ],
        "type": "Point"
      },
      "properties": {
        "bangumi_id": 311615,
        "bangumi_title": "如果烧陶的话也做个马克杯吧",
        "ep_cut": "",
        "image_url": "https://w.junreimap.com/images/points/311615/969abd42_1752745644599.jpg",
        "location": "",
        "point_id": "969abd42",
        "point_name": "東濃西部総合庁舎",
        "remark": "#01"
      },
      "type": "Feature"
    },
    {
      "geometry": {
        "coordinates": [
          137.128986,
          35.344216
        ],
        "type": "Point"
      },
      "properties": {
        "bangumi_id": 311615,
        "bangumi_title": "如果烧陶的话也做个马克杯吧",
        "ep_cut": "",
        "image_url": "https://w.junreimap.com/images/points/311615/1561b4de_1752749807821.jpg",
        "location": "",
        "point_id": "1561b4de",
        "point_name": "虎渓公園 展望台（鉄筋）",
        "remark": "#01"
      },
      "type": "Feature"
    },
    {
      "geometry": {
        "coordinates": [
          137.134892,
          35.342728
        ],
        "type": "Point"
      },
      "properties": {
        "bangumi_id": 311615,
        "bangumi_title": "如果烧陶的话也做个马克杯吧",
        "ep_cut": "",
        "image_url": "https://w.junreimap.com/images/points/311615/54432c8e_1752745669502.jpg",
        "location": "",
        "point_id": "54432c8e",
        "point_name": "神言会 多治見修道院",
        "remark": "#01"
      },
      "type": "Feature"
    },
    {
      "geometry": {
        "coordinates": [
          137.132195,
          35.334179
        ],
        "type": "Point"
      },
      "properties": {
        "bangumi_id": 311615,
        "bangumi_title": "如果烧陶的话也做个马克杯吧",
        "ep_cut": "",
        "image_url": "https://w.junreimap.com/images/points/311615/e5ab29ae_1752749615176.jpg",
        "location": "",
        "point_id": "e5ab29ae",
        "point_name": "IRISE antique",
        "remark": "#01、#02、#03"
      },
      "type": "Feature"
    },
    {
      "geometry": {
        "coordinates": [
          137.13251,
          35.334193
        ],
        "type": "Point"
      },
      "properties": {
        "bangumi_id": 311615,
        "bangumi_title": "如果烧陶的话也做个马克杯吧",
        "ep_cut": "",
        "image_url": "https://w.junreimap.com/images/points/311615/75ce64e1_1752749599256.jpg",
        "location": "",
        "point_id": "75ce64e1",
        "point_name": "サロン・ド・マミー",
        "remark": "#01、#03"
      },
      "type": "Feature"
    },
    {
      "geometry": {
        "coordinates": [
          137.129473,
          35.334729
        ],
        "type": "Point"
      },
      "properties": {
        "bangumi_id": 311615,
        "bangumi_title": "如果烧陶的话也做个马克杯吧",
        "ep_cut": "",
        "image_url": "https://w.junreimap.com/images/points/311615/d4ed87dd_1752749942806.jpg",
        "location": "",
        "point_id": "d4ed87dd",
        "point_name": "多治見橋 装飾街灯",
        "remark": "#01、#02、#03"
      },
      "type": "Feature"
    },
    {
      "geometry": {
        "coordinates": [
          137.133186,
          35.341717
        ],
        "type": "Point"
      },
      "properties": {
        "bangumi_id": 311615,
        "bangumi_title": "如果烧陶的话也做个马克杯吧",
        "ep_cut": "",
        "image_url": "https://w.junreimap.com/images/points/311615/547be0a3_1752745732462.jpg",
        "location": "",
        "point_id": "547be0a3",
        "point_name": "岐阜県立多治見北高等学校",
        "remark": "#01、#02、#03"
      },
      "type": "Feature"
    },
    {
      "geometry": {
        "coordinates": [
          137.130994,
          35.334591
        ],
        "type": "Point"
      },
      "properties": {
        "bangumi_id": 311615,
        "bangumi_title": "如果烧陶的话也做个马克杯吧",
        "ep_cut": "",
        "image_url": "https://w.junreimap.com/images/points/311615/7ff4e711_1752749684418.jpg",
        "location": "",
        "point_id": "7ff4e711",
        "point_name": "多治見市PRセンター",
        "remark": ""
      },
      "type": "Feature"
    },
    {
      "geometry": {
        "coordinates": [
          137.131701,
          35.333148
        ],
        "type": "Point"
      },
      "properties": {
        "bangumi_id": 311615,
        "bangumi_title": "如果烧陶的话也做个马克杯吧",
        "ep_cut": "",
        "image_url": "",
        "location": "停车场",
        "point_id": "2a912cca",
        "point_name": "多治見市役所本庁舎前駐車場",
        "remark": "※土日祝日は無料"
      },
      "type": "Feature"
    },
    {
      "geometry": {
        "coordinates": [
          137.121278,
          35.334727
        ],
        "type": "Point"
      },
      "properties": {
        "bangumi_id": 311615,
        "bangumi_title": "如果烧陶的话也做个马克杯吧",
        "ep_cut": "",
        "image_url": "",
        "location": "停车场",
        "point_id": "6d0790fb",
        "point_name": "JR多治見駅前駐車場（南口）",
        "remark": "※駐車後30分は無料"
      },
      "type": "Feature"
    },
    {
      "geometry": {
        "coordinates": [
          137.129296,
          35.344146
        ],
        "type": "Point"
      },
      "properties": {
        "bangumi_id": 311615,
        "bangumi_title": "如果烧陶的话也做个马克杯吧",
        "ep_cut": "",
        "image_url": "",
        "location": "停车场",
        "point_id": "45e1a714",
        "point_name": "虎渓公園前駐車スペース",
        "remark": "※数台（～10台くらい）は無料駐車可能"
      },
      "type": "Feature"
    },
    {
      "geometry": {
        "coordinates": [
          137.128027,
          35.335907
        ],
        "type": "Point"
      },
      "properties": {
        "bangumi_id": 311615,
        "bangumi_title": "如果烧陶的话也做个马克杯吧",
        "ep_cut": "",
        "image_url": "https://w.junreimap.com/images/points/311615/833815e3_1752745766252.jpg",
        "location": "",
        "point_id": "833815e3",
        "point_name": "東濃なんじゃもんじゃ街道",
        "remark": "#02「陶芸部はとーげんきょう」"
      },
      "type": "Feature"
    },
    {
      "geometry": {
        "coordinates": [
          137.128028,
          35.335712
        ],
        "type": "Point"
      },
      "properties": {
        "bangumi_id": 311615,
        "bangumi_title": "如果烧陶的话也做个马克杯吧",
        "ep_cut": "",
        "image_url": "https://w.junreimap.com/images/points/311615/d8741253_1752745797764.jpg",
        "location": "",
        "point_id": "d8741253",
        "point_name": "多治見ながせ商店街ゲート",
        "remark": "#02"
      },
      "type": "Feature"
    },
    {
      "geometry": {
        "coordinates": [
          137.121769,
          35.334857
        ],
        "type": "Point"
      },
      "properties": {
        "bangumi_id": 311615,
        "bangumi_title": "如果烧陶的话也做个马克杯吧",
        "ep_cut": "",
        "image_url": "https://w.junreimap.com/images/points/311615/57b94740_1752844701007.jpg",
        "location": "",
        "point_id": "57b94740",
        "point_name": "多治見駅南口 歩道タイル",
        "remark": "#02"
      },
      "type": "Feature"
    },
    {
      "geometry": {
        "coordinates": [
          137.131568,
          35.337041
        ],
        "type": "Point"
      },
      "properties": {
        "bangumi_id": 311615,
        "bangumi_title": "如果烧陶的话也做个马克杯吧",
        "ep_cut": "",
        "image_url": "https://w.junreimap.com/images/points/311615/224fd0c2_1752844715927.jpg",
        "location": "",
        "point_id": "224fd0c2",
        "point_name": "土岐川 護岸タイル2",
        "remark": "#02"
      },
      "type": "Feature"
    },
    {
      "geometry": {
        "coordinates": [
          137.128833,
          35.334254
        ],
        "type": "Point"
      },
      "properties": {
        "bangumi_id": 311615,
        "bangumi_title": "如果烧陶的话也做个马克杯吧",
        "ep_cut": "",
        "image_url": "https://w.junreimap.com/images/points/311615/c8851f5b_1752844731086.jpg",
        "location": "",
        "point_id": "c8851f5b",
        "point_name": "土岐川 護岸タイル3",
        "remark": "#02"
      },
      "type": "Feature"
    },
    {
      "geometry": {
        "coordinates": [
          137.126218,
          35.335365
        ],
        "type": "Point"
      },
      "properties": {
        "bangumi_id": 311615,
        "bangumi_title": "如果烧陶的话也做个马克杯吧",
        "ep_cut": "",
        "image_url": "https://w.junreimap.com/images/points/311615/a375b01e_1752749441944.jpg",
        "location": "",
        "point_id": "a375b01e",
        "point_name": "ローズ理容",
        "remark": "#02"
      },
      "type": "Feature"
    },
    {
      "geometry": {
        "coordinates": [
          137.126783,
          35.335398
        ],
        "type": "Point"
      },
      "properties": {
        "bangumi_id": 311615,
        "bangumi_title": "如果烧陶的话也做个马克杯吧",
        "ep_cut": "",
        "image_url": "https://w.junreimap.com/images/points/311615/c23f252e_1752745849350.jpg",
        "location": "",
        "point_id": "c23f252e",
        "point_name": "おりべかっぱ広場",
        "remark": "#02"
      },
      "type": "Feature"
    },
    {
      "geometry": {
        "coordinates": [
          137.123805,
          35.334482
        ],
        "type": "Point"
      },
      "properties": {
        "bangumi_id": 311615,
        "bangumi_title": "如果烧陶的话也做个马克杯吧",
        "ep_cut": "",
        "image_url": "https://w.junreimap.com/images/points/311615/b36a171e_1752844947046.jpg",
        "location": "",
        "point_id": "b36a171e",
        "point_name": "ながせ通り商店街 駐車場",
        "remark": "#02"
      },
      "type": "Feature"
    },
    {
      "geometry": {
        "coordinates": [
          137.123674,
          35.334847
        ],
        "type": "Point"
      },
      "properties": {
        "bangumi_id": 311615,
        "bangumi_title": "如果烧陶的话也做个马克杯吧",
        "ep_cut": "",
        "image_url": "https://w.junreimap.com/images/points/311615/7d23e98d_1752745881733.jpg",
        "location": "",
        "point_id": "7d23e98d",
        "point_name": "富士アイス",
        "remark": "#02"
      },
      "type": "Feature"
    },
    {
      "geometry": {
        "coordinates": [
          137.120437,
          35.336176
        ],
        "type": "Point"
      },
      "properties": {
        "bangumi_id": 311615,
        "bangumi_title": "如果烧陶的话也做个马克杯吧",
        "ep_cut": "",
        "image_url": "https://w.junreimap.com/images/points/311615/716250c1_1752746109315.jpg",
        "location": "",
        "point_id": "716250c1",
        "point_name": "虎渓用水広場",
        "remark": "#04「お茶漬けの味」"
      },
      "type": "Feature"
    },
    {
      "geometry": {
        "coordinates": [
          137.121097,
          35.335684
        ],
        "type": "Point"
      },
      "properties": {
        "bangumi_id": 311615,
        "bangumi_title": "如果烧陶的话也做个马克杯吧",
        "ep_cut": "",
        "image_url": "https://w.junreimap.com/images/points/311615/87465ef8_1752746137548.jpg",
        "location": "",
        "point_id": "87465ef8",
        "point_name": "JR多治見駅北口トイレ",
        "remark": "#05「先生のひみつ☆」"
      },
      "type": "Feature"
    },
    {
      "geometry": {
        "coordinates": [
          137.089998,
          35.361499
        ],
        "type": "Point"
      },
      "properties": {
        "bangumi_id": 311615,
        "bangumi_title": "如果烧陶的话也做个马克杯吧",
        "ep_cut": "",
        "image_url": "https://w.junreimap.com/images/points/311615/aececb95_1752746161636.jpg",
        "location": "",
        "point_id": "aececb95",
        "point_name": "JR根本駅",
        "remark": "#05"
      },
      "type": "Feature"
    },
    {
      "geometry": {
        "coordinates": [
          137.072181,
          35.381948
        ],
        "type": "Point"
      },
      "properties": {
        "bangumi_id": 311615,
        "bangumi_title": "如果烧陶的话也做个马克杯吧",
        "ep_cut": "",
        "image_url": "https://w.junreimap.com/images/points/311615/a5fd8e46_1752747001307.jpg",
        "location": "",
        "point_id": "a5fd8e46",
        "point_name": "JR姫駅",
        "remark": "#05"
      },
      "type": "Feature"
    },
    {
      "geometry": {
        "coordinates": [
          137.072904,
          35.380059
        ],
        "type": "Point"
      },
      "properties": {
        "bangumi_id": 311615,
        "bangumi_title": "如果烧陶的话也做个马克杯吧",
        "ep_cut": "",
        "image_url": "https://w.junreimap.com/images/points/311615/6ba6575a_1752746203397.jpg",
        "location": "",
        "point_id": "6ba6575a",
        "point_name": "第１大藪踏切",
        "remark": "#05"
      },
      "type": "Feature"
    },
    {
      "geometry": {
        "coordinates": [
          137.071485,
          35.379664
        ],
        "type": "Point"
      },
      "properties": {
        "bangumi_id": 311615,
        "bangumi_title": "如果烧陶的话也做个马克杯吧",
        "ep_cut": "",
        "image_url": "https://w.junreimap.com/images/points/311615/f7ccf6e8_1752746217620.jpg",
        "location": "",
        "point_id": "f7ccf6e8",
        "point_name": "大藪町交差点",
        "remark": "#05"
      },
      "type": "Feature"
    },
    {
      "geometry": {
        "coordinates": [
          137.067032,
          35.381189
        ],
        "type": "Point"
      },
      "properties": {
        "bangumi_id": 311615,
        "bangumi_title": "如果烧陶的话也做个马克杯吧",
        "ep_cut": "",
        "image_url": "https://w.junreimap.com/images/points/311615/d9a5cbb4_1752746243531.jpg",
        "location": "",
        "point_id": "d9a5cbb4",
        "point_name": "大薮町 農道",
        "remark": "#05"
      },
      "type": "Feature"
    },
    {
      "geometry": {
        "coordinates": [
          137.063727,
          35.379446
        ],
        "type": "Point"
      },
      "properties": {
        "bangumi_id": 311615,
        "bangumi_title": "如果烧陶的话也做个马克杯吧",
        "ep_cut": "",
        "image_url": "https://w.junreimap.com/images/points/311615/33a4f849_1752746262364.jpg",
        "location": "",
        "point_id": "33a4f849",
        "point_name": "神明神社",
        "remark": "#05"
      },
      "type": "Feature"
    },
    {
      "geometry": {
        "coordinates": [
          137.063822,
          35.37903
        ],
        "type": "Point"
      },
      "properties": {
        "bangumi_id": 311615,
        "bangumi_title": "如果烧陶的话也做个马克杯吧",
        "ep_cut": "",
        "image_url": "",
        "location": "停车场",
        "point_id": "f34f23cb",
        "point_name": "神明神社駐車場",
        "remark": "※無料"
      },
      "type": "Feature"
    },
    {
      "geometry": {
        "coordinates": [
          137.063105,
          35.378134
        ],
        "type": "Point"
      },
      "properties": {
        "bangumi_id": 311615,
        "bangumi_title": "如果烧陶的话也做个马克杯吧",
        "ep_cut": "",
        "image_url": "https://w.junreimap.com/images/points/311615/10f01385_1752747640529.jpg",
        "location": "",
        "point_id": "10f01385",
        "point_name": "善師野多治見線カーブ",
        "remark": "#05"
      },
      "type": "Feature"
    },
    {
      "geometry": {
        "coordinates": [
          137.061023,
          35.374169
        ],
        "type": "Point"
      },
      "properties": {
        "bangumi_id": 311615,
        "bangumi_title": "如果烧陶的话也做个马克杯吧",
        "ep_cut": "",
        "image_url": "https://w.junreimap.com/images/points/311615/eaf81c57_1752746916434.jpg",
        "location": "",
        "point_id": "eaf81c57",
        "point_name": "深山の森 自然公園入口",
        "remark": "#05"
      },
      "type": "Feature"
    },
    {
      "geometry": {
        "coordinates": [
          137.061026,
          35.374139
        ],
        "type": "Point"
      },
      "properties": {
        "bangumi_id": 311615,
        "bangumi_title": "如果烧陶的话也做个马克杯吧",
        "ep_cut": "",
        "image_url": "",
        "location": "停车场",
        "point_id": "d568301d",
        "point_name": "深山の森 自然公園入口駐車場",
        "remark": "※無料"
      },
      "type": "Feature"
    },
    {
      "geometry": {
        "coordinates": [
          137.059753,
          35.374566
        ],
        "type": "Point"
      },
      "properties": {
        "bangumi_id": 311615,
        "bangumi_title": "如果烧陶的话也做个马克杯吧",
        "ep_cut": "",
        "image_url": "https://w.junreimap.com/images/points/311615/5d7c5a21_1752746702685.jpg",
        "location": "",
        "point_id": "5d7c5a21",
        "point_name": "深山の森 自然公園ベンチ",
        "remark": "#05"
      },
      "type": "Feature"
    },
    {
      "geometry": {
        "coordinates": [
          137.060687,
          35.373238
        ],
        "type": "Point"
      },
      "properties": {
        "bangumi_id": 311615,
        "bangumi_title": "如果烧陶的话也做个马克杯吧",
        "ep_cut": "",
        "image_url": "https://w.junreimap.com/images/points/311615/c7ecb626_1752747043299.jpg",
        "location": "",
        "point_id": "c7ecb626",
        "point_name": "大山橋",
        "remark": "#05"
      },
      "type": "Feature"
    },
    {
      "geometry": {
        "coordinates": [
          137.059571,
          35.369136
        ],
        "type": "Point"
      },
      "properties": {
        "bangumi_id": 311615,
        "bangumi_title": "如果烧陶的话也做个马克杯吧",
        "ep_cut": "",
        "image_url": "https://w.junreimap.com/images/points/311615/047693e8_1752747260309.jpg",
        "location": "",
        "point_id": "047693e8",
        "point_name": "カーブミラー",
        "remark": "#05"
      },
      "type": "Feature"
    },
    {
      "geometry": {
        "coordinates": [
          137.056835,
          35.368433
        ],
        "type": "Point"
      },
      "properties": {
        "bangumi_id": 311615,
        "bangumi_title": "如果烧陶的话也做个马克杯吧",
        "ep_cut": "",
        "image_url": "https://w.junreimap.com/images/points/311615/f30e3124_1752747073701.jpg",
        "location": "",
        "point_id": "f30e3124",
        "point_name": "電波塔",
        "remark": "#05"
      },
      "type": "Feature"
    },
    {
      "geometry": {
        "coordinates": [
          137.053376,
          35.358566
        ],
        "type": "Point"
      },
      "properties": {
        "bangumi_id": 311615,
        "bangumi_title": "如果烧陶的话也做个马克杯吧",
        "ep_cut": "",
        "image_url": "https://w.junreimap.com/images/points/311615/bc983a3a_1752747300892.jpg",
        "location": "",
        "point_id": "bc983a3a",
        "point_name": "松尾神社",
        "remark": ""
      },
      "type": "Feature"
    },
    {
      "geometry": {
        "coordinates": [
          137.052424,
          35.35465
        ],
        "type": "Point"
      },
      "properties": {
        "bangumi_id": 311615,
        "bangumi_title": "如果烧陶的话也做个马克杯吧",
        "ep_cut": "",
        "image_url": "",
        "location": "停车场",
        "point_id": "b3dc222b",
        "point_name": "慈光寺駐車場",
        "remark": "#05"
      },
      "type": "Feature"
    },
    {
      "geometry": {
        "coordinates": [
          137.05228,
          35.35431
        ],
        "type": "Point"
      },
      "properties": {
        "bangumi_id": 311615,
        "bangumi_title": "如果烧陶的话也做个马克杯吧",
        "ep_cut": "",
        "image_url": "https://w.junreimap.com/images/points/311615/220dbe9f_1752845189686.jpg",
        "location": "",
        "point_id": "220dbe9f",
        "point_name": "天王橋",
        "remark": "#05"
      },
      "type": "Feature"
    },
    {
      "geometry": {
        "coordinates": [
          137.052194,
          35.353281
        ],
        "type": "Point"
      },
      "properties": {
        "bangumi_id": 311615,
        "bangumi_title": "如果烧陶的话也做个马克杯吧",
        "ep_cut": "",
        "image_url": "https://w.junreimap.com/images/points/311615/f767d54e_1752845382447.jpg",
        "location": "",
        "point_id": "f767d54e",
        "point_name": "五条川",
        "remark": "#05"
      },
      "type": "Feature"
    },
    {
      "geometry": {
        "coordinates": [
          137.053139,
          35.353111
        ],
        "type": "Point"
      },
      "properties": {
        "bangumi_id": 311615,
        "bangumi_title": "如果烧陶的话也做个马克杯吧",
        "ep_cut": "",
        "image_url": "https://w.junreimap.com/images/points/311615/fabab817_1752845456614.jpg",
        "location": "",
        "point_id": "fabab817",
        "point_name": "神明橋",
        "remark": "#05"
      },
      "type": "Feature"
    },
    {
      "geometry": {
        "coordinates": [
          137.053265,
          35.353205
        ],
        "type": "Point"
      },
      "properties": {
        "bangumi_id": 311615,
        "bangumi_title": "如果烧陶的话也做个马克杯吧",
        "ep_cut": "",
        "image_url": "https://w.junreimap.com/images/points/311615/0ef1ea2f_1752845424670.jpg",
        "location": "",
        "point_id": "0ef1ea2f",
        "point_name": "多治見市消防団 南姫分団北小木隊",
        "remark": "#05"
      },
      "type": "Feature"
    }
  ],
  "type": "FeatureCollection"
}