{
  "features": [
    {
      "geometry": {
        "coordinates": [
          135.618301,
          34.85129
        ],
        "type": "Point"
      },
      "properties": {
        "bangumi_id": 312429,
        "bangumi_title": "今天也没能变得普通",
        "ep_cut": 1,
        "image_url": "https://w.junreimap.com/images/points/312429/ildjl0s_1787485076558.webp",
        "location": "",
        "point_id": "ildjl0s",
        "point_name": "JR高槻駅南口",
        "remark": ""
      },
      "type": "Feature"
    },
    {
      "geometry": {
        "coordinates": [
          135.618302,
          34.850521
        ],
        "type": "Point"
      },
      "properties": {
        "bangumi_id": 312429,
        "bangumi_title": "今天也没能变得普通",
        "ep_cut": 1,
        "image_url": "https://w.junreimap.com/images/points/312429/ildrlkc_1787485355809.webp",
        "location": "",
        "point_id": "ildrlkc",
        "point_name": "松坂屋高槻店屋上遊園スカイランド",
        "remark": ""
      },
      "type": "Feature"
    },
    {
      "geometry": {
        "coordinates": [
          135.618477,
          34.850395
        ],
        "type": "Point"
      },
      "properties": {
        "bangumi_id": 312429,
        "bangumi_title": "今天也没能变得普通",
        "ep_cut": 1,
        "image_url": "https://w.junreimap.com/images/points/312429/ildsp64_1787485407807.webp",
        "location": "",
        "point_id": "ildsp64",
        "point_name": "松坂屋高槻店屋上遊園スカイランド",
        "remark": ""
      },
      "type": "Feature"
    },
    {
      "geometry": {
        "coordinates": [
          135.618452,
          34.850405
        ],
        "type": "Point"
      },
      "properties": {
        "bangumi_id": 312429,
        "bangumi_title": "今天也没能变得普通",
        "ep_cut": 1,
        "image_url": "https://w.junreimap.com/images/points/312429/ildt1px_1787485419717.webp",
        "location": "",
        "point_id": "ildt1px",
        "point_name": "松坂屋高槻店屋上遊園スカイランド",
        "remark": ""
      },
      "type": "Feature"
    },
    {
      "geometry": {
        "coordinates": [
          135.618288,
          34.850565
        ],
        "type": "Point"
      },
      "properties": {
        "bangumi_id": 312429,
        "bangumi_title": "今天也没能变得普通",
        "ep_cut": 1,
        "image_url": "https://w.junreimap.com/images/points/312429/ildtzft_1787485469400.webp",
        "location": "",
        "point_id": "ildtzft",
        "point_name": "松坂屋高槻店屋上遊園スカイランド",
        "remark": ""
      },
      "type": "Feature"
    },
    {
      "geometry": {
        "coordinates": [
          139.699039,
          35.690972
        ],
        "type": "Point"
      },
      "properties": {
        "bangumi_id": 312429,
        "bangumi_title": "今天也没能变得普通",
        "ep_cut": 3,
        "image_url": "https://w.junreimap.com/images/points/312429/ile0dps_1787485778081.webp",
        "location": "",
        "point_id": "ile0dps",
        "point_name": "京王電鉄新宿駅",
        "remark": ""
      },
      "type": "Feature"
    },
    {
      "geometry": {
        "coordinates": [
          135.504897,
          34.660972
        ],
        "type": "Point"
      },
      "properties": {
        "bangumi_id": 312429,
        "bangumi_title": "今天也没能变得普通",
        "ep_cut": 3,
        "image_url": "https://w.junreimap.com/images/points/312429/ile3obk_1787485969669.webp",
        "location": "",
        "point_id": "ile3obk",
        "point_name": "大阪市浪速区日本橋4丁目",
        "remark": ""
      },
      "type": "Feature"
    },
    {
      "geometry": {
        "coordinates": [
          135.435282,
          34.667832
        ],
        "type": "Point"
      },
      "properties": {
        "bangumi_id": 312429,
        "bangumi_title": "今天也没能变得普通",
        "ep_cut": 5,
        "image_url": "https://w.junreimap.com/images/points/312429/ile9g05_1787486189762.webp",
        "location": "",
        "point_id": "ile9g05",
        "point_name": "ユニバーサル・スタジオ・ジャパン",
        "remark": ""
      },
      "type": "Feature"
    },
    {
      "geometry": {
        "coordinates": [
          135.494729,
          34.70207
        ],
        "type": "Point"
      },
      "properties": {
        "bangumi_id": 312429,
        "bangumi_title": "今天也没能变得普通",
        "ep_cut": 11,
        "image_url": "https://w.junreimap.com/images/points/312429/ilehli1_1787486569156.webp",
        "location": "",
        "point_id": "ilehli1",
        "point_name": "大阪駅",
        "remark": ""
      },
      "type": "Feature"
    },
    {
      "geometry": {
        "coordinates": [
          135.501389,
          34.669091
        ],
        "type": "Point"
      },
      "properties": {
        "bangumi_id": 312429,
        "bangumi_title": "今天也没能变得普通",
        "ep_cut": 12,
        "image_url": "https://w.junreimap.com/images/points/312429/ilev2h1_1787487200166.webp",
        "location": "",
        "point_id": "ilev2h1",
        "point_name": "戎橋",
        "remark": ""
      },
      "type": "Feature"
    },
    {
      "geometry": {
        "coordinates": [
          135.501316,
          34.668977
        ],
        "type": "Point"
      },
      "properties": {
        "bangumi_id": 312429,
        "bangumi_title": "今天也没能变得普通",
        "ep_cut": 12,
        "image_url": "https://w.junreimap.com/images/points/312429/iler122_1787487107585.webp",
        "location": "",
        "point_id": "iler122",
        "point_name": "戎橋",
        "remark": "右侧招牌是现实中的TSUTAYA EBISUBASHI"
      },
      "type": "Feature"
    }
  ],
  "type": "FeatureCollection"
}