{
  "features": [
    {
      "geometry": {
        "coordinates": [
          139.784256,
          35.738699
        ],
        "type": "Point"
      },
      "properties": {
        "bangumi_id": 315490,
        "bangumi_title": "BanG Dream! Episode of Roselia Ⅱ : Song I am.",
        "ep_cut": 2,
        "image_url": "https://w.junreimap.com/images/user/0/bangumi/315490/points/nsjqloe51-1725266741660.jpg",
        "location": "",
        "point_id": "nsjqloe51",
        "point_name": "荒川二丁目駅周辺",
        "remark": "ykn家里出发前往车站的路边"
      },
      "type": "Feature"
    },
    {
      "geometry": {
        "coordinates": [
          139.784697,
          35.738582
        ],
        "type": "Point"
      },
      "properties": {
        "bangumi_id": 315490,
        "bangumi_title": "BanG Dream! Episode of Roselia Ⅱ : Song I am.",
        "ep_cut": 2,
        "image_url": "https://w.junreimap.com/images/user/0/bangumi/315490/points/nsk6a60ye-1725266928171.jpg",
        "location": "",
        "point_id": "nsk6a60ye",
        "point_name": "荒川二丁目",
        "remark": "ykn和lisa见面后上学坐电车的地点"
      },
      "type": "Feature"
    },
    {
      "geometry": {
        "coordinates": [
          139.714217,
          35.71314
        ],
        "type": "Point"
      },
      "properties": {
        "bangumi_id": 315490,
        "bangumi_title": "BanG Dream! Episode of Roselia Ⅱ : Song I am.",
        "ep_cut": 2,
        "image_url": "https://w.junreimap.com/images/user/0/bangumi/315490/points/nskec2rau-1725267413524.jpg",
        "location": "",
        "point_id": "nskec2rau",
        "point_name": "面影橋駅",
        "remark": "Roselia剧场版中亚子和rinrin回家的路"
      },
      "type": "Feature"
    },
    {
      "geometry": {
        "coordinates": [
          139.785502,
          35.739955
        ],
        "type": "Point"
      },
      "properties": {
        "bangumi_id": 315490,
        "bangumi_title": "BanG Dream! Episode of Roselia Ⅱ : Song I am.",
        "ep_cut": 2,
        "image_url": "https://w.junreimap.com/images/user/0/bangumi/315490/points/a4u421-1747623280535.jpg",
        "location": "",
        "point_id": "a4u421",
        "point_name": "荒川自然公園 白鳥の池",
        "remark": ""
      },
      "type": "Feature"
    },
    {
      "geometry": {
        "coordinates": [
          139.782746,
          35.742397
        ],
        "type": "Point"
      },
      "properties": {
        "bangumi_id": 315490,
        "bangumi_title": "BanG Dream! Episode of Roselia Ⅱ : Song I am.",
        "ep_cut": 2,
        "image_url": "https://w.junreimap.com/images/user/0/bangumi/315490/points/voydm9-1748926721084.jpg",
        "location": "",
        "point_id": "voydm9",
        "point_name": "都电荒川线·町屋站前",
        "remark": "lisa和ykn乘坐荒川线前往羽丘。"
      },
      "type": "Feature"
    },
    {
      "geometry": {
        "coordinates": [
          139.78729,
          35.740779
        ],
        "type": "Point"
      },
      "properties": {
        "bangumi_id": 315490,
        "bangumi_title": "BanG Dream! Episode of Roselia Ⅱ : Song I am.",
        "ep_cut": 2,
        "image_url": "https://w.junreimap.com/images/user/0/bangumi/315490/points/vqsf8p-1748929802741.jpg",
        "location": "",
        "point_id": "vqsf8p",
        "point_name": "荒川自然公园·荒川八丁目口步道桥",
        "remark": "ykn上学。"
      },
      "type": "Feature"
    },
    {
      "geometry": {
        "coordinates": [
          139.786352,
          35.740992
        ],
        "type": "Point"
      },
      "properties": {
        "bangumi_id": 315490,
        "bangumi_title": "BanG Dream! Episode of Roselia Ⅱ : Song I am.",
        "ep_cut": 2,
        "image_url": "https://w.junreimap.com/images/user/0/bangumi/315490/points/vrp01g-1748931404645.jpg",
        "location": "",
        "point_id": "vrp01g",
        "point_name": "「風考ー空へ　Of the WindーTo the sky」",
        "remark": "荒川自然公园内雕塑。"
      },
      "type": "Feature"
    },
    {
      "geometry": {
        "coordinates": [
          139.786486,
          35.741053
        ],
        "type": "Point"
      },
      "properties": {
        "bangumi_id": 315490,
        "bangumi_title": "BanG Dream! Episode of Roselia Ⅱ : Song I am.",
        "ep_cut": 2,
        "image_url": "https://w.junreimap.com/images/user/0/bangumi/315490/points/vrsvxn-1748931751682.jpg",
        "location": "",
        "point_id": "vrsvxn",
        "point_name": "荒川自然公园·儿童游园",
        "remark": ""
      },
      "type": "Feature"
    },
    {
      "geometry": {
        "coordinates": [
          139.786634,
          35.74116
        ],
        "type": "Point"
      },
      "properties": {
        "bangumi_id": 315490,
        "bangumi_title": "BanG Dream! Episode of Roselia Ⅱ : Song I am.",
        "ep_cut": 2,
        "image_url": "https://w.junreimap.com/images/user/0/bangumi/315490/points/vrzngu-1748931823639.jpg",
        "location": "",
        "point_id": "vrzngu",
        "point_name": "荒川自然公园·儿童游园",
        "remark": ""
      },
      "type": "Feature"
    },
    {
      "geometry": {
        "coordinates": [
          139.785361,
          35.739906
        ],
        "type": "Point"
      },
      "properties": {
        "bangumi_id": 315490,
        "bangumi_title": "BanG Dream! Episode of Roselia Ⅱ : Song I am.",
        "ep_cut": 2,
        "image_url": "https://w.junreimap.com/images/user/0/bangumi/315490/points/vs1s68-1748931925672.jpg",
        "location": "",
        "point_id": "vs1s68",
        "point_name": "荒川自然公园·白鸟池",
        "remark": ""
      },
      "type": "Feature"
    }
  ],
  "type": "FeatureCollection"
}