{
  "features": [
    {
      "geometry": {
        "coordinates": [
          28.026556,
          57.998107
        ],
        "type": "Point"
      },
      "properties": {
        "bangumi_id": 3190,
        "bangumi_title": "第一小队",
        "ep_cut": "",
        "image_url": "https://w.junreimap.com/images/user/0/bangumi/3190/points/idjjo63b8-1709984565327.jpg",
        "location": "",
        "point_id": "idjjo63b8",
        "point_name": "Пейпси",
        "remark": "女主阻止被纳粹复活的条顿骑士团团长砍杀列宁格勒方面军某部苏军政委扰乱时间线"
      },
      "type": "Feature"
    },
    {
      "geometry": {
        "coordinates": [
          37.62167,
          55.752848
        ],
        "type": "Point"
      },
      "properties": {
        "bangumi_id": 3190,
        "bangumi_title": "第一小队",
        "ep_cut": "",
        "image_url": "https://w.junreimap.com/images/user/2191/bangumi/3190/points/3f6fhet-1754458612693.jpg",
        "location": "",
        "point_id": "3f6fhet",
        "point_name": "Спасская башня",
        "remark": ""
      },
      "type": "Feature"
    }
  ],
  "type": "FeatureCollection"
}