{
  "features": [
    {
      "geometry": {
        "coordinates": [
          135.080941,
          34.275017
        ],
        "type": "Point"
      },
      "properties": {
        "bangumi_id": 319577,
        "bangumi_title": "Chapter I",
        "ep_cut": "",
        "image_url": "https://w.junreimap.com/images/points/319577/nffi2uxvq_1724238078058.jpg",
        "location": "",
        "point_id": "nffi2uxvq",
        "point_name": "加太站 (和歌山縣)",
        "remark": ""
      },
      "type": "Feature"
    },
    {
      "geometry": {
        "coordinates": [
          135.081054,
          34.275121
        ],
        "type": "Point"
      },
      "properties": {
        "bangumi_id": 319577,
        "bangumi_title": "Chapter I",
        "ep_cut": "",
        "image_url": "https://w.junreimap.com/images/points/319577/nfflcu9bb_1724238174874.jpg",
        "location": "",
        "point_id": "nfflcu9bb",
        "point_name": "加太駅",
        "remark": ""
      },
      "type": "Feature"
    },
    {
      "geometry": {
        "coordinates": [
          135.353178,
          34.235581
        ],
        "type": "Point"
      },
      "properties": {
        "bangumi_id": 319577,
        "bangumi_title": "Chapter I",
        "ep_cut": "",
        "image_url": "https://w.junreimap.com/images/points/319577/nffokvy3g_1724238452712.jpg",
        "location": "",
        "point_id": "nffokvy3g",
        "point_name": "桃山町元",
        "remark": ""
      },
      "type": "Feature"
    },
    {
      "geometry": {
        "coordinates": [
          135.899017,
          33.67145
        ],
        "type": "Point"
      },
      "properties": {
        "bangumi_id": 319577,
        "bangumi_title": "Chapter I",
        "ep_cut": "",
        "image_url": "https://w.junreimap.com/images/points/319577/nfv34is56_1724276974311_cblack.jpg",
        "location": "",
        "point_id": "nfv34is56",
        "point_name": "熊野古道大門坂",
        "remark": ""
      },
      "type": "Feature"
    },
    {
      "geometry": {
        "coordinates": [
          135.373095,
          33.667609
        ],
        "type": "Point"
      },
      "properties": {
        "bangumi_id": 319577,
        "bangumi_title": "Chapter I",
        "ep_cut": "",
        "image_url": "https://w.junreimap.com/images/points/319577/nfv5rrzbu_1724276978605_cblack.jpg",
        "location": "",
        "point_id": "nfv5rrzbu",
        "point_name": "アドベンチャー​ワールド",
        "remark": "具体未定"
      },
      "type": "Feature"
    },
    {
      "geometry": {
        "coordinates": [
          135.373192,
          33.667505
        ],
        "type": "Point"
      },
      "properties": {
        "bangumi_id": 319577,
        "bangumi_title": "Chapter I",
        "ep_cut": "",
        "image_url": "https://w.junreimap.com/images/points/319577/nfv6d0x1m_1724276980935_cblack.jpg",
        "location": "",
        "point_id": "nfv6d0x1m",
        "point_name": "アドベンチャー​ワールド",
        "remark": "具体未定"
      },
      "type": "Feature"
    },
    {
      "geometry": {
        "coordinates": [
          135.373238,
          33.667419
        ],
        "type": "Point"
      },
      "properties": {
        "bangumi_id": 319577,
        "bangumi_title": "Chapter I",
        "ep_cut": "",
        "image_url": "https://w.junreimap.com/images/points/319577/nfv6hl1os_1724276983454_cblack.jpg",
        "location": "",
        "point_id": "nfv6hl1os",
        "point_name": "アドベンチャー​ワールド",
        "remark": "具体未定"
      },
      "type": "Feature"
    },
    {
      "geometry": {
        "coordinates": [
          135.373289,
          33.667343
        ],
        "type": "Point"
      },
      "properties": {
        "bangumi_id": 319577,
        "bangumi_title": "Chapter I",
        "ep_cut": "",
        "image_url": "https://w.junreimap.com/images/points/319577/nfv6pz28p_1724276988323_cblack.jpg",
        "location": "",
        "point_id": "nfv6pz28p",
        "point_name": "アドベンチャー​ワールド",
        "remark": ""
      },
      "type": "Feature"
    },
    {
      "geometry": {
        "coordinates": [
          135.373352,
          33.667253
        ],
        "type": "Point"
      },
      "properties": {
        "bangumi_id": 319577,
        "bangumi_title": "Chapter I",
        "ep_cut": "",
        "image_url": "https://w.junreimap.com/images/points/319577/nfv6rtal2_1724276991244_cblack.jpg",
        "location": "",
        "point_id": "nfv6rtal2",
        "point_name": "アドベンチャー​ワールド",
        "remark": ""
      },
      "type": "Feature"
    },
    {
      "geometry": {
        "coordinates": [
          135.373398,
          33.667191
        ],
        "type": "Point"
      },
      "properties": {
        "bangumi_id": 319577,
        "bangumi_title": "Chapter I",
        "ep_cut": "",
        "image_url": "https://w.junreimap.com/images/points/319577/nfv6t8evm_1724276994284_cblack.jpg",
        "location": "",
        "point_id": "nfv6t8evm",
        "point_name": "アドベンチャー​ワールド",
        "remark": "具体未定"
      },
      "type": "Feature"
    },
    {
      "geometry": {
        "coordinates": [
          135.373444,
          33.667118
        ],
        "type": "Point"
      },
      "properties": {
        "bangumi_id": 319577,
        "bangumi_title": "Chapter I",
        "ep_cut": "",
        "image_url": "https://w.junreimap.com/images/points/319577/nfv70fm2s_1724276997042_cblack.jpg",
        "location": "",
        "point_id": "nfv70fm2s",
        "point_name": "アドベンチャー​ワールド",
        "remark": "具体未定"
      },
      "type": "Feature"
    },
    {
      "geometry": {
        "coordinates": [
          135.37349,
          33.667037
        ],
        "type": "Point"
      },
      "properties": {
        "bangumi_id": 319577,
        "bangumi_title": "Chapter I",
        "ep_cut": "",
        "image_url": "https://w.junreimap.com/images/points/319577/nfv72qrfq_1724276999245_cblack.jpg",
        "location": "",
        "point_id": "nfv72qrfq",
        "point_name": "アドベンチャー​ワールド",
        "remark": "具体未定"
      },
      "type": "Feature"
    },
    {
      "geometry": {
        "coordinates": [
          135.373564,
          33.666923
        ],
        "type": "Point"
      },
      "properties": {
        "bangumi_id": 319577,
        "bangumi_title": "Chapter I",
        "ep_cut": "",
        "image_url": "https://w.junreimap.com/images/points/319577/nfv74mzxx_1724277001648_cblack.jpg",
        "location": "",
        "point_id": "nfv74mzxx",
        "point_name": "アドベンチャー​ワールド",
        "remark": "具体未定"
      },
      "type": "Feature"
    },
    {
      "geometry": {
        "coordinates": [
          135.337413,
          33.676107
        ],
        "type": "Point"
      },
      "properties": {
        "bangumi_id": 319577,
        "bangumi_title": "Chapter I",
        "ep_cut": "",
        "image_url": "https://w.junreimap.com/images/points/319577/nfvdj10fa_1724277012330_cblack.jpg",
        "location": "",
        "point_id": "nfvdj10fa",
        "point_name": "SHIRAHAMA ​KEY ​TERRACE\nHOTEL ​SEAMORE",
        "remark": ""
      },
      "type": "Feature"
    },
    {
      "geometry": {
        "coordinates": [
          135.337442,
          33.676061
        ],
        "type": "Point"
      },
      "properties": {
        "bangumi_id": 319577,
        "bangumi_title": "Chapter I",
        "ep_cut": "",
        "image_url": "https://w.junreimap.com/images/points/319577/nfvdvmta5_1724277015242_cblack.jpg",
        "location": "",
        "point_id": "nfvdvmta5",
        "point_name": "SHIRAHAMA ​KEY ​TERRACE\nHOTEL ​SEAMORE",
        "remark": ""
      },
      "type": "Feature"
    },
    {
      "geometry": {
        "coordinates": [
          135.794337,
          33.48463
        ],
        "type": "Point"
      },
      "properties": {
        "bangumi_id": 319577,
        "bangumi_title": "Chapter I",
        "ep_cut": "",
        "image_url": "https://w.junreimap.com/images/points/319577/nftad8we8_1724277020880_cblack.jpg",
        "location": "",
        "point_id": "nftad8we8",
        "point_name": "橋杭港",
        "remark": ""
      },
      "type": "Feature"
    },
    {
      "geometry": {
        "coordinates": [
          135.176918,
          34.153718
        ],
        "type": "Point"
      },
      "properties": {
        "bangumi_id": 319577,
        "bangumi_title": "Chapter I",
        "ep_cut": "",
        "image_url": "https://w.junreimap.com/images/points/319577/nfurzmabq_1724277023863_cblack.jpg",
        "location": "",
        "point_id": "nfurzmabq",
        "point_name": "欧罗巴港",
        "remark": ""
      },
      "type": "Feature"
    },
    {
      "geometry": {
        "coordinates": [
          135.177565,
          34.153804
        ],
        "type": "Point"
      },
      "properties": {
        "bangumi_id": 319577,
        "bangumi_title": "Chapter I",
        "ep_cut": "",
        "image_url": "https://w.junreimap.com/images/points/319577/nftfb5574_1724268308195.jpg",
        "location": "",
        "point_id": "nftfb5574",
        "point_name": "欧罗巴港",
        "remark": ""
      },
      "type": "Feature"
    },
    {
      "geometry": {
        "coordinates": [
          135.176543,
          34.1534
        ],
        "type": "Point"
      },
      "properties": {
        "bangumi_id": 319577,
        "bangumi_title": "Chapter I",
        "ep_cut": "",
        "image_url": "https://w.junreimap.com/images/points/319577/nfuvwhxpn_1724277027000_cblack.jpg",
        "location": "",
        "point_id": "nfuvwhxpn",
        "point_name": "欧罗巴港",
        "remark": ""
      },
      "type": "Feature"
    },
    {
      "geometry": {
        "coordinates": [
          135.1766,
          34.153696
        ],
        "type": "Point"
      },
      "properties": {
        "bangumi_id": 319577,
        "bangumi_title": "Chapter I",
        "ep_cut": "",
        "image_url": "https://w.junreimap.com/images/points/319577/nfuznhesc_1724277029771_cblack.jpg",
        "location": "",
        "point_id": "nfuznhesc",
        "point_name": "欧罗巴港",
        "remark": ""
      },
      "type": "Feature"
    },
    {
      "geometry": {
        "coordinates": [
          135.176867,
          34.153218
        ],
        "type": "Point"
      },
      "properties": {
        "bangumi_id": 319577,
        "bangumi_title": "Chapter I",
        "ep_cut": "",
        "image_url": "https://w.junreimap.com/images/points/319577/nfth3f8pf_1724277033070_cblack.jpg",
        "location": "",
        "point_id": "nfth3f8pf",
        "point_name": "欧罗巴港",
        "remark": ""
      },
      "type": "Feature"
    },
    {
      "geometry": {
        "coordinates": [
          135.176923,
          34.153598
        ],
        "type": "Point"
      },
      "properties": {
        "bangumi_id": 319577,
        "bangumi_title": "Chapter I",
        "ep_cut": "",
        "image_url": "https://w.junreimap.com/images/points/319577/nftj7dq6g_1724268524511.jpg",
        "location": "",
        "point_id": "nftj7dq6g",
        "point_name": "欧罗巴港",
        "remark": ""
      },
      "type": "Feature"
    },
    {
      "geometry": {
        "coordinates": [
          135.176745,
          34.153242
        ],
        "type": "Point"
      },
      "properties": {
        "bangumi_id": 319577,
        "bangumi_title": "Chapter I",
        "ep_cut": "",
        "image_url": "https://w.junreimap.com/images/points/319577/nfttiuaiz_1724269146821.jpg",
        "location": "",
        "point_id": "nfttiuaiz",
        "point_name": "欧罗巴港",
        "remark": ""
      },
      "type": "Feature"
    },
    {
      "geometry": {
        "coordinates": [
          135.343913,
          33.680099
        ],
        "type": "Point"
      },
      "properties": {
        "bangumi_id": 319577,
        "bangumi_title": "Chapter I",
        "ep_cut": "",
        "image_url": "https://w.junreimap.com/images/points/319577/nfu73t35t_1724277036210_cblack.jpg",
        "location": "",
        "point_id": "nfu73t35t",
        "point_name": "白良浜海水浴場",
        "remark": ""
      },
      "type": "Feature"
    },
    {
      "geometry": {
        "coordinates": [
          135.978495,
          33.655635
        ],
        "type": "Point"
      },
      "properties": {
        "bangumi_id": 319577,
        "bangumi_title": "Chapter I",
        "ep_cut": "",
        "image_url": "https://w.junreimap.com/images/points/319577/nfuko1nee_1724277038329_cblack.jpg",
        "location": "",
        "point_id": "nfuko1nee",
        "point_name": "宇久井蛭子神社附近",
        "remark": ""
      },
      "type": "Feature"
    },
    {
      "geometry": {
        "coordinates": [
          134.946699,
          33.907669
        ],
        "type": "Point"
      },
      "properties": {
        "bangumi_id": 319577,
        "bangumi_title": "Chapter I",
        "ep_cut": "",
        "image_url": "https://w.junreimap.com/images/points/319577/nfxh2zxci_1724277915383_cblack.jpg",
        "location": "",
        "point_id": "nfxh2zxci",
        "point_name": "没找到",
        "remark": "应该是这一侧的哪处 千畳敷"
      },
      "type": "Feature"
    }
  ],
  "type": "FeatureCollection"
}