{
  "features": [
    {
      "geometry": {
        "coordinates": [
          -74.044596,
          40.689174
        ],
        "type": "Point"
      },
      "properties": {
        "bangumi_id": 320871,
        "bangumi_title": "流浪地球2",
        "ep_cut": 1,
        "image_url": "https://w.junreimap.com/images/user/1000/bangumi/320871/points/lr7yrw4vq-1719519742376.jpg",
        "location": "",
        "point_id": "lr7yrw4vq",
        "point_name": "自由の女神像",
        "remark": ""
      },
      "type": "Feature"
    },
    {
      "geometry": {
        "coordinates": [
          -73.968088,
          40.74892
        ],
        "type": "Point"
      },
      "properties": {
        "bangumi_id": 320871,
        "bangumi_title": "流浪地球2",
        "ep_cut": 1,
        "image_url": "https://w.junreimap.com/images/user/1000/bangumi/320871/points/lr83c11xm-1719520009237.jpg",
        "location": "",
        "point_id": "lr83c11xm",
        "point_name": "United Nations Secretariat Building",
        "remark": ""
      },
      "type": "Feature"
    },
    {
      "geometry": {
        "coordinates": [
          -73.967727,
          40.749424
        ],
        "type": "Point"
      },
      "properties": {
        "bangumi_id": 320871,
        "bangumi_title": "流浪地球2",
        "ep_cut": 1,
        "image_url": "https://w.junreimap.com/images/points/320871/lr851eod4_1719520100164.jpg",
        "location": "",
        "point_id": "lr851eod4",
        "point_name": "United Nations Secretariat Building",
        "remark": ""
      },
      "type": "Feature"
    },
    {
      "geometry": {
        "coordinates": [
          -73.967542,
          40.749689
        ],
        "type": "Point"
      },
      "properties": {
        "bangumi_id": 320871,
        "bangumi_title": "流浪地球2",
        "ep_cut": 1,
        "image_url": "https://w.junreimap.com/images/points/320871/lr85k3ht4_1719520132141.jpg",
        "location": "",
        "point_id": "lr85k3ht4",
        "point_name": "United Nations General Assembly Hall",
        "remark": ""
      },
      "type": "Feature"
    },
    {
      "geometry": {
        "coordinates": [
          -73.969687,
          40.749657
        ],
        "type": "Point"
      },
      "properties": {
        "bangumi_id": 320871,
        "bangumi_title": "流浪地球2",
        "ep_cut": 1,
        "image_url": "https://w.junreimap.com/images/user/1000/bangumi/320871/points/lr8j2q7ht-1719520953610.jpg",
        "location": "",
        "point_id": "lr8j2q7ht",
        "point_name": "联合国大楼前",
        "remark": ""
      },
      "type": "Feature"
    },
    {
      "geometry": {
        "coordinates": [
          -73.969474,
          40.74958
        ],
        "type": "Point"
      },
      "properties": {
        "bangumi_id": 320871,
        "bangumi_title": "流浪地球2",
        "ep_cut": 1,
        "image_url": "https://w.junreimap.com/images/points/320871/lr8jtuevh_1719520991467.jpg",
        "location": "",
        "point_id": "lr8jtuevh",
        "point_name": "联合国大楼前",
        "remark": ""
      },
      "type": "Feature"
    },
    {
      "geometry": {
        "coordinates": [
          116.451376,
          39.912098
        ],
        "type": "Point"
      },
      "properties": {
        "bangumi_id": 320871,
        "bangumi_title": "流浪地球2",
        "ep_cut": 1,
        "image_url": "https://w.junreimap.com/images/points/320871/o1mcri7we_1725978191004.jpg",
        "location": "",
        "point_id": "o1mcri7we",
        "point_name": "金桐东路与光华路交叉口",
        "remark": "图恒宇一家出车祸的地点"
      },
      "type": "Feature"
    },
    {
      "geometry": {
        "coordinates": [
          116.452033,
          39.911154
        ],
        "type": "Point"
      },
      "properties": {
        "bangumi_id": 320871,
        "bangumi_title": "流浪地球2",
        "ep_cut": 1,
        "image_url": "https://w.junreimap.com/images/points/320871/lr8r7322d_1719521437091.jpg",
        "location": "",
        "point_id": "lr8r7322d",
        "point_name": "北京国贸",
        "remark": ""
      },
      "type": "Feature"
    },
    {
      "geometry": {
        "coordinates": [
          121.487934,
          31.237979
        ],
        "type": "Point"
      },
      "properties": {
        "bangumi_id": 320871,
        "bangumi_title": "流浪地球2",
        "ep_cut": 1,
        "image_url": "https://w.junreimap.com/images/points/320871/lr8oun1uk_1719521302214.jpg",
        "location": "",
        "point_id": "lr8oun1uk",
        "point_name": "上海外滩",
        "remark": ""
      },
      "type": "Feature"
    },
    {
      "geometry": {
        "coordinates": [
          116.381934,
          39.994007
        ],
        "type": "Point"
      },
      "properties": {
        "bangumi_id": 320871,
        "bangumi_title": "流浪地球2",
        "ep_cut": 1,
        "image_url": "https://w.junreimap.com/images/points/320871/o1mtbsh78_1725978180024.jpg",
        "location": "",
        "point_id": "o1mtbsh78",
        "point_name": "数字北京大厦",
        "remark": "中国互联网中心北京基地[旧址]"
      },
      "type": "Feature"
    },
    {
      "geometry": {
        "coordinates": [
          120.37759,
          36.265508
        ],
        "type": "Point"
      },
      "properties": {
        "bangumi_id": 320871,
        "bangumi_title": "流浪地球2",
        "ep_cut": "2",
        "image_url": "https://w.junreimap.com/images/user/0/bangumi/320871/points/8at451-1747512261366.jpg",
        "location": "",
        "point_id": "8at451",
        "point_name": "青岛流亭国际机场",
        "remark": ""
      },
      "type": "Feature"
    }
  ],
  "type": "FeatureCollection"
}