{
  "features": [
    {
      "geometry": {
        "coordinates": [
          136.769186,
          35.373261
        ],
        "type": "Point"
      },
      "properties": {
        "bangumi_id": 323196,
        "bangumi_title": "赛马娘 Cinderella Gray",
        "ep_cut": 1,
        "image_url": "https://w.junreimap.com/images/user/0/bangumi/323196/points/nlvifytdo-1724747484500.jpg",
        "location": "《赛马娘 芦毛灰姑娘》笠松篇",
        "point_id": "nlvifytdo",
        "point_name": "笠松競馬場",
        "remark": ""
      },
      "type": "Feature"
    },
    {
      "geometry": {
        "coordinates": [
          136.7649,
          35.372589
        ],
        "type": "Point"
      },
      "properties": {
        "bangumi_id": 323196,
        "bangumi_title": "赛马娘 Cinderella Gray",
        "ep_cut": 2,
        "image_url": "https://w.junreimap.com/images/user/1493/bangumi/323196/points/ua9lzgwri-1743581152617.jpg",
        "location": "《赛马娘 芦毛灰姑娘》笠松篇",
        "point_id": "ua9lzgwri",
        "point_name": "笠松競馬場",
        "remark": ""
      },
      "type": "Feature"
    },
    {
      "geometry": {
        "coordinates": [
          136.764658,
          35.366515
        ],
        "type": "Point"
      },
      "properties": {
        "bangumi_id": 323196,
        "bangumi_title": "赛马娘 Cinderella Gray",
        "ep_cut": 2,
        "image_url": "https://w.junreimap.com/images/user/1493/bangumi/323196/points/u9oeoynxe-1743535095982.jpg",
        "location": "《赛马娘 芦毛灰姑娘》笠松篇",
        "point_id": "u9oeoynxe",
        "point_name": "八一卜の木 公園",
        "remark": "第一张分镜中写着  相生町迹  的石头"
      },
      "type": "Feature"
    },
    {
      "geometry": {
        "coordinates": [
          136.763332,
          35.36609
        ],
        "type": "Point"
      },
      "properties": {
        "bangumi_id": 323196,
        "bangumi_title": "赛马娘 Cinderella Gray",
        "ep_cut": 2,
        "image_url": "https://w.junreimap.com/images/user/1493/bangumi/323196/points/uaa7p5zil-1743582464065.jpg",
        "location": "《赛马娘 芦毛灰姑娘》笠松篇",
        "point_id": "uaa7p5zil",
        "point_name": "笠松みなと公園",
        "remark": "第三张分镜中的时钟"
      },
      "type": "Feature"
    },
    {
      "geometry": {
        "coordinates": [
          136.762642,
          35.365079
        ],
        "type": "Point"
      },
      "properties": {
        "bangumi_id": 323196,
        "bangumi_title": "赛马娘 Cinderella Gray",
        "ep_cut": 2,
        "image_url": "https://w.junreimap.com/images/user/1493/bangumi/323196/points/ua913i5ar-1743579903896.jpg",
        "location": "《赛马娘 芦毛灰姑娘》笠松篇",
        "point_id": "ua913i5ar",
        "point_name": "笠松みなと公園",
        "remark": "更正位置：该位置为河岸红色辅路靠河一侧阶梯（由于漫画中上一页的分镜给了 八一卜の木 公園 的镜头就惯性思维的认为是该公园的阶梯，私密马赛米娜桑）后经过仔细对比后核实为该地点"
      },
      "type": "Feature"
    },
    {
      "geometry": {
        "coordinates": [
          136.782012,
          35.433891
        ],
        "type": "Point"
      },
      "properties": {
        "bangumi_id": 323196,
        "bangumi_title": "赛马娘 Cinderella Gray",
        "ep_cut": 6,
        "image_url": "https://w.junreimap.com/images/user/1493/bangumi/323196/points/nlzmmn0er-1724752228923.jpg",
        "location": "《赛马娘 芦毛灰姑娘》笠松篇",
        "point_id": "nlzmmn0er",
        "point_name": "金華山展望台",
        "remark": ""
      },
      "type": "Feature"
    },
    {
      "geometry": {
        "coordinates": [
          136.766484,
          35.370118
        ],
        "type": "Point"
      },
      "properties": {
        "bangumi_id": 323196,
        "bangumi_title": "赛马娘 Cinderella Gray",
        "ep_cut": 7,
        "image_url": "https://w.junreimap.com/images/user/1493/bangumi/323196/points/u9lve5yn7-1743531897720.jpg",
        "location": "《赛马娘 芦毛灰姑娘》笠松篇",
        "point_id": "u9lve5yn7",
        "point_name": "笠松競馬場",
        "remark": ""
      },
      "type": "Feature"
    },
    {
      "geometry": {
        "coordinates": [
          136.766986,
          35.372624
        ],
        "type": "Point"
      },
      "properties": {
        "bangumi_id": 323196,
        "bangumi_title": "赛马娘 Cinderella Gray",
        "ep_cut": 15,
        "image_url": "https://w.junreimap.com/images/user/1493/bangumi/323196/points/nm04juhu2-1724753326047.jpg",
        "location": "《赛马娘 芦毛灰姑娘》笠松篇",
        "point_id": "nm04juhu2",
        "point_name": "笠松競馬場",
        "remark": "‘北原，我真的赢了呦’‘中央有更适合小栗帽的舞台，去夺取天下吧！小栗帽！’（夹带私货中(~‾▿‾)~）"
      },
      "type": "Feature"
    },
    {
      "geometry": {
        "coordinates": [
          139.744221,
          35.591986
        ],
        "type": "Point"
      },
      "properties": {
        "bangumi_id": 323196,
        "bangumi_title": "赛马娘 Cinderella Gray",
        "ep_cut": "9卷（第77R）",
        "image_url": "https://w.junreimap.com/images/user/0/bangumi/323196/points/5c87s3r-1758633756318.jpg",
        "location": "",
        "point_id": "5c87s3r",
        "point_name": "大井競馬場",
        "remark": ""
      },
      "type": "Feature"
    },
    {
      "geometry": {
        "coordinates": [
          139.74373,
          35.59388
        ],
        "type": "Point"
      },
      "properties": {
        "bangumi_id": 323196,
        "bangumi_title": "赛马娘 Cinderella Gray",
        "ep_cut": "9卷（第77R）",
        "image_url": "https://w.junreimap.com/images/user/0/bangumi/323196/points/5c8f8aw-1758634069467.jpg",
        "location": "",
        "point_id": "5c8f8aw",
        "point_name": "大井競馬場",
        "remark": ""
      },
      "type": "Feature"
    },
    {
      "geometry": {
        "coordinates": [
          139.740804,
          35.591825
        ],
        "type": "Point"
      },
      "properties": {
        "bangumi_id": 323196,
        "bangumi_title": "赛马娘 Cinderella Gray",
        "ep_cut": "9卷（第77R）",
        "image_url": "https://w.junreimap.com/images/user/0/bangumi/323196/points/5c8kpuj-1758634380924.jpg",
        "location": "",
        "point_id": "5c8kpuj",
        "point_name": "大井競馬場",
        "remark": ""
      },
      "type": "Feature"
    },
    {
      "geometry": {
        "coordinates": [
          139.749905,
          35.550594
        ],
        "type": "Point"
      },
      "properties": {
        "bangumi_id": 323196,
        "bangumi_title": "赛马娘 Cinderella Gray",
        "ep_cut": "15卷（第134R）",
        "image_url": "https://w.junreimap.com/images/user/2198/bangumi/323196/points/5g6osff-1758872981124.jpg",
        "location": "",
        "point_id": "5g6osff",
        "point_name": "穴守稲荷神社",
        "remark": ""
      },
      "type": "Feature"
    }
  ],
  "type": "FeatureCollection"
}