{
  "features": [
    {
      "geometry": {
        "coordinates": [
          136.764352,
          35.419572
        ],
        "type": "Point"
      },
      "properties": {
        "bangumi_id": 323735,
        "bangumi_title": "风雨来记4",
        "ep_cut": "",
        "image_url": "https://w.junreimap.com/images/user/0/bangumi/323735/points/fjamnri-1780828956607.jpg",
        "location": "",
        "point_id": "fjamnri",
        "point_name": "橿森神社",
        "remark": ""
      },
      "type": "Feature"
    },
    {
      "geometry": {
        "coordinates": [
          136.821294,
          35.651733
        ],
        "type": "Point"
      },
      "properties": {
        "bangumi_id": 323735,
        "bangumi_title": "风雨来记4",
        "ep_cut": "",
        "image_url": "https://w.junreimap.com/images/user/0/bangumi/323735/points/fjbbiug-1780829976498.jpg",
        "location": "",
        "point_id": "fjbbiug",
        "point_name": "モネの池",
        "remark": ""
      },
      "type": "Feature"
    }
  ],
  "type": "FeatureCollection"
}