{
  "features": [
    {
      "geometry": {
        "coordinates": [
          130.358346,
          32.089405
        ],
        "type": "Point"
      },
      "properties": {
        "bangumi_id": 326278,
        "bangumi_title": "鹤乡恋旅~悸动的飞来地~",
        "ep_cut": "",
        "image_url": "https://w.junreimap.com/images/points/326278/4b388k4_1756641206683.jpg",
        "location": "",
        "point_id": "4b388k4",
        "point_name": "九州​新幹線​出​水​駅",
        "remark": ""
      },
      "type": "Feature"
    },
    {
      "geometry": {
        "coordinates": [
          130.357986,
          32.089934
        ],
        "type": "Point"
      },
      "properties": {
        "bangumi_id": 326278,
        "bangumi_title": "鹤乡恋旅~悸动的飞来地~",
        "ep_cut": "",
        "image_url": "https://w.junreimap.com/images/points/326278/4b3gvb8_1756641216359.jpg",
        "location": "",
        "point_id": "4b3gvb8",
        "point_name": "九州​新幹線​出​水​駅 鶴",
        "remark": ""
      },
      "type": "Feature"
    },
    {
      "geometry": {
        "coordinates": [
          130.357022,
          32.089516
        ],
        "type": "Point"
      },
      "properties": {
        "bangumi_id": 326278,
        "bangumi_title": "鹤乡恋旅~悸动的飞来地~",
        "ep_cut": "",
        "image_url": "https://w.junreimap.com/images/points/326278/4b38h0i_1756641285329.jpg",
        "location": "",
        "point_id": "4b38h0i",
        "point_name": "​出​水​駅前",
        "remark": ""
      },
      "type": "Feature"
    },
    {
      "geometry": {
        "coordinates": [
          130.357183,
          32.089396
        ],
        "type": "Point"
      },
      "properties": {
        "bangumi_id": 326278,
        "bangumi_title": "鹤乡恋旅~悸动的飞来地~",
        "ep_cut": "",
        "image_url": "https://w.junreimap.com/images/points/326278/4b38e0j_1756641314865.jpg",
        "location": "",
        "point_id": "4b38e0j",
        "point_name": "​出​水​駅バス",
        "remark": ""
      },
      "type": "Feature"
    },
    {
      "geometry": {
        "coordinates": [
          130.472821,
          32.09038
        ],
        "type": "Point"
      },
      "properties": {
        "bangumi_id": 326278,
        "bangumi_title": "鹤乡恋旅~悸动的飞来地~",
        "ep_cut": "",
        "image_url": "https://w.junreimap.com/images/points/326278/4b39s47_1756641338775.jpg",
        "location": "",
        "point_id": "4b39s47",
        "point_name": "角石バス",
        "remark": ""
      },
      "type": "Feature"
    },
    {
      "geometry": {
        "coordinates": [
          130.476673,
          32.091381
        ],
        "type": "Point"
      },
      "properties": {
        "bangumi_id": 326278,
        "bangumi_title": "鹤乡恋旅~悸动的飞来地~",
        "ep_cut": "",
        "image_url": "https://w.junreimap.com/images/points/326278/4b3a88q_1756641373041.jpg",
        "location": "",
        "point_id": "4b3a88q",
        "point_name": "生そば草の居",
        "remark": ""
      },
      "type": "Feature"
    },
    {
      "geometry": {
        "coordinates": [
          130.476625,
          32.091409
        ],
        "type": "Point"
      },
      "properties": {
        "bangumi_id": 326278,
        "bangumi_title": "鹤乡恋旅~悸动的飞来地~",
        "ep_cut": "",
        "image_url": "https://w.junreimap.com/images/points/326278/4b3adfm_1756641387250.jpg",
        "location": "",
        "point_id": "4b3adfm",
        "point_name": "生そば草の居 玄関",
        "remark": ""
      },
      "type": "Feature"
    },
    {
      "geometry": {
        "coordinates": [
          130.476582,
          32.091443
        ],
        "type": "Point"
      },
      "properties": {
        "bangumi_id": 326278,
        "bangumi_title": "鹤乡恋旅~悸动的飞来地~",
        "ep_cut": "",
        "image_url": "https://w.junreimap.com/images/points/326278/4b3afva_1756641409443.jpg",
        "location": "",
        "point_id": "4b3afva",
        "point_name": "生そば草の居 内部",
        "remark": ""
      },
      "type": "Feature"
    },
    {
      "geometry": {
        "coordinates": [
          130.476834,
          32.091425
        ],
        "type": "Point"
      },
      "properties": {
        "bangumi_id": 326278,
        "bangumi_title": "鹤乡恋旅~悸动的飞来地~",
        "ep_cut": "",
        "image_url": "https://w.junreimap.com/images/points/326278/4b3aik6_1756641422076.jpg",
        "location": "",
        "point_id": "4b3aik6",
        "point_name": "東雲の里あじさい園 入口",
        "remark": ""
      },
      "type": "Feature"
    },
    {
      "geometry": {
        "coordinates": [
          130.353946,
          32.088772
        ],
        "type": "Point"
      },
      "properties": {
        "bangumi_id": 326278,
        "bangumi_title": "鹤乡恋旅~悸动的飞来地~",
        "ep_cut": "",
        "image_url": "https://w.junreimap.com/images/points/326278/4b39gp3_1756641507202.jpg",
        "location": "",
        "point_id": "4b39gp3",
        "point_name": "ホテル桃晃",
        "remark": ""
      },
      "type": "Feature"
    },
    {
      "geometry": {
        "coordinates": [
          130.356896,
          32.087224
        ],
        "type": "Point"
      },
      "properties": {
        "bangumi_id": 326278,
        "bangumi_title": "鹤乡恋旅~悸动的飞来地~",
        "ep_cut": "",
        "image_url": "https://w.junreimap.com/images/points/326278/4b3ett1_1756641574830.jpg",
        "location": "",
        "point_id": "4b3ett1",
        "point_name": "魚松",
        "remark": ""
      },
      "type": "Feature"
    },
    {
      "geometry": {
        "coordinates": [
          130.341651,
          32.084876
        ],
        "type": "Point"
      },
      "properties": {
        "bangumi_id": 326278,
        "bangumi_title": "鹤乡恋旅~悸动的飞来地~",
        "ep_cut": "",
        "image_url": "https://w.junreimap.com/images/points/326278/4b38q1e_1756642471844.jpg",
        "location": "",
        "point_id": "4b38q1e",
        "point_name": "箱崎八幡神社",
        "remark": ""
      },
      "type": "Feature"
    },
    {
      "geometry": {
        "coordinates": [
          130.341647,
          32.084978
        ],
        "type": "Point"
      },
      "properties": {
        "bangumi_id": 326278,
        "bangumi_title": "鹤乡恋旅~悸动的飞来地~",
        "ep_cut": "",
        "image_url": "https://w.junreimap.com/images/points/326278/4b3mk23_1756642496141.jpg",
        "location": "",
        "point_id": "4b3mk23",
        "point_name": "箱崎八幡神社 茅輪",
        "remark": ""
      },
      "type": "Feature"
    },
    {
      "geometry": {
        "coordinates": [
          130.341694,
          32.084983
        ],
        "type": "Point"
      },
      "properties": {
        "bangumi_id": 326278,
        "bangumi_title": "鹤乡恋旅~悸动的飞来地~",
        "ep_cut": "",
        "image_url": "https://w.junreimap.com/images/points/326278/4b3nf7b_1756642510454.jpg",
        "location": "",
        "point_id": "4b3nf7b",
        "point_name": "箱崎八幡神社 手水舍",
        "remark": ""
      },
      "type": "Feature"
    },
    {
      "geometry": {
        "coordinates": [
          130.341647,
          32.085043
        ],
        "type": "Point"
      },
      "properties": {
        "bangumi_id": 326278,
        "bangumi_title": "鹤乡恋旅~悸动的飞来地~",
        "ep_cut": "",
        "image_url": "https://w.junreimap.com/images/points/326278/4b3nwlr_1756642642109.jpg",
        "location": "",
        "point_id": "4b3nwlr",
        "point_name": "箱崎八幡神社 中門",
        "remark": ""
      },
      "type": "Feature"
    },
    {
      "geometry": {
        "coordinates": [
          130.341637,
          32.085167
        ],
        "type": "Point"
      },
      "properties": {
        "bangumi_id": 326278,
        "bangumi_title": "鹤乡恋旅~悸动的飞来地~",
        "ep_cut": "",
        "image_url": "https://w.junreimap.com/images/points/326278/4b3reiw_1756642655195.jpg",
        "location": "",
        "point_id": "4b3reiw",
        "point_name": "箱崎八幡神社 院内",
        "remark": ""
      },
      "type": "Feature"
    },
    {
      "geometry": {
        "coordinates": [
          130.341556,
          32.085282
        ],
        "type": "Point"
      },
      "properties": {
        "bangumi_id": 326278,
        "bangumi_title": "鹤乡恋旅~悸动的飞来地~",
        "ep_cut": "",
        "image_url": "https://w.junreimap.com/images/points/326278/4b3vjnw_1756642694316.jpg",
        "location": "",
        "point_id": "4b3vjnw",
        "point_name": "箱崎八幡神社 雕像",
        "remark": ""
      },
      "type": "Feature"
    },
    {
      "geometry": {
        "coordinates": [
          130.266933,
          32.066831
        ],
        "type": "Point"
      },
      "properties": {
        "bangumi_id": 326278,
        "bangumi_title": "鹤乡恋旅~悸动的飞来地~",
        "ep_cut": "",
        "image_url": "https://w.junreimap.com/images/points/326278/4b44624_1756731359650.jpg",
        "location": "",
        "point_id": "4b44624",
        "point_name": "感應寺 仁王像",
        "remark": ""
      },
      "type": "Feature"
    },
    {
      "geometry": {
        "coordinates": [
          130.267012,
          32.067408
        ],
        "type": "Point"
      },
      "properties": {
        "bangumi_id": 326278,
        "bangumi_title": "鹤乡恋旅~悸动的飞来地~",
        "ep_cut": "",
        "image_url": "https://w.junreimap.com/images/points/326278/4b47e4n_1756731375410.jpg",
        "location": "",
        "point_id": "4b47e4n",
        "point_name": "感應寺 觀音",
        "remark": ""
      },
      "type": "Feature"
    },
    {
      "geometry": {
        "coordinates": [
          130.202338,
          32.075575
        ],
        "type": "Point"
      },
      "properties": {
        "bangumi_id": 326278,
        "bangumi_title": "鹤乡恋旅~悸动的飞来地~",
        "ep_cut": "",
        "image_url": "https://w.junreimap.com/images/points/326278/4b48jpy_1756731401605.jpg",
        "location": "",
        "point_id": "4b48jpy",
        "point_name": "脇本海岸附近",
        "remark": ""
      },
      "type": "Feature"
    },
    {
      "geometry": {
        "coordinates": [
          130.201611,
          32.075048
        ],
        "type": "Point"
      },
      "properties": {
        "bangumi_id": 326278,
        "bangumi_title": "鹤乡恋旅~悸动的飞来地~",
        "ep_cut": "",
        "image_url": "https://w.junreimap.com/images/points/326278/4b4ayfq_1756731428432.jpg",
        "location": "",
        "point_id": "4b4ayfq",
        "point_name": "海の家あすなろ",
        "remark": ""
      },
      "type": "Feature"
    },
    {
      "geometry": {
        "coordinates": [
          130.201448,
          32.074973
        ],
        "type": "Point"
      },
      "properties": {
        "bangumi_id": 326278,
        "bangumi_title": "鹤乡恋旅~悸动的飞来地~",
        "ep_cut": "",
        "image_url": "https://w.junreimap.com/images/points/326278/4b4cdoo_1756731440518.jpg",
        "location": "",
        "point_id": "4b4cdoo",
        "point_name": "脇本海水浴場",
        "remark": ""
      },
      "type": "Feature"
    },
    {
      "geometry": {
        "coordinates": [
          130.35252,
          32.0901
        ],
        "type": "Point"
      },
      "properties": {
        "bangumi_id": 326278,
        "bangumi_title": "鹤乡恋旅~悸动的飞来地~",
        "ep_cut": "",
        "image_url": "https://w.junreimap.com/images/points/326278/4b4g1je_1756642757927.jpg",
        "location": "",
        "point_id": "4b4g1je",
        "point_name": "出水市役所",
        "remark": ""
      },
      "type": "Feature"
    },
    {
      "geometry": {
        "coordinates": [
          130.344669,
          32.089115
        ],
        "type": "Point"
      },
      "properties": {
        "bangumi_id": 326278,
        "bangumi_title": "鹤乡恋旅~悸动的飞来地~",
        "ep_cut": "",
        "image_url": "https://w.junreimap.com/images/points/326278/4fap6u6_1756642775860.jpg",
        "location": "",
        "point_id": "4fap6u6",
        "point_name": "マルマエスタジアム​出水 入口",
        "remark": ""
      },
      "type": "Feature"
    },
    {
      "geometry": {
        "coordinates": [
          130.34364,
          32.088609
        ],
        "type": "Point"
      },
      "properties": {
        "bangumi_id": 326278,
        "bangumi_title": "鹤乡恋旅~悸动的飞来地~",
        "ep_cut": "",
        "image_url": "https://w.junreimap.com/images/points/326278/4fapjck_1756642796970.jpg",
        "location": "",
        "point_id": "4fapjck",
        "point_name": "マルマエスタジアム​出水",
        "remark": ""
      },
      "type": "Feature"
    },
    {
      "geometry": {
        "coordinates": [
          130.360563,
          32.098768
        ],
        "type": "Point"
      },
      "properties": {
        "bangumi_id": 326278,
        "bangumi_title": "鹤乡恋旅~悸动的飞来地~",
        "ep_cut": "",
        "image_url": "https://w.junreimap.com/images/points/326278/4b4lxad_1756642811341.jpg",
        "location": "",
        "point_id": "4b4lxad",
        "point_name": "東光山公園 橋",
        "remark": ""
      },
      "type": "Feature"
    },
    {
      "geometry": {
        "coordinates": [
          130.360802,
          32.098222
        ],
        "type": "Point"
      },
      "properties": {
        "bangumi_id": 326278,
        "bangumi_title": "鹤乡恋旅~悸动的飞来地~",
        "ep_cut": "",
        "image_url": "https://w.junreimap.com/images/points/326278/4b4msmo_1756642823854.jpg",
        "location": "",
        "point_id": "4b4msmo",
        "point_name": "東光山公園 展望台",
        "remark": ""
      },
      "type": "Feature"
    },
    {
      "geometry": {
        "coordinates": [
          130.359229,
          32.075558
        ],
        "type": "Point"
      },
      "properties": {
        "bangumi_id": 326278,
        "bangumi_title": "鹤乡恋旅~悸动的飞来地~",
        "ep_cut": "",
        "image_url": "https://w.junreimap.com/images/points/326278/4ia8qtu_1756823101963.jpg",
        "location": "",
        "point_id": "4ia8qtu",
        "point_name": "出水麓歴史館",
        "remark": ""
      },
      "type": "Feature"
    },
    {
      "geometry": {
        "coordinates": [
          130.357914,
          32.077212
        ],
        "type": "Point"
      },
      "properties": {
        "bangumi_id": 326278,
        "bangumi_title": "鹤乡恋旅~悸动的飞来地~",
        "ep_cut": "",
        "image_url": "https://w.junreimap.com/images/points/326278/4iakzsk_1756823704926.jpg",
        "location": "",
        "point_id": "4iakzsk",
        "point_name": "武家屋敷 竪​馬場​街",
        "remark": ""
      },
      "type": "Feature"
    },
    {
      "geometry": {
        "coordinates": [
          130.343436,
          32.098134
        ],
        "type": "Point"
      },
      "properties": {
        "bangumi_id": 326278,
        "bangumi_title": "鹤乡恋旅~悸动的飞来地~",
        "ep_cut": "",
        "image_url": "https://w.junreimap.com/images/points/326278/4iadbcs_1756823465556.jpg",
        "location": "",
        "point_id": "4iadbcs",
        "point_name": "出水市​ツル​博物館\nクレイン​パーク​いずみ",
        "remark": ""
      },
      "type": "Feature"
    },
    {
      "geometry": {
        "coordinates": [
          130.218542,
          32.04077
        ],
        "type": "Point"
      },
      "properties": {
        "bangumi_id": 326278,
        "bangumi_title": "鹤乡恋旅~悸动的飞来地~",
        "ep_cut": "",
        "image_url": "https://w.junreimap.com/images/points/326278/4iat4yg_1756824069391.jpg",
        "location": "",
        "point_id": "4iat4yg",
        "point_name": "A-Z あくね",
        "remark": ""
      },
      "type": "Feature"
    },
    {
      "geometry": {
        "coordinates": [
          121.191268,
          24.970603
        ],
        "type": "Point"
      },
      "properties": {
        "bangumi_id": 326278,
        "bangumi_title": "鹤乡恋旅~悸动的飞来地~",
        "ep_cut": "",
        "image_url": "https://w.junreimap.com/images/points/326278/4b4vqlb_1756641595624.jpg",
        "location": "",
        "point_id": "4b4vqlb",
        "point_name": "中大湖",
        "remark": "游戏制作方所在地"
      },
      "type": "Feature"
    }
  ],
  "type": "FeatureCollection"
}