{
  "features": [
    {
      "geometry": {
        "coordinates": [
          139.738066,
          35.687463
        ],
        "type": "Point"
      },
      "properties": {
        "bangumi_id": 330973,
        "bangumi_title": "看得见的女孩",
        "ep_cut": 1,
        "image_url": "https://w.junreimap.com/images/points/330973/p8khz3xht_1729342535102.jpg",
        "location": "",
        "point_id": "p8khz3xht",
        "point_name": "女子学院中学校・高等学校",
        "remark": ""
      },
      "type": "Feature"
    },
    {
      "geometry": {
        "coordinates": [
          139.736687,
          35.69161
        ],
        "type": "Point"
      },
      "properties": {
        "bangumi_id": 330973,
        "bangumi_title": "看得见的女孩",
        "ep_cut": 1,
        "image_url": "https://w.junreimap.com/images/points/330973/p86g4hunf_1729312970948.jpg",
        "location": "",
        "point_id": "p86g4hunf",
        "point_name": "千代田区立外濠公園（九段北4丁目側）",
        "remark": ""
      },
      "type": "Feature"
    },
    {
      "geometry": {
        "coordinates": [
          139.736423,
          35.691291
        ],
        "type": "Point"
      },
      "properties": {
        "bangumi_id": 330973,
        "bangumi_title": "看得见的女孩",
        "ep_cut": 1,
        "image_url": "https://w.junreimap.com/images/points/330973/p86f6kfg8_1729312972568.jpg",
        "location": "",
        "point_id": "p86f6kfg8",
        "point_name": "千代田区立外濠公園（九段北4丁目側）",
        "remark": ""
      },
      "type": "Feature"
    },
    {
      "geometry": {
        "coordinates": [
          139.736708,
          35.69131
        ],
        "type": "Point"
      },
      "properties": {
        "bangumi_id": 330973,
        "bangumi_title": "看得见的女孩",
        "ep_cut": 1,
        "image_url": "https://w.junreimap.com/images/points/330973/p86hkygcj_1729312974117.jpg",
        "location": "",
        "point_id": "p86hkygcj",
        "point_name": "千代田区立外濠公園（九段北4丁目側）",
        "remark": "背景建筑为山脇美術専門学校。"
      },
      "type": "Feature"
    },
    {
      "geometry": {
        "coordinates": [
          139.735916,
          35.691187
        ],
        "type": "Point"
      },
      "properties": {
        "bangumi_id": 330973,
        "bangumi_title": "看得见的女孩",
        "ep_cut": 1,
        "image_url": "https://w.junreimap.com/images/points/330973/p86959foz_1729312967988.jpg",
        "location": "",
        "point_id": "p86959foz",
        "point_name": "市ヶ谷駅交差点",
        "remark": ""
      },
      "type": "Feature"
    },
    {
      "geometry": {
        "coordinates": [
          139.73591,
          35.691184
        ],
        "type": "Point"
      },
      "properties": {
        "bangumi_id": 330973,
        "bangumi_title": "看得见的女孩",
        "ep_cut": 1,
        "image_url": "https://w.junreimap.com/images/points/330973/p868m18ol_1729312963890.jpg",
        "location": "",
        "point_id": "p868m18ol",
        "point_name": "市ヶ谷駅交差点",
        "remark": ""
      },
      "type": "Feature"
    },
    {
      "geometry": {
        "coordinates": [
          139.735902,
          35.691186
        ],
        "type": "Point"
      },
      "properties": {
        "bangumi_id": 330973,
        "bangumi_title": "看得见的女孩",
        "ep_cut": 1,
        "image_url": "https://w.junreimap.com/images/points/330973/p869vnq5a_1729312966466.jpg",
        "location": "",
        "point_id": "p869vnq5a",
        "point_name": "市ヶ谷駅交差点",
        "remark": ""
      },
      "type": "Feature"
    },
    {
      "geometry": {
        "coordinates": [
          139.73563,
          35.690357
        ],
        "type": "Point"
      },
      "properties": {
        "bangumi_id": 330973,
        "bangumi_title": "看得见的女孩",
        "ep_cut": 1,
        "image_url": "https://w.junreimap.com/images/points/330973/p86m3mtf9_1729312975827.jpg",
        "location": "",
        "point_id": "p86m3mtf9",
        "point_name": "市ヶ谷駅前バス停",
        "remark": "由于原址改建，公交车站已移植数十米外。"
      },
      "type": "Feature"
    },
    {
      "geometry": {
        "coordinates": [
          139.735623,
          35.690343
        ],
        "type": "Point"
      },
      "properties": {
        "bangumi_id": 330973,
        "bangumi_title": "看得见的女孩",
        "ep_cut": 1,
        "image_url": "https://w.junreimap.com/images/points/330973/p86ni4qpc_1729312976874.jpg",
        "location": "",
        "point_id": "p86ni4qpc",
        "point_name": "市ヶ谷駅前バス停",
        "remark": ""
      },
      "type": "Feature"
    },
    {
      "geometry": {
        "coordinates": [
          139.735636,
          35.690366
        ],
        "type": "Point"
      },
      "properties": {
        "bangumi_id": 330973,
        "bangumi_title": "看得见的女孩",
        "ep_cut": 1,
        "image_url": "https://w.junreimap.com/images/points/330973/p86ntr2o0_1729312977921.jpg",
        "location": "",
        "point_id": "p86ntr2o0",
        "point_name": "市ヶ谷駅前バス停",
        "remark": ""
      },
      "type": "Feature"
    },
    {
      "geometry": {
        "coordinates": [
          139.740142,
          35.689823
        ],
        "type": "Point"
      },
      "properties": {
        "bangumi_id": 330973,
        "bangumi_title": "看得见的女孩",
        "ep_cut": 2,
        "image_url": "https://w.junreimap.com/images/points/330973/p86r34k3k_1729312979362.jpg",
        "location": "",
        "point_id": "p86r34k3k",
        "point_name": "東郷元帥記念公園の南側",
        "remark": ""
      },
      "type": "Feature"
    },
    {
      "geometry": {
        "coordinates": [
          139.73976,
          35.690649
        ],
        "type": "Point"
      },
      "properties": {
        "bangumi_id": 330973,
        "bangumi_title": "看得见的女孩",
        "ep_cut": 2,
        "image_url": "https://w.junreimap.com/images/points/330973/p86u6wrp4_1729312980838.jpg",
        "location": "",
        "point_id": "p86u6wrp4",
        "point_name": "東郷元帥記念公園の獅子像",
        "remark": "现实中的狮子像不会喷水。"
      },
      "type": "Feature"
    },
    {
      "geometry": {
        "coordinates": [
          139.732538,
          35.699726
        ],
        "type": "Point"
      },
      "properties": {
        "bangumi_id": 330973,
        "bangumi_title": "看得见的女孩",
        "ep_cut": 3,
        "image_url": "https://w.junreimap.com/images/points/330973/p8jkau1a6_1729340485240.jpg",
        "location": "",
        "point_id": "p8jkau1a6",
        "point_name": "牛込北町バス停",
        "remark": "路线为「橋63 小滝橋車庫前方面」。"
      },
      "type": "Feature"
    },
    {
      "geometry": {
        "coordinates": [
          139.732512,
          35.699672
        ],
        "type": "Point"
      },
      "properties": {
        "bangumi_id": 330973,
        "bangumi_title": "看得见的女孩",
        "ep_cut": 3,
        "image_url": "https://w.junreimap.com/images/points/330973/p8jl9xtgz_1729340545097.jpg",
        "location": "",
        "point_id": "p8jl9xtgz",
        "point_name": "都営バス",
        "remark": ""
      },
      "type": "Feature"
    },
    {
      "geometry": {
        "coordinates": [
          139.735807,
          35.690959
        ],
        "type": "Point"
      },
      "properties": {
        "bangumi_id": 330973,
        "bangumi_title": "看得见的女孩",
        "ep_cut": 3,
        "image_url": "https://w.junreimap.com/images/points/330973/p86ikd5g2_1729313240338.jpg",
        "location": "",
        "point_id": "p86ikd5g2",
        "point_name": "スターバックス コーヒー 市ヶ谷駅前店",
        "remark": ""
      },
      "type": "Feature"
    },
    {
      "geometry": {
        "coordinates": [
          139.70162,
          35.693706
        ],
        "type": "Point"
      },
      "properties": {
        "bangumi_id": 330973,
        "bangumi_title": "看得见的女孩",
        "ep_cut": 3,
        "image_url": "https://w.junreimap.com/images/points/330973/p85v8wykc_1729310966278.jpg",
        "location": "",
        "point_id": "p85v8wykc",
        "point_name": "ドン・キホーテ 新宿歌舞伎町店",
        "remark": ""
      },
      "type": "Feature"
    },
    {
      "geometry": {
        "coordinates": [
          139.701608,
          35.693976
        ],
        "type": "Point"
      },
      "properties": {
        "bangumi_id": 330973,
        "bangumi_title": "看得见的女孩",
        "ep_cut": 3,
        "image_url": "https://w.junreimap.com/images/points/330973/p85w4igrr_1729310967751.jpg",
        "location": "",
        "point_id": "p85w4igrr",
        "point_name": "マイアミガーデン新宿東口店",
        "remark": ""
      },
      "type": "Feature"
    },
    {
      "geometry": {
        "coordinates": [
          139.7016,
          35.693954
        ],
        "type": "Point"
      },
      "properties": {
        "bangumi_id": 330973,
        "bangumi_title": "看得见的女孩",
        "ep_cut": 3,
        "image_url": "https://w.junreimap.com/images/points/330973/p85wppud5_1729310968817.jpg",
        "location": "",
        "point_id": "p85wppud5",
        "point_name": "マイアミガーデン新宿東口店",
        "remark": ""
      },
      "type": "Feature"
    },
    {
      "geometry": {
        "coordinates": [
          139.701605,
          35.693967
        ],
        "type": "Point"
      },
      "properties": {
        "bangumi_id": 330973,
        "bangumi_title": "看得见的女孩",
        "ep_cut": 3,
        "image_url": "https://w.junreimap.com/images/points/330973/p85xl8z00_1729310970320.jpg",
        "location": "",
        "point_id": "p85xl8z00",
        "point_name": "マイアミガーデン新宿東口店",
        "remark": ""
      },
      "type": "Feature"
    },
    {
      "geometry": {
        "coordinates": [
          139.701604,
          35.693963
        ],
        "type": "Point"
      },
      "properties": {
        "bangumi_id": 330973,
        "bangumi_title": "看得见的女孩",
        "ep_cut": 3,
        "image_url": "https://w.junreimap.com/images/points/330973/p85x2zy1q_1729310971799.jpg",
        "location": "",
        "point_id": "p85x2zy1q",
        "point_name": "セントラルロード",
        "remark": ""
      },
      "type": "Feature"
    },
    {
      "geometry": {
        "coordinates": [
          139.709431,
          35.690253
        ],
        "type": "Point"
      },
      "properties": {
        "bangumi_id": 330973,
        "bangumi_title": "看得见的女孩",
        "ep_cut": 3,
        "image_url": "https://w.junreimap.com/images/points/330973/p85yjvoll_1729310973284.jpg",
        "location": "",
        "point_id": "p85yjvoll",
        "point_name": "新宿区立 新宿公園",
        "remark": ""
      },
      "type": "Feature"
    },
    {
      "geometry": {
        "coordinates": [
          139.709425,
          35.690245
        ],
        "type": "Point"
      },
      "properties": {
        "bangumi_id": 330973,
        "bangumi_title": "看得见的女孩",
        "ep_cut": 3,
        "image_url": "https://w.junreimap.com/images/points/330973/p85z29pky_1729310974788.jpg",
        "location": "",
        "point_id": "p85z29pky",
        "point_name": "新宿区立 新宿公園",
        "remark": ""
      },
      "type": "Feature"
    },
    {
      "geometry": {
        "coordinates": [
          139.709438,
          35.690242
        ],
        "type": "Point"
      },
      "properties": {
        "bangumi_id": 330973,
        "bangumi_title": "看得见的女孩",
        "ep_cut": 3,
        "image_url": "https://w.junreimap.com/images/points/330973/p85z4e225_1729310976280.jpg",
        "location": "",
        "point_id": "p85z4e225",
        "point_name": "新宿区立 新宿公園",
        "remark": ""
      },
      "type": "Feature"
    },
    {
      "geometry": {
        "coordinates": [
          139.709417,
          35.690255
        ],
        "type": "Point"
      },
      "properties": {
        "bangumi_id": 330973,
        "bangumi_title": "看得见的女孩",
        "ep_cut": 3,
        "image_url": "https://w.junreimap.com/images/points/330973/p85z4sb47_1729310977723.jpg",
        "location": "",
        "point_id": "p85z4sb47",
        "point_name": "新宿区立 新宿公園",
        "remark": ""
      },
      "type": "Feature"
    },
    {
      "geometry": {
        "coordinates": [
          139.709419,
          35.690238
        ],
        "type": "Point"
      },
      "properties": {
        "bangumi_id": 330973,
        "bangumi_title": "看得见的女孩",
        "ep_cut": 3,
        "image_url": "https://w.junreimap.com/images/points/330973/p860134fg_1729310979188.jpg",
        "location": "",
        "point_id": "p860134fg",
        "point_name": "新宿区立 新宿公園",
        "remark": ""
      },
      "type": "Feature"
    },
    {
      "geometry": {
        "coordinates": [
          139.781067,
          35.704273
        ],
        "type": "Point"
      },
      "properties": {
        "bangumi_id": 330973,
        "bangumi_title": "看得见的女孩",
        "ep_cut": 3,
        "image_url": "https://w.junreimap.com/images/points/330973/p86wmsytj_1729312985892.jpg",
        "location": "",
        "point_id": "p86wmsytj",
        "point_name": "佐竹商店街",
        "remark": ""
      },
      "type": "Feature"
    },
    {
      "geometry": {
        "coordinates": [
          139.69692,
          35.692931
        ],
        "type": "Point"
      },
      "properties": {
        "bangumi_id": 330973,
        "bangumi_title": "看得见的女孩",
        "ep_cut": 3,
        "image_url": "https://w.junreimap.com/images/points/330973/p85tlqwga_1729310962564.jpg",
        "location": "",
        "point_id": "p85tlqwga",
        "point_name": "新都心歩道橋下交差点",
        "remark": ""
      },
      "type": "Feature"
    },
    {
      "geometry": {
        "coordinates": [
          139.696673,
          35.693201
        ],
        "type": "Point"
      },
      "properties": {
        "bangumi_id": 330973,
        "bangumi_title": "看得见的女孩",
        "ep_cut": 3,
        "image_url": "https://w.junreimap.com/images/points/330973/p85umk3yy_1729310964758.jpg",
        "location": "",
        "point_id": "p85umk3yy",
        "point_name": "ファミリーマート 新宿損保ジャパン店",
        "remark": ""
      },
      "type": "Feature"
    },
    {
      "geometry": {
        "coordinates": [
          139.735544,
          35.689534
        ],
        "type": "Point"
      },
      "properties": {
        "bangumi_id": 330973,
        "bangumi_title": "看得见的女孩",
        "ep_cut": 4,
        "image_url": "https://w.junreimap.com/images/points/330973/p86jftova_1729312987372.jpg",
        "location": "",
        "point_id": "p86jftova",
        "point_name": "JS市ヶ谷ビル",
        "remark": ""
      },
      "type": "Feature"
    },
    {
      "geometry": {
        "coordinates": [
          139.735911,
          35.691191
        ],
        "type": "Point"
      },
      "properties": {
        "bangumi_id": 330973,
        "bangumi_title": "看得见的女孩",
        "ep_cut": 4,
        "image_url": "https://w.junreimap.com/images/points/330973/p869llru9_1729312969492.jpg",
        "location": "",
        "point_id": "p869llru9",
        "point_name": "市ヶ谷駅交差点",
        "remark": ""
      },
      "type": "Feature"
    },
    {
      "geometry": {
        "coordinates": [
          139.735905,
          35.691192
        ],
        "type": "Point"
      },
      "properties": {
        "bangumi_id": 330973,
        "bangumi_title": "看得见的女孩",
        "ep_cut": 4,
        "image_url": "https://w.junreimap.com/images/points/330973/p86bterao_1729312982963.jpg",
        "location": "",
        "point_id": "p86bterao",
        "point_name": "市ヶ谷駅交差点",
        "remark": ""
      },
      "type": "Feature"
    },
    {
      "geometry": {
        "coordinates": [
          139.735719,
          35.691296
        ],
        "type": "Point"
      },
      "properties": {
        "bangumi_id": 330973,
        "bangumi_title": "看得见的女孩",
        "ep_cut": 4,
        "image_url": "https://w.junreimap.com/images/points/330973/p86b62vck_1729312981888.jpg",
        "location": "",
        "point_id": "p86b62vck",
        "point_name": "市ヶ谷駅交差点",
        "remark": ""
      },
      "type": "Feature"
    },
    {
      "geometry": {
        "coordinates": [
          139.781205,
          35.705695
        ],
        "type": "Point"
      },
      "properties": {
        "bangumi_id": 330973,
        "bangumi_title": "看得见的女孩",
        "ep_cut": 5,
        "image_url": "https://w.junreimap.com/images/points/330973/p8jvzl7mt_1729341195218.jpg",
        "location": "",
        "point_id": "p8jvzl7mt",
        "point_name": "ファミリースナック ロッキー",
        "remark": ""
      },
      "type": "Feature"
    },
    {
      "geometry": {
        "coordinates": [
          139.781193,
          35.705758
        ],
        "type": "Point"
      },
      "properties": {
        "bangumi_id": 330973,
        "bangumi_title": "看得见的女孩",
        "ep_cut": 5,
        "image_url": "https://w.junreimap.com/images/points/330973/p8jtis2mk_1729341088589.jpg",
        "location": "",
        "point_id": "p8jtis2mk",
        "point_name": "ファミリースナック ロッキー",
        "remark": ""
      },
      "type": "Feature"
    },
    {
      "geometry": {
        "coordinates": [
          139.781185,
          35.705651
        ],
        "type": "Point"
      },
      "properties": {
        "bangumi_id": 330973,
        "bangumi_title": "看得见的女孩",
        "ep_cut": 5,
        "image_url": "https://w.junreimap.com/images/points/330973/p8jxhs574_1729341283666.jpg",
        "location": "",
        "point_id": "p8jxhs574",
        "point_name": "スーパークリーニング タムラ",
        "remark": ""
      },
      "type": "Feature"
    },
    {
      "geometry": {
        "coordinates": [
          139.781177,
          35.703848
        ],
        "type": "Point"
      },
      "properties": {
        "bangumi_id": 330973,
        "bangumi_title": "看得见的女孩",
        "ep_cut": 5,
        "image_url": "https://w.junreimap.com/images/points/330973/p8jyg1fbl_1729341340159.jpg",
        "location": "",
        "point_id": "p8jyg1fbl",
        "point_name": "佐竹商店街",
        "remark": ""
      },
      "type": "Feature"
    },
    {
      "geometry": {
        "coordinates": [
          139.78118,
          35.703871
        ],
        "type": "Point"
      },
      "properties": {
        "bangumi_id": 330973,
        "bangumi_title": "看得见的女孩",
        "ep_cut": 5,
        "image_url": "https://w.junreimap.com/images/points/330973/p8k0fvz5g_1729341461596.jpg",
        "location": "",
        "point_id": "p8k0fvz5g",
        "point_name": "佐竹商店街",
        "remark": ""
      },
      "type": "Feature"
    },
    {
      "geometry": {
        "coordinates": [
          139.781191,
          35.703868
        ],
        "type": "Point"
      },
      "properties": {
        "bangumi_id": 330973,
        "bangumi_title": "看得见的女孩",
        "ep_cut": 5,
        "image_url": "https://w.junreimap.com/images/points/330973/p8k0qaqtk_1729341510013.jpg",
        "location": "",
        "point_id": "p8k0qaqtk",
        "point_name": "佐竹商店街",
        "remark": ""
      },
      "type": "Feature"
    },
    {
      "geometry": {
        "coordinates": [
          139.781172,
          35.70575
        ],
        "type": "Point"
      },
      "properties": {
        "bangumi_id": 330973,
        "bangumi_title": "看得见的女孩",
        "ep_cut": 5,
        "image_url": "https://w.junreimap.com/images/points/330973/p8k463s7w_1729341687153.jpg",
        "location": "",
        "point_id": "p8k463s7w",
        "point_name": "佐竹商店街",
        "remark": "根据第5集，神母的店铺在此处以北，但周围建筑均为虚构。"
      },
      "type": "Feature"
    },
    {
      "geometry": {
        "coordinates": [
          139.735788,
          35.690987
        ],
        "type": "Point"
      },
      "properties": {
        "bangumi_id": 330973,
        "bangumi_title": "看得见的女孩",
        "ep_cut": 6,
        "image_url": "https://w.junreimap.com/images/points/330973/p8kg988rh_1729342419182.jpg",
        "location": "",
        "point_id": "p8kg988rh",
        "point_name": "市ヶ谷駅",
        "remark": ""
      },
      "type": "Feature"
    },
    {
      "geometry": {
        "coordinates": [
          139.735771,
          35.690967
        ],
        "type": "Point"
      },
      "properties": {
        "bangumi_id": 330973,
        "bangumi_title": "看得见的女孩",
        "ep_cut": 6,
        "image_url": "https://w.junreimap.com/images/points/330973/p8kffw6iz_1729342406887.jpg",
        "location": "",
        "point_id": "p8kffw6iz",
        "point_name": "市ヶ谷駅",
        "remark": ""
      },
      "type": "Feature"
    },
    {
      "geometry": {
        "coordinates": [
          139.253767,
          35.813389
        ],
        "type": "Point"
      },
      "properties": {
        "bangumi_id": 330973,
        "bangumi_title": "看得见的女孩",
        "ep_cut": 7,
        "image_url": "https://w.junreimap.com/images/points/330973/p8hrh0otj_1729337159095.jpg",
        "location": "",
        "point_id": "p8hrh0otj",
        "point_name": "黒沢バス停（梅74 河辺駅北口）",
        "remark": "公交路线在故事中被改为「埋74 河部駅北口」。黑泽公交站是距离吹上隧道南口最近的站。"
      },
      "type": "Feature"
    },
    {
      "geometry": {
        "coordinates": [
          139.25049,
          35.81507
        ],
        "type": "Point"
      },
      "properties": {
        "bangumi_id": 330973,
        "bangumi_title": "看得见的女孩",
        "ep_cut": 7,
        "image_url": "https://w.junreimap.com/images/points/330973/p8hvg92kr_1729336879709.jpg",
        "location": "",
        "point_id": "p8hvg92kr",
        "point_name": "旧吹上隧道",
        "remark": "故事中名为呼铃山隧道，外形以旧吹上隧道南口为原型。"
      },
      "type": "Feature"
    },
    {
      "geometry": {
        "coordinates": [
          139.25047,
          35.815083
        ],
        "type": "Point"
      },
      "properties": {
        "bangumi_id": 330973,
        "bangumi_title": "看得见的女孩",
        "ep_cut": 7,
        "image_url": "https://w.junreimap.com/images/points/330973/p8i2vj6vn_1729337257267.jpg",
        "location": "",
        "point_id": "p8i2vj6vn",
        "point_name": "旧吹上隧道",
        "remark": ""
      },
      "type": "Feature"
    },
    {
      "geometry": {
        "coordinates": [
          139.250263,
          35.815258
        ],
        "type": "Point"
      },
      "properties": {
        "bangumi_id": 330973,
        "bangumi_title": "看得见的女孩",
        "ep_cut": 7,
        "image_url": "https://w.junreimap.com/images/points/330973/p8i1qgin4_1729337203932.jpg",
        "location": "",
        "point_id": "p8i1qgin4",
        "point_name": "旧吹上隧道",
        "remark": ""
      },
      "type": "Feature"
    },
    {
      "geometry": {
        "coordinates": [
          139.250203,
          35.815303
        ],
        "type": "Point"
      },
      "properties": {
        "bangumi_id": 330973,
        "bangumi_title": "看得见的女孩",
        "ep_cut": 7,
        "image_url": "https://w.junreimap.com/images/points/330973/p8i2a29bm_1729337220054.jpg",
        "location": "",
        "point_id": "p8i2a29bm",
        "point_name": "旧吹上隧道",
        "remark": ""
      },
      "type": "Feature"
    },
    {
      "geometry": {
        "coordinates": [
          139.698908,
          35.688392
        ],
        "type": "Point"
      },
      "properties": {
        "bangumi_id": 330973,
        "bangumi_title": "看得见的女孩",
        "ep_cut": 8,
        "image_url": "https://w.junreimap.com/images/points/330973/p8iiftl6v_1729338209585.jpg",
        "location": "",
        "point_id": "p8iiftl6v",
        "point_name": "ルミネ新宿 ルミネ1",
        "remark": ""
      },
      "type": "Feature"
    },
    {
      "geometry": {
        "coordinates": [
          139.705857,
          35.712838
        ],
        "type": "Point"
      },
      "properties": {
        "bangumi_id": 330973,
        "bangumi_title": "看得见的女孩",
        "ep_cut": 8,
        "image_url": "https://w.junreimap.com/images/points/330973/p8i6wh38l_1729337530651.jpg",
        "location": "",
        "point_id": "p8i6wh38l",
        "point_name": "高田馬場駅（東西線）",
        "remark": ""
      },
      "type": "Feature"
    },
    {
      "geometry": {
        "coordinates": [
          139.721082,
          35.705855
        ],
        "type": "Point"
      },
      "properties": {
        "bangumi_id": 330973,
        "bangumi_title": "看得见的女孩",
        "ep_cut": 8,
        "image_url": "https://w.junreimap.com/images/points/330973/p8i5fxfd8_1729337417478.jpg",
        "location": "",
        "point_id": "p8i5fxfd8",
        "point_name": "早稲田駅（東西線）",
        "remark": ""
      },
      "type": "Feature"
    },
    {
      "geometry": {
        "coordinates": [
          139.721008,
          35.705858
        ],
        "type": "Point"
      },
      "properties": {
        "bangumi_id": 330973,
        "bangumi_title": "看得见的女孩",
        "ep_cut": 8,
        "image_url": "https://w.junreimap.com/images/points/330973/p8i7m4ya1_1729337542759.jpg",
        "location": "",
        "point_id": "p8i7m4ya1",
        "point_name": "早稲田通り",
        "remark": ""
      },
      "type": "Feature"
    },
    {
      "geometry": {
        "coordinates": [
          139.781164,
          35.703855
        ],
        "type": "Point"
      },
      "properties": {
        "bangumi_id": 330973,
        "bangumi_title": "看得见的女孩",
        "ep_cut": 9,
        "image_url": "https://w.junreimap.com/images/points/330973/p8l2qebx3_1729343787822.jpg",
        "location": "",
        "point_id": "p8l2qebx3",
        "point_name": "佐竹商店街",
        "remark": ""
      },
      "type": "Feature"
    },
    {
      "geometry": {
        "coordinates": [
          139.739842,
          35.690606
        ],
        "type": "Point"
      },
      "properties": {
        "bangumi_id": 330973,
        "bangumi_title": "看得见的女孩",
        "ep_cut": 10,
        "image_url": "https://w.junreimap.com/images/points/330973/p8l5hnrbx_1729343959337.jpg",
        "location": "",
        "point_id": "p8l5hnrbx",
        "point_name": "東郷元帥記念公園の獅子像",
        "remark": ""
      },
      "type": "Feature"
    },
    {
      "geometry": {
        "coordinates": [
          139.740001,
          35.69076
        ],
        "type": "Point"
      },
      "properties": {
        "bangumi_id": 330973,
        "bangumi_title": "看得见的女孩",
        "ep_cut": 10,
        "image_url": "https://w.junreimap.com/images/points/330973/p8l62zqpw_1729343983034.jpg",
        "location": "",
        "point_id": "p8l62zqpw",
        "point_name": "東郷元帥記念公園",
        "remark": ""
      },
      "type": "Feature"
    },
    {
      "geometry": {
        "coordinates": [
          139.740103,
          35.690624
        ],
        "type": "Point"
      },
      "properties": {
        "bangumi_id": 330973,
        "bangumi_title": "看得见的女孩",
        "ep_cut": 10,
        "image_url": "https://w.junreimap.com/images/points/330973/p8l6r286a_1729344022496.jpg",
        "location": "",
        "point_id": "p8l6r286a",
        "point_name": "東郷元帥記念公園",
        "remark": ""
      },
      "type": "Feature"
    },
    {
      "geometry": {
        "coordinates": [
          139.740094,
          35.690654
        ],
        "type": "Point"
      },
      "properties": {
        "bangumi_id": 330973,
        "bangumi_title": "看得见的女孩",
        "ep_cut": 10,
        "image_url": "https://w.junreimap.com/images/points/330973/p8l6yscqo_1729344033485.jpg",
        "location": "",
        "point_id": "p8l6yscqo",
        "point_name": "東郷元帥記念公園",
        "remark": ""
      },
      "type": "Feature"
    },
    {
      "geometry": {
        "coordinates": [
          139.7401,
          35.690642
        ],
        "type": "Point"
      },
      "properties": {
        "bangumi_id": 330973,
        "bangumi_title": "看得见的女孩",
        "ep_cut": 10,
        "image_url": "https://w.junreimap.com/images/points/330973/p8l7qirzb_1729344087357.jpg",
        "location": "",
        "point_id": "p8l7qirzb",
        "point_name": "東郷元帥記念公園",
        "remark": ""
      },
      "type": "Feature"
    },
    {
      "geometry": {
        "coordinates": [
          139.735912,
          35.690976
        ],
        "type": "Point"
      },
      "properties": {
        "bangumi_id": 330973,
        "bangumi_title": "看得见的女孩",
        "ep_cut": 11,
        "image_url": "https://w.junreimap.com/images/points/330973/p8lcmd93b_1729344380841.jpg",
        "location": "",
        "point_id": "p8lcmd93b",
        "point_name": "東郷元帥記念公園",
        "remark": ""
      },
      "type": "Feature"
    },
    {
      "geometry": {
        "coordinates": [
          139.701606,
          35.693969
        ],
        "type": "Point"
      },
      "properties": {
        "bangumi_id": 330973,
        "bangumi_title": "看得见的女孩",
        "ep_cut": 12,
        "image_url": "https://w.junreimap.com/images/points/330973/p8lgo2zkz_1729344684558.jpg",
        "location": "",
        "point_id": "p8lgo2zkz",
        "point_name": "セントラルロード",
        "remark": ""
      },
      "type": "Feature"
    },
    {
      "geometry": {
        "coordinates": [
          139.70158,
          35.693971
        ],
        "type": "Point"
      },
      "properties": {
        "bangumi_id": 330973,
        "bangumi_title": "看得见的女孩",
        "ep_cut": 12,
        "image_url": "https://w.junreimap.com/images/points/330973/p8lhxwvbo_1729344709622.jpg",
        "location": "",
        "point_id": "p8lhxwvbo",
        "point_name": "セントラルロード",
        "remark": ""
      },
      "type": "Feature"
    },
    {
      "geometry": {
        "coordinates": [
          139.736428,
          35.692881
        ],
        "type": "Point"
      },
      "properties": {
        "bangumi_id": 330973,
        "bangumi_title": "看得见的女孩",
        "ep_cut": "ED1",
        "image_url": "https://w.junreimap.com/images/points/330973/p866hg42n_1729311372109.jpg",
        "location": "",
        "point_id": "p866hg42n",
        "point_name": "外堀通り",
        "remark": "背景建筑为アルカディア市ケ谷 私学会館。"
      },
      "type": "Feature"
    }
  ],
  "type": "FeatureCollection"
}