{
  "features": [
    {
      "geometry": {
        "coordinates": [
          135.771596,
          35.028998
        ],
        "type": "Point"
      },
      "properties": {
        "bangumi_id": 333664,
        "bangumi_title": "相合之物",
        "ep_cut": "OP1",
        "image_url": "https://w.junreimap.com/images/user/2173/bangumi/333664/points/4tdzf5hqn-1749267009254.jpg",
        "location": "",
        "point_id": "4tdzf5hqn",
        "point_name": "賀茂大橋",
        "remark": ""
      },
      "type": "Feature"
    },
    {
      "geometry": {
        "coordinates": [
          135.817883,
          34.899574
        ],
        "type": "Point"
      },
      "properties": {
        "bangumi_id": 333664,
        "bangumi_title": "相合之物",
        "ep_cut": "OP1",
        "image_url": "https://w.junreimap.com/images/user/2173/bangumi/333664/points/4tdzf5hb0-1749267488875.jpg",
        "location": "",
        "point_id": "4tdzf5hb0",
        "point_name": "三室戸寺",
        "remark": ""
      },
      "type": "Feature"
    },
    {
      "geometry": {
        "coordinates": [
          135.759321,
          34.987569
        ],
        "type": "Point"
      },
      "properties": {
        "bangumi_id": 333664,
        "bangumi_title": "相合之物",
        "ep_cut": 1,
        "image_url": "https://w.junreimap.com/images/user/2173/bangumi/333664/points/4tdzf5ibo-1749267412210.jpg",
        "location": "",
        "point_id": "4tdzf5ibo",
        "point_name": "京都タワー",
        "remark": ""
      },
      "type": "Feature"
    },
    {
      "geometry": {
        "coordinates": [
          135.758983,
          34.986049
        ],
        "type": "Point"
      },
      "properties": {
        "bangumi_id": 333664,
        "bangumi_title": "相合之物",
        "ep_cut": 1,
        "image_url": "https://w.junreimap.com/images/user/2173/bangumi/333664/points/4tdzf5igz-1749267378082.jpg",
        "location": "",
        "point_id": "4tdzf5igz",
        "point_name": "京都駅",
        "remark": ""
      },
      "type": "Feature"
    },
    {
      "geometry": {
        "coordinates": [
          135.773057,
          35.028953
        ],
        "type": "Point"
      },
      "properties": {
        "bangumi_id": 333664,
        "bangumi_title": "相合之物",
        "ep_cut": 1,
        "image_url": "https://w.junreimap.com/images/user/2173/bangumi/333664/points/4tdzf5iqa-1749266769911.jpg",
        "location": "",
        "point_id": "4tdzf5iqa",
        "point_name": "出町柳駅前バス停",
        "remark": ""
      },
      "type": "Feature"
    },
    {
      "geometry": {
        "coordinates": [
          135.771761,
          35.029876
        ],
        "type": "Point"
      },
      "properties": {
        "bangumi_id": 333664,
        "bangumi_title": "相合之物",
        "ep_cut": 1,
        "image_url": "https://w.junreimap.com/images/user/2173/bangumi/333664/points/4tdzf5ie7-1749267863214.jpg",
        "location": "",
        "point_id": "4tdzf5ie7",
        "point_name": "鴨川デルタ",
        "remark": ""
      },
      "type": "Feature"
    },
    {
      "geometry": {
        "coordinates": [
          135.777927,
          35.03002
        ],
        "type": "Point"
      },
      "properties": {
        "bangumi_id": 333664,
        "bangumi_title": "相合之物",
        "ep_cut": 1,
        "image_url": "https://w.junreimap.com/images/user/2173/bangumi/333664/points/4tdzf5jj1-1749266663832.jpg",
        "location": "",
        "point_id": "4tdzf5jj1",
        "point_name": "阿闍梨餅本舗満月本店横道",
        "remark": ""
      },
      "type": "Feature"
    },
    {
      "geometry": {
        "coordinates": [
          135.770679,
          34.991895
        ],
        "type": "Point"
      },
      "properties": {
        "bangumi_id": 333664,
        "bangumi_title": "相合之物",
        "ep_cut": 1,
        "image_url": "https://w.junreimap.com/images/user/2173/bangumi/333664/points/4tdzf5jai-1749267353656.jpg",
        "location": "",
        "point_id": "4tdzf5jai",
        "point_name": "甘春堂東店",
        "remark": ""
      },
      "type": "Feature"
    },
    {
      "geometry": {
        "coordinates": [
          135.759542,
          35.029174
        ],
        "type": "Point"
      },
      "properties": {
        "bangumi_id": 333664,
        "bangumi_title": "相合之物",
        "ep_cut": 1,
        "image_url": "https://w.junreimap.com/images/user/2173/bangumi/333664/points/4tdzf5j50-1749267560257.jpg",
        "location": "",
        "point_id": "4tdzf5j50",
        "point_name": "烏丸今出川交差点",
        "remark": ""
      },
      "type": "Feature"
    },
    {
      "geometry": {
        "coordinates": [
          135.759534,
          35.029288
        ],
        "type": "Point"
      },
      "properties": {
        "bangumi_id": 333664,
        "bangumi_title": "相合之物",
        "ep_cut": 1,
        "image_url": "https://w.junreimap.com/images/user/2173/bangumi/333664/points/4tdzf5j38-1749267547861.jpg",
        "location": "",
        "point_id": "4tdzf5j38",
        "point_name": "地下鉄今出川駅前",
        "remark": ""
      },
      "type": "Feature"
    },
    {
      "geometry": {
        "coordinates": [
          135.759472,
          35.027496
        ],
        "type": "Point"
      },
      "properties": {
        "bangumi_id": 333664,
        "bangumi_title": "相合之物",
        "ep_cut": 1,
        "image_url": "https://w.junreimap.com/images/user/2173/bangumi/333664/points/4tdzf5k8d-1749267534363.jpg",
        "location": "",
        "point_id": "4tdzf5k8d",
        "point_name": "京都御苑乾御門",
        "remark": ""
      },
      "type": "Feature"
    },
    {
      "geometry": {
        "coordinates": [
          135.761749,
          35.027574
        ],
        "type": "Point"
      },
      "properties": {
        "bangumi_id": 333664,
        "bangumi_title": "相合之物",
        "ep_cut": 1,
        "image_url": "https://w.junreimap.com/images/user/2173/bangumi/333664/points/4tdzf5jrg-1749267519164.jpg",
        "location": "",
        "point_id": "4tdzf5jrg",
        "point_name": "京都御苑",
        "remark": ""
      },
      "type": "Feature"
    },
    {
      "geometry": {
        "coordinates": [
          135.772604,
          35.029018
        ],
        "type": "Point"
      },
      "properties": {
        "bangumi_id": 333664,
        "bangumi_title": "相合之物",
        "ep_cut": 2,
        "image_url": "https://w.junreimap.com/images/user/2173/bangumi/333664/points/4tdzf5krf-1749267926897.jpg",
        "location": "",
        "point_id": "4tdzf5krf",
        "point_name": "川端今出川交差点",
        "remark": "美弦和一果上学路过的地方，在这里吃了阿和给的和三盆点心"
      },
      "type": "Feature"
    },
    {
      "geometry": {
        "coordinates": [
          135.772445,
          35.029718
        ],
        "type": "Point"
      },
      "properties": {
        "bangumi_id": 333664,
        "bangumi_title": "相合之物",
        "ep_cut": 3,
        "image_url": "https://w.junreimap.com/images/user/2173/bangumi/333664/points/4tdzf5klo-1749266831122.jpg",
        "location": "",
        "point_id": "4tdzf5klo",
        "point_name": "出町柳駅バス停（長徳寺前）",
        "remark": ""
      },
      "type": "Feature"
    },
    {
      "geometry": {
        "coordinates": [
          135.772618,
          35.029645
        ],
        "type": "Point"
      },
      "properties": {
        "bangumi_id": 333664,
        "bangumi_title": "相合之物",
        "ep_cut": 3,
        "image_url": "https://w.junreimap.com/images/user/2173/bangumi/333664/points/4tdzf5ki7-1749267881717.jpg",
        "location": "",
        "point_id": "4tdzf5ki7",
        "point_name": "長徳寺前",
        "remark": ""
      },
      "type": "Feature"
    },
    {
      "geometry": {
        "coordinates": [
          135.828742,
          35.119687
        ],
        "type": "Point"
      },
      "properties": {
        "bangumi_id": 333664,
        "bangumi_title": "相合之物",
        "ep_cut": 3,
        "image_url": "https://w.junreimap.com/images/user/2173/bangumi/333664/points/4tdzf5li9-1749268296003.jpg",
        "location": "",
        "point_id": "4tdzf5li9",
        "point_name": "京都バス大原操車場",
        "remark": ""
      },
      "type": "Feature"
    },
    {
      "geometry": {
        "coordinates": [
          135.829583,
          35.119715
        ],
        "type": "Point"
      },
      "properties": {
        "bangumi_id": 333664,
        "bangumi_title": "相合之物",
        "ep_cut": 3,
        "image_url": "https://w.junreimap.com/images/user/2173/bangumi/333664/points/4tdzf5l7n-1749268307464.jpg",
        "location": "",
        "point_id": "4tdzf5l7n",
        "point_name": "三千院参道駐車場",
        "remark": ""
      },
      "type": "Feature"
    },
    {
      "geometry": {
        "coordinates": [
          135.830815,
          35.120234
        ],
        "type": "Point"
      },
      "properties": {
        "bangumi_id": 333664,
        "bangumi_title": "相合之物",
        "ep_cut": 3,
        "image_url": "https://w.junreimap.com/images/user/2173/bangumi/333664/points/4tdzf5lpf-1749268328552.jpg",
        "location": "",
        "point_id": "4tdzf5lpf",
        "point_name": "おのみやす付近",
        "remark": ""
      },
      "type": "Feature"
    },
    {
      "geometry": {
        "coordinates": [
          135.831432,
          35.119959
        ],
        "type": "Point"
      },
      "properties": {
        "bangumi_id": 333664,
        "bangumi_title": "相合之物",
        "ep_cut": 3,
        "image_url": "https://w.junreimap.com/images/user/2173/bangumi/333664/points/4tdzf5m70-1749268345172.jpg",
        "location": "",
        "point_id": "4tdzf5m70",
        "point_name": "玉水茶屋付近",
        "remark": ""
      },
      "type": "Feature"
    },
    {
      "geometry": {
        "coordinates": [
          135.83232,
          35.119543
        ],
        "type": "Point"
      },
      "properties": {
        "bangumi_id": 333664,
        "bangumi_title": "相合之物",
        "ep_cut": 3,
        "image_url": "https://w.junreimap.com/images/user/2173/bangumi/333664/points/4tdzf5mju-1749268354143.jpg",
        "location": "",
        "point_id": "4tdzf5mju",
        "point_name": "しば久付近",
        "remark": ""
      },
      "type": "Feature"
    },
    {
      "geometry": {
        "coordinates": [
          135.833594,
          35.11914
        ],
        "type": "Point"
      },
      "properties": {
        "bangumi_id": 333664,
        "bangumi_title": "相合之物",
        "ep_cut": 3,
        "image_url": "https://w.junreimap.com/images/user/2173/bangumi/333664/points/4tdzf5map-1749268363102.jpg",
        "location": "",
        "point_id": "4tdzf5map",
        "point_name": "料理旅館芹生付近",
        "remark": ""
      },
      "type": "Feature"
    },
    {
      "geometry": {
        "coordinates": [
          135.833823,
          35.11911
        ],
        "type": "Point"
      },
      "properties": {
        "bangumi_id": 333664,
        "bangumi_title": "相合之物",
        "ep_cut": 3,
        "image_url": "https://w.junreimap.com/images/user/2173/bangumi/333664/points/4tdzf5m6s-1749268371835.jpg",
        "location": "",
        "point_id": "4tdzf5m6s",
        "point_name": "三千院門跡石碑前",
        "remark": ""
      },
      "type": "Feature"
    },
    {
      "geometry": {
        "coordinates": [
          135.833958,
          35.119538
        ],
        "type": "Point"
      },
      "properties": {
        "bangumi_id": 333664,
        "bangumi_title": "相合之物",
        "ep_cut": 3,
        "image_url": "https://w.junreimap.com/images/user/2173/bangumi/333664/points/4tdzf5lze-1749268383186.jpg",
        "location": "",
        "point_id": "4tdzf5lze",
        "point_name": "そば処芹生茶屋",
        "remark": ""
      },
      "type": "Feature"
    },
    {
      "geometry": {
        "coordinates": [
          135.82578,
          35.112842
        ],
        "type": "Point"
      },
      "properties": {
        "bangumi_id": 333664,
        "bangumi_title": "相合之物",
        "ep_cut": 3,
        "image_url": "https://w.junreimap.com/images/user/2173/bangumi/333664/points/4tdzf5mxj-1749268283879.jpg",
        "location": "",
        "point_id": "4tdzf5mxj",
        "point_name": "ファミリーマート大原三千院店前",
        "remark": ""
      },
      "type": "Feature"
    },
    {
      "geometry": {
        "coordinates": [
          135.829991,
          35.120092
        ],
        "type": "Point"
      },
      "properties": {
        "bangumi_id": 333664,
        "bangumi_title": "相合之物",
        "ep_cut": 3,
        "image_url": "https://w.junreimap.com/images/user/2173/bangumi/333664/points/4tdzf5nce-1749268317859.jpg",
        "location": "",
        "point_id": "4tdzf5nce",
        "point_name": "和紙の店もとしろ前",
        "remark": ""
      },
      "type": "Feature"
    },
    {
      "geometry": {
        "coordinates": [
          135.774394,
          35.024022
        ],
        "type": "Point"
      },
      "properties": {
        "bangumi_id": 333664,
        "bangumi_title": "相合之物",
        "ep_cut": 3,
        "image_url": "https://w.junreimap.com/images/user/2173/bangumi/333664/points/4tdzf5n2l-1749267621415.jpg",
        "location": "",
        "point_id": "4tdzf5n2l",
        "point_name": "三井のリパーク 京都吉田中阿達町駐車場",
        "remark": ""
      },
      "type": "Feature"
    },
    {
      "geometry": {
        "coordinates": [
          135.770358,
          35.008912
        ],
        "type": "Point"
      },
      "properties": {
        "bangumi_id": 333664,
        "bangumi_title": "相合之物",
        "ep_cut": 4,
        "image_url": "https://w.junreimap.com/images/user/2173/bangumi/333664/points/4tdzf5ne7-1749267301228.jpg",
        "location": "",
        "point_id": "4tdzf5ne7",
        "point_name": "三条小橋",
        "remark": ""
      },
      "type": "Feature"
    },
    {
      "geometry": {
        "coordinates": [
          135.770494,
          35.008608
        ],
        "type": "Point"
      },
      "properties": {
        "bangumi_id": 333664,
        "bangumi_title": "相合之物",
        "ep_cut": 4,
        "image_url": "https://w.junreimap.com/images/user/2173/bangumi/333664/points/4tdzf5n6p-1749267288179.jpg",
        "location": "",
        "point_id": "4tdzf5n6p",
        "point_name": "木屋町長浜ラーメン前",
        "remark": ""
      },
      "type": "Feature"
    },
    {
      "geometry": {
        "coordinates": [
          135.7704,
          35.00805
        ],
        "type": "Point"
      },
      "properties": {
        "bangumi_id": 333664,
        "bangumi_title": "相合之物",
        "ep_cut": 4,
        "image_url": "https://w.junreimap.com/images/user/2173/bangumi/333664/points/4tdzf5n60-1749267275257.jpg",
        "location": "",
        "point_id": "4tdzf5n60",
        "point_name": "高瀬川（材木橋）",
        "remark": ""
      },
      "type": "Feature"
    },
    {
      "geometry": {
        "coordinates": [
          135.778073,
          35.038071
        ],
        "type": "Point"
      },
      "properties": {
        "bangumi_id": 333664,
        "bangumi_title": "相合之物",
        "ep_cut": 5,
        "image_url": "https://w.junreimap.com/images/user/2173/bangumi/333664/points/4tdzf5o6l-1749267168464.jpg",
        "location": "",
        "point_id": "4tdzf5o6l",
        "point_name": "左京区図書館",
        "remark": ""
      },
      "type": "Feature"
    },
    {
      "geometry": {
        "coordinates": [
          135.77459,
          35.034315
        ],
        "type": "Point"
      },
      "properties": {
        "bangumi_id": 333664,
        "bangumi_title": "相合之物",
        "ep_cut": 5,
        "image_url": "https://w.junreimap.com/images/user/2173/bangumi/333664/points/4tdzf5niv-1749268411875.jpg",
        "location": "",
        "point_id": "4tdzf5niv",
        "point_name": "御蔭橋",
        "remark": ""
      },
      "type": "Feature"
    },
    {
      "geometry": {
        "coordinates": [
          135.782152,
          35.034635
        ],
        "type": "Point"
      },
      "properties": {
        "bangumi_id": 333664,
        "bangumi_title": "相合之物",
        "ep_cut": 5,
        "image_url": "https://w.junreimap.com/images/user/2173/bangumi/333664/points/4tdzf5o67-1749267148420.jpg",
        "location": "",
        "point_id": "4tdzf5o67",
        "point_name": "田中神社",
        "remark": ""
      },
      "type": "Feature"
    },
    {
      "geometry": {
        "coordinates": [
          135.783743,
          35.024996
        ],
        "type": "Point"
      },
      "properties": {
        "bangumi_id": 333664,
        "bangumi_title": "相合之物",
        "ep_cut": 5,
        "image_url": "https://w.junreimap.com/images/user/2173/bangumi/333664/points/4tdzf5nux-1749267670681.jpg",
        "location": "",
        "point_id": "4tdzf5nux",
        "point_name": "吉田神社",
        "remark": ""
      },
      "type": "Feature"
    },
    {
      "geometry": {
        "coordinates": [
          135.784917,
          35.02462
        ],
        "type": "Point"
      },
      "properties": {
        "bangumi_id": 333664,
        "bangumi_title": "相合之物",
        "ep_cut": 5,
        "image_url": "https://w.junreimap.com/images/user/2173/bangumi/333664/points/4tdzf5npv-1749267680166.jpg",
        "location": "",
        "point_id": "4tdzf5npv",
        "point_name": "菓祖神社",
        "remark": ""
      },
      "type": "Feature"
    },
    {
      "geometry": {
        "coordinates": [
          135.778597,
          35.02524
        ],
        "type": "Point"
      },
      "properties": {
        "bangumi_id": 333664,
        "bangumi_title": "相合之物",
        "ep_cut": 5,
        "image_url": "https://w.junreimap.com/images/user/2173/bangumi/333664/points/4tdzf5no5-1749267650911.jpg",
        "location": "",
        "point_id": "4tdzf5no5",
        "point_name": "京大正門前",
        "remark": ""
      },
      "type": "Feature"
    },
    {
      "geometry": {
        "coordinates": [
          135.79149,
          35.027891
        ],
        "type": "Point"
      },
      "properties": {
        "bangumi_id": 333664,
        "bangumi_title": "相合之物",
        "ep_cut": 5,
        "image_url": "https://w.junreimap.com/images/user/2173/bangumi/333664/points/4tdzf5nud-1749267249818.jpg",
        "location": "",
        "point_id": "4tdzf5nud",
        "point_name": "白川今出川交差点",
        "remark": ""
      },
      "type": "Feature"
    },
    {
      "geometry": {
        "coordinates": [
          135.791501,
          35.027961
        ],
        "type": "Point"
      },
      "properties": {
        "bangumi_id": 333664,
        "bangumi_title": "相合之物",
        "ep_cut": 5,
        "image_url": "https://w.junreimap.com/images/user/2173/bangumi/333664/points/4tdzf5oc1-1749267238593.jpg",
        "location": "",
        "point_id": "4tdzf5oc1",
        "point_name": "哲学の道",
        "remark": "在点位从沿着白川疏水通向东南方向拍摄"
      },
      "type": "Feature"
    },
    {
      "geometry": {
        "coordinates": [
          135.79642,
          35.02717
        ],
        "type": "Point"
      },
      "properties": {
        "bangumi_id": 333664,
        "bangumi_title": "相合之物",
        "ep_cut": 5,
        "image_url": "https://w.junreimap.com/images/user/2173/bangumi/333664/points/4tdzf5ot2-1749267224485.jpg",
        "location": "",
        "point_id": "4tdzf5ot2",
        "point_name": "銀閣寺参道",
        "remark": ""
      },
      "type": "Feature"
    },
    {
      "geometry": {
        "coordinates": [
          135.745853,
          35.016621
        ],
        "type": "Point"
      },
      "properties": {
        "bangumi_id": 333664,
        "bangumi_title": "相合之物",
        "ep_cut": 8,
        "image_url": "https://w.junreimap.com/images/user/2173/bangumi/333664/points/f87ee7-1747931403256.jpg",
        "location": "",
        "point_id": "f87ee7",
        "point_name": "二条公園",
        "remark": ""
      },
      "type": "Feature"
    },
    {
      "geometry": {
        "coordinates": [
          135.767981,
          35.00376
        ],
        "type": "Point"
      },
      "properties": {
        "bangumi_id": 333664,
        "bangumi_title": "相合之物",
        "ep_cut": 3,
        "image_url": "https://w.junreimap.com/images/user/2173/bangumi/333664/points/f8msud-1747931978183.jpg",
        "location": "",
        "point_id": "f8msud",
        "point_name": "四条通",
        "remark": "每年7月16晚的祇园祭-宵山前夜祭的花车游行"
      },
      "type": "Feature"
    },
    {
      "geometry": {
        "coordinates": [
          135.735006,
          35.031128
        ],
        "type": "Point"
      },
      "properties": {
        "bangumi_id": 333664,
        "bangumi_title": "相合之物",
        "ep_cut": 10,
        "image_url": "https://w.junreimap.com/images/user/2173/bangumi/333664/points/f8zg3c-1747932454321.jpg",
        "location": "",
        "point_id": "f8zg3c",
        "point_name": "北野天満宮",
        "remark": ""
      },
      "type": "Feature"
    },
    {
      "geometry": {
        "coordinates": [
          135.773109,
          35.028675
        ],
        "type": "Point"
      },
      "properties": {
        "bangumi_id": 333664,
        "bangumi_title": "相合之物",
        "ep_cut": 3,
        "image_url": "https://w.junreimap.com/images/user/2173/bangumi/333664/points/f9ix0y-1747933350738.jpg",
        "location": "",
        "point_id": "f9ix0y",
        "point_name": "鴨町らーめん",
        "remark": ""
      },
      "type": "Feature"
    },
    {
      "geometry": {
        "coordinates": [
          135.747562,
          34.987268
        ],
        "type": "Point"
      },
      "properties": {
        "bangumi_id": 333664,
        "bangumi_title": "相合之物",
        "ep_cut": 9,
        "image_url": "https://w.junreimap.com/images/user/2173/bangumi/333664/points/f9prcy-1747933722948.jpg",
        "location": "",
        "point_id": "f9prcy",
        "point_name": "京都水族館",
        "remark": ""
      },
      "type": "Feature"
    },
    {
      "geometry": {
        "coordinates": [
          135.639501,
          34.80848
        ],
        "type": "Point"
      },
      "properties": {
        "bangumi_id": 333664,
        "bangumi_title": "相合之物",
        "ep_cut": 12,
        "image_url": "https://w.junreimap.com/images/user/2173/bangumi/333664/points/fa1e3p-1747934246878.jpg",
        "location": "",
        "point_id": "fa1e3p",
        "point_name": "ひらかたパーク",
        "remark": ""
      },
      "type": "Feature"
    },
    {
      "geometry": {
        "coordinates": [
          135.639143,
          34.807007
        ],
        "type": "Point"
      },
      "properties": {
        "bangumi_id": 333664,
        "bangumi_title": "相合之物",
        "ep_cut": 12,
        "image_url": "https://w.junreimap.com/images/user/2173/bangumi/333664/points/fa52w1-1747934457184.jpg",
        "location": "",
        "point_id": "fa52w1",
        "point_name": "トロールパニック パチャンガ",
        "remark": ""
      },
      "type": "Feature"
    },
    {
      "geometry": {
        "coordinates": [
          135.640082,
          34.806209
        ],
        "type": "Point"
      },
      "properties": {
        "bangumi_id": 333664,
        "bangumi_title": "相合之物",
        "ep_cut": 12,
        "image_url": "https://w.junreimap.com/images/user/2173/bangumi/333664/points/fadhss-1747934791041.jpg",
        "location": "",
        "point_id": "fadhss",
        "point_name": "スカイウォーカー",
        "remark": ""
      },
      "type": "Feature"
    },
    {
      "geometry": {
        "coordinates": [
          135.640863,
          34.808087
        ],
        "type": "Point"
      },
      "properties": {
        "bangumi_id": 333664,
        "bangumi_title": "相合之物",
        "ep_cut": 12,
        "image_url": "https://w.junreimap.com/images/user/2173/bangumi/333664/points/fajco5-1747935075950.jpg",
        "location": "",
        "point_id": "fajco5",
        "point_name": "京阪パーキング ひらかたパーク第2駐車場",
        "remark": ""
      },
      "type": "Feature"
    },
    {
      "geometry": {
        "coordinates": [
          135.639369,
          34.807667
        ],
        "type": "Point"
      },
      "properties": {
        "bangumi_id": 333664,
        "bangumi_title": "相合之物",
        "ep_cut": 12,
        "image_url": "https://w.junreimap.com/images/user/2173/bangumi/333664/points/faovw0-1747935328304.jpg",
        "location": "",
        "point_id": "faovw0",
        "point_name": "ひらかたパーク 探索型アトラクション マジカルボルケーノ",
        "remark": ""
      },
      "type": "Feature"
    },
    {
      "geometry": {
        "coordinates": [
          135.771153,
          35.025836
        ],
        "type": "Point"
      },
      "properties": {
        "bangumi_id": 333664,
        "bangumi_title": "相合之物",
        "ep_cut": 10,
        "image_url": "https://w.junreimap.com/images/user/2173/bangumi/333664/points/fczmr4-1747939184266.jpg",
        "location": "",
        "point_id": "fczmr4",
        "point_name": "鴨川河川敷グラウンド",
        "remark": ""
      },
      "type": "Feature"
    },
    {
      "geometry": {
        "coordinates": [
          135.769163,
          35.02739
        ],
        "type": "Point"
      },
      "properties": {
        "bangumi_id": 333664,
        "bangumi_title": "相合之物",
        "ep_cut": 11,
        "image_url": "https://w.junreimap.com/images/user/2173/bangumi/333664/points/fd1z9l-1747939387899.jpg",
        "location": "",
        "point_id": "fd1z9l",
        "point_name": "(株)​出町​輸入​食品",
        "remark": ""
      },
      "type": "Feature"
    },
    {
      "geometry": {
        "coordinates": [
          135.769361,
          35.027932
        ],
        "type": "Point"
      },
      "properties": {
        "bangumi_id": 333664,
        "bangumi_title": "相合之物",
        "ep_cut": 11,
        "image_url": "https://w.junreimap.com/images/user/2173/bangumi/333664/points/fd6l17-1747939525007.jpg",
        "location": "",
        "point_id": "fd6l17",
        "point_name": "河原町今出川バス停",
        "remark": ""
      },
      "type": "Feature"
    },
    {
      "geometry": {
        "coordinates": [
          135.769593,
          35.029083
        ],
        "type": "Point"
      },
      "properties": {
        "bangumi_id": 333664,
        "bangumi_title": "相合之物",
        "ep_cut": 11,
        "image_url": "https://w.junreimap.com/images/user/2173/bangumi/333664/points/fd8o8b-1747939607656.jpg",
        "location": "",
        "point_id": "fd8o8b",
        "point_name": "河原町今出川",
        "remark": ""
      },
      "type": "Feature"
    },
    {
      "geometry": {
        "coordinates": [
          135.777998,
          35.03015
        ],
        "type": "Point"
      },
      "properties": {
        "bangumi_id": 333664,
        "bangumi_title": "相合之物",
        "ep_cut": 1,
        "image_url": "https://w.junreimap.com/images/user/2173/bangumi/333664/points/mgvybd-1748369011599.jpg",
        "location": "",
        "point_id": "mgvybd",
        "point_name": "阿闍梨餅本舖滿月 本店",
        "remark": "本地点与本站另一个点位甘春堂東店的店面都未能完全还原番剧中的样子，疑似作者进行了缝合，但根据剧中人物活动范围，此处更接近于设定中的地点\n"
      },
      "type": "Feature"
    },
    {
      "geometry": {
        "coordinates": [
          135.760994,
          34.987666
        ],
        "type": "Point"
      },
      "properties": {
        "bangumi_id": 333664,
        "bangumi_title": "相合之物",
        "ep_cut": 1,
        "image_url": "https://w.junreimap.com/images/user/2173/bangumi/333664/points/11emedv-1749272175873.jpg",
        "location": "",
        "point_id": "11emedv",
        "point_name": "ホテル佐野家",
        "remark": ""
      },
      "type": "Feature"
    },
    {
      "geometry": {
        "coordinates": [
          135.759217,
          34.987789
        ],
        "type": "Point"
      },
      "properties": {
        "bangumi_id": 333664,
        "bangumi_title": "相合之物",
        "ep_cut": 9,
        "image_url": "https://w.junreimap.com/images/user/2173/bangumi/333664/points/11fdu48-1749273472681.jpg",
        "location": "",
        "point_id": "11fdu48",
        "point_name": "さいか亭",
        "remark": "一果和妈妈吃饭的餐厅，外观与动画差距较大"
      },
      "type": "Feature"
    },
    {
      "geometry": {
        "coordinates": [
          135.75922,
          34.987822
        ],
        "type": "Point"
      },
      "properties": {
        "bangumi_id": 333664,
        "bangumi_title": "相合之物",
        "ep_cut": 9,
        "image_url": "https://w.junreimap.com/images/user/2173/bangumi/333664/points/11fgbpn-1749273575542.jpg",
        "location": "",
        "point_id": "11fgbpn",
        "point_name": "Yebisu Bar 京都ヨドバシ店",
        "remark": "对面商铺原型是酒吧"
      },
      "type": "Feature"
    },
    {
      "geometry": {
        "coordinates": [
          135.75884,
          34.98781
        ],
        "type": "Point"
      },
      "properties": {
        "bangumi_id": 333664,
        "bangumi_title": "相合之物",
        "ep_cut": 9,
        "image_url": "https://w.junreimap.com/images/user/2173/bangumi/333664/points/11fm7eo-1749273858877.jpg",
        "location": "",
        "point_id": "11fm7eo",
        "point_name": "BAR MAGIC HOUR",
        "remark": ""
      },
      "type": "Feature"
    },
    {
      "geometry": {
        "coordinates": [
          135.758579,
          34.987811
        ],
        "type": "Point"
      },
      "properties": {
        "bangumi_id": 333664,
        "bangumi_title": "相合之物",
        "ep_cut": 9,
        "image_url": "https://w.junreimap.com/images/user/2173/bangumi/333664/points/11fsfkj-1749274138185.jpg",
        "location": "",
        "point_id": "11fsfkj",
        "point_name": "木津屋橋ビル",
        "remark": "右侧自行车禁止标识可作为定位"
      },
      "type": "Feature"
    },
    {
      "geometry": {
        "coordinates": [
          135.729291,
          34.993877
        ],
        "type": "Point"
      },
      "properties": {
        "bangumi_id": 333664,
        "bangumi_title": "相合之物",
        "ep_cut": 9,
        "image_url": "https://w.junreimap.com/images/user/2173/bangumi/333664/points/11g38tj-1749274639182.jpg",
        "location": "",
        "point_id": "11g38tj",
        "point_name": "名倉公園",
        "remark": "京都站走过来3.5公里，50分钟，你们仨真能走啊（笑）"
      },
      "type": "Feature"
    },
    {
      "geometry": {
        "coordinates": [
          135.729323,
          34.993572
        ],
        "type": "Point"
      },
      "properties": {
        "bangumi_id": 333664,
        "bangumi_title": "相合之物",
        "ep_cut": 9,
        "image_url": "https://w.junreimap.com/images/user/2173/bangumi/333664/points/11g1iuk-1749274563107.jpg",
        "location": "",
        "point_id": "11g1iuk",
        "point_name": "名倉公園",
        "remark": ""
      },
      "type": "Feature"
    },
    {
      "geometry": {
        "coordinates": [
          135.78436,
          35.036571
        ],
        "type": "Point"
      },
      "properties": {
        "bangumi_id": 333664,
        "bangumi_title": "相合之物",
        "ep_cut": 10,
        "image_url": "https://w.junreimap.com/images/user/2173/bangumi/333664/points/11gcbh8-1749275062878.jpg",
        "location": "",
        "point_id": "11gcbh8",
        "point_name": "高原児童公園",
        "remark": "实地椅子与围栏、树的距离较远，样式也不一样"
      },
      "type": "Feature"
    },
    {
      "geometry": {
        "coordinates": [
          135.784432,
          35.036728
        ],
        "type": "Point"
      },
      "properties": {
        "bangumi_id": 333664,
        "bangumi_title": "相合之物",
        "ep_cut": 10,
        "image_url": "https://w.junreimap.com/images/user/2173/bangumi/333664/points/11gii4x-1749275367998.jpg",
        "location": "",
        "point_id": "11gii4x",
        "point_name": "高原児童公園入口",
        "remark": ""
      },
      "type": "Feature"
    },
    {
      "geometry": {
        "coordinates": [
          135.74721,
          34.987719
        ],
        "type": "Point"
      },
      "properties": {
        "bangumi_id": 333664,
        "bangumi_title": "相合之物",
        "ep_cut": 9,
        "image_url": "https://w.junreimap.com/images/user/2173/bangumi/333664/points/1thbmtz-1750969777909.jpg",
        "location": "",
        "point_id": "1thbmtz",
        "point_name": "京都水族馆",
        "remark": ""
      },
      "type": "Feature"
    },
    {
      "geometry": {
        "coordinates": [
          135.747886,
          34.987654
        ],
        "type": "Point"
      },
      "properties": {
        "bangumi_id": 333664,
        "bangumi_title": "相合之物",
        "ep_cut": 9,
        "image_url": "https://w.junreimap.com/images/user/2173/bangumi/333664/points/1thcx6b-1750969821628.jpg",
        "location": "",
        "point_id": "1thcx6b",
        "point_name": "京都水族馆",
        "remark": ""
      },
      "type": "Feature"
    },
    {
      "geometry": {
        "coordinates": [
          135.746994,
          34.98747
        ],
        "type": "Point"
      },
      "properties": {
        "bangumi_id": 333664,
        "bangumi_title": "相合之物",
        "ep_cut": 9,
        "image_url": "https://w.junreimap.com/images/user/2173/bangumi/333664/points/1therfr-1750969906826.jpg",
        "location": "",
        "point_id": "1therfr",
        "point_name": "京都水族馆",
        "remark": ""
      },
      "type": "Feature"
    },
    {
      "geometry": {
        "coordinates": [
          135.747771,
          34.987709
        ],
        "type": "Point"
      },
      "properties": {
        "bangumi_id": 333664,
        "bangumi_title": "相合之物",
        "ep_cut": 9,
        "image_url": "https://w.junreimap.com/images/user/2173/bangumi/333664/points/1thgw0n-1750970008609.jpg",
        "location": "",
        "point_id": "1thgw0n",
        "point_name": "京都水族馆",
        "remark": ""
      },
      "type": "Feature"
    },
    {
      "geometry": {
        "coordinates": [
          135.784597,
          35.024683
        ],
        "type": "Point"
      },
      "properties": {
        "bangumi_id": 333664,
        "bangumi_title": "相合之物",
        "ep_cut": 5,
        "image_url": "https://w.junreimap.com/images/user/2173/bangumi/333664/points/26xg2gx-1751782962703.jpg",
        "location": "",
        "point_id": "26xg2gx",
        "point_name": "菓祖神社",
        "remark": ""
      },
      "type": "Feature"
    },
    {
      "geometry": {
        "coordinates": [
          135.784748,
          35.02456
        ],
        "type": "Point"
      },
      "properties": {
        "bangumi_id": 333664,
        "bangumi_title": "相合之物",
        "ep_cut": 5,
        "image_url": "https://w.junreimap.com/images/user/2173/bangumi/333664/points/26xi1s3-1751783002279.jpg",
        "location": "",
        "point_id": "26xi1s3",
        "point_name": "菓祖神社",
        "remark": ""
      },
      "type": "Feature"
    },
    {
      "geometry": {
        "coordinates": [
          135.785156,
          35.024778
        ],
        "type": "Point"
      },
      "properties": {
        "bangumi_id": 333664,
        "bangumi_title": "相合之物",
        "ep_cut": 5,
        "image_url": "https://w.junreimap.com/images/user/2173/bangumi/333664/points/26xiocn-1751783022184.jpg",
        "location": "",
        "point_id": "26xiocn",
        "point_name": "菓祖神社",
        "remark": ""
      },
      "type": "Feature"
    },
    {
      "geometry": {
        "coordinates": [
          135.784708,
          35.024609
        ],
        "type": "Point"
      },
      "properties": {
        "bangumi_id": 333664,
        "bangumi_title": "相合之物",
        "ep_cut": 5,
        "image_url": "https://w.junreimap.com/images/user/2173/bangumi/333664/points/26xj4sy-1751783054022.jpg",
        "location": "",
        "point_id": "26xj4sy",
        "point_name": "菓祖神社",
        "remark": ""
      },
      "type": "Feature"
    },
    {
      "geometry": {
        "coordinates": [
          135.784771,
          35.024498
        ],
        "type": "Point"
      },
      "properties": {
        "bangumi_id": 333664,
        "bangumi_title": "相合之物",
        "ep_cut": 5,
        "image_url": "https://w.junreimap.com/images/user/2173/bangumi/333664/points/26xjqo2-1751783076384.jpg",
        "location": "",
        "point_id": "26xjqo2",
        "point_name": "菓祖神社",
        "remark": ""
      },
      "type": "Feature"
    },
    {
      "geometry": {
        "coordinates": [
          135.782093,
          35.034324
        ],
        "type": "Point"
      },
      "properties": {
        "bangumi_id": 333664,
        "bangumi_title": "相合之物",
        "ep_cut": 5,
        "image_url": "https://w.junreimap.com/images/user/2173/bangumi/333664/points/26xlosq-1751783199497.jpg",
        "location": "",
        "point_id": "26xlosq",
        "point_name": "田中神社",
        "remark": ""
      },
      "type": "Feature"
    },
    {
      "geometry": {
        "coordinates": [
          135.782184,
          35.034435
        ],
        "type": "Point"
      },
      "properties": {
        "bangumi_id": 333664,
        "bangumi_title": "相合之物",
        "ep_cut": 5,
        "image_url": "https://w.junreimap.com/images/user/2173/bangumi/333664/points/26xmy0e-1751783234153.jpg",
        "location": "",
        "point_id": "26xmy0e",
        "point_name": "田中神社",
        "remark": ""
      },
      "type": "Feature"
    },
    {
      "geometry": {
        "coordinates": [
          135.782111,
          35.034605
        ],
        "type": "Point"
      },
      "properties": {
        "bangumi_id": 333664,
        "bangumi_title": "相合之物",
        "ep_cut": 5,
        "image_url": "https://w.junreimap.com/images/user/2173/bangumi/333664/points/26xo5dv-1751783277893.jpg",
        "location": "",
        "point_id": "26xo5dv",
        "point_name": "田中神社",
        "remark": ""
      },
      "type": "Feature"
    },
    {
      "geometry": {
        "coordinates": [
          135.78215,
          35.03428
        ],
        "type": "Point"
      },
      "properties": {
        "bangumi_id": 333664,
        "bangumi_title": "相合之物",
        "ep_cut": 5,
        "image_url": "https://w.junreimap.com/images/user/2173/bangumi/333664/points/26xpeji-1751783380178.jpg",
        "location": "",
        "point_id": "26xpeji",
        "point_name": "田中神社",
        "remark": ""
      },
      "type": "Feature"
    },
    {
      "geometry": {
        "coordinates": [
          135.784541,
          35.025272
        ],
        "type": "Point"
      },
      "properties": {
        "bangumi_id": 333664,
        "bangumi_title": "相合之物",
        "ep_cut": 5,
        "image_url": "https://w.junreimap.com/images/user/2173/bangumi/333664/points/26xv6ei-1751783620162.jpg",
        "location": "",
        "point_id": "26xv6ei",
        "point_name": "吉田神社",
        "remark": ""
      },
      "type": "Feature"
    },
    {
      "geometry": {
        "coordinates": [
          135.784421,
          35.024962
        ],
        "type": "Point"
      },
      "properties": {
        "bangumi_id": 333664,
        "bangumi_title": "相合之物",
        "ep_cut": 5,
        "image_url": "https://w.junreimap.com/images/user/2173/bangumi/333664/points/26xw06e-1751783655852.jpg",
        "location": "",
        "point_id": "26xw06e",
        "point_name": "吉田神社",
        "remark": ""
      },
      "type": "Feature"
    },
    {
      "geometry": {
        "coordinates": [
          135.784469,
          35.025091
        ],
        "type": "Point"
      },
      "properties": {
        "bangumi_id": 333664,
        "bangumi_title": "相合之物",
        "ep_cut": 5,
        "image_url": "https://w.junreimap.com/images/user/2173/bangumi/333664/points/26xxiij-1751783729625.jpg",
        "location": "",
        "point_id": "26xxiij",
        "point_name": "吉田神社",
        "remark": ""
      },
      "type": "Feature"
    },
    {
      "geometry": {
        "coordinates": [
          135.784357,
          35.024915
        ],
        "type": "Point"
      },
      "properties": {
        "bangumi_id": 333664,
        "bangumi_title": "相合之物",
        "ep_cut": 5,
        "image_url": "https://w.junreimap.com/images/user/2173/bangumi/333664/points/26xya2e-1751783749346.jpg",
        "location": "",
        "point_id": "26xya2e",
        "point_name": "吉田神社",
        "remark": ""
      },
      "type": "Feature"
    },
    {
      "geometry": {
        "coordinates": [
          135.777825,
          35.029969
        ],
        "type": "Point"
      },
      "properties": {
        "bangumi_id": 333664,
        "bangumi_title": "相合之物",
        "ep_cut": 1,
        "image_url": "https://w.junreimap.com/images/user/2173/bangumi/333664/points/26xzc3n-1751783819119.jpg",
        "location": "",
        "point_id": "26xzc3n",
        "point_name": "阿闍梨餅本舗満月本店旁",
        "remark": "石头不在了，只剩下多个盆栽"
      },
      "type": "Feature"
    },
    {
      "geometry": {
        "coordinates": [
          135.758765,
          34.986209
        ],
        "type": "Point"
      },
      "properties": {
        "bangumi_id": 333664,
        "bangumi_title": "相合之物",
        "ep_cut": 11,
        "image_url": "https://w.junreimap.com/images/user/2173/bangumi/333664/points/26ybfin-1751784362213.jpg",
        "location": "",
        "point_id": "26ybfin",
        "point_name": "京都站前",
        "remark": ""
      },
      "type": "Feature"
    },
    {
      "geometry": {
        "coordinates": [
          135.758807,
          34.986052
        ],
        "type": "Point"
      },
      "properties": {
        "bangumi_id": 333664,
        "bangumi_title": "相合之物",
        "ep_cut": 11,
        "image_url": "https://w.junreimap.com/images/user/2173/bangumi/333664/points/26ybzi2-1751784392559.jpg",
        "location": "",
        "point_id": "26ybzi2",
        "point_name": "京都站",
        "remark": ""
      },
      "type": "Feature"
    },
    {
      "geometry": {
        "coordinates": [
          135.758797,
          34.98603
        ],
        "type": "Point"
      },
      "properties": {
        "bangumi_id": 333664,
        "bangumi_title": "相合之物",
        "ep_cut": 11,
        "image_url": "https://w.junreimap.com/images/user/2173/bangumi/333664/points/26ycesn-1751784423419.jpg",
        "location": "",
        "point_id": "26ycesn",
        "point_name": "京都站",
        "remark": ""
      },
      "type": "Feature"
    },
    {
      "geometry": {
        "coordinates": [
          135.75906,
          34.986381
        ],
        "type": "Point"
      },
      "properties": {
        "bangumi_id": 333664,
        "bangumi_title": "相合之物",
        "ep_cut": 3,
        "image_url": "https://w.junreimap.com/images/user/2173/bangumi/333664/points/26yezbz-1751784532309.jpg",
        "location": "",
        "point_id": "26yezbz",
        "point_name": "京都站前",
        "remark": ""
      },
      "type": "Feature"
    },
    {
      "geometry": {
        "coordinates": [
          135.758963,
          34.986335
        ],
        "type": "Point"
      },
      "properties": {
        "bangumi_id": 333664,
        "bangumi_title": "相合之物",
        "ep_cut": 1,
        "image_url": "https://w.junreimap.com/images/user/2173/bangumi/333664/points/26yfn0m-1751784575212.jpg",
        "location": "",
        "point_id": "26yfn0m",
        "point_name": "京都站 站前",
        "remark": ""
      },
      "type": "Feature"
    },
    {
      "geometry": {
        "coordinates": [
          135.758911,
          34.986278
        ],
        "type": "Point"
      },
      "properties": {
        "bangumi_id": 333664,
        "bangumi_title": "相合之物",
        "ep_cut": 3,
        "image_url": "https://w.junreimap.com/images/user/2173/bangumi/333664/points/26ygcf1-1751784596214.jpg",
        "location": "",
        "point_id": "26ygcf1",
        "point_name": "京都站前",
        "remark": ""
      },
      "type": "Feature"
    },
    {
      "geometry": {
        "coordinates": [
          135.759018,
          34.986464
        ],
        "type": "Point"
      },
      "properties": {
        "bangumi_id": 333664,
        "bangumi_title": "相合之物",
        "ep_cut": 1,
        "image_url": "https://w.junreimap.com/images/user/2173/bangumi/333664/points/26yi64v-1751784682750.jpg",
        "location": "",
        "point_id": "26yi64v",
        "point_name": "京都站前",
        "remark": ""
      },
      "type": "Feature"
    }
  ],
  "type": "FeatureCollection"
}