{
  "features": [
    {
      "geometry": {
        "coordinates": [
          133.550358,
          33.756935
        ],
        "type": "Point"
      },
      "properties": {
        "bangumi_id": 333826,
        "bangumi_title": "黑潮",
        "ep_cut": "",
        "image_url": "https://w.junreimap.com/images/points/333826/ovk4rbwvf_1728333836469.jpg",
        "location": "",
        "point_id": "ovk4rbwvf",
        "point_name": "早明浦ダム",
        "remark": "登场地点：第三话开头\n黑潮最经典的场景"
      },
      "type": "Feature"
    },
    {
      "geometry": {
        "coordinates": [
          133.550643,
          33.757457
        ],
        "type": "Point"
      },
      "properties": {
        "bangumi_id": 333826,
        "bangumi_title": "黑潮",
        "ep_cut": "",
        "image_url": "https://w.junreimap.com/images/points/333826/ovsucpclr_1728341955450.jpg",
        "location": "",
        "point_id": "ovsucpclr",
        "point_name": "早明浦ダム",
        "remark": "登场地点：第六话1p"
      },
      "type": "Feature"
    },
    {
      "geometry": {
        "coordinates": [
          133.548194,
          33.756119
        ],
        "type": "Point"
      },
      "properties": {
        "bangumi_id": 333826,
        "bangumi_title": "黑潮",
        "ep_cut": "",
        "image_url": "https://w.junreimap.com/images/points/333826/p7zv9au3t_1729297613908.jpg",
        "location": "",
        "point_id": "p7zv9au3t",
        "point_name": "早明浦​ダム・​高知​分水​管理​所",
        "remark": "登场地点：第六话16p"
      },
      "type": "Feature"
    },
    {
      "geometry": {
        "coordinates": [
          133.530093,
          33.504717
        ],
        "type": "Point"
      },
      "properties": {
        "bangumi_id": 333826,
        "bangumi_title": "黑潮",
        "ep_cut": "",
        "image_url": "https://w.junreimap.com/images/points/333826/ovqp9gbak_1728337290837.jpg",
        "location": "",
        "point_id": "ovqp9gbak",
        "point_name": "高知競馬場",
        "remark": "登场地点：第二卷18p\n户梶先生看赛马的地方"
      },
      "type": "Feature"
    },
    {
      "geometry": {
        "coordinates": [
          133.645098,
          33.578575
        ],
        "type": "Point"
      },
      "properties": {
        "bangumi_id": 333826,
        "bangumi_title": "黑潮",
        "ep_cut": "",
        "image_url": "https://w.junreimap.com/images/points/333826/ovp0t0uty_1728333651388.jpg",
        "location": "",
        "point_id": "ovp0t0uty",
        "point_name": "ナン​コク​スーパー",
        "remark": "登场地点：第一卷27p\n南国市后美站附近的超市，魔神大人似乎常在这里购物"
      },
      "type": "Feature"
    },
    {
      "geometry": {
        "coordinates": [
          133.646408,
          33.576057
        ],
        "type": "Point"
      },
      "properties": {
        "bangumi_id": 333826,
        "bangumi_title": "黑潮",
        "ep_cut": "",
        "image_url": "https://w.junreimap.com/images/points/333826/ovpo76c0i_1728335209863.jpg",
        "location": "",
        "point_id": "ovpo76c0i",
        "point_name": "やなせたかしロード",
        "remark": "登场地点：第一卷72p\n真奈和爷爷闲逛的地方"
      },
      "type": "Feature"
    },
    {
      "geometry": {
        "coordinates": [
          133.646447,
          33.576029
        ],
        "type": "Point"
      },
      "properties": {
        "bangumi_id": 333826,
        "bangumi_title": "黑潮",
        "ep_cut": "",
        "image_url": "https://w.junreimap.com/images/points/333826/ovprdr07f_1728335240681.jpg",
        "location": "",
        "point_id": "ovprdr07f",
        "point_name": "やなせたかしロード  アンパンマン、ばいきんまん像",
        "remark": "登场地点：第一卷73p\n面包超人雕像"
      },
      "type": "Feature"
    },
    {
      "geometry": {
        "coordinates": [
          133.642154,
          33.567145
        ],
        "type": "Point"
      },
      "properties": {
        "bangumi_id": 333826,
        "bangumi_title": "黑潮",
        "ep_cut": "",
        "image_url": "https://w.junreimap.com/images/points/333826/ovpyux1e9_1728335701247.jpg",
        "location": "",
        "point_id": "ovpyux1e9",
        "point_name": "市​立​吾​岡山​文化​の​森​スポーツ​ハウス",
        "remark": "登场地点：第一卷16p\n朱砂把玩魔神大人的魔剑的地方，展望台附近"
      },
      "type": "Feature"
    },
    {
      "geometry": {
        "coordinates": [
          133.642534,
          33.566516
        ],
        "type": "Point"
      },
      "properties": {
        "bangumi_id": 333826,
        "bangumi_title": "黑潮",
        "ep_cut": "",
        "image_url": "https://w.junreimap.com/images/points/333826/ovq8g2tzi_1728336285241.jpg",
        "location": "",
        "point_id": "ovq8g2tzi",
        "point_name": "が出てきそうな道（駐車場～展望台の間）",
        "remark": "登场地点：第一卷1p\n梦开始的地方"
      },
      "type": "Feature"
    },
    {
      "geometry": {
        "coordinates": [
          133.642138,
          33.567093
        ],
        "type": "Point"
      },
      "properties": {
        "bangumi_id": 333826,
        "bangumi_title": "黑潮",
        "ep_cut": "",
        "image_url": "https://w.junreimap.com/images/points/333826/ovq2grf0t_1728335972622.jpg",
        "location": "",
        "point_id": "ovq2grf0t",
        "point_name": "吾岡山展望台",
        "remark": "登场地点：第一卷8p\n女主们眺望猛犸大学并视奸藤美乡少年的地方"
      },
      "type": "Feature"
    },
    {
      "geometry": {
        "coordinates": [
          133.697813,
          33.561289
        ],
        "type": "Point"
      },
      "properties": {
        "bangumi_id": 333826,
        "bangumi_title": "黑潮",
        "ep_cut": "",
        "image_url": "https://w.junreimap.com/images/points/333826/ovqfbx9dy_1728336716492.jpg",
        "location": "",
        "point_id": "ovqfbx9dy",
        "point_name": "ガスト高知野市町店",
        "remark": "登场地点：第二卷21p\n女主们和魔女相遇后一起吃饭的地方"
      },
      "type": "Feature"
    },
    {
      "geometry": {
        "coordinates": [
          133.69774,
          33.561395
        ],
        "type": "Point"
      },
      "properties": {
        "bangumi_id": 333826,
        "bangumi_title": "黑潮",
        "ep_cut": "",
        "image_url": "https://w.junreimap.com/images/points/333826/ovqibopig_1728336869014.jpg",
        "location": "",
        "point_id": "ovqibopig",
        "point_name": "ガスト高知野市町店",
        "remark": ""
      },
      "type": "Feature"
    },
    {
      "geometry": {
        "coordinates": [
          133.542661,
          33.559964
        ],
        "type": "Point"
      },
      "properties": {
        "bangumi_id": 333826,
        "bangumi_title": "黑潮",
        "ep_cut": "",
        "image_url": "https://w.junreimap.com/images/points/333826/ovqkinhi6_1728337028346.jpg",
        "location": "",
        "point_id": "ovqkinhi6",
        "point_name": "はりまや橋",
        "remark": "登场地点：第二卷8p\n女主们讨论出现在高知的怪异时途径。“毕竟这里可是高知县啊”"
      },
      "type": "Feature"
    },
    {
      "geometry": {
        "coordinates": [
          133.542664,
          33.559942
        ],
        "type": "Point"
      },
      "properties": {
        "bangumi_id": 333826,
        "bangumi_title": "黑潮",
        "ep_cut": "",
        "image_url": "https://w.junreimap.com/images/points/333826/ovqn6d9x9_1728337166861.jpg",
        "location": "",
        "point_id": "ovqn6d9x9",
        "point_name": "はりまや橋",
        "remark": ""
      },
      "type": "Feature"
    },
    {
      "geometry": {
        "coordinates": [
          133.543071,
          33.56098
        ],
        "type": "Point"
      },
      "properties": {
        "bangumi_id": 333826,
        "bangumi_title": "黑潮",
        "ep_cut": "",
        "image_url": "https://w.junreimap.com/images/points/333826/pb11wpy02_1729535305591.jpg",
        "location": "",
        "point_id": "pb11wpy02",
        "point_name": "帯屋町壱番街商店街",
        "remark": ""
      },
      "type": "Feature"
    },
    {
      "geometry": {
        "coordinates": [
          133.575322,
          33.497309
        ],
        "type": "Point"
      },
      "properties": {
        "bangumi_id": 333826,
        "bangumi_title": "黑潮",
        "ep_cut": "",
        "image_url": "https://w.junreimap.com/images/points/333826/ovsk2s84o_1728341337317.jpg",
        "location": "",
        "point_id": "ovsk2s84o",
        "point_name": "桂浜と竜王岬",
        "remark": "登场地点：青骑士17B封面\n青骑士的封面真的期期精美，远处鸟居位于龙王岬上的海津見神社"
      },
      "type": "Feature"
    },
    {
      "geometry": {
        "coordinates": [
          133.59869,
          33.561636
        ],
        "type": "Point"
      },
      "properties": {
        "bangumi_id": 333826,
        "bangumi_title": "黑潮",
        "ep_cut": "",
        "image_url": "https://w.junreimap.com/images/points/333826/ovsr28nl0_1728342020291.jpg",
        "location": "",
        "point_id": "ovsr28nl0",
        "point_name": "ヤマダデンキ　Tecc LIFE SELECT 高知本店",
        "remark": "登场地点：第一卷143p\n电脑城，通过公共交通抵达较为辛苦"
      },
      "type": "Feature"
    },
    {
      "geometry": {
        "coordinates": [
          133.620635,
          33.568083
        ],
        "type": "Point"
      },
      "properties": {
        "bangumi_id": 333826,
        "bangumi_title": "黑潮",
        "ep_cut": "",
        "image_url": "https://w.junreimap.com/images/points/333826/ovsx7o8bz_1728342605164.jpg",
        "location": "",
        "point_id": "ovsx7o8bz",
        "point_name": "すた​みな​太郎​南国​バイパス​店",
        "remark": "登场地点：第一卷68p\n真奈和爷爷吃拉面的地方，介良也有分店但内部装潢是南国店的。公共交通很不方便"
      },
      "type": "Feature"
    },
    {
      "geometry": {
        "coordinates": [
          133.6207,
          33.568049
        ],
        "type": "Point"
      },
      "properties": {
        "bangumi_id": 333826,
        "bangumi_title": "黑潮",
        "ep_cut": "",
        "image_url": "https://w.junreimap.com/images/points/333826/ovt5cgli7_1728342614905.jpg",
        "location": "",
        "point_id": "ovt5cgli7",
        "point_name": "すた​みな​太郎​南国​バイパス​店",
        "remark": ""
      },
      "type": "Feature"
    },
    {
      "geometry": {
        "coordinates": [
          133.535269,
          33.565369
        ],
        "type": "Point"
      },
      "properties": {
        "bangumi_id": 333826,
        "bangumi_title": "黑潮",
        "ep_cut": "",
        "image_url": "https://w.junreimap.com/images/points/333826/ovt7rj8wd_1728342982746.jpg",
        "location": "",
        "point_id": "ovt7rj8wd",
        "point_name": "大川筋​武家​屋敷​資料館",
        "remark": "登场地点：第二卷56p\n东堂院家宅邸的原型。感觉大部分地点都位于南国市，结果只有真奈是高知市民啊…"
      },
      "type": "Feature"
    },
    {
      "geometry": {
        "coordinates": [
          133.535242,
          33.565382
        ],
        "type": "Point"
      },
      "properties": {
        "bangumi_id": 333826,
        "bangumi_title": "黑潮",
        "ep_cut": "",
        "image_url": "https://w.junreimap.com/images/points/333826/ovtbm29wh_1728342996476.jpg",
        "location": "",
        "point_id": "ovtbm29wh",
        "point_name": "大川筋​武家​屋敷​資料館",
        "remark": ""
      },
      "type": "Feature"
    },
    {
      "geometry": {
        "coordinates": [
          133.531152,
          33.560835
        ],
        "type": "Point"
      },
      "properties": {
        "bangumi_id": 333826,
        "bangumi_title": "黑潮",
        "ep_cut": "",
        "image_url": "https://w.junreimap.com/images/points/333826/ovtfqs4ny_1728343247548.jpg",
        "location": "",
        "point_id": "ovtfqs4ny",
        "point_name": "高知城",
        "remark": "登场地点：22话结尾，青骑士17A封面（右上）"
      },
      "type": "Feature"
    },
    {
      "geometry": {
        "coordinates": [
          133.54029,
          33.56079
        ],
        "type": "Point"
      },
      "properties": {
        "bangumi_id": 333826,
        "bangumi_title": "黑潮",
        "ep_cut": "",
        "image_url": "https://w.junreimap.com/images/points/333826/ovtj79r10_1728343510142.jpg",
        "location": "",
        "point_id": "ovtj79r10",
        "point_name": "帯屋町商店街",
        "remark": "登场地点：青骑士17A封面\n左上"
      },
      "type": "Feature"
    },
    {
      "geometry": {
        "coordinates": [
          133.54298,
          33.566416
        ],
        "type": "Point"
      },
      "properties": {
        "bangumi_id": 333826,
        "bangumi_title": "黑潮",
        "ep_cut": "",
        "image_url": "https://w.junreimap.com/images/points/333826/ovtlduw5e_1728343590653.jpg",
        "location": "",
        "point_id": "ovtlduw5e",
        "point_name": "三志士像",
        "remark": "登场地点：青骑士17A封面\n右上"
      },
      "type": "Feature"
    },
    {
      "geometry": {
        "coordinates": [
          133.535903,
          33.560131
        ],
        "type": "Point"
      },
      "properties": {
        "bangumi_id": 333826,
        "bangumi_title": "黑潮",
        "ep_cut": "",
        "image_url": "https://w.junreimap.com/images/points/333826/ovtndelb5_1728343709446.jpg",
        "location": "",
        "point_id": "ovtndelb5",
        "point_name": "ひろめ市場",
        "remark": "登场地点：青骑士17A封面\n右下"
      },
      "type": "Feature"
    },
    {
      "geometry": {
        "coordinates": [
          132.860124,
          32.785914
        ],
        "type": "Point"
      },
      "properties": {
        "bangumi_id": 333826,
        "bangumi_title": "黑潮",
        "ep_cut": "",
        "image_url": "https://w.junreimap.com/images/points/333826/ovtrx99f1_1728343981655.jpg",
        "location": "",
        "point_id": "ovtrx99f1",
        "point_name": "足摺海底館",
        "remark": "登场地点：青骑士17A封面\n右下"
      },
      "type": "Feature"
    },
    {
      "geometry": {
        "coordinates": [
          133.543637,
          33.567218
        ],
        "type": "Point"
      },
      "properties": {
        "bangumi_id": 333826,
        "bangumi_title": "黑潮",
        "ep_cut": "",
        "image_url": "https://w.junreimap.com/images/points/333826/ovttdz322_1728344095421.jpg",
        "location": "",
        "point_id": "ovttdz322",
        "point_name": "JR高知駅",
        "remark": "登场地点：青骑士17A封面\n右"
      },
      "type": "Feature"
    }
  ],
  "type": "FeatureCollection"
}