{
  "features": [
    {
      "geometry": {
        "coordinates": [
          137.405186,
          34.75495
        ],
        "type": "Point"
      },
      "properties": {
        "bangumi_id": 343241,
        "bangumi_title": "败犬女主太多了！",
        "ep_cut": "",
        "image_url": "https://w.junreimap.com/images/user/0/bangumi/464376/points/o8ck8zkbv-1726504135930.jpg",
        "location": "",
        "point_id": "o8ck8zkbv",
        "point_name": "大池橋",
        "remark": "小说第四卷温水和天爱星圣诞节相会的地方。「大池上有条满长的桥横跨池面，据说长度超过一百公尺。约好的碰面地点是桥上。为何特地叫我到那种地方？…柱子上写着「大池桥」的长长桥梁，桥面在接近对岸处较为宽敞。」"
      },
      "type": "Feature"
    },
    {
      "geometry": {
        "coordinates": [
          137.397596,
          34.756667
        ],
        "type": "Point"
      },
      "properties": {
        "bangumi_id": 343241,
        "bangumi_title": "败犬女主太多了！",
        "ep_cut": "",
        "image_url": "https://w.junreimap.com/images/user/0/bangumi/464376/points/rbm79xzhh-1735223929052.jpg",
        "location": "",
        "point_id": "rbm79xzhh",
        "point_name": "ルージュアルダン",
        "remark": "小说第七卷 婚礼地点"
      },
      "type": "Feature"
    },
    {
      "geometry": {
        "coordinates": [
          137.232066,
          34.817217
        ],
        "type": "Point"
      },
      "properties": {
        "bangumi_id": 343241,
        "bangumi_title": "败犬女主太多了！",
        "ep_cut": "6-1",
        "image_url": "https://w.junreimap.com/images/user/0/bangumi/464376/points/id7isv3qw-1709958563872.jpg",
        "location": "",
        "point_id": "id7isv3qw",
        "point_name": "竹島水族館",
        "remark": ""
      },
      "type": "Feature"
    },
    {
      "geometry": {
        "coordinates": [
          137.23095,
          34.811158
        ],
        "type": "Point"
      },
      "properties": {
        "bangumi_id": 343241,
        "bangumi_title": "败犬女主太多了！",
        "ep_cut": "6-1",
        "image_url": "https://w.junreimap.com/images/points/343241/buewnz2_1772794730476.jpg",
        "location": "",
        "point_id": "buewnz2",
        "point_name": "竹島",
        "remark": "这时，在水族馆捡到的烧盐的纸条内容浮现脑海。\n    ──STEP1　牵手\n   只是牵手罢了，对烧盐应该没什么特别意义。\n    所以烧盐迟迟不松手，单纯只是担心我……\n    像是要掩盖我那借口般的思绪──\n    烧盐那出乎意料纤细的指头缓缓收拢──与我十指交缠。\n    「！？」\n    「……这就是STEP2。」\n烧盐的嗫嚅声在被海风吹散之间，拂过我的耳畔。\n    我因为初次体验的触感而愣住时，烧盐静静地开了口。\n    「……刚才，你问我是不是有烦恼吧？」\n    「呃～果然有什么烦恼吗？」\n    烧盐左右摇头。也不是那样。在学校朋友和老师都很温柔，田径队的大家也都很亲切，期待我的表现，对我特别看重──」\n    她稍微语带迟疑。\n    「……但是啊，被人特别看重也会有点累。」\n    烧盐口中吐露的丧气话，透出一丝罪恶感。\n    我找不出该说的话而沉默，烧盐以干哑的嗓音低声呢喃。\n    「欸，阿温。要不要和我一起进回家社？」"
      },
      "type": "Feature"
    },
    {
      "geometry": {
        "coordinates": [
          137.405255,
          34.754882
        ],
        "type": "Point"
      },
      "properties": {
        "bangumi_id": 343241,
        "bangumi_title": "败犬女主太多了！",
        "ep_cut": "",
        "image_url": "https://w.junreimap.com/images/user/0/bangumi/464376/points/qdqbek-1748605633379.jpg",
        "location": "",
        "point_id": "qdqbek",
        "point_name": "大池橋",
        "remark": "小说第八卷天爱星表白的地方，老马啊！😭\n原文：我完全陷入了混乱，天爱星同学的瞳孔直直地注视着我。\n天爱星同学双手手指相插交叠在一起，向我投来祈祷般的眼神。\n然后像是下定了某种决心，开口说道。\n「温水同学，我喜欢你。」"
      },
      "type": "Feature"
    },
    {
      "geometry": {
        "coordinates": [
          137.391316,
          34.766271
        ],
        "type": "Point"
      },
      "properties": {
        "bangumi_id": 343241,
        "bangumi_title": "败犬女主太多了！",
        "ep_cut": "",
        "image_url": "https://w.junreimap.com/images/user/0/bangumi/343241/points/bu5c71u-1785458637965.jpg",
        "location": "",
        "point_id": "bu5c71u",
        "point_name": "Kadowara カドワラ",
        "remark": "首次出现在8.5卷【八奈见·拉面·探店记】章中\n两人点的餐品：肉塩ラーメン（八奈见），トマト麺（妮娜），からあげx2（两人撒的佐料：YUZUSCO，LEMOSCO）\n1.摆在八奈见面前的是肉盐拉面。\n清澈的汤头里盛着炖煮入味的白萝卜和猪软骨。\n2. 妮娜正把番茄面的汤汁淋在米饭上，并细心地铺上配菜里的芝士。\n3. 这家店的炸鸡以口感酥脆、肉质鲜美而闻名。"
      },
      "type": "Feature"
    },
    {
      "geometry": {
        "coordinates": [
          137.364911,
          34.766333
        ],
        "type": "Point"
      },
      "properties": {
        "bangumi_id": 343241,
        "bangumi_title": "败犬女主太多了！",
        "ep_cut": "",
        "image_url": "",
        "location": "",
        "point_id": "bu5vst8",
        "point_name": "丸源​ラーメン​豊橋​新栄​店",
        "remark": "首次出现在8.5卷【八奈见·拉面·探店记】章中\n八奈见脸颊上还粘着饭粒，幽幽地站了起来。\n    「顺便一提，丸源拉面发来了优惠券。怎么说，八奈奈？」\n    「……我要点肉荞麦面和铁板蛋炒饭。」\n    八奈见一副『这还用问吗』的架势。\n    「点大份吗？」\n    「当然是——要大份。」."
      },
      "type": "Feature"
    },
    {
      "geometry": {
        "coordinates": [
          137.384739,
          34.766856
        ],
        "type": "Point"
      },
      "properties": {
        "bangumi_id": 343241,
        "bangumi_title": "败犬女主太多了！",
        "ep_cut": "",
        "image_url": "",
        "location": "",
        "point_id": "bubgrh7",
        "point_name": "そば処勢川本店",
        "remark": "8.5卷【向你献上这一碗与续碗】\n本店以咖喱乌冬面闻名，但两人点的是中華そば\n1.摆在眼前的中华荞麦面是简单的酱油味。\n笋干配水煮蛋、鱼板配叉烧这种正统的配料，被绿色的葱点缀着。\n八奈见满意地点点头，啪地掰开一次性筷子"
      },
      "type": "Feature"
    },
    {
      "geometry": {
        "coordinates": [
          137.397129,
          34.822988
        ],
        "type": "Point"
      },
      "properties": {
        "bangumi_id": 343241,
        "bangumi_title": "败犬女主太多了！",
        "ep_cut": "5-1",
        "image_url": "",
        "location": "豊川稲荷",
        "point_id": "bue3kkg",
        "point_name": "豊川駅",
        "remark": "我先走出丰川车站后，冷风吹得我身子颤抖。东三河地区的冬天总是吹着干燥的强劲西风。\n    「……早知道就戴围巾来了。」\n    我不由得脱口说出。圣诞节当天，天爱星同学送我的围巾。\n    我没戴在身上，也没什么特别的理由──\n    「好冷！温水，你干嘛自己先出来啦。」\n    八奈见拉拢大衣前襟，自车站大厅的楼梯走下来。她一站到我身旁，就用手肘轻轻顶我。\n    「因为你好像在看验票口前面的地图啊，我想说不要打扰你。」\n    「接下来就要过去了，正常应该会一起看吧？不冷吗？」\n    八奈见一再拍打我的背。\n    真是的，早知道就一个人来……"
      },
      "type": "Feature"
    },
    {
      "geometry": {
        "coordinates": [
          137.396471,
          34.824196
        ],
        "type": "Point"
      },
      "properties": {
        "bangumi_id": 343241,
        "bangumi_title": "败犬女主太多了！",
        "ep_cut": "5-1",
        "image_url": "",
        "location": "豊川稲荷",
        "point_id": "bue6zdz",
        "point_name": "丰川稻荷表参道",
        "remark": "我草率结束对话后，指向狐狸铜像群的另一侧。\n    该处写着『丰川稻荷表参道』，矗立着模仿鸟居造型的商店街拱门。\n    穿过拱门后，八奈见直指向我。\n    「温水，做好觉悟了吗？赌局已经开始了喔。」"
      },
      "type": "Feature"
    },
    {
      "geometry": {
        "coordinates": [
          137.395236,
          34.824398
        ],
        "type": "Point"
      },
      "properties": {
        "bangumi_id": 343241,
        "bangumi_title": "败犬女主太多了！",
        "ep_cut": "5-1",
        "image_url": "",
        "location": "豊川稲荷",
        "point_id": "bud4dt2",
        "point_name": "ドリンク斎藤",
        "remark": "我要转身察看时，八奈见又硬是拉扯我的手臂。这回又怎么了？\n    「先看这个，这间药局的招牌好可爱！来，帮忙拍照！」\n    这家伙是怎么了？今天情绪特别高昂啊。老实说有点麻烦……\n    因为八奈见已经摆出姿势了，我只好帮她拍照。\n    「拍得漂亮吗？」\n    嗯，招牌拍得非常清楚。八奈见倒是被截断了。\n    「没问题。之后再传给你，我们快走吧。」"
      },
      "type": "Feature"
    },
    {
      "geometry": {
        "coordinates": [
          137.393167,
          34.824439
        ],
        "type": "Point"
      },
      "properties": {
        "bangumi_id": 343241,
        "bangumi_title": "败犬女主太多了！",
        "ep_cut": "5-1",
        "image_url": "",
        "location": "豊川稲荷",
        "point_id": "budi98l",
        "point_name": "鳥居",
        "remark": "通往正殿的石铺参拜道。八奈见抬头仰望，同时走过偌大的石造鸟居下方。\n    「哦啊～好大喔。不愧是三河排前几名的神社。」\n    「八奈见同学，丰川稻荷是佛寺喔。」"
      },
      "type": "Feature"
    },
    {
      "geometry": {
        "coordinates": [
          137.392068,
          34.824483
        ],
        "type": "Point"
      },
      "properties": {
        "bangumi_id": 343241,
        "bangumi_title": "败犬女主太多了！",
        "ep_cut": "5-1",
        "image_url": "",
        "location": "豊川稲荷",
        "point_id": "budq28t",
        "point_name": "豊川稲荷 大本殿",
        "remark": "我立于正殿的阶梯上方，扫视宽广的寺院境内各处。虽然我尽可能地寻找，但没有疑似佳树的身影。\n    「怎么啦，温水。突然像个可疑人士。」\n    「我今天本来就是来确认佳树是不是来约会的，不该在这种地方浪费时间吧。」\n    八奈见摆出了捉弄般的表情，凝视我的脸。\n    「哦～你明明说你妹妹绝对不可能来约会，但心里其实还是很不安啊？」\n    「事情总是有个万一，万一是真的，我就得确认现场状况吧？约会这种事对佳树还太早了。」\n    八奈见无奈地耸了耸肩。\n    「听我说，只是约会没必要这么紧张啦。温水你很没概念耶。」\n    被有生以来没交过男友的家伙如是说了。\n    「那你说约会是怎样？」\n    「很简单啊。男女共度相同的时间，看相同的事物，确认彼此的感受和想法，这就是约会喔。」\n    八奈见踩着轻盈的脚步走下阶梯。我则跟在后头。\n    「只是一起出门，就能搞懂这些事吗……？」\n    「就是这样喔，温水。光是走在一起，从调整彼此步伐快慢和节奏，就能知道和对方合不合得来的样子。」\n    八奈见走到阶梯底端突然停止，我连忙从她背后避开。\n    「呃～男生要走在车道那侧，这之类的？」\n    「我觉得和这类的又不太一样。哎，不过体贴永远都很重要喔？"
      },
      "type": "Feature"
    },
    {
      "geometry": {
        "coordinates": [
          137.391447,
          34.826694
        ],
        "type": "Point"
      },
      "properties": {
        "bangumi_id": 343241,
        "bangumi_title": "败犬女主太多了！",
        "ep_cut": "5-1",
        "image_url": "",
        "location": "豊川稲荷",
        "point_id": "buda7ac",
        "point_name": "霊狐塚",
        "remark": "我逃离般加快步伐，赶到小径的终点。\n    ──灵狐冢。数量破千的狐狸石雕环绕着镇坐于深处的神龛。石雕是由实现心愿的人供奉于此。\n    受到那情景震慑时，八奈见半张着嘴，站到我身旁。\n    「呜哇，好多喔。我们分头来数吧。温水从左边开始。」\n    「咦？数不了啦。」\n    「啊！那只狐狸和温水像不像？你看，从那边算过来第二十五只狐狸。」\n\n    「就算你这样讲，我也不会去数的。」\n\n    真受不了，要是你以为这样就能引诱我，那可是大错特错。再说放眼望去排满了狐狸雕像，根本不可能从某一只当起点开始数。\n    话虽如此，和我特别像的是那只狐狸吗？旁边的也长得清秀又帅气。\n    我小声问八奈见：\n    「……话说，第二十五只是要从哪里开始数？」"
      },
      "type": "Feature"
    },
    {
      "geometry": {
        "coordinates": [
          137.391617,
          34.826548
        ],
        "type": "Point"
      },
      "properties": {
        "bangumi_id": 343241,
        "bangumi_title": "败犬女主太多了！",
        "ep_cut": "5-1",
        "image_url": "https://w.junreimap.com/images/points/343241/budb3xg_1772791369921.jpg",
        "location": "豊川稲荷",
        "point_id": "budb3xg",
        "point_name": "霊狐塚",
        "remark": "「欸，你是怎么啦，温水？」\n    「咦？」\n    听见这句话，我注意到自己无意识间凝视着八奈见。\n    八奈见反过来仔细端详着我的脸。\n    「对我不小心看呆了还能理解，但是稍微看过头了吧？」\n    「啥？呃，不是啦，只是稍微看一下侧脸而已──」\n    奇怪，我刚才说了什么。八奈见的脸上顿时浮现出恶质的奸笑。\n    「……哦？你在看我的侧脸啊。」\n    「呃，不是，我的意思是──」\n    「这个角度可以吗？还是头发束到后面比较好？怎么样？」\n    八奈见像是抓住大好机会，对我大方秀出侧脸。"
      },
      "type": "Feature"
    },
    {
      "geometry": {
        "coordinates": [
          137.392767,
          34.824696
        ],
        "type": "Point"
      },
      "properties": {
        "bangumi_id": 343241,
        "bangumi_title": "败犬女主太多了！",
        "ep_cut": "5-1",
        "image_url": "",
        "location": "豊川稲荷",
        "point_id": "bue9kki",
        "point_name": "喂鲤鱼的地方",
        "remark": "我回到表参道之后，在甜馒头店内的长椅上无力地坐下。\n    刚才阻止八奈见帮狐狸像取名字，还有监视想喂鲤鱼的八奈见，十分折腾人。\n    「温水，再怎么说我也不会吃鲤鱼饲料喔？」\n    八奈见递给我一份写着『宝珠甜馒头』的纸包，在我身旁重重地坐下。\n    这个人又擅自买了我的份……\n    那你干嘛用手机查『鲤鱼饲料』、『吃了也没关系』啊。」\n    「因为鲤鱼吃饲料的时候总是吃得津津有味嘛。到底是什么味道，温水也会好奇吧？」"
      },
      "type": "Feature"
    },
    {
      "geometry": {
        "coordinates": [
          137.392772,
          34.824716
        ],
        "type": "Point"
      },
      "properties": {
        "bangumi_id": 343241,
        "bangumi_title": "败犬女主太多了！",
        "ep_cut": "5-1",
        "image_url": "",
        "location": "豊川稲荷",
        "point_id": "buebipr",
        "point_name": "喂鲤鱼的地方",
        "remark": "鲤鱼饲料一盒200円，内附一个恋爱御签，冬季不一定能喂，寺庙工作人员下班之后也是锁着的（四五点的样子），想喂鲤鱼的话记得安排好时间"
      },
      "type": "Feature"
    },
    {
      "geometry": {
        "coordinates": [
          137.394707,
          34.824476
        ],
        "type": "Point"
      },
      "properties": {
        "bangumi_id": 343241,
        "bangumi_title": "败犬女主太多了！",
        "ep_cut": "5-1",
        "image_url": "",
        "location": "豊川稲荷",
        "point_id": "bueiyfo",
        "point_name": "喜楽",
        "remark": "我回到表参道之后，在甜馒头店内的长椅上无力地坐下。\n    刚才阻止八奈见帮狐狸像取名字，还有监视想喂鲤鱼的八奈见，十分折腾人。\n    「温水，再怎么说我也不会吃鲤鱼饲料喔？」\n    八奈见递给我一份写着『宝珠甜馒头』的纸包，在我身旁重重地坐下。\n    这个人又擅自买了我的份……\n    那你干嘛用手机查『鲤鱼饲料』、『吃了也没关系』啊。」\n    「因为鲤鱼吃饲料的时候总是吃得津津有味嘛。到底是什么味道，温水也会好奇吧？」\n    我一点也不好奇，不要寻求我的同感。\n    「话说回来，八奈见同学你还要吃喔？你在参拜前已经吃很多了吧？」\n    「刚才的是边吃边逛啊。现在是坐着吃，分开计算。」\n    八奈见打开甜馒头的包装纸，张嘴大口咬了下去。\n    确实对八奈见的胃口来说，区区一个甜馒头只是误差范围吧。刚才八奈见拿出真本事的『边吃边逛』，就连海外观光客都拍手喝采。"
      },
      "type": "Feature"
    },
    {
      "geometry": {
        "coordinates": [
          137.396871,
          34.662149
        ],
        "type": "Point"
      },
      "properties": {
        "bangumi_id": 343241,
        "bangumi_title": "败犬女主太多了！",
        "ep_cut": "",
        "image_url": "",
        "location": "",
        "point_id": "d3ye3g1",
        "point_name": "エールオブジェ",
        "remark": "莫名漫长的沙滩，自邻县的滨松连绵延续到渥美半岛的前端，丰桥市面向太平洋的南端就是其中一部分。这一带被称作表滨海岸，从放虎原家走路过来十五分钟。...走下海岸的道路是段很陡的斜坡，我途中大概有五次想回头，幸好没放弃……\n我走向位于沙滩另一头的白色物体。\n那是高达三公尺以上的墙壁状装置艺术，形状像是将切片的土司竖立在地面上。更引人注目的是，墙面上凿着有如漫画对话框般的云朵状孔洞，从该处可以望见另一头。"
      },
      "type": "Feature"
    },
    {
      "geometry": {
        "coordinates": [
          137.385418,
          34.741767
        ],
        "type": "Point"
      },
      "properties": {
        "bangumi_id": 343241,
        "bangumi_title": "败犬女主太多了！",
        "ep_cut": "",
        "image_url": "",
        "location": "",
        "point_id": "d3yx6lx",
        "point_name": "ボードゲーム＆カフェDEJANA",
        "remark": "最靠近学校的车站附近的咖啡厅内，我和八奈见隔着桌子与志喜屋学姐面对面。\n眼前摆着咖啡与蛋糕，以及谜样的桌上游戏。\n这里似乎就是所谓的桌游咖啡厅。我们在中庭救出志喜屋学姐后，她以致谢的名义带我们来。"
      },
      "type": "Feature"
    },
    {
      "geometry": {
        "coordinates": [
          137.388331,
          34.709999
        ],
        "type": "Point"
      },
      "properties": {
        "bangumi_id": 343241,
        "bangumi_title": "败犬女主太多了！",
        "ep_cut": "",
        "image_url": "",
        "location": "",
        "point_id": "d3z6fas",
        "point_name": "イオン豊橋南店",
        "remark": "第二天放学后，我和八奈见从石蕗高中骑自行车约20分钟，来到了位于南吉，也就是永旺丰桥南店的美食街。"
      },
      "type": "Feature"
    },
    {
      "geometry": {
        "coordinates": [
          137.388123,
          34.710628
        ],
        "type": "Point"
      },
      "properties": {
        "bangumi_id": 343241,
        "bangumi_title": "败犬女主太多了！",
        "ep_cut": "",
        "image_url": "",
        "location": "",
        "point_id": "d3zhpdn",
        "point_name": "スガキヤ 豊橋南イオン店",
        "remark": "八奈见洋洋得意地双手端着托盘回来，把上面的东西放了一份在我面前。\n只见白色的日式豚骨汤冒着热气。是寿贺喜屋的拉面。"
      },
      "type": "Feature"
    },
    {
      "geometry": {
        "coordinates": [
          137.399711,
          34.757067
        ],
        "type": "Point"
      },
      "properties": {
        "bangumi_id": 343241,
        "bangumi_title": "败犬女主太多了！",
        "ep_cut": "",
        "image_url": "",
        "location": "",
        "point_id": "d3ztb6m",
        "point_name": "愛知県立豊橋商業高等学校",
        "remark": "八奈见用手指轻敲地图。她敲的地方是会场旁边的县立桐木高中。...\n共计五人的犯罪团伙从石蕗骑自行车十五分钟，抵达县立桐木高中门前。 \n该校所有学生一年级时读商科，从二年级开始就读科目将分为会计、信息等专业。"
      },
      "type": "Feature"
    },
    {
      "geometry": {
        "coordinates": [
          137.382805,
          34.762832
        ],
        "type": "Point"
      },
      "properties": {
        "bangumi_id": 343241,
        "bangumi_title": "败犬女主太多了！",
        "ep_cut": "",
        "image_url": "",
        "location": "",
        "point_id": "d4030w9",
        "point_name": "タリーズ​コーヒー​豊橋​駅前​店",
        "remark": "谜样的石蕗女生在丰桥车站南门广场逮到了我。\n在面对广场的咖啡厅中，我和那女生面对面坐下。\n我选这间店的理由简单明了──因为旁边就是派出所。"
      },
      "type": "Feature"
    },
    {
      "geometry": {
        "coordinates": [
          137.350926,
          34.825514
        ],
        "type": "Point"
      },
      "properties": {
        "bangumi_id": 343241,
        "bangumi_title": "败犬女主太多了！",
        "ep_cut": "",
        "image_url": "",
        "location": "",
        "point_id": "d40afvi",
        "point_name": "イオン​モール​豊川",
        "remark": "晴朗的星期日，包含新旧成员在内的文艺部四名社员齐聚在丰川永旺购物中心。\n我站在中央通道的正中间，仰望着巨大的商场。\n整条又长又宽的通道贯穿始终，一至三层全都采用了挑空的设计，沿路设置有一整排的店面。换句话说，这是一条有三层楼高的商业街。"
      },
      "type": "Feature"
    },
    {
      "geometry": {
        "coordinates": [
          137.350686,
          34.826392
        ],
        "type": "Point"
      },
      "properties": {
        "bangumi_id": 343241,
        "bangumi_title": "败犬女主太多了！",
        "ep_cut": "",
        "image_url": "",
        "location": "",
        "point_id": "d40iajp",
        "point_name": "西条園 抹茶カフェ イオンモール豊川店",
        "remark": "「……你好像买了杯很不得了的饮品啊。」\n「嗯，叫做抹茶蕨菜饼奶油冰沙。我正在减肥，就只点了饮料。」\n八奈见说着，用粗吸管吸食着杯底的蕨菜饼。\n「呃，这杯饮料肯定有很多热量吧？」\n「温水君，这里面用的是西尾的抹茶。而且它只是杯冰沙哦。」"
      },
      "type": "Feature"
    },
    {
      "geometry": {
        "coordinates": [
          137.350878,
          34.82567
        ],
        "type": "Point"
      },
      "properties": {
        "bangumi_id": 343241,
        "bangumi_title": "败犬女主太多了！",
        "ep_cut": "",
        "image_url": "",
        "location": "",
        "point_id": "d40qpq2",
        "point_name": "本の豊川堂×nido cafe",
        "remark": "丰川堂书店，永旺购物中心丰川店。说起来有点拗口，不过这家店的总店在丰桥市。\n该书店坐拥全市最大营业面积，且另设有一家使用当地食材的咖啡馆。因此，八奈见自然会变得举止可疑。"
      },
      "type": "Feature"
    },
    {
      "geometry": {
        "coordinates": [
          137.351772,
          34.823795
        ],
        "type": "Point"
      },
      "properties": {
        "bangumi_id": 343241,
        "bangumi_title": "败犬女主太多了！",
        "ep_cut": "",
        "image_url": "",
        "location": "",
        "point_id": "d4104cn",
        "point_name": "MIRAINO No Ionmorutoyokawaten",
        "remark": "逛完书店之后，八奈见居然想要去电玩区。\n我们玩的是一款疯狂扫射僵尸的游戏，需要佩戴VR眼镜。\n我虽然知道有这款游戏，却从未料想到有一天会亲自上手游玩。还能四人联机。\n（BIOHAZARD VALIANT RAID）"
      },
      "type": "Feature"
    },
    {
      "geometry": {
        "coordinates": [
          137.351357,
          34.824095
        ],
        "type": "Point"
      },
      "properties": {
        "bangumi_id": 343241,
        "bangumi_title": "败犬女主太多了！",
        "ep_cut": "第七卷 彩插",
        "image_url": "https://w.junreimap.com/images/user/0/bangumi/343241/points/d41a5q1-1775552598421.jpg",
        "location": "",
        "point_id": "d41a5q1",
        "point_name": "Cat Café MOFF イオンモール豊川店",
        "remark": "一只浅褐色长毛猫压低身子跑过我们眼前。我和白玉同学来到了商场里的猫咖。\n我们在一架木制长椅上并排坐下，用拿铁杯子暖手。\n可以两人独处的地方就是这里吗……"
      },
      "type": "Feature"
    },
    {
      "geometry": {
        "coordinates": [
          137.398941,
          34.769093
        ],
        "type": "Point"
      },
      "properties": {
        "bangumi_id": 343241,
        "bangumi_title": "败犬女主太多了！",
        "ep_cut": "",
        "image_url": "",
        "location": "",
        "point_id": "d424pe9",
        "point_name": "豊橋市陸上競技場",
        "remark": "万里无云的星期六午后。我和八奈见两人来到我家附近的丰桥市田径竞技场。\n赌上烧盐和我退社与否的百米决战，已经定在三月最后的周末。我为了特训而来到此地。"
      },
      "type": "Feature"
    },
    {
      "geometry": {
        "coordinates": [
          136.908337,
          35.172393
        ],
        "type": "Point"
      },
      "properties": {
        "bangumi_id": 343241,
        "bangumi_title": "败犬女主太多了！",
        "ep_cut": "",
        "image_url": "https://w.junreimap.com/images/user/0/bangumi/343241/points/epznx0a-1779057325015.jpg",
        "location": "",
        "point_id": "epznx0a",
        "point_name": "名古屋テレビ塔",
        "remark": "小说第8.5卷中『移り気な風』的黑白插图"
      },
      "type": "Feature"
    },
    {
      "geometry": {
        "coordinates": [
          137.380826,
          34.748
        ],
        "type": "Point"
      },
      "properties": {
        "bangumi_id": 343241,
        "bangumi_title": "败犬女主太多了！",
        "ep_cut": "小说第九卷p27",
        "image_url": "https://w.junreimap.com/images/user/0/bangumi/343241/points/h7jsv5m-1784472326706.webp",
        "location": "",
        "point_id": "h7jsv5m",
        "point_name": "ガスト豊橋橋良店",
        "remark": ""
      },
      "type": "Feature"
    },
    {
      "geometry": {
        "coordinates": [
          137.382116,
          34.758232
        ],
        "type": "Point"
      },
      "properties": {
        "bangumi_id": 343241,
        "bangumi_title": "败犬女主太多了！",
        "ep_cut": "小说第九卷彩图2",
        "image_url": "https://w.junreimap.com/images/user/0/bangumi/343241/points/h8w632z-1784553433305.webp",
        "location": "",
        "point_id": "h8w632z",
        "point_name": "HOTEL YOURS 豊橋駅前",
        "remark": ""
      },
      "type": "Feature"
    },
    {
      "geometry": {
        "coordinates": [
          137.394506,
          34.771446
        ],
        "type": "Point"
      },
      "properties": {
        "bangumi_id": 343241,
        "bangumi_title": "败犬女主太多了！",
        "ep_cut": "小说第九卷p249",
        "image_url": "https://w.junreimap.com/images/user/0/bangumi/343241/points/h8wdofr-1784553771797.webp",
        "location": "",
        "point_id": "h8wdofr",
        "point_name": "下地緑地",
        "remark": ""
      },
      "type": "Feature"
    },
    {
      "geometry": {
        "coordinates": [
          137.394514,
          34.77145
        ],
        "type": "Point"
      },
      "properties": {
        "bangumi_id": 343241,
        "bangumi_title": "败犬女主太多了！",
        "ep_cut": "小说第九卷p275",
        "image_url": "https://w.junreimap.com/images/user/0/bangumi/343241/points/h8wlwl3-1784554240401.webp",
        "location": "",
        "point_id": "h8wlwl3",
        "point_name": "下地緑地",
        "remark": ""
      },
      "type": "Feature"
    }
  ],
  "type": "FeatureCollection"
}