{
  "features": [
    {
      "geometry": {
        "coordinates": [
          135.758637,
          35.023503
        ],
        "type": "Point"
      },
      "properties": {
        "bangumi_id": 345980,
        "bangumi_title": "四叠半时光机布鲁斯",
        "ep_cut": "",
        "image_url": "https://w.junreimap.com/images/points/345980/4ytx3drzs_1672160397566.jpg",
        "location": "",
        "point_id": "4ytx3drzs",
        "point_name": "KBS京都",
        "remark": ""
      },
      "type": "Feature"
    },
    {
      "geometry": {
        "coordinates": [
          135.772243,
          35.030473
        ],
        "type": "Point"
      },
      "properties": {
        "bangumi_id": 345980,
        "bangumi_title": "四叠半时光机布鲁斯",
        "ep_cut": "",
        "image_url": "https://w.junreimap.com/images/points/345980/4ytx3dshm_1672160398570.jpg",
        "location": "",
        "point_id": "4ytx3dshm",
        "point_name": "河合橋",
        "remark": ""
      },
      "type": "Feature"
    },
    {
      "geometry": {
        "coordinates": [
          135.772134,
          35.030401
        ],
        "type": "Point"
      },
      "properties": {
        "bangumi_id": 345980,
        "bangumi_title": "四叠半时光机布鲁斯",
        "ep_cut": "",
        "image_url": "https://w.junreimap.com/images/points/345980/m2kd5u4ix_1720408730338.jpg",
        "location": "",
        "point_id": "m2kd5u4ix",
        "point_name": "",
        "remark": ""
      },
      "type": "Feature"
    },
    {
      "geometry": {
        "coordinates": [
          135.771594,
          35.035683
        ],
        "type": "Point"
      },
      "properties": {
        "bangumi_id": 345980,
        "bangumi_title": "四叠半时光机布鲁斯",
        "ep_cut": "",
        "image_url": "https://w.junreimap.com/images/points/345980/4ytx3druy_1672160399458.jpg",
        "location": "",
        "point_id": "4ytx3druy",
        "point_name": "下鸭古本祭",
        "remark": ""
      },
      "type": "Feature"
    },
    {
      "geometry": {
        "coordinates": [
          135.733138,
          35.023104
        ],
        "type": "Point"
      },
      "properties": {
        "bangumi_id": 345980,
        "bangumi_title": "四叠半时光机布鲁斯",
        "ep_cut": "",
        "image_url": "https://w.junreimap.com/images/points/345980/4ytx3ds5h_1672160400257.jpg",
        "location": "",
        "point_id": "4ytx3ds5h",
        "point_name": "源湯",
        "remark": ""
      },
      "type": "Feature"
    },
    {
      "geometry": {
        "coordinates": [
          135.77174,
          35.028898
        ],
        "type": "Point"
      },
      "properties": {
        "bangumi_id": 345980,
        "bangumi_title": "四叠半时光机布鲁斯",
        "ep_cut": "",
        "image_url": "https://w.junreimap.com/images/points/345980/4ytx3dsd7_1672160401792.jpg",
        "location": "",
        "point_id": "4ytx3dsd7",
        "point_name": "鴨川デルタ",
        "remark": ""
      },
      "type": "Feature"
    },
    {
      "geometry": {
        "coordinates": [
          135.771598,
          35.028998
        ],
        "type": "Point"
      },
      "properties": {
        "bangumi_id": 345980,
        "bangumi_title": "四叠半时光机布鲁斯",
        "ep_cut": 12,
        "image_url": "https://w.junreimap.com/images/points/345980/4ytx3ds9r_1672160402904.jpg",
        "location": "",
        "point_id": "4ytx3ds9r",
        "point_name": "賀茂大橋",
        "remark": ""
      },
      "type": "Feature"
    },
    {
      "geometry": {
        "coordinates": [
          135.77232,
          35.029269
        ],
        "type": "Point"
      },
      "properties": {
        "bangumi_id": 345980,
        "bangumi_title": "四叠半时光机布鲁斯",
        "ep_cut": "",
        "image_url": "https://w.junreimap.com/images/points/345980/4ytx3ds8m_1672160404111.jpg",
        "location": "",
        "point_id": "4ytx3ds8m",
        "point_name": "贺茂大桥东北",
        "remark": ""
      },
      "type": "Feature"
    },
    {
      "geometry": {
        "coordinates": [
          135.77327,
          35.030317
        ],
        "type": "Point"
      },
      "properties": {
        "bangumi_id": 345980,
        "bangumi_title": "四叠半时光机布鲁斯",
        "ep_cut": "",
        "image_url": "https://w.junreimap.com/images/points/345980/4ytx3drxb_1672160405115.jpg",
        "location": "",
        "point_id": "4ytx3drxb",
        "point_name": "叡电出町柳站外",
        "remark": ""
      },
      "type": "Feature"
    },
    {
      "geometry": {
        "coordinates": [
          135.779886,
          35.022402
        ],
        "type": "Point"
      },
      "properties": {
        "bangumi_id": 345980,
        "bangumi_title": "四叠半时光机布鲁斯",
        "ep_cut": "",
        "image_url": "https://w.junreimap.com/images/points/345980/m2k0ijeku_1720407981025.jpg",
        "location": "",
        "point_id": "m2k0ijeku",
        "point_name": "吉田寮内",
        "remark": ""
      },
      "type": "Feature"
    },
    {
      "geometry": {
        "coordinates": [
          135.771728,
          35.029782
        ],
        "type": "Point"
      },
      "properties": {
        "bangumi_id": 345980,
        "bangumi_title": "四叠半时光机布鲁斯",
        "ep_cut": "",
        "image_url": "https://w.junreimap.com/images/points/345980/m2k5nqem2_1720408276409.jpg",
        "location": "",
        "point_id": "m2k5nqem2",
        "point_name": "鴨川デルタ",
        "remark": ""
      },
      "type": "Feature"
    },
    {
      "geometry": {
        "coordinates": [
          135.771248,
          35.029603
        ],
        "type": "Point"
      },
      "properties": {
        "bangumi_id": 345980,
        "bangumi_title": "四叠半时光机布鲁斯",
        "ep_cut": "",
        "image_url": "https://w.junreimap.com/images/points/345980/m2k8j3uuc_1720408447005.jpg",
        "location": "",
        "point_id": "m2k8j3uuc",
        "point_name": "鴨川デルタ西",
        "remark": ""
      },
      "type": "Feature"
    },
    {
      "geometry": {
        "coordinates": [
          135.772252,
          35.030486
        ],
        "type": "Point"
      },
      "properties": {
        "bangumi_id": 345980,
        "bangumi_title": "四叠半时光机布鲁斯",
        "ep_cut": "op",
        "image_url": "https://w.junreimap.com/images/user/0/bangumi/345980/points/mlobfttg5-1721906286698.jpg",
        "location": "",
        "point_id": "mlobfttg5",
        "point_name": "河合橋",
        "remark": ""
      },
      "type": "Feature"
    },
    {
      "geometry": {
        "coordinates": [
          135.742572,
          35.49518
        ],
        "type": "Point"
      },
      "properties": {
        "bangumi_id": 345980,
        "bangumi_title": "四叠半时光机布鲁斯",
        "ep_cut": "6",
        "image_url": "https://w.junreimap.com/images/user/0/bangumi/345980/points/fmfzxau-1781019396371.jpg",
        "location": "",
        "point_id": "fmfzxau",
        "point_name": "鯖街道起点いづみ町商店街跡",
        "remark": ""
      },
      "type": "Feature"
    }
  ],
  "type": "FeatureCollection"
}