{
  "features": [
    {
      "geometry": {
        "coordinates": [
          130.035448,
          33.17898
        ],
        "type": "Point"
      },
      "properties": {
        "bangumi_id": 353181,
        "bangumi_title": "佐贺偶像是传奇 梦想银河乐园",
        "ep_cut": "",
        "image_url": "",
        "location": "",
        "point_id": "e5aivgp",
        "point_name": "佐賀県立宇宙科学館",
        "remark": ""
      },
      "type": "Feature"
    },
    {
      "geometry": {
        "coordinates": [
          130.014676,
          33.196224
        ],
        "type": "Point"
      },
      "properties": {
        "bangumi_id": 353181,
        "bangumi_title": "佐贺偶像是传奇 梦想银河乐园",
        "ep_cut": "",
        "image_url": "",
        "location": "",
        "point_id": "e5angb6",
        "point_name": "武雄温泉 楼門",
        "remark": ""
      },
      "type": "Feature"
    },
    {
      "geometry": {
        "coordinates": [
          130.292797,
          33.275247
        ],
        "type": "Point"
      },
      "properties": {
        "bangumi_id": 353181,
        "bangumi_title": "佐贺偶像是传奇 梦想银河乐园",
        "ep_cut": "",
        "image_url": "",
        "location": "",
        "point_id": "e5aqgwi",
        "point_name": "SAGAアリーナ",
        "remark": ""
      },
      "type": "Feature"
    },
    {
      "geometry": {
        "coordinates": [
          129.881577,
          33.567011
        ],
        "type": "Point"
      },
      "properties": {
        "bangumi_id": 353181,
        "bangumi_title": "佐贺偶像是传奇 梦想银河乐园",
        "ep_cut": "",
        "image_url": "",
        "location": "",
        "point_id": "e5b3anz",
        "point_name": "杉ノ原放牧場",
        "remark": ""
      },
      "type": "Feature"
    },
    {
      "geometry": {
        "coordinates": [
          129.970355,
          33.450073
        ],
        "type": "Point"
      },
      "properties": {
        "bangumi_id": 353181,
        "bangumi_title": "佐贺偶像是传奇 梦想银河乐园",
        "ep_cut": "",
        "image_url": "",
        "location": "",
        "point_id": "e5b9dq0",
        "point_name": "大名小路児童公園",
        "remark": ""
      },
      "type": "Feature"
    },
    {
      "geometry": {
        "coordinates": [
          129.953732,
          33.470843
        ],
        "type": "Point"
      },
      "properties": {
        "bangumi_id": 353181,
        "bangumi_title": "佐贺偶像是传奇 梦想银河乐园",
        "ep_cut": "",
        "image_url": "",
        "location": "",
        "point_id": "e5bd91q",
        "point_name": "唐津市歴史民俗資料館",
        "remark": ""
      },
      "type": "Feature"
    },
    {
      "geometry": {
        "coordinates": [
          129.976468,
          33.129345
        ],
        "type": "Point"
      },
      "properties": {
        "bangumi_id": 353181,
        "bangumi_title": "佐贺偶像是传奇 梦想银河乐园",
        "ep_cut": "",
        "image_url": "",
        "location": "",
        "point_id": "e5bkg93",
        "point_name": "森とリスの遊園地 メルヘン村",
        "remark": ""
      },
      "type": "Feature"
    },
    {
      "geometry": {
        "coordinates": [
          129.957213,
          33.443317
        ],
        "type": "Point"
      },
      "properties": {
        "bangumi_id": 353181,
        "bangumi_title": "佐贺偶像是传奇 梦想银河乐园",
        "ep_cut": "",
        "image_url": "",
        "location": "",
        "point_id": "e5dc6ux",
        "point_name": "スーパーモリナガ 唐津店",
        "remark": "徐福不舒服在停车场倒下"
      },
      "type": "Feature"
    },
    {
      "geometry": {
        "coordinates": [
          130.146195,
          33.07603
        ],
        "type": "Point"
      },
      "properties": {
        "bangumi_id": 353181,
        "bangumi_title": "佐贺偶像是传奇 梦想银河乐园",
        "ep_cut": "",
        "image_url": "",
        "location": "",
        "point_id": "e5e1spg",
        "point_name": "鹿島ガタリンピック会場",
        "remark": "夕雾、莉莉、咲做干潟科普的地方"
      },
      "type": "Feature"
    },
    {
      "geometry": {
        "coordinates": [
          130.31915,
          33.252423
        ],
        "type": "Point"
      },
      "properties": {
        "bangumi_id": 353181,
        "bangumi_title": "佐贺偶像是传奇 梦想银河乐园",
        "ep_cut": "",
        "image_url": "",
        "location": "",
        "point_id": "e5f7ri2",
        "point_name": "モラージュ佐賀",
        "remark": "袭击刚发生时，纯子和爱在商场内。"
      },
      "type": "Feature"
    },
    {
      "geometry": {
        "coordinates": [
          129.902136,
          33.287297
        ],
        "type": "Point"
      },
      "properties": {
        "bangumi_id": 353181,
        "bangumi_title": "佐贺偶像是传奇 梦想银河乐园",
        "ep_cut": "",
        "image_url": "",
        "location": "",
        "point_id": "e5fhodh",
        "point_name": "ドライブイン鳥 伊万里本店",
        "remark": ""
      },
      "type": "Feature"
    },
    {
      "geometry": {
        "coordinates": [
          129.847458,
          33.327742
        ],
        "type": "Point"
      },
      "properties": {
        "bangumi_id": 353181,
        "bangumi_title": "佐贺偶像是传奇 梦想银河乐园",
        "ep_cut": "",
        "image_url": "",
        "location": "",
        "point_id": "e5fkiph",
        "point_name": "小島食品工業(株) 本社",
        "remark": "袭击刚发生时，工人们在天台上。"
      },
      "type": "Feature"
    },
    {
      "geometry": {
        "coordinates": [
          130.49121,
          33.370092
        ],
        "type": "Point"
      },
      "properties": {
        "bangumi_id": 353181,
        "bangumi_title": "佐贺偶像是传奇 梦想银河乐园",
        "ep_cut": "",
        "image_url": "",
        "location": "",
        "point_id": "e5g5ro1",
        "point_name": "新鳥栖駅",
        "remark": "第一轮攻击被炸之地"
      },
      "type": "Feature"
    },
    {
      "geometry": {
        "coordinates": [
          130.528687,
          33.39392
        ],
        "type": "Point"
      },
      "properties": {
        "bangumi_id": 353181,
        "bangumi_title": "佐贺偶像是传奇 梦想银河乐园",
        "ep_cut": "",
        "image_url": "",
        "location": "",
        "point_id": "e5gbf2h",
        "point_name": "長崎大分線と国道3号線のJCT",
        "remark": "第一轮被袭击之地"
      },
      "type": "Feature"
    },
    {
      "geometry": {
        "coordinates": [
          130.373854,
          33.430321
        ],
        "type": "Point"
      },
      "properties": {
        "bangumi_id": 353181,
        "bangumi_title": "佐贺偶像是传奇 梦想银河乐园",
        "ep_cut": "",
        "image_url": "",
        "location": "",
        "point_id": "e5gz3qw",
        "point_name": "航空自衛隊 背振山分屯基地",
        "remark": "第一轮被袭击之地"
      },
      "type": "Feature"
    },
    {
      "geometry": {
        "coordinates": [
          130.344461,
          33.305577
        ],
        "type": "Point"
      },
      "properties": {
        "bangumi_id": 353181,
        "bangumi_title": "佐贺偶像是传奇 梦想银河乐园",
        "ep_cut": "",
        "image_url": "",
        "location": "",
        "point_id": "e5hge9k",
        "point_name": "神埼市のエッフェル塔",
        "remark": ""
      },
      "type": "Feature"
    },
    {
      "geometry": {
        "coordinates": [
          130.301538,
          33.265268
        ],
        "type": "Point"
      },
      "properties": {
        "bangumi_id": 353181,
        "bangumi_title": "佐贺偶像是传奇 梦想银河乐园",
        "ep_cut": "",
        "image_url": "",
        "location": "",
        "point_id": "e5hlf0r",
        "point_name": "Cygames 佐賀ビル",
        "remark": "被袭击的cygame大厦"
      },
      "type": "Feature"
    },
    {
      "geometry": {
        "coordinates": [
          129.997667,
          33.087175
        ],
        "type": "Point"
      },
      "properties": {
        "bangumi_id": 353181,
        "bangumi_title": "佐贺偶像是传奇 梦想银河乐园",
        "ep_cut": "",
        "image_url": "",
        "location": "",
        "point_id": "e5i5cwx",
        "point_name": "立岩展望台",
        "remark": "待补充"
      },
      "type": "Feature"
    },
    {
      "geometry": {
        "coordinates": [
          130.142297,
          33.273001
        ],
        "type": "Point"
      },
      "properties": {
        "bangumi_id": 353181,
        "bangumi_title": "佐贺偶像是传奇 梦想银河乐园",
        "ep_cut": "",
        "image_url": "",
        "location": "",
        "point_id": "e5jf7f2",
        "point_name": "多久江北線と多久若木線の交差点",
        "remark": "外星人追击万梨阿，但被7人组撞飞的地方"
      },
      "type": "Feature"
    },
    {
      "geometry": {
        "coordinates": [
          130.21361,
          33.198351
        ],
        "type": "Point"
      },
      "properties": {
        "bangumi_id": 353181,
        "bangumi_title": "佐贺偶像是传奇 梦想银河乐园",
        "ep_cut": "",
        "image_url": "",
        "location": "",
        "point_id": "e5ld0gv",
        "point_name": "六角川大橋",
        "remark": "实际画面有所调整"
      },
      "type": "Feature"
    },
    {
      "geometry": {
        "coordinates": [
          130.074756,
          33.177363
        ],
        "type": "Point"
      },
      "properties": {
        "bangumi_id": 353181,
        "bangumi_title": "佐贺偶像是传奇 梦想银河乐园",
        "ep_cut": "",
        "image_url": "",
        "location": "",
        "point_id": "e6j7net",
        "point_name": "肥前犬山城展望台",
        "remark": ""
      },
      "type": "Feature"
    },
    {
      "geometry": {
        "coordinates": [
          130.07468,
          33.177399
        ],
        "type": "Point"
      },
      "properties": {
        "bangumi_id": 353181,
        "bangumi_title": "佐贺偶像是传奇 梦想银河乐园",
        "ep_cut": "",
        "image_url": "",
        "location": "",
        "point_id": "e5m3zbs",
        "point_name": "肥前犬山城展望台",
        "remark": "大决战时死金大叔之一在此发射大炮"
      },
      "type": "Feature"
    },
    {
      "geometry": {
        "coordinates": [
          130.245585,
          33.257576
        ],
        "type": "Point"
      },
      "properties": {
        "bangumi_id": 353181,
        "bangumi_title": "佐贺偶像是传奇 梦想银河乐园",
        "ep_cut": "",
        "image_url": "",
        "location": "",
        "point_id": "e5lxz52",
        "point_name": "バルーンフェスタ 観光案内所",
        "remark": ""
      },
      "type": "Feature"
    },
    {
      "geometry": {
        "coordinates": [
          130.25622,
          33.208973
        ],
        "type": "Point"
      },
      "properties": {
        "bangumi_id": 353181,
        "bangumi_title": "佐贺偶像是传奇 梦想银河乐园",
        "ep_cut": "",
        "image_url": "",
        "location": "",
        "point_id": "e5lqn14",
        "point_name": "佐賀EXPO会場",
        "remark": "该地点根据剧情内地图推测，实际上无此设施"
      },
      "type": "Feature"
    },
    {
      "geometry": {
        "coordinates": [
          130.299521,
          33.250031
        ],
        "type": "Point"
      },
      "properties": {
        "bangumi_id": 353181,
        "bangumi_title": "佐贺偶像是传奇 梦想银河乐园",
        "ep_cut": "",
        "image_url": "",
        "location": "",
        "point_id": "e6oh4dl",
        "point_name": "佐賀県庁旧館",
        "remark": "被轰炸的佐贺县厅旧馆"
      },
      "type": "Feature"
    },
    {
      "geometry": {
        "coordinates": [
          130.296934,
          33.251809
        ],
        "type": "Point"
      },
      "properties": {
        "bangumi_id": 353181,
        "bangumi_title": "佐贺偶像是传奇 梦想银河乐园",
        "ep_cut": "",
        "image_url": "",
        "location": "",
        "point_id": "e6plogr",
        "point_name": "NTTドコモビジネス 中の小路ビル",
        "remark": "被摧毁的天线塔"
      },
      "type": "Feature"
    },
    {
      "geometry": {
        "coordinates": [
          130.409877,
          33.32468
        ],
        "type": "Point"
      },
      "properties": {
        "bangumi_id": 353181,
        "bangumi_title": "佐贺偶像是传奇 梦想银河乐园",
        "ep_cut": "",
        "image_url": "",
        "location": "",
        "point_id": "e6xmi4w",
        "point_name": "陸上自衛隊目達原駐屯地",
        "remark": "被摧毁的UH-1J直升机。佐贺仅该驻屯地有此型号，但画面中建筑与实地有出入，推测仅以该地为蓝本进行二次创作。"
      },
      "type": "Feature"
    }
  ],
  "type": "FeatureCollection"
}