{
  "features": [
    {
      "geometry": {
        "coordinates": [
          139.668493,
          35.660436
        ],
        "type": "Point"
      },
      "properties": {
        "bangumi_id": 354414,
        "bangumi_title": "SHINE POST",
        "ep_cut": 4,
        "image_url": "https://w.junreimap.com/images/user/0/bangumi/354414/points/iuzb744ij-1711351129173.jpg",
        "location": "",
        "point_id": "iuzb744ij",
        "point_name": "下北沢Shangri-La",
        "remark": ""
      },
      "type": "Feature"
    },
    {
      "geometry": {
        "coordinates": [
          139.629822,
          35.701442
        ],
        "type": "Point"
      },
      "properties": {
        "bangumi_id": 354414,
        "bangumi_title": "SHINE POST",
        "ep_cut": 7,
        "image_url": "https://w.junreimap.com/images/user/0/bangumi/354414/points/iuzg1ud1z-1711351370897.jpg",
        "location": "",
        "point_id": "iuzg1ud1z",
        "point_name": "ファミリー​マート\n杉並​成田​東​五丁目​店",
        "remark": ""
      },
      "type": "Feature"
    },
    {
      "geometry": {
        "coordinates": [
          139.637655,
          35.698852
        ],
        "type": "Point"
      },
      "properties": {
        "bangumi_id": 354414,
        "bangumi_title": "SHINE POST",
        "ep_cut": "",
        "image_url": "https://w.junreimap.com/images/user/0/bangumi/354414/points/iuzisf6or-1711351484009.jpg",
        "location": "",
        "point_id": "iuzisf6or",
        "point_name": "南阿佐ヶ谷 青梅街道沿い",
        "remark": ""
      },
      "type": "Feature"
    },
    {
      "geometry": {
        "coordinates": [
          139.637633,
          35.698664
        ],
        "type": "Point"
      },
      "properties": {
        "bangumi_id": 354414,
        "bangumi_title": "SHINE POST",
        "ep_cut": 1,
        "image_url": "https://w.junreimap.com/images/user/0/bangumi/354414/points/iuzil36wd-1711351670350.jpg",
        "location": "",
        "point_id": "iuzil36wd",
        "point_name": "南阿佐ヶ谷 青梅街道沿い",
        "remark": ""
      },
      "type": "Feature"
    },
    {
      "geometry": {
        "coordinates": [
          139.636931,
          35.704793
        ],
        "type": "Point"
      },
      "properties": {
        "bangumi_id": 354414,
        "bangumi_title": "SHINE POST",
        "ep_cut": 4,
        "image_url": "https://w.junreimap.com/images/user/0/bangumi/354414/points/iuzle83dn-1711351661009.jpg",
        "location": "",
        "point_id": "iuzle83dn",
        "point_name": "マクドナルド\n阿佐ヶ谷​店",
        "remark": ""
      },
      "type": "Feature"
    },
    {
      "geometry": {
        "coordinates": [
          139.737807,
          35.678541
        ],
        "type": "Point"
      },
      "properties": {
        "bangumi_id": 354414,
        "bangumi_title": "SHINE POST",
        "ep_cut": 11,
        "image_url": "https://w.junreimap.com/images/user/0/bangumi/354414/points/iuzoabrn4-1711351822818.jpg",
        "location": "",
        "point_id": "iuzoabrn4",
        "point_name": "赤坂見附歩道橋",
        "remark": ""
      },
      "type": "Feature"
    },
    {
      "geometry": {
        "coordinates": [
          139.717126,
          35.674538
        ],
        "type": "Point"
      },
      "properties": {
        "bangumi_id": 354414,
        "bangumi_title": "SHINE POST",
        "ep_cut": 2,
        "image_url": "https://w.junreimap.com/images/user/0/bangumi/354414/points/iuzpkyxka-1711351880071.jpg",
        "location": "",
        "point_id": "iuzpkyxka",
        "point_name": "神宮球場",
        "remark": ""
      },
      "type": "Feature"
    },
    {
      "geometry": {
        "coordinates": [
          139.636334,
          35.70454
        ],
        "type": "Point"
      },
      "properties": {
        "bangumi_id": 354414,
        "bangumi_title": "SHINE POST",
        "ep_cut": 5,
        "image_url": "https://w.junreimap.com/images/user/0/bangumi/354414/points/iuzs3hn61-1711352047613.jpg",
        "location": "",
        "point_id": "iuzs3hn61",
        "point_name": "JR阿佐ヶ谷駅 南口",
        "remark": ""
      },
      "type": "Feature"
    },
    {
      "geometry": {
        "coordinates": [
          139.749881,
          35.693236
        ],
        "type": "Point"
      },
      "properties": {
        "bangumi_id": 354414,
        "bangumi_title": "SHINE POST",
        "ep_cut": 4,
        "image_url": "https://w.junreimap.com/images/user/0/bangumi/354414/points/iuztd7aag-1711352128438.jpg",
        "location": "",
        "point_id": "iuztd7aag",
        "point_name": "日本武道館",
        "remark": ""
      },
      "type": "Feature"
    },
    {
      "geometry": {
        "coordinates": [
          139.719009,
          35.729072
        ],
        "type": "Point"
      },
      "properties": {
        "bangumi_id": 354414,
        "bangumi_title": "SHINE POST",
        "ep_cut": 6,
        "image_url": "https://w.junreimap.com/images/user/0/bangumi/354414/points/iuzyxo2ok-1711352486343.jpg",
        "location": "",
        "point_id": "iuzyxo2ok",
        "point_name": "サンシャインシティ 噴水広場",
        "remark": ""
      },
      "type": "Feature"
    },
    {
      "geometry": {
        "coordinates": [
          139.629699,
          35.703414
        ],
        "type": "Point"
      },
      "properties": {
        "bangumi_id": 354414,
        "bangumi_title": "SHINE POST",
        "ep_cut": 6,
        "image_url": "https://w.junreimap.com/images/user/0/bangumi/354414/points/iuzx5o16d-1711352391070.jpg",
        "location": "",
        "point_id": "iuzx5o16d",
        "point_name": "杉並区立阿佐谷南公園",
        "remark": ""
      },
      "type": "Feature"
    },
    {
      "geometry": {
        "coordinates": [
          139.571519,
          35.698165
        ],
        "type": "Point"
      },
      "properties": {
        "bangumi_id": 354414,
        "bangumi_title": "SHINE POST",
        "ep_cut": 11,
        "image_url": "https://w.junreimap.com/images/user/0/bangumi/354414/points/iv00tduz5-1711352571000.jpg",
        "location": "",
        "point_id": "iv00tduz5",
        "point_name": "井の頭公園",
        "remark": ""
      },
      "type": "Feature"
    },
    {
      "geometry": {
        "coordinates": [
          139.635269,
          35.704768
        ],
        "type": "Point"
      },
      "properties": {
        "bangumi_id": 354414,
        "bangumi_title": "SHINE POST",
        "ep_cut": "",
        "image_url": "https://w.junreimap.com/images/user/0/bangumi/354414/points/iv02vnd6j-1711352690903.jpg",
        "location": "",
        "point_id": "iv02vnd6j",
        "point_name": "阿佐ヶ谷",
        "remark": ""
      },
      "type": "Feature"
    },
    {
      "geometry": {
        "coordinates": [
          139.664709,
          35.707526
        ],
        "type": "Point"
      },
      "properties": {
        "bangumi_id": 354414,
        "bangumi_title": "SHINE POST",
        "ep_cut": 12,
        "image_url": "https://w.junreimap.com/images/user/0/bangumi/354414/points/iuzvxtbod-1711352733993.jpg",
        "location": "",
        "point_id": "iuzvxtbod",
        "point_name": "中野サンプラザホール",
        "remark": ""
      },
      "type": "Feature"
    }
  ],
  "type": "FeatureCollection"
}