{
  "features": [
    {
      "geometry": {
        "coordinates": [
          139.720003,
          35.656301
        ],
        "type": "Point"
      },
      "properties": {
        "bangumi_id": 355555,
        "bangumi_title": "薰香花朵凛然绽放",
        "ep_cut": 30,
        "image_url": "https://w.junreimap.com/images/points/355555/316g8u7_1753612015127.jpg",
        "location": "広尾-东京",
        "point_id": "316g8u7",
        "point_name": "広尾北公園",
        "remark": ""
      },
      "type": "Feature"
    },
    {
      "geometry": {
        "coordinates": [
          139.720026,
          35.656282
        ],
        "type": "Point"
      },
      "properties": {
        "bangumi_id": 355555,
        "bangumi_title": "薰香花朵凛然绽放",
        "ep_cut": 30,
        "image_url": "https://w.junreimap.com/images/points/355555/316h1ip_1753612039877.jpg",
        "location": "広尾-东京",
        "point_id": "316h1ip",
        "point_name": "広尾北公園",
        "remark": ""
      },
      "type": "Feature"
    },
    {
      "geometry": {
        "coordinates": [
          139.720082,
          35.656266
        ],
        "type": "Point"
      },
      "properties": {
        "bangumi_id": 355555,
        "bangumi_title": "薰香花朵凛然绽放",
        "ep_cut": 11,
        "image_url": "https://w.junreimap.com/images/points/355555/316n9sf_1753612329027.jpg",
        "location": "広尾-东京",
        "point_id": "316n9sf",
        "point_name": "広尾北公園",
        "remark": ""
      },
      "type": "Feature"
    },
    {
      "geometry": {
        "coordinates": [
          139.720067,
          35.656243
        ],
        "type": "Point"
      },
      "properties": {
        "bangumi_id": 355555,
        "bangumi_title": "薰香花朵凛然绽放",
        "ep_cut": 11,
        "image_url": "https://w.junreimap.com/images/points/355555/316neje_1753612335080.jpg",
        "location": "広尾-东京",
        "point_id": "316neje",
        "point_name": "広尾北公園",
        "remark": ""
      },
      "type": "Feature"
    },
    {
      "geometry": {
        "coordinates": [
          139.720117,
          35.656268
        ],
        "type": "Point"
      },
      "properties": {
        "bangumi_id": 355555,
        "bangumi_title": "薰香花朵凛然绽放",
        "ep_cut": 11,
        "image_url": "https://w.junreimap.com/images/points/355555/316nphc_1753612348352.jpg",
        "location": "広尾-东京",
        "point_id": "316nphc",
        "point_name": "広尾北公園",
        "remark": ""
      },
      "type": "Feature"
    },
    {
      "geometry": {
        "coordinates": [
          139.720091,
          35.656229
        ],
        "type": "Point"
      },
      "properties": {
        "bangumi_id": 355555,
        "bangumi_title": "薰香花朵凛然绽放",
        "ep_cut": 11,
        "image_url": "https://w.junreimap.com/images/points/355555/316nm81_1753612344412.jpg",
        "location": "広尾-东京",
        "point_id": "316nm81",
        "point_name": "広尾北公園",
        "remark": ""
      },
      "type": "Feature"
    },
    {
      "geometry": {
        "coordinates": [
          139.720101,
          35.656249
        ],
        "type": "Point"
      },
      "properties": {
        "bangumi_id": 355555,
        "bangumi_title": "薰香花朵凛然绽放",
        "ep_cut": 11,
        "image_url": "https://w.junreimap.com/images/points/355555/316nj0j_1753612340097.jpg",
        "location": "広尾-东京",
        "point_id": "316nj0j",
        "point_name": "広尾北公園",
        "remark": ""
      },
      "type": "Feature"
    },
    {
      "geometry": {
        "coordinates": [
          139.720315,
          35.656332
        ],
        "type": "Point"
      },
      "properties": {
        "bangumi_id": 355555,
        "bangumi_title": "薰香花朵凛然绽放",
        "ep_cut": 30,
        "image_url": "https://w.junreimap.com/images/points/355555/9kbjgf9_1767830101555.jpg",
        "location": "広尾-东京",
        "point_id": "9kbjgf9",
        "point_name": "広尾北公園",
        "remark": ""
      },
      "type": "Feature"
    },
    {
      "geometry": {
        "coordinates": [
          139.724204,
          35.656503
        ],
        "type": "Point"
      },
      "properties": {
        "bangumi_id": 355555,
        "bangumi_title": "薰香花朵凛然绽放",
        "ep_cut": 175,
        "image_url": "https://w.junreimap.com/images/points/355555/9o3lueq_1768058656493.jpg",
        "location": "広尾-东京",
        "point_id": "9o3lueq",
        "point_name": "笄公園",
        "remark": "175话，太伟大了三香见老师T T"
      },
      "type": "Feature"
    },
    {
      "geometry": {
        "coordinates": [
          139.723924,
          35.656478
        ],
        "type": "Point"
      },
      "properties": {
        "bangumi_id": 355555,
        "bangumi_title": "薰香花朵凛然绽放",
        "ep_cut": 175,
        "image_url": "https://w.junreimap.com/images/points/355555/9o3npx0_1768058727546.jpg",
        "location": "広尾-东京",
        "point_id": "9o3npx0",
        "point_name": "笄公園",
        "remark": "175话"
      },
      "type": "Feature"
    },
    {
      "geometry": {
        "coordinates": [
          139.72407,
          35.656494
        ],
        "type": "Point"
      },
      "properties": {
        "bangumi_id": 355555,
        "bangumi_title": "薰香花朵凛然绽放",
        "ep_cut": 175,
        "image_url": "https://w.junreimap.com/images/points/355555/9o3nyhe_1768058739201.jpg",
        "location": "広尾-东京",
        "point_id": "9o3nyhe",
        "point_name": "笄公園",
        "remark": "175话"
      },
      "type": "Feature"
    },
    {
      "geometry": {
        "coordinates": [
          139.723991,
          35.656431
        ],
        "type": "Point"
      },
      "properties": {
        "bangumi_id": 355555,
        "bangumi_title": "薰香花朵凛然绽放",
        "ep_cut": 12,
        "image_url": "",
        "location": "広尾-东京",
        "point_id": "382wfuj",
        "point_name": "笄公園",
        "remark": "12话"
      },
      "type": "Feature"
    },
    {
      "geometry": {
        "coordinates": [
          139.707226,
          35.64678
        ],
        "type": "Point"
      },
      "properties": {
        "bangumi_id": 355555,
        "bangumi_title": "薰香花朵凛然绽放",
        "ep_cut": 13,
        "image_url": "",
        "location": "惠比寿站-东京",
        "point_id": "382uxz6",
        "point_name": "恵比寿公園",
        "remark": "13话，凛太郎、薰子和昂见面的公园"
      },
      "type": "Feature"
    },
    {
      "geometry": {
        "coordinates": [
          139.811747,
          35.70945
        ],
        "type": "Point"
      },
      "properties": {
        "bangumi_id": 355555,
        "bangumi_title": "薰香花朵凛然绽放",
        "ep_cut": 59,
        "image_url": "https://w.junreimap.com/images/points/355555/28f6cdx_1751873520042.jpg",
        "location": "押上-东京",
        "point_id": "28f6cdx",
        "point_name": "押业桥周边",
        "remark": ""
      },
      "type": "Feature"
    },
    {
      "geometry": {
        "coordinates": [
          139.811774,
          35.70943
        ],
        "type": "Point"
      },
      "properties": {
        "bangumi_id": 355555,
        "bangumi_title": "薰香花朵凛然绽放",
        "ep_cut": 58,
        "image_url": "https://w.junreimap.com/images/points/355555/28ff8dd_1751873550224.jpg",
        "location": "押上-东京",
        "point_id": "28ff8dd",
        "point_name": "押业桥周边",
        "remark": ""
      },
      "type": "Feature"
    },
    {
      "geometry": {
        "coordinates": [
          139.811741,
          35.709427
        ],
        "type": "Point"
      },
      "properties": {
        "bangumi_id": 355555,
        "bangumi_title": "薰香花朵凛然绽放",
        "ep_cut": 58,
        "image_url": "https://w.junreimap.com/images/points/355555/28ffexn_1751873559154.jpg",
        "location": "押上-东京",
        "point_id": "28ffexn",
        "point_name": "押业桥周边",
        "remark": ""
      },
      "type": "Feature"
    },
    {
      "geometry": {
        "coordinates": [
          139.811785,
          35.709454
        ],
        "type": "Point"
      },
      "properties": {
        "bangumi_id": 355555,
        "bangumi_title": "薰香花朵凛然绽放",
        "ep_cut": 58,
        "image_url": "https://w.junreimap.com/images/points/355555/28fert9_1751873529265.jpg",
        "location": "押上-东京",
        "point_id": "28fert9",
        "point_name": "押业桥周边",
        "remark": ""
      },
      "type": "Feature"
    },
    {
      "geometry": {
        "coordinates": [
          139.811715,
          35.709445
        ],
        "type": "Point"
      },
      "properties": {
        "bangumi_id": 355555,
        "bangumi_title": "薰香花朵凛然绽放",
        "ep_cut": 58,
        "image_url": "https://w.junreimap.com/images/points/355555/28fg2nl_1751873589893.jpg",
        "location": "押上-东京",
        "point_id": "28fg2nl",
        "point_name": "押业桥周边",
        "remark": ""
      },
      "type": "Feature"
    },
    {
      "geometry": {
        "coordinates": [
          139.735285,
          35.627627
        ],
        "type": "Point"
      },
      "properties": {
        "bangumi_id": 355555,
        "bangumi_title": "薰香花朵凛然绽放",
        "ep_cut": 18,
        "image_url": "https://w.junreimap.com/images/points/355555/28fjj5q_1751873753295.jpg",
        "location": "品川-东京",
        "point_id": "28fjj5q",
        "point_name": "水族馆",
        "remark": ""
      },
      "type": "Feature"
    },
    {
      "geometry": {
        "coordinates": [
          139.735323,
          35.627627
        ],
        "type": "Point"
      },
      "properties": {
        "bangumi_id": 355555,
        "bangumi_title": "薰香花朵凛然绽放",
        "ep_cut": 18,
        "image_url": "https://w.junreimap.com/images/points/355555/28fk0vw_1751873774432.jpg",
        "location": "品川-东京",
        "point_id": "28fk0vw",
        "point_name": "水族馆",
        "remark": ""
      },
      "type": "Feature"
    },
    {
      "geometry": {
        "coordinates": [
          139.796798,
          35.714786
        ],
        "type": "Point"
      },
      "properties": {
        "bangumi_id": 355555,
        "bangumi_title": "薰香花朵凛然绽放",
        "ep_cut": 58,
        "image_url": "",
        "location": "浅草寺-东京",
        "point_id": "9kbad3c",
        "point_name": "浅草寺",
        "remark": "58话在浅草约会时，在浅草寺算命。"
      },
      "type": "Feature"
    },
    {
      "geometry": {
        "coordinates": [
          139.796315,
          35.712817
        ],
        "type": "Point"
      },
      "properties": {
        "bangumi_id": 355555,
        "bangumi_title": "薰香花朵凛然绽放",
        "ep_cut": 58,
        "image_url": "https://w.junreimap.com/images/points/355555/9kbd4s1_1767829811769.jpg",
        "location": "浅草寺-东京",
        "point_id": "9kbd4s1",
        "point_name": "叶屋",
        "remark": ""
      },
      "type": "Feature"
    },
    {
      "geometry": {
        "coordinates": [
          139.795973,
          35.712849
        ],
        "type": "Point"
      },
      "properties": {
        "bangumi_id": 355555,
        "bangumi_title": "薰香花朵凛然绽放",
        "ep_cut": 58,
        "image_url": "https://w.junreimap.com/images/points/355555/9kbdm1x_1767829860833.jpg",
        "location": "浅草寺-东京",
        "point_id": "9kbdm1x",
        "point_name": "浅草メンチ",
        "remark": "肉末炸猪排"
      },
      "type": "Feature"
    },
    {
      "geometry": {
        "coordinates": [
          139.668923,
          35.607865
        ],
        "type": "Point"
      },
      "properties": {
        "bangumi_id": 355555,
        "bangumi_title": "薰香花朵凛然绽放",
        "ep_cut": "",
        "image_url": "https://w.junreimap.com/images/points/355555/2oev4sr_1752840185109.jpg",
        "location": "自由丘-东京",
        "point_id": "2oev4sr",
        "point_name": "自由之丘站",
        "remark": ""
      },
      "type": "Feature"
    },
    {
      "geometry": {
        "coordinates": [
          139.669389,
          35.608085
        ],
        "type": "Point"
      },
      "properties": {
        "bangumi_id": 355555,
        "bangumi_title": "薰香花朵凛然绽放",
        "ep_cut": "",
        "image_url": "https://w.junreimap.com/images/points/355555/2oeymc0_1752840234848.jpg",
        "location": "自由丘-东京",
        "point_id": "2oeymc0",
        "point_name": "蛋糕店",
        "remark": ""
      },
      "type": "Feature"
    },
    {
      "geometry": {
        "coordinates": [
          139.66987,
          35.607936
        ],
        "type": "Point"
      },
      "properties": {
        "bangumi_id": 355555,
        "bangumi_title": "薰香花朵凛然绽放",
        "ep_cut": 37,
        "image_url": "https://w.junreimap.com/images/points/355555/9kbga6b_1767830041749.jpg",
        "location": "自由丘-东京",
        "point_id": "9kbga6b",
        "point_name": "天一 自由が丘店",
        "remark": ""
      },
      "type": "Feature"
    },
    {
      "geometry": {
        "coordinates": [
          139.709774,
          35.731193
        ],
        "type": "Point"
      },
      "properties": {
        "bangumi_id": 355555,
        "bangumi_title": "薰香花朵凛然绽放",
        "ep_cut": "",
        "image_url": "https://w.junreimap.com/images/user/2168/bangumi/355555/points/2of207k-1752840415692.jpg",
        "location": "池袋-东京",
        "point_id": "2of207k",
        "point_name": "池袋站西口（中央）",
        "remark": ""
      },
      "type": "Feature"
    },
    {
      "geometry": {
        "coordinates": [
          139.740941,
          35.642877
        ],
        "type": "Point"
      },
      "properties": {
        "bangumi_id": 355555,
        "bangumi_title": "薰香花朵凛然绽放",
        "ep_cut": 100,
        "image_url": "https://w.junreimap.com/images/points/355555/45rneh7_1756066299667.jpg",
        "location": "泉岳寺-东京",
        "point_id": "45rneh7",
        "point_name": "亀塚公園",
        "remark": "亀塚公園东南侧的立桥上。"
      },
      "type": "Feature"
    },
    {
      "geometry": {
        "coordinates": [
          139.510447,
          35.726804
        ],
        "type": "Point"
      },
      "properties": {
        "bangumi_id": 355555,
        "bangumi_title": "薰香花朵凛然绽放",
        "ep_cut": 15,
        "image_url": "https://w.junreimap.com/images/points/355555/45rtose_1756066608260.jpg",
        "location": "花小金井-东京",
        "point_id": "45rtose",
        "point_name": "鈴木町さくら公園",
        "remark": ""
      },
      "type": "Feature"
    },
    {
      "geometry": {
        "coordinates": [
          139.769757,
          35.710625
        ],
        "type": "Point"
      },
      "properties": {
        "bangumi_id": 355555,
        "bangumi_title": "薰香花朵凛然绽放",
        "ep_cut": 156,
        "image_url": "https://w.junreimap.com/images/points/355555/3vf0ac5_1767830281636.jpg",
        "location": "台东区-东京都",
        "point_id": "3vf0ac5",
        "point_name": "不忍池",
        "remark": "13、156话"
      },
      "type": "Feature"
    },
    {
      "geometry": {
        "coordinates": [
          139.769417,
          35.710359
        ],
        "type": "Point"
      },
      "properties": {
        "bangumi_id": 355555,
        "bangumi_title": "薰香花朵凛然绽放",
        "ep_cut": 156,
        "image_url": "https://w.junreimap.com/images/points/355555/9kbmuvu_1767830260414.jpg",
        "location": "台东区-东京都",
        "point_id": "9kbmuvu",
        "point_name": "不忍池",
        "remark": ""
      },
      "type": "Feature"
    },
    {
      "geometry": {
        "coordinates": [
          139.773385,
          35.70978
        ],
        "type": "Point"
      },
      "properties": {
        "bangumi_id": 355555,
        "bangumi_title": "薰香花朵凛然绽放",
        "ep_cut": 155,
        "image_url": "https://w.junreimap.com/images/points/355555/9kbktsd_1767830207894.jpg",
        "location": "台东区-东京都",
        "point_id": "9kbktsd",
        "point_name": "御徒町站",
        "remark": ""
      },
      "type": "Feature"
    },
    {
      "geometry": {
        "coordinates": [
          139.678773,
          35.776642
        ],
        "type": "Point"
      },
      "properties": {
        "bangumi_id": 355555,
        "bangumi_title": "薰香花朵凛然绽放",
        "ep_cut": 25,
        "image_url": "",
        "location": "板桥区-东京都",
        "point_id": "59u9uay",
        "point_name": "ラウンドワンスタジアム板橋店",
        "remark": "原作中的保龄球馆，TV动画中则是池袋店。"
      },
      "type": "Feature"
    },
    {
      "geometry": {
        "coordinates": [
          139.511455,
          35.305328
        ],
        "type": "Point"
      },
      "properties": {
        "bangumi_id": 355555,
        "bangumi_title": "薰香花朵凛然绽放",
        "ep_cut": 33,
        "image_url": "https://w.junreimap.com/images/points/355555/28g0vll_1751874711333.jpg",
        "location": "江之岛/七里ヶ浜-神奈川",
        "point_id": "28g0vll",
        "point_name": "江ノ島​電鉄​(株)",
        "remark": ""
      },
      "type": "Feature"
    },
    {
      "geometry": {
        "coordinates": [
          139.505554,
          35.305857
        ],
        "type": "Point"
      },
      "properties": {
        "bangumi_id": 355555,
        "bangumi_title": "薰香花朵凛然绽放",
        "ep_cut": "",
        "image_url": "https://w.junreimap.com/images/points/355555/rrjnoqzkg_1736471836000.jpg",
        "location": "江之岛/七里ヶ浜-神奈川",
        "point_id": "rrjnoqzkg",
        "point_name": "七里ヶ浜",
        "remark": ""
      },
      "type": "Feature"
    },
    {
      "geometry": {
        "coordinates": [
          139.505594,
          35.305842
        ],
        "type": "Point"
      },
      "properties": {
        "bangumi_id": 355555,
        "bangumi_title": "薰香花朵凛然绽放",
        "ep_cut": 34,
        "image_url": "https://w.junreimap.com/images/points/355555/28g4xxq_1751874752327.jpg",
        "location": "江之岛/七里ヶ浜-神奈川",
        "point_id": "28g4xxq",
        "point_name": "七里ヶ浜",
        "remark": ""
      },
      "type": "Feature"
    },
    {
      "geometry": {
        "coordinates": [
          139.50563,
          35.305827
        ],
        "type": "Point"
      },
      "properties": {
        "bangumi_id": 355555,
        "bangumi_title": "薰香花朵凛然绽放",
        "ep_cut": 34,
        "image_url": "https://w.junreimap.com/images/points/355555/28g58gf_1751874767939.jpg",
        "location": "江之岛/七里ヶ浜-神奈川",
        "point_id": "28g58gf",
        "point_name": "七里ヶ浜",
        "remark": ""
      },
      "type": "Feature"
    },
    {
      "geometry": {
        "coordinates": [
          139.505518,
          35.305873
        ],
        "type": "Point"
      },
      "properties": {
        "bangumi_id": 355555,
        "bangumi_title": "薰香花朵凛然绽放",
        "ep_cut": 34,
        "image_url": "https://w.junreimap.com/images/points/355555/28g5ff1_1751874777702.jpg",
        "location": "镰仓-神奈川",
        "point_id": "28g5ff1",
        "point_name": "七里ヶ浜",
        "remark": ""
      },
      "type": "Feature"
    },
    {
      "geometry": {
        "coordinates": [
          139.564305,
          35.325794
        ],
        "type": "Point"
      },
      "properties": {
        "bangumi_id": 355555,
        "bangumi_title": "薰香花朵凛然绽放",
        "ep_cut": 136,
        "image_url": "",
        "location": "镰仓-神奈川",
        "point_id": "3vewzos",
        "point_name": "荏柄天神社",
        "remark": "136话"
      },
      "type": "Feature"
    },
    {
      "geometry": {
        "coordinates": [
          139.405538,
          35.326569
        ],
        "type": "Point"
      },
      "properties": {
        "bangumi_id": 355555,
        "bangumi_title": "薰香花朵凛然绽放",
        "ep_cut": 3,
        "image_url": "https://w.junreimap.com/images/points/355555/2opzmjv_1752858758236.jpg",
        "location": "茅ヶ崎市-神奈川",
        "point_id": "2opzmjv",
        "point_name": "茅ヶ崎市立図書館",
        "remark": "第3话：考前复习"
      },
      "type": "Feature"
    },
    {
      "geometry": {
        "coordinates": [
          139.40603,
          35.326395
        ],
        "type": "Point"
      },
      "properties": {
        "bangumi_id": 355555,
        "bangumi_title": "薰香花朵凛然绽放",
        "ep_cut": 3,
        "image_url": "https://w.junreimap.com/images/points/355555/2oq0jp9_1752858799974.jpg",
        "location": "茅ヶ崎市-神奈川",
        "point_id": "2oq0jp9",
        "point_name": "茅ヶ崎市立図書館",
        "remark": "第3话：考前复习"
      },
      "type": "Feature"
    },
    {
      "geometry": {
        "coordinates": [
          139.405587,
          35.326517
        ],
        "type": "Point"
      },
      "properties": {
        "bangumi_id": 355555,
        "bangumi_title": "薰香花朵凛然绽放",
        "ep_cut": 3,
        "image_url": "https://w.junreimap.com/images/points/355555/2oq0r5x_1752858810385.jpg",
        "location": "茅ヶ崎市-神奈川",
        "point_id": "2oq0r5x",
        "point_name": "茅ヶ崎市立図書館",
        "remark": "第3话：考前复习"
      },
      "type": "Feature"
    },
    {
      "geometry": {
        "coordinates": [
          139.405697,
          35.326633
        ],
        "type": "Point"
      },
      "properties": {
        "bangumi_id": 355555,
        "bangumi_title": "薰香花朵凛然绽放",
        "ep_cut": 3,
        "image_url": "https://w.junreimap.com/images/points/355555/2oq0yjy_1752858818814.jpg",
        "location": "茅ヶ崎市-神奈川",
        "point_id": "2oq0yjy",
        "point_name": "茅ヶ崎市立図書館",
        "remark": "第3话：考前复习"
      },
      "type": "Feature"
    },
    {
      "geometry": {
        "coordinates": [
          139.406025,
          35.326362
        ],
        "type": "Point"
      },
      "properties": {
        "bangumi_id": 355555,
        "bangumi_title": "薰香花朵凛然绽放",
        "ep_cut": 3,
        "image_url": "https://w.junreimap.com/images/points/355555/2oq1561_1752858827523.jpg",
        "location": "茅ヶ崎市-神奈川",
        "point_id": "2oq1561",
        "point_name": "茅ヶ崎市立図書館",
        "remark": "第3话：考前复习"
      },
      "type": "Feature"
    },
    {
      "geometry": {
        "coordinates": [
          135.525736,
          34.686498
        ],
        "type": "Point"
      },
      "properties": {
        "bangumi_id": 355555,
        "bangumi_title": "薰香花朵凛然绽放",
        "ep_cut": "",
        "image_url": "https://w.junreimap.com/images/points/355555/rrjrslxmg_1736472094496.jpg",
        "location": "大阪-大阪府",
        "point_id": "rrjrslxmg",
        "point_name": "大阪城（南侧广场）",
        "remark": ""
      },
      "type": "Feature"
    }
  ],
  "type": "FeatureCollection"
}