{
  "features": [
    {
      "geometry": {
        "coordinates": [
          139.700507,
          35.659462
        ],
        "type": "Point"
      },
      "properties": {
        "bangumi_id": 356756,
        "bangumi_title": "派对浪客诸葛孔明",
        "ep_cut": 1,
        "image_url": "https://w.junreimap.com/images/user/0/bangumi/356756/points/nr7ein6wx-1725160735294.jpg",
        "location": "渋谷",
        "point_id": "nr7ein6wx",
        "point_name": "渋谷スクランブル交差点（SHIBUYA 109）",
        "remark": "EP#01 00:02:16"
      },
      "type": "Feature"
    },
    {
      "geometry": {
        "coordinates": [
          139.702265,
          35.658451
        ],
        "type": "Point"
      },
      "properties": {
        "bangumi_id": 356756,
        "bangumi_title": "派对浪客诸葛孔明",
        "ep_cut": 9,
        "image_url": "https://w.junreimap.com/images/user/0/bangumi/356756/points/nr9p00b4e-1725165798011.jpg",
        "location": "渋谷",
        "point_id": "nr9p00b4e",
        "point_name": "SHIBUYA SKY（渋谷スカイ）",
        "remark": "EP#09 00:18:27"
      },
      "type": "Feature"
    },
    {
      "geometry": {
        "coordinates": [
          139.697649,
          35.659329
        ],
        "type": "Point"
      },
      "properties": {
        "bangumi_id": 356756,
        "bangumi_title": "派对浪客诸葛孔明",
        "ep_cut": 1,
        "image_url": "https://w.junreimap.com/images/user/0/bangumi/356756/points/nr9verhn6-1725166482242.jpg",
        "location": "渋谷",
        "point_id": "nr9verhn6",
        "point_name": "道玄坂小路",
        "remark": "EP#01 00:05:32"
      },
      "type": "Feature"
    },
    {
      "geometry": {
        "coordinates": [
          139.698211,
          35.660952
        ],
        "type": "Point"
      },
      "properties": {
        "bangumi_id": 356756,
        "bangumi_title": "派对浪客诸葛孔明",
        "ep_cut": 1,
        "image_url": "https://w.junreimap.com/images/user/0/bangumi/356756/points/nraqbhu87-1725168043536.jpg",
        "location": "渋谷",
        "point_id": "nraqbhu87",
        "point_name": "宇田川交番前",
        "remark": "EP#01 00:19:27"
      },
      "type": "Feature"
    },
    {
      "geometry": {
        "coordinates": [
          139.698525,
          35.660857
        ],
        "type": "Point"
      },
      "properties": {
        "bangumi_id": 356756,
        "bangumi_title": "派对浪客诸葛孔明",
        "ep_cut": 1,
        "image_url": "https://w.junreimap.com/images/user/0/bangumi/356756/points/nrb4cyjp9-1725168829301.jpg",
        "location": "渋谷",
        "point_id": "nrb4cyjp9",
        "point_name": "井の頭通り",
        "remark": "EP#01 00:20:19"
      },
      "type": "Feature"
    },
    {
      "geometry": {
        "coordinates": [
          139.6954,
          35.658831
        ],
        "type": "Point"
      },
      "properties": {
        "bangumi_id": 356756,
        "bangumi_title": "派对浪客诸葛孔明",
        "ep_cut": 2,
        "image_url": "https://w.junreimap.com/images/user/0/bangumi/356756/points/nrbc9egqb-1725169406003.jpg",
        "location": "渋谷",
        "point_id": "nrbc9egqb",
        "point_name": "duo（Spotify O-EAST前）",
        "remark": "EP#02 00:21:18"
      },
      "type": "Feature"
    },
    {
      "geometry": {
        "coordinates": [
          139.695521,
          35.658318
        ],
        "type": "Point"
      },
      "properties": {
        "bangumi_id": 356756,
        "bangumi_title": "派对浪客诸葛孔明",
        "ep_cut": 2,
        "image_url": "https://w.junreimap.com/images/user/0/bangumi/356756/points/nrbpx4g4j-1725170136409.jpg",
        "location": "渋谷",
        "point_id": "nrbpx4g4j",
        "point_name": "Atom Tokyo",
        "remark": "EP#02 00:06:15"
      },
      "type": "Feature"
    },
    {
      "geometry": {
        "coordinates": [
          139.695701,
          35.670378
        ],
        "type": "Point"
      },
      "properties": {
        "bangumi_id": 356756,
        "bangumi_title": "派对浪客诸葛孔明",
        "ep_cut": 2,
        "image_url": "https://w.junreimap.com/images/user/0/bangumi/356756/points/nrf1bgvof-1725177485410.jpg",
        "location": "代々木",
        "point_id": "nrf1bgvof",
        "point_name": "代々木公園噴水前",
        "remark": "EP#02 00:02:58"
      },
      "type": "Feature"
    },
    {
      "geometry": {
        "coordinates": [
          139.70501,
          35.6711
        ],
        "type": "Point"
      },
      "properties": {
        "bangumi_id": 356756,
        "bangumi_title": "派对浪客诸葛孔明",
        "ep_cut": 3,
        "image_url": "https://w.junreimap.com/images/user/0/bangumi/356756/points/nrfpeh4sr-1725178828254.jpg",
        "location": "原宿",
        "point_id": "nrfpeh4sr",
        "point_name": "原宿竹下通",
        "remark": "EP#03 00:04:42"
      },
      "type": "Feature"
    },
    {
      "geometry": {
        "coordinates": [
          139.705026,
          35.671093
        ],
        "type": "Point"
      },
      "properties": {
        "bangumi_id": 356756,
        "bangumi_title": "派对浪客诸葛孔明",
        "ep_cut": 3,
        "image_url": "https://w.junreimap.com/images/user/0/bangumi/356756/points/nrgadgzh6-1725180448584.jpg",
        "location": "原宿",
        "point_id": "nrgadgzh6",
        "point_name": "原宿竹下通（MOON Style前）",
        "remark": "EP#03 00:05:08"
      },
      "type": "Feature"
    },
    {
      "geometry": {
        "coordinates": [
          139.734221,
          35.662296
        ],
        "type": "Point"
      },
      "properties": {
        "bangumi_id": 356756,
        "bangumi_title": "派对浪客诸葛孔明",
        "ep_cut": 4,
        "image_url": "https://w.junreimap.com/images/user/0/bangumi/356756/points/nrh1gzx3n-1725182113739.jpg",
        "location": "六本木",
        "point_id": "nrh1gzx3n",
        "point_name": "六本木３丁目ビル（つるたんとん）",
        "remark": "EP#04 00:17:50"
      },
      "type": "Feature"
    },
    {
      "geometry": {
        "coordinates": [
          139.700172,
          35.659798
        ],
        "type": "Point"
      },
      "properties": {
        "bangumi_id": 356756,
        "bangumi_title": "派对浪客诸葛孔明",
        "ep_cut": 7,
        "image_url": "https://w.junreimap.com/images/user/0/bangumi/356756/points/nrhi50w5o-1725182714524.jpg",
        "location": "渋谷",
        "point_id": "nrhi50w5o",
        "point_name": "渋谷センター街入口",
        "remark": "EP#07 00:20:48"
      },
      "type": "Feature"
    },
    {
      "geometry": {
        "coordinates": [
          139.702248,
          35.682635
        ],
        "type": "Point"
      },
      "properties": {
        "bangumi_id": 356756,
        "bangumi_title": "派对浪客诸葛孔明",
        "ep_cut": 5,
        "image_url": "https://w.junreimap.com/images/user/0/bangumi/356756/points/nroibu9bf-1725198026733.jpg",
        "location": "代々木",
        "point_id": "nroibu9bf",
        "point_name": "代々木駅前の商店街",
        "remark": "EP#05 00:06:01"
      },
      "type": "Feature"
    },
    {
      "geometry": {
        "coordinates": [
          139.693962,
          35.683407
        ],
        "type": "Point"
      },
      "properties": {
        "bangumi_id": 356756,
        "bangumi_title": "派对浪客诸葛孔明",
        "ep_cut": 5,
        "image_url": "https://w.junreimap.com/images/user/0/bangumi/356756/points/nrow5kshl-1725198981842.jpg",
        "location": "代々木",
        "point_id": "nrow5kshl",
        "point_name": "コインランドリー店（元Wash & Fold 代々木店）",
        "remark": "EP#05 00:13:57"
      },
      "type": "Feature"
    },
    {
      "geometry": {
        "coordinates": [
          139.570222,
          35.620332
        ],
        "type": "Point"
      },
      "properties": {
        "bangumi_id": 356756,
        "bangumi_title": "派对浪客诸葛孔明",
        "ep_cut": 8,
        "image_url": "https://w.junreimap.com/images/user/0/bangumi/356756/points/nslxqutka-1725270762078.jpg",
        "location": "神奈川",
        "point_id": "nslxqutka",
        "point_name": "JR登戸駅（生田緑地口）",
        "remark": "EP#08 00:09:04"
      },
      "type": "Feature"
    },
    {
      "geometry": {
        "coordinates": [
          139.570263,
          35.620375
        ],
        "type": "Point"
      },
      "properties": {
        "bangumi_id": 356756,
        "bangumi_title": "派对浪客诸葛孔明",
        "ep_cut": 8,
        "image_url": "https://w.junreimap.com/images/user/0/bangumi/356756/points/nsm5ksmv2-1725271241420.jpg",
        "location": "神奈川",
        "point_id": "nsm5ksmv2",
        "point_name": "多摩警察署登戸駅前交番前",
        "remark": "EP#08 00:09:37"
      },
      "type": "Feature"
    },
    {
      "geometry": {
        "coordinates": [
          139.570336,
          35.62203
        ],
        "type": "Point"
      },
      "properties": {
        "bangumi_id": 356756,
        "bangumi_title": "派对浪客诸葛孔明",
        "ep_cut": 8,
        "image_url": "https://w.junreimap.com/images/user/0/bangumi/356756/points/nsme8opvh-1725271720068.jpg",
        "location": "神奈川",
        "point_id": "nsme8opvh",
        "point_name": "多摩川堤防",
        "remark": "EP#08 00:15:26"
      },
      "type": "Feature"
    },
    {
      "geometry": {
        "coordinates": [
          139.732052,
          35.66342
        ],
        "type": "Point"
      },
      "properties": {
        "bangumi_id": 356756,
        "bangumi_title": "派对浪客诸葛孔明",
        "ep_cut": 4,
        "image_url": "https://w.junreimap.com/images/user/0/bangumi/356756/points/nsmsv34kc-1725273085719.jpg",
        "location": "六本木",
        "point_id": "nsmsv34kc",
        "point_name": "東京都道319号（ROPPOnGI々シンボル）",
        "remark": "EP#04 00:14:32"
      },
      "type": "Feature"
    },
    {
      "geometry": {
        "coordinates": [
          139.733409,
          35.663054
        ],
        "type": "Point"
      },
      "properties": {
        "bangumi_id": 356756,
        "bangumi_title": "派对浪客诸葛孔明",
        "ep_cut": 4,
        "image_url": "https://w.junreimap.com/images/user/0/bangumi/356756/points/nsn668huo-1725273463263.jpg",
        "location": "六本木",
        "point_id": "nsn668huo",
        "point_name": "JUMANJI55",
        "remark": "EP#04 00:14:38"
      },
      "type": "Feature"
    },
    {
      "geometry": {
        "coordinates": [
          139.700885,
          35.658489
        ],
        "type": "Point"
      },
      "properties": {
        "bangumi_id": 356756,
        "bangumi_title": "派对浪客诸葛孔明",
        "ep_cut": 11,
        "image_url": "https://w.junreimap.com/images/user/0/bangumi/356756/points/nuwk0e7pc-1725450606613.jpg",
        "location": "渋谷",
        "point_id": "nuwk0e7pc",
        "point_name": "渋谷駅のモヤイ像",
        "remark": "EP#11 00:05:18"
      },
      "type": "Feature"
    },
    {
      "geometry": {
        "coordinates": [
          139.695533,
          35.658303
        ],
        "type": "Point"
      },
      "properties": {
        "bangumi_id": 356756,
        "bangumi_title": "派对浪客诸葛孔明",
        "ep_cut": 8,
        "image_url": "https://w.junreimap.com/images/user/0/bangumi/356756/points/nuwy0nmqa-1725451417290.jpg",
        "location": "渋谷",
        "point_id": "nuwy0nmqa",
        "point_name": "ゲートウェイスタジオ 渋谷道玄坂店",
        "remark": "EP#08 00:05:43"
      },
      "type": "Feature"
    },
    {
      "geometry": {
        "coordinates": [
          139.698974,
          35.660722
        ],
        "type": "Point"
      },
      "properties": {
        "bangumi_id": 356756,
        "bangumi_title": "派对浪客诸葛孔明",
        "ep_cut": 1,
        "image_url": "https://w.junreimap.com/images/user/1099/bangumi/356756/points/oi2p7s80p-1727266325377.jpg",
        "location": "渋谷",
        "point_id": "oi2p7s80p",
        "point_name": "井ノ頭通り ZARA",
        "remark": "方向：东南侧的ZARA"
      },
      "type": "Feature"
    },
    {
      "geometry": {
        "coordinates": [
          139.695513,
          35.658298
        ],
        "type": "Point"
      },
      "properties": {
        "bangumi_id": 356756,
        "bangumi_title": "派对浪客诸葛孔明",
        "ep_cut": 2,
        "image_url": "https://w.junreimap.com/images/user/1099/bangumi/356756/points/oi2rpbm6b-1727266511128.jpg",
        "location": "渋谷",
        "point_id": "oi2rpbm6b",
        "point_name": "ATOM TOKYO",
        "remark": ""
      },
      "type": "Feature"
    },
    {
      "geometry": {
        "coordinates": [
          139.695576,
          35.658408
        ],
        "type": "Point"
      },
      "properties": {
        "bangumi_id": 356756,
        "bangumi_title": "派对浪客诸葛孔明",
        "ep_cut": 2,
        "image_url": "https://w.junreimap.com/images/user/1099/bangumi/356756/points/oi2tgcj4l-1727266655259.jpg",
        "location": "渋谷",
        "point_id": "oi2tgcj4l",
        "point_name": "Atom Tokyo ",
        "remark": "位置是ATOM TOKYO对面的巷子"
      },
      "type": "Feature"
    },
    {
      "geometry": {
        "coordinates": [
          139.700198,
          35.659762
        ],
        "type": "Point"
      },
      "properties": {
        "bangumi_id": 356756,
        "bangumi_title": "派对浪客诸葛孔明",
        "ep_cut": 2,
        "image_url": "https://w.junreimap.com/images/user/1099/bangumi/356756/points/oi2xgm0fq-1727266831376.jpg",
        "location": "渋谷",
        "point_id": "oi2xgm0fq",
        "point_name": "Shibuya Center-Gai /大盛堂書店",
        "remark": "op片段的画面，两个地点都可以搜得到"
      },
      "type": "Feature"
    },
    {
      "geometry": {
        "coordinates": [
          139.695419,
          35.658884
        ],
        "type": "Point"
      },
      "properties": {
        "bangumi_id": 356756,
        "bangumi_title": "派对浪客诸葛孔明",
        "ep_cut": 3,
        "image_url": "https://w.junreimap.com/images/user/1099/bangumi/356756/points/oi31i806s-1727267058490.jpg",
        "location": "渋谷",
        "point_id": "oi31i806s",
        "point_name": "ランブリングストリート",
        "remark": "查了下谷歌地图，后面那个BB（杯子形状）外观22年10月经过装修已经被花草装饰遮住了。除此之外其他变化不大"
      },
      "type": "Feature"
    },
    {
      "geometry": {
        "coordinates": [
          139.695399,
          35.658862
        ],
        "type": "Point"
      },
      "properties": {
        "bangumi_id": 356756,
        "bangumi_title": "派对浪客诸葛孔明",
        "ep_cut": 4,
        "image_url": "https://w.junreimap.com/images/user/1099/bangumi/356756/points/oi34v7in2-1727267258275.jpg",
        "location": "渋谷",
        "point_id": "oi34v7in2",
        "point_name": "ランブリングストリート",
        "remark": ""
      },
      "type": "Feature"
    },
    {
      "geometry": {
        "coordinates": [
          139.697699,
          35.660009
        ],
        "type": "Point"
      },
      "properties": {
        "bangumi_id": 356756,
        "bangumi_title": "派对浪客诸葛孔明",
        "ep_cut": 1,
        "image_url": "https://w.junreimap.com/images/user/1099/bangumi/356756/points/oi37hrvwx-1727267438172.jpg",
        "location": "渋谷",
        "point_id": "oi37hrvwx",
        "point_name": "Taco Bell タコベル 渋谷道玄坂店/道玄坂小路",
        "remark": "方向朝北！"
      },
      "type": "Feature"
    },
    {
      "geometry": {
        "coordinates": [
          139.697693,
          35.660026
        ],
        "type": "Point"
      },
      "properties": {
        "bangumi_id": 356756,
        "bangumi_title": "派对浪客诸葛孔明",
        "ep_cut": 1,
        "image_url": "https://w.junreimap.com/images/user/1099/bangumi/356756/points/oi3918g5j-1727267583173.jpg",
        "location": "渋谷",
        "point_id": "oi3918g5j",
        "point_name": "Taco Bell タコベル 渋谷道玄坂店/道玄坂小路",
        "remark": ""
      },
      "type": "Feature"
    },
    {
      "geometry": {
        "coordinates": [
          139.697751,
          35.659708
        ],
        "type": "Point"
      },
      "properties": {
        "bangumi_id": 356756,
        "bangumi_title": "派对浪客诸葛孔明",
        "ep_cut": 3,
        "image_url": "https://w.junreimap.com/images/user/1099/bangumi/356756/points/oi3dg7xxh-1727267835738.jpg",
        "location": "渋谷",
        "point_id": "oi3dg7xxh",
        "point_name": "中華食堂 悟空/ Tori Suke 鳥佐",
        "remark": ""
      },
      "type": "Feature"
    },
    {
      "geometry": {
        "coordinates": [
          139.699234,
          35.660855
        ],
        "type": "Point"
      },
      "properties": {
        "bangumi_id": 356756,
        "bangumi_title": "派对浪客诸葛孔明",
        "ep_cut": 3,
        "image_url": "https://w.junreimap.com/images/user/1099/bangumi/356756/points/oi3hyrv26-1727268135752.jpg",
        "location": "渋谷",
        "point_id": "oi3hyrv26",
        "point_name": "宇田川カフェ本店",
        "remark": ""
      },
      "type": "Feature"
    },
    {
      "geometry": {
        "coordinates": [
          139.700221,
          35.659719
        ],
        "type": "Point"
      },
      "properties": {
        "bangumi_id": 356756,
        "bangumi_title": "派对浪客诸葛孔明",
        "ep_cut": 2,
        "image_url": "https://w.junreimap.com/images/user/1099/bangumi/356756/points/oi3lfdx13-1727268529689.jpg",
        "location": "渋谷",
        "point_id": "oi3lfdx13",
        "point_name": "SHIBUYA109",
        "remark": "背景是涩谷109，但是现实里这座商城只有一栋，所以复刻不了op里的三栋楼"
      },
      "type": "Feature"
    },
    {
      "geometry": {
        "coordinates": [
          139.698425,
          35.660893
        ],
        "type": "Point"
      },
      "properties": {
        "bangumi_id": 356756,
        "bangumi_title": "派对浪客诸葛孔明",
        "ep_cut": 1,
        "image_url": "https://w.junreimap.com/images/user/1099/bangumi/356756/points/oi3xdct2c-1727268979541.jpg",
        "location": "渋谷",
        "point_id": "oi3xdct2c",
        "point_name": "井ノ頭通り",
        "remark": ""
      },
      "type": "Feature"
    },
    {
      "geometry": {
        "coordinates": [
          139.698335,
          35.660975
        ],
        "type": "Point"
      },
      "properties": {
        "bangumi_id": 356756,
        "bangumi_title": "派对浪客诸葛孔明",
        "ep_cut": 1,
        "image_url": "https://w.junreimap.com/images/user/1099/bangumi/356756/points/oi3yuo21e-1727269078395.jpg",
        "location": "渋谷",
        "point_id": "oi3yuo21e",
        "point_name": "VT cosmetics /井ノ頭通り ",
        "remark": ""
      },
      "type": "Feature"
    },
    {
      "geometry": {
        "coordinates": [
          139.698312,
          35.661001
        ],
        "type": "Point"
      },
      "properties": {
        "bangumi_id": 356756,
        "bangumi_title": "派对浪客诸葛孔明",
        "ep_cut": 1,
        "image_url": "https://w.junreimap.com/images/user/1099/bangumi/356756/points/oi43q98sc-1727269368550.jpg",
        "location": "渋谷",
        "point_id": "oi43q98sc",
        "point_name": "井ノ頭通り/VT cosmetics 前",
        "remark": "在人行道（中岛）上，正好面对VT cosmetics"
      },
      "type": "Feature"
    },
    {
      "geometry": {
        "coordinates": [
          139.703055,
          35.67156
        ],
        "type": "Point"
      },
      "properties": {
        "bangumi_id": 356756,
        "bangumi_title": "派对浪客诸葛孔明",
        "ep_cut": 3,
        "image_url": "https://w.junreimap.com/images/user/1099/bangumi/356756/points/oi46l4qbz-1727269621749.jpg",
        "location": "原宿",
        "point_id": "oi46l4qbz",
        "point_name": "竹之下通り",
        "remark": ""
      },
      "type": "Feature"
    },
    {
      "geometry": {
        "coordinates": [
          139.703798,
          35.671414
        ],
        "type": "Point"
      },
      "properties": {
        "bangumi_id": 356756,
        "bangumi_title": "派对浪客诸葛孔明",
        "ep_cut": 3,
        "image_url": "https://w.junreimap.com/images/user/1099/bangumi/356756/points/oi49m93k2-1727269849631.jpg",
        "location": "原宿",
        "point_id": "oi49m93k2",
        "point_name": "DAISO Harajuku Store ダイソー 原宿店",
        "remark": "周围的店变化太快了，搜名字可能搜不到，但是地标位置肯定是没错的（已谷歌实景地图确认）"
      },
      "type": "Feature"
    },
    {
      "geometry": {
        "coordinates": [
          139.69434,
          35.670081
        ],
        "type": "Point"
      },
      "properties": {
        "bangumi_id": 356756,
        "bangumi_title": "派对浪客诸葛孔明",
        "ep_cut": 2,
        "image_url": "https://w.junreimap.com/images/user/1099/bangumi/356756/points/oi4s3me40-1727271013929.jpg",
        "location": "代々木",
        "point_id": "oi4s3me40",
        "point_name": "代々木公園",
        "remark": ""
      },
      "type": "Feature"
    },
    {
      "geometry": {
        "coordinates": [
          139.706595,
          35.681119
        ],
        "type": "Point"
      },
      "properties": {
        "bangumi_id": 356756,
        "bangumi_title": "派对浪客诸葛孔明",
        "ep_cut": 5,
        "image_url": "https://w.junreimap.com/images/user/1099/bangumi/356756/points/ojda3dt7p-1727367707945.jpg",
        "location": "千駄ヶ谷",
        "point_id": "ojda3dt7p",
        "point_name": "都道414号",
        "remark": ""
      },
      "type": "Feature"
    },
    {
      "geometry": {
        "coordinates": [
          139.702448,
          35.682458
        ],
        "type": "Point"
      },
      "properties": {
        "bangumi_id": 356756,
        "bangumi_title": "派对浪客诸葛孔明",
        "ep_cut": 5,
        "image_url": "https://w.junreimap.com/images/user/1099/bangumi/356756/points/ojdceboqi-1727367849170.jpg",
        "location": "代々木",
        "point_id": "ojdceboqi",
        "point_name": "A Talk Club WOOFER",
        "remark": ""
      },
      "type": "Feature"
    },
    {
      "geometry": {
        "coordinates": [
          139.702308,
          35.682552
        ],
        "type": "Point"
      },
      "properties": {
        "bangumi_id": 356756,
        "bangumi_title": "派对浪客诸葛孔明",
        "ep_cut": 5,
        "image_url": "https://w.junreimap.com/images/user/1099/bangumi/356756/points/ojddz9cp3-1727368009380.jpg",
        "location": "代々木",
        "point_id": "ojddz9cp3",
        "point_name": "てけてけ 代々木店",
        "remark": ""
      },
      "type": "Feature"
    },
    {
      "geometry": {
        "coordinates": [
          139.702358,
          35.682612
        ],
        "type": "Point"
      },
      "properties": {
        "bangumi_id": 356756,
        "bangumi_title": "派对浪客诸葛孔明",
        "ep_cut": 5,
        "image_url": "https://w.junreimap.com/images/user/1099/bangumi/356756/points/ojdg7tvty-1727368194505.jpg",
        "location": "代々木",
        "point_id": "ojdg7tvty",
        "point_name": "ごちとん 代々木本店",
        "remark": ""
      },
      "type": "Feature"
    },
    {
      "geometry": {
        "coordinates": [
          139.702351,
          35.682612
        ],
        "type": "Point"
      },
      "properties": {
        "bangumi_id": 356756,
        "bangumi_title": "派对浪客诸葛孔明",
        "ep_cut": 5,
        "image_url": "https://w.junreimap.com/images/user/1099/bangumi/356756/points/ojditv9at-1727368271944.jpg",
        "location": "代々木",
        "point_id": "ojditv9at",
        "point_name": "ごちとん 代々木本店",
        "remark": ""
      },
      "type": "Feature"
    },
    {
      "geometry": {
        "coordinates": [
          139.702977,
          35.682018
        ],
        "type": "Point"
      },
      "properties": {
        "bangumi_id": 356756,
        "bangumi_title": "派对浪客诸葛孔明",
        "ep_cut": 5,
        "image_url": "https://w.junreimap.com/images/user/1099/bangumi/356756/points/ojdn09391-1727368516679.jpg",
        "location": "代々木",
        "point_id": "ojdn09391",
        "point_name": "ポニーキャニオン代々木スタジオ",
        "remark": "ポニーキャニオン代々木スタジオ往北走到铁路边"
      },
      "type": "Feature"
    },
    {
      "geometry": {
        "coordinates": [
          139.702909,
          35.682061
        ],
        "type": "Point"
      },
      "properties": {
        "bangumi_id": 356756,
        "bangumi_title": "派对浪客诸葛孔明",
        "ep_cut": 5,
        "image_url": "https://w.junreimap.com/images/user/1099/bangumi/356756/points/ojdort7yt-1727368622117.jpg",
        "location": "代々木",
        "point_id": "ojdort7yt",
        "point_name": "ポニーキャニオン代々木スタジオ",
        "remark": ""
      },
      "type": "Feature"
    },
    {
      "geometry": {
        "coordinates": [
          139.705601,
          35.682477
        ],
        "type": "Point"
      },
      "properties": {
        "bangumi_id": 356756,
        "bangumi_title": "派对浪客诸葛孔明",
        "ep_cut": 5,
        "image_url": "https://w.junreimap.com/images/user/1099/bangumi/356756/points/ojdqlqymv-1727368779834.jpg",
        "location": "千駄ヶ谷",
        "point_id": "ojdqlqymv",
        "point_name": "千鳩児童遊園地",
        "remark": ""
      },
      "type": "Feature"
    },
    {
      "geometry": {
        "coordinates": [
          139.701853,
          35.682235
        ],
        "type": "Point"
      },
      "properties": {
        "bangumi_id": 356756,
        "bangumi_title": "派对浪客诸葛孔明",
        "ep_cut": 7,
        "image_url": "https://w.junreimap.com/images/user/1099/bangumi/356756/points/oje01ai1b-1727369283426.jpg",
        "location": "代々木",
        "point_id": "oje01ai1b",
        "point_name": "ファミリーマート 代々木駅西店",
        "remark": ""
      },
      "type": "Feature"
    },
    {
      "geometry": {
        "coordinates": [
          139.701873,
          35.682165
        ],
        "type": "Point"
      },
      "properties": {
        "bangumi_id": 356756,
        "bangumi_title": "派对浪客诸葛孔明",
        "ep_cut": 7,
        "image_url": "https://w.junreimap.com/images/user/1099/bangumi/356756/points/oje1o1s3f-1727369373188.jpg",
        "location": "代々木",
        "point_id": "oje1o1s3f",
        "point_name": "ファミリーマート 代々木駅西店",
        "remark": ""
      },
      "type": "Feature"
    },
    {
      "geometry": {
        "coordinates": [
          139.70047,
          35.659459
        ],
        "type": "Point"
      },
      "properties": {
        "bangumi_id": 356756,
        "bangumi_title": "派对浪客诸葛孔明",
        "ep_cut": 7,
        "image_url": "https://w.junreimap.com/images/user/1099/bangumi/356756/points/oje5zyp39-1727369659578.jpg",
        "location": "渋谷",
        "point_id": "oje5zyp39",
        "point_name": "渋谷スクランブル交差点",
        "remark": ""
      },
      "type": "Feature"
    },
    {
      "geometry": {
        "coordinates": [
          139.700542,
          35.659406
        ],
        "type": "Point"
      },
      "properties": {
        "bangumi_id": 356756,
        "bangumi_title": "派对浪客诸葛孔明",
        "ep_cut": 7,
        "image_url": "https://w.junreimap.com/images/user/1099/bangumi/356756/points/oje93h310-1727369943195.jpg",
        "location": "渋谷",
        "point_id": "oje93h310",
        "point_name": "渋谷スクランブル交差点",
        "remark": ""
      },
      "type": "Feature"
    },
    {
      "geometry": {
        "coordinates": [
          139.700197,
          35.65978
        ],
        "type": "Point"
      },
      "properties": {
        "bangumi_id": 356756,
        "bangumi_title": "派对浪客诸葛孔明",
        "ep_cut": 7,
        "image_url": "https://w.junreimap.com/images/user/1099/bangumi/356756/points/ojef4rw4s-1727370190800.jpg",
        "location": "渋谷",
        "point_id": "ojef4rw4s",
        "point_name": "SHIBUYA TSUTAYA",
        "remark": ""
      },
      "type": "Feature"
    },
    {
      "geometry": {
        "coordinates": [
          139.700174,
          35.659781
        ],
        "type": "Point"
      },
      "properties": {
        "bangumi_id": 356756,
        "bangumi_title": "派对浪客诸葛孔明",
        "ep_cut": 7,
        "image_url": "https://w.junreimap.com/images/user/1099/bangumi/356756/points/ojegraefu-1727370311410.jpg",
        "location": "渋谷",
        "point_id": "ojegraefu",
        "point_name": "SHIBUYA TSUTAYA",
        "remark": ""
      },
      "type": "Feature"
    },
    {
      "geometry": {
        "coordinates": [
          139.700089,
          35.659769
        ],
        "type": "Point"
      },
      "properties": {
        "bangumi_id": 356756,
        "bangumi_title": "派对浪客诸葛孔明",
        "ep_cut": 7,
        "image_url": "https://w.junreimap.com/images/user/1099/bangumi/356756/points/ojejoehli-1727370475607.jpg",
        "location": "渋谷",
        "point_id": "ojejoehli",
        "point_name": "SHIBUYA TSUTAYA前",
        "remark": "其实位置就是在SHIBUYA TSUTAYA前面的车站出口"
      },
      "type": "Feature"
    },
    {
      "geometry": {
        "coordinates": [
          139.70015,
          35.659808
        ],
        "type": "Point"
      },
      "properties": {
        "bangumi_id": 356756,
        "bangumi_title": "派对浪客诸葛孔明",
        "ep_cut": 7,
        "image_url": "https://w.junreimap.com/images/user/1099/bangumi/356756/points/ojelxbuhu-1727370610612.jpg",
        "location": "渋谷",
        "point_id": "ojelxbuhu",
        "point_name": "SHIBUYA TSUTAYA",
        "remark": ""
      },
      "type": "Feature"
    },
    {
      "geometry": {
        "coordinates": [
          139.695555,
          35.658319
        ],
        "type": "Point"
      },
      "properties": {
        "bangumi_id": 356756,
        "bangumi_title": "派对浪客诸葛孔明",
        "ep_cut": 7,
        "image_url": "https://w.junreimap.com/images/user/1099/bangumi/356756/points/ojep7osf3-1727370872204.jpg",
        "location": "渋谷",
        "point_id": "ojep7osf3",
        "point_name": "DESEO mini with VILLAGE VANGUARD",
        "remark": ""
      },
      "type": "Feature"
    },
    {
      "geometry": {
        "coordinates": [
          139.695587,
          35.658307
        ],
        "type": "Point"
      },
      "properties": {
        "bangumi_id": 356756,
        "bangumi_title": "派对浪客诸葛孔明",
        "ep_cut": 7,
        "image_url": "https://w.junreimap.com/images/user/1099/bangumi/356756/points/ojesg5xhc-1727370990851.jpg",
        "location": "渋谷",
        "point_id": "ojesg5xhc",
        "point_name": "DESEO mini with VILLAGE VANGUARD",
        "remark": "牌子是银色的，就在门口往右点的位置"
      },
      "type": "Feature"
    }
  ],
  "type": "FeatureCollection"
}