{
  "features": [
    {
      "geometry": {
        "coordinates": [
          139.647412,
          35.846603
        ],
        "type": "Point"
      },
      "properties": {
        "bangumi_id": 356774,
        "bangumi_title": "彻夜之歌",
        "ep_cut": 4,
        "image_url": "https://w.junreimap.com/images/points/356774/slz7659ve_1738856603089.jpg",
        "location": "",
        "point_id": "slz7659ve",
        "point_name": "ファミリー​マート\n武蔵浦和​駅​東​店",
        "remark": ""
      },
      "type": "Feature"
    },
    {
      "geometry": {
        "coordinates": [
          139.647921,
          35.846049
        ],
        "type": "Point"
      },
      "properties": {
        "bangumi_id": 356774,
        "bangumi_title": "彻夜之歌",
        "ep_cut": "",
        "image_url": "https://w.junreimap.com/images/points/356774/slzagr952_1738856781850.jpg",
        "location": "餃子​の​王将​武蔵浦和​駅​前​店",
        "point_id": "slzagr952",
        "point_name": "餃子​の​王将​武蔵浦和​駅​前​店",
        "remark": ""
      },
      "type": "Feature"
    },
    {
      "geometry": {
        "coordinates": [
          139.647452,
          35.846102
        ],
        "type": "Point"
      },
      "properties": {
        "bangumi_id": 356774,
        "bangumi_title": "彻夜之歌",
        "ep_cut": 7,
        "image_url": "https://w.junreimap.com/images/points/356774/slzl3f718_1738857424281.jpg",
        "location": "餃子​の​王将​武蔵浦和​駅​前​店",
        "point_id": "slzl3f718",
        "point_name": "吉野家武藏浦和站前店",
        "remark": ""
      },
      "type": "Feature"
    },
    {
      "geometry": {
        "coordinates": [
          139.647567,
          35.846043
        ],
        "type": "Point"
      },
      "properties": {
        "bangumi_id": 356774,
        "bangumi_title": "彻夜之歌",
        "ep_cut": "",
        "image_url": "https://w.junreimap.com/images/points/356774/slzmcbl7e_1738857575117.jpg",
        "location": "餃子​の​王将​武蔵浦和​駅​前​店",
        "point_id": "slzmcbl7e",
        "point_name": "吉野家武藏浦和站前店",
        "remark": ""
      },
      "type": "Feature"
    },
    {
      "geometry": {
        "coordinates": [
          139.647454,
          35.846064
        ],
        "type": "Point"
      },
      "properties": {
        "bangumi_id": 356774,
        "bangumi_title": "彻夜之歌",
        "ep_cut": "",
        "image_url": "https://w.junreimap.com/images/points/356774/slzo8rxk9_1738857614915.jpg",
        "location": "餃子​の​王将​武蔵浦和​駅​前​店",
        "point_id": "slzo8rxk9",
        "point_name": "吉野家武藏浦和站前店",
        "remark": ""
      },
      "type": "Feature"
    },
    {
      "geometry": {
        "coordinates": [
          139.647857,
          35.846031
        ],
        "type": "Point"
      },
      "properties": {
        "bangumi_id": 356774,
        "bangumi_title": "彻夜之歌",
        "ep_cut": "",
        "image_url": "https://w.junreimap.com/images/points/356774/slzotnsme_1738857651061.jpg",
        "location": "餃子​の​王将​武蔵浦和​駅​前​店",
        "point_id": "slzotnsme",
        "point_name": "餃子​の​王将​武蔵浦和​駅​前​店",
        "remark": ""
      },
      "type": "Feature"
    },
    {
      "geometry": {
        "coordinates": [
          139.647551,
          35.846077
        ],
        "type": "Point"
      },
      "properties": {
        "bangumi_id": 356774,
        "bangumi_title": "彻夜之歌",
        "ep_cut": "",
        "image_url": "https://w.junreimap.com/images/points/356774/slzponz5s_1738857704830.jpg",
        "location": "餃子​の​王将​武蔵浦和​駅​前​店",
        "point_id": "slzponz5s",
        "point_name": "餃子​の​王将​武蔵浦和​駅​前​店",
        "remark": ""
      },
      "type": "Feature"
    },
    {
      "geometry": {
        "coordinates": [
          139.647814,
          35.846055
        ],
        "type": "Point"
      },
      "properties": {
        "bangumi_id": 356774,
        "bangumi_title": "彻夜之歌",
        "ep_cut": "",
        "image_url": "https://w.junreimap.com/images/points/356774/slzq162xr_1738857724600.jpg",
        "location": "餃子​の​王将​武蔵浦和​駅​前​店",
        "point_id": "slzq162xr",
        "point_name": "餃子​の​王将​武蔵浦和​駅​前​店",
        "remark": ""
      },
      "type": "Feature"
    },
    {
      "geometry": {
        "coordinates": [
          139.647766,
          35.846044
        ],
        "type": "Point"
      },
      "properties": {
        "bangumi_id": 356774,
        "bangumi_title": "彻夜之歌",
        "ep_cut": "",
        "image_url": "https://w.junreimap.com/images/points/356774/slzqm28sy_1738857760991.jpg",
        "location": "餃子​の​王将​武蔵浦和​駅​前​店",
        "point_id": "slzqm28sy",
        "point_name": "餃子​の​王将​武蔵浦和​駅​前​店",
        "remark": ""
      },
      "type": "Feature"
    },
    {
      "geometry": {
        "coordinates": [
          139.647715,
          35.846055
        ],
        "type": "Point"
      },
      "properties": {
        "bangumi_id": 356774,
        "bangumi_title": "彻夜之歌",
        "ep_cut": "",
        "image_url": "https://w.junreimap.com/images/points/356774/slzr4rjlm_1738857791191.jpg",
        "location": "餃子​の​王将​武蔵浦和​駅​前​店",
        "point_id": "slzr4rjlm",
        "point_name": "餃子​の​王将​武蔵浦和​駅​前​店",
        "remark": ""
      },
      "type": "Feature"
    },
    {
      "geometry": {
        "coordinates": [
          139.647753,
          35.84606
        ],
        "type": "Point"
      },
      "properties": {
        "bangumi_id": 356774,
        "bangumi_title": "彻夜之歌",
        "ep_cut": "",
        "image_url": "https://w.junreimap.com/images/points/356774/slzrr8jb5_1738857828555.jpg",
        "location": "餃子​の​王将​武蔵浦和​駅​前​店",
        "point_id": "slzrr8jb5",
        "point_name": "餃子​の​王将​武蔵浦和​駅​前​店",
        "remark": ""
      },
      "type": "Feature"
    },
    {
      "geometry": {
        "coordinates": [
          139.647739,
          35.846028
        ],
        "type": "Point"
      },
      "properties": {
        "bangumi_id": 356774,
        "bangumi_title": "彻夜之歌",
        "ep_cut": "",
        "image_url": "https://w.junreimap.com/images/points/356774/slzs3j7vq_1738857857564.jpg",
        "location": "餃子​の​王将​武蔵浦和​駅​前​店",
        "point_id": "slzs3j7vq",
        "point_name": "餃子​の​王将​武蔵浦和​駅​前​店",
        "remark": ""
      },
      "type": "Feature"
    },
    {
      "geometry": {
        "coordinates": [
          139.647705,
          35.846027
        ],
        "type": "Point"
      },
      "properties": {
        "bangumi_id": 356774,
        "bangumi_title": "彻夜之歌",
        "ep_cut": "",
        "image_url": "https://w.junreimap.com/images/points/356774/slzt8hae2_1738857919602.jpg",
        "location": "餃子​の​王将​武蔵浦和​駅​前​店",
        "point_id": "slzt8hae2",
        "point_name": "餃子​の​王将​武蔵浦和​駅​前​店",
        "remark": ""
      },
      "type": "Feature"
    },
    {
      "geometry": {
        "coordinates": [
          139.647275,
          35.845472
        ],
        "type": "Point"
      },
      "properties": {
        "bangumi_id": 356774,
        "bangumi_title": "彻夜之歌",
        "ep_cut": "",
        "image_url": "https://w.junreimap.com/images/points/356774/slzw1pnrk_1738858098402.jpg",
        "location": "",
        "point_id": "slzw1pnrk",
        "point_name": "武蔵浦和​駅东口",
        "remark": ""
      },
      "type": "Feature"
    },
    {
      "geometry": {
        "coordinates": [
          139.646993,
          35.845589
        ],
        "type": "Point"
      },
      "properties": {
        "bangumi_id": 356774,
        "bangumi_title": "彻夜之歌",
        "ep_cut": "",
        "image_url": "https://w.junreimap.com/images/points/356774/slzydspkw_1738858227993.jpg",
        "location": "スターバックス​コーヒー​武蔵​浦和​BEANS​店",
        "point_id": "slzydspkw",
        "point_name": "スターバックス​コーヒー​武蔵​浦和​BEANS​店",
        "remark": ""
      },
      "type": "Feature"
    },
    {
      "geometry": {
        "coordinates": [
          139.647012,
          35.845577
        ],
        "type": "Point"
      },
      "properties": {
        "bangumi_id": 356774,
        "bangumi_title": "彻夜之歌",
        "ep_cut": "",
        "image_url": "https://w.junreimap.com/images/points/356774/slzytelb1_1738858254238.jpg",
        "location": "スターバックス​コーヒー​武蔵​浦和​BEANS​店",
        "point_id": "slzytelb1",
        "point_name": "スターバックス​コーヒー​武蔵​浦和​BEANS​店",
        "remark": ""
      },
      "type": "Feature"
    },
    {
      "geometry": {
        "coordinates": [
          139.647007,
          35.845555
        ],
        "type": "Point"
      },
      "properties": {
        "bangumi_id": 356774,
        "bangumi_title": "彻夜之歌",
        "ep_cut": "",
        "image_url": "https://w.junreimap.com/images/points/356774/slzz5bgu5_1738858274631.jpg",
        "location": "スターバックス​コーヒー​武蔵​浦和​BEANS​店",
        "point_id": "slzz5bgu5",
        "point_name": "スターバックス​コーヒー​武蔵​浦和​BEANS​店",
        "remark": ""
      },
      "type": "Feature"
    },
    {
      "geometry": {
        "coordinates": [
          139.647033,
          35.845544
        ],
        "type": "Point"
      },
      "properties": {
        "bangumi_id": 356774,
        "bangumi_title": "彻夜之歌",
        "ep_cut": "",
        "image_url": "https://w.junreimap.com/images/points/356774/slzzk0adi_1738858300731.jpg",
        "location": "スターバックス​コーヒー​武蔵​浦和​BEANS​店",
        "point_id": "slzzk0adi",
        "point_name": "スターバックス​コーヒー​武蔵​浦和​BEANS​店",
        "remark": ""
      },
      "type": "Feature"
    },
    {
      "geometry": {
        "coordinates": [
          139.647007,
          35.845525
        ],
        "type": "Point"
      },
      "properties": {
        "bangumi_id": 356774,
        "bangumi_title": "彻夜之歌",
        "ep_cut": "",
        "image_url": "https://w.junreimap.com/images/points/356774/sm001fmmf_1738858331158.jpg",
        "location": "スターバックス​コーヒー​武蔵​浦和​BEANS​店",
        "point_id": "sm001fmmf",
        "point_name": "スターバックス​コーヒー​武蔵​浦和​BEANS​店",
        "remark": ""
      },
      "type": "Feature"
    },
    {
      "geometry": {
        "coordinates": [
          139.647041,
          35.845556
        ],
        "type": "Point"
      },
      "properties": {
        "bangumi_id": 356774,
        "bangumi_title": "彻夜之歌",
        "ep_cut": "",
        "image_url": "https://w.junreimap.com/images/points/356774/sm006m5qi_1738858337260.jpg",
        "location": "スターバックス​コーヒー​武蔵​浦和​BEANS​店",
        "point_id": "sm006m5qi",
        "point_name": "スターバックス​コーヒー​武蔵​浦和​BEANS​店",
        "remark": ""
      },
      "type": "Feature"
    },
    {
      "geometry": {
        "coordinates": [
          139.647245,
          35.844928
        ],
        "type": "Point"
      },
      "properties": {
        "bangumi_id": 356774,
        "bangumi_title": "彻夜之歌",
        "ep_cut": "",
        "image_url": "https://w.junreimap.com/images/points/356774/sorm4wflu_1739075359158.jpg",
        "location": "Mail Post",
        "point_id": "sorm4wflu",
        "point_name": "Mail Post",
        "remark": ""
      },
      "type": "Feature"
    },
    {
      "geometry": {
        "coordinates": [
          139.647274,
          35.844937
        ],
        "type": "Point"
      },
      "properties": {
        "bangumi_id": 356774,
        "bangumi_title": "彻夜之歌",
        "ep_cut": "",
        "image_url": "https://w.junreimap.com/images/points/356774/sorroi5pu_1739075521986.jpg",
        "location": "Mail Post",
        "point_id": "sorroi5pu",
        "point_name": "Mail Post",
        "remark": ""
      },
      "type": "Feature"
    },
    {
      "geometry": {
        "coordinates": [
          139.647296,
          35.844963
        ],
        "type": "Point"
      },
      "properties": {
        "bangumi_id": 356774,
        "bangumi_title": "彻夜之歌",
        "ep_cut": "",
        "image_url": "https://w.junreimap.com/images/points/356774/sorpjib04_1739075379244.jpg",
        "location": "Mail Post",
        "point_id": "sorpjib04",
        "point_name": "Mail Post",
        "remark": ""
      },
      "type": "Feature"
    },
    {
      "geometry": {
        "coordinates": [
          139.647254,
          35.844959
        ],
        "type": "Point"
      },
      "properties": {
        "bangumi_id": 356774,
        "bangumi_title": "彻夜之歌",
        "ep_cut": "",
        "image_url": "https://w.junreimap.com/images/points/356774/sorpqj5oh_1739075385033.jpg",
        "location": "Mail Post",
        "point_id": "sorpqj5oh",
        "point_name": "Mail Post",
        "remark": ""
      },
      "type": "Feature"
    },
    {
      "geometry": {
        "coordinates": [
          139.647214,
          35.844956
        ],
        "type": "Point"
      },
      "properties": {
        "bangumi_id": 356774,
        "bangumi_title": "彻夜之歌",
        "ep_cut": "",
        "image_url": "https://w.junreimap.com/images/points/356774/sorpu21dh_1739075390907.jpg",
        "location": "Mail Post",
        "point_id": "sorpu21dh",
        "point_name": "Mail Post",
        "remark": ""
      },
      "type": "Feature"
    },
    {
      "geometry": {
        "coordinates": [
          139.647199,
          35.844925
        ],
        "type": "Point"
      },
      "properties": {
        "bangumi_id": 356774,
        "bangumi_title": "彻夜之歌",
        "ep_cut": "",
        "image_url": "https://w.junreimap.com/images/points/356774/sors4deti_1739075530051.jpg",
        "location": "Mail Post",
        "point_id": "sors4deti",
        "point_name": "Mail Post",
        "remark": ""
      },
      "type": "Feature"
    },
    {
      "geometry": {
        "coordinates": [
          139.647224,
          35.844935
        ],
        "type": "Point"
      },
      "properties": {
        "bangumi_id": 356774,
        "bangumi_title": "彻夜之歌",
        "ep_cut": "",
        "image_url": "https://w.junreimap.com/images/points/356774/sors7uzzr_1739075536199.jpg",
        "location": "Mail Post",
        "point_id": "sors7uzzr",
        "point_name": "Mail Post",
        "remark": ""
      },
      "type": "Feature"
    },
    {
      "geometry": {
        "coordinates": [
          139.647297,
          35.844943
        ],
        "type": "Point"
      },
      "properties": {
        "bangumi_id": 356774,
        "bangumi_title": "彻夜之歌",
        "ep_cut": "",
        "image_url": "https://w.junreimap.com/images/points/356774/sorsbnhxw_1739075542654.jpg",
        "location": "Mail Post",
        "point_id": "sorsbnhxw",
        "point_name": "Mail Post",
        "remark": ""
      },
      "type": "Feature"
    },
    {
      "geometry": {
        "coordinates": [
          139.647222,
          35.844899
        ],
        "type": "Point"
      },
      "properties": {
        "bangumi_id": 356774,
        "bangumi_title": "彻夜之歌",
        "ep_cut": "",
        "image_url": "https://w.junreimap.com/images/points/356774/sorsfhd4d_1739075547522.jpg",
        "location": "Mail Post",
        "point_id": "sorsfhd4d",
        "point_name": "Mail Post",
        "remark": ""
      },
      "type": "Feature"
    },
    {
      "geometry": {
        "coordinates": [
          139.647258,
          35.844906
        ],
        "type": "Point"
      },
      "properties": {
        "bangumi_id": 356774,
        "bangumi_title": "彻夜之歌",
        "ep_cut": "",
        "image_url": "https://w.junreimap.com/images/points/356774/sorsib47u_1739075553372.jpg",
        "location": "Mail Post",
        "point_id": "sorsib47u",
        "point_name": "Mail Post",
        "remark": ""
      },
      "type": "Feature"
    },
    {
      "geometry": {
        "coordinates": [
          139.64729,
          35.844914
        ],
        "type": "Point"
      },
      "properties": {
        "bangumi_id": 356774,
        "bangumi_title": "彻夜之歌",
        "ep_cut": "",
        "image_url": "https://w.junreimap.com/images/points/356774/sorslww8a_1739075559213.jpg",
        "location": "Mail Post",
        "point_id": "sorslww8a",
        "point_name": "Mail Post",
        "remark": ""
      },
      "type": "Feature"
    },
    {
      "geometry": {
        "coordinates": [
          139.647303,
          35.84493
        ],
        "type": "Point"
      },
      "properties": {
        "bangumi_id": 356774,
        "bangumi_title": "彻夜之歌",
        "ep_cut": "",
        "image_url": "https://w.junreimap.com/images/points/356774/sorsqwgsu_1739075587380.jpg",
        "location": "Mail Post",
        "point_id": "sorsqwgsu",
        "point_name": "Mail Post",
        "remark": ""
      },
      "type": "Feature"
    },
    {
      "geometry": {
        "coordinates": [
          139.647265,
          35.844929
        ],
        "type": "Point"
      },
      "properties": {
        "bangumi_id": 356774,
        "bangumi_title": "彻夜之歌",
        "ep_cut": "",
        "image_url": "https://w.junreimap.com/images/points/356774/sort64xl3_1739075594797.jpg",
        "location": "Mail Post",
        "point_id": "sort64xl3",
        "point_name": "Mail Post",
        "remark": ""
      },
      "type": "Feature"
    },
    {
      "geometry": {
        "coordinates": [
          139.647261,
          35.844927
        ],
        "type": "Point"
      },
      "properties": {
        "bangumi_id": 356774,
        "bangumi_title": "彻夜之歌",
        "ep_cut": "",
        "image_url": "https://w.junreimap.com/images/points/356774/sortaxkzq_1739075605105.jpg",
        "location": "Mail Post",
        "point_id": "sortaxkzq",
        "point_name": "Mail Post",
        "remark": ""
      },
      "type": "Feature"
    },
    {
      "geometry": {
        "coordinates": [
          139.647196,
          35.844905
        ],
        "type": "Point"
      },
      "properties": {
        "bangumi_id": 356774,
        "bangumi_title": "彻夜之歌",
        "ep_cut": "",
        "image_url": "https://w.junreimap.com/images/points/356774/sorthbcdp_1739075613011.jpg",
        "location": "Mail Post",
        "point_id": "sorthbcdp",
        "point_name": "Mail Post",
        "remark": ""
      },
      "type": "Feature"
    },
    {
      "geometry": {
        "coordinates": [
          139.647211,
          35.844913
        ],
        "type": "Point"
      },
      "properties": {
        "bangumi_id": 356774,
        "bangumi_title": "彻夜之歌",
        "ep_cut": "",
        "image_url": "https://w.junreimap.com/images/points/356774/sortm272h_1739075619887.jpg",
        "location": "Mail Post",
        "point_id": "sortm272h",
        "point_name": "Mail Post",
        "remark": ""
      },
      "type": "Feature"
    },
    {
      "geometry": {
        "coordinates": [
          139.647262,
          35.844934
        ],
        "type": "Point"
      },
      "properties": {
        "bangumi_id": 356774,
        "bangumi_title": "彻夜之歌",
        "ep_cut": "",
        "image_url": "https://w.junreimap.com/images/points/356774/sortpzrl2_1739075628192.jpg",
        "location": "Mail Post",
        "point_id": "sortpzrl2",
        "point_name": "Mail Post",
        "remark": ""
      },
      "type": "Feature"
    },
    {
      "geometry": {
        "coordinates": [
          139.647233,
          35.844918
        ],
        "type": "Point"
      },
      "properties": {
        "bangumi_id": 356774,
        "bangumi_title": "彻夜之歌",
        "ep_cut": "",
        "image_url": "https://w.junreimap.com/images/points/356774/sortuc0ox_1739075635428.jpg",
        "location": "Mail Post",
        "point_id": "sortuc0ox",
        "point_name": "Mail Post",
        "remark": ""
      },
      "type": "Feature"
    },
    {
      "geometry": {
        "coordinates": [
          139.647189,
          35.844903
        ],
        "type": "Point"
      },
      "properties": {
        "bangumi_id": 356774,
        "bangumi_title": "彻夜之歌",
        "ep_cut": "",
        "image_url": "https://w.junreimap.com/images/points/356774/sortyw3bk_1739075641841.jpg",
        "location": "Mail Post",
        "point_id": "sortyw3bk",
        "point_name": "Mail Post",
        "remark": ""
      },
      "type": "Feature"
    },
    {
      "geometry": {
        "coordinates": [
          139.647251,
          35.844933
        ],
        "type": "Point"
      },
      "properties": {
        "bangumi_id": 356774,
        "bangumi_title": "彻夜之歌",
        "ep_cut": "",
        "image_url": "https://w.junreimap.com/images/points/356774/soru474cp_1739075651250.jpg",
        "location": "Mail Post",
        "point_id": "soru474cp",
        "point_name": "Mail Post",
        "remark": ""
      },
      "type": "Feature"
    },
    {
      "geometry": {
        "coordinates": [
          139.647325,
          35.844945
        ],
        "type": "Point"
      },
      "properties": {
        "bangumi_id": 356774,
        "bangumi_title": "彻夜之歌",
        "ep_cut": "",
        "image_url": "https://w.junreimap.com/images/points/356774/soru85uyj_1739075656749.jpg",
        "location": "Mail Post",
        "point_id": "soru85uyj",
        "point_name": "Mail Post",
        "remark": ""
      },
      "type": "Feature"
    },
    {
      "geometry": {
        "coordinates": [
          139.647323,
          35.844956
        ],
        "type": "Point"
      },
      "properties": {
        "bangumi_id": 356774,
        "bangumi_title": "彻夜之歌",
        "ep_cut": "",
        "image_url": "https://w.junreimap.com/images/points/356774/soruih5pf_1739075676179.jpg",
        "location": "Mail Post",
        "point_id": "soruih5pf",
        "point_name": "Mail Post",
        "remark": ""
      },
      "type": "Feature"
    },
    {
      "geometry": {
        "coordinates": [
          139.647341,
          35.844958
        ],
        "type": "Point"
      },
      "properties": {
        "bangumi_id": 356774,
        "bangumi_title": "彻夜之歌",
        "ep_cut": "",
        "image_url": "https://w.junreimap.com/images/points/356774/soruprrti_1739075686910.jpg",
        "location": "Mail Post",
        "point_id": "soruprrti",
        "point_name": "Mail Post",
        "remark": ""
      },
      "type": "Feature"
    },
    {
      "geometry": {
        "coordinates": [
          139.647325,
          35.844963
        ],
        "type": "Point"
      },
      "properties": {
        "bangumi_id": 356774,
        "bangumi_title": "彻夜之歌",
        "ep_cut": "",
        "image_url": "https://w.junreimap.com/images/points/356774/soruwdu11_1739075696137.jpg",
        "location": "Mail Post",
        "point_id": "soruwdu11",
        "point_name": "Mail Post",
        "remark": ""
      },
      "type": "Feature"
    },
    {
      "geometry": {
        "coordinates": [
          139.647281,
          35.844947
        ],
        "type": "Point"
      },
      "properties": {
        "bangumi_id": 356774,
        "bangumi_title": "彻夜之歌",
        "ep_cut": "",
        "image_url": "https://w.junreimap.com/images/points/356774/sorv26srs_1739075706466.jpg",
        "location": "Mail Post",
        "point_id": "sorv26srs",
        "point_name": "Mail Post",
        "remark": ""
      },
      "type": "Feature"
    },
    {
      "geometry": {
        "coordinates": [
          139.647305,
          35.84495
        ],
        "type": "Point"
      },
      "properties": {
        "bangumi_id": 356774,
        "bangumi_title": "彻夜之歌",
        "ep_cut": "",
        "image_url": "https://w.junreimap.com/images/points/356774/sorv5174s_1739075710506.jpg",
        "location": "Mail Post",
        "point_id": "sorv5174s",
        "point_name": "Mail Post",
        "remark": ""
      },
      "type": "Feature"
    },
    {
      "geometry": {
        "coordinates": [
          139.64731,
          35.844957
        ],
        "type": "Point"
      },
      "properties": {
        "bangumi_id": 356774,
        "bangumi_title": "彻夜之歌",
        "ep_cut": "",
        "image_url": "https://w.junreimap.com/images/points/356774/sorv7pd5q_1739075715108.jpg",
        "location": "Mail Post",
        "point_id": "sorv7pd5q",
        "point_name": "Mail Post",
        "remark": ""
      },
      "type": "Feature"
    },
    {
      "geometry": {
        "coordinates": [
          139.647314,
          35.844938
        ],
        "type": "Point"
      },
      "properties": {
        "bangumi_id": 356774,
        "bangumi_title": "彻夜之歌",
        "ep_cut": "",
        "image_url": "https://w.junreimap.com/images/points/356774/sorvap55b_1739075720103.jpg",
        "location": "Mail Post",
        "point_id": "sorvap55b",
        "point_name": "Mail Post",
        "remark": ""
      },
      "type": "Feature"
    },
    {
      "geometry": {
        "coordinates": [
          139.647341,
          35.844966
        ],
        "type": "Point"
      },
      "properties": {
        "bangumi_id": 356774,
        "bangumi_title": "彻夜之歌",
        "ep_cut": "",
        "image_url": "https://w.junreimap.com/images/points/356774/sorvd6ean_1739075723939.jpg",
        "location": "Mail Post",
        "point_id": "sorvd6ean",
        "point_name": "Mail Post",
        "remark": ""
      },
      "type": "Feature"
    },
    {
      "geometry": {
        "coordinates": [
          139.647337,
          35.844944
        ],
        "type": "Point"
      },
      "properties": {
        "bangumi_id": 356774,
        "bangumi_title": "彻夜之歌",
        "ep_cut": "",
        "image_url": "https://w.junreimap.com/images/points/356774/sorvhzdbj_1739075732596.jpg",
        "location": "Mail Post",
        "point_id": "sorvhzdbj",
        "point_name": "Mail Post",
        "remark": ""
      },
      "type": "Feature"
    },
    {
      "geometry": {
        "coordinates": [
          139.647287,
          35.844935
        ],
        "type": "Point"
      },
      "properties": {
        "bangumi_id": 356774,
        "bangumi_title": "彻夜之歌",
        "ep_cut": "",
        "image_url": "https://w.junreimap.com/images/points/356774/sorvmi9k8_1739075739085.jpg",
        "location": "Mail Post",
        "point_id": "sorvmi9k8",
        "point_name": "Mail Post",
        "remark": ""
      },
      "type": "Feature"
    },
    {
      "geometry": {
        "coordinates": [
          139.647046,
          35.845534
        ],
        "type": "Point"
      },
      "properties": {
        "bangumi_id": 356774,
        "bangumi_title": "彻夜之歌",
        "ep_cut": "",
        "image_url": "https://w.junreimap.com/images/points/356774/sm0093uzn_1738858341739.jpg",
        "location": "スターバックス​コーヒー​武蔵​浦和​BEANS​店",
        "point_id": "sm0093uzn",
        "point_name": "スターバックス​コーヒー​武蔵​浦和​BEANS​店",
        "remark": ""
      },
      "type": "Feature"
    },
    {
      "geometry": {
        "coordinates": [
          139.648259,
          35.845186
        ],
        "type": "Point"
      },
      "properties": {
        "bangumi_id": 356774,
        "bangumi_title": "彻夜之歌",
        "ep_cut": "",
        "image_url": "https://w.junreimap.com/images/points/356774/sm01usobq_1738858439659.jpg",
        "location": "",
        "point_id": "sm01usobq",
        "point_name": "ライブタワー武蔵浦和",
        "remark": ""
      },
      "type": "Feature"
    },
    {
      "geometry": {
        "coordinates": [
          139.648139,
          35.845179
        ],
        "type": "Point"
      },
      "properties": {
        "bangumi_id": 356774,
        "bangumi_title": "彻夜之歌",
        "ep_cut": "",
        "image_url": "https://w.junreimap.com/images/points/356774/sm02s3sbg_1738858499303.jpg",
        "location": "",
        "point_id": "sm02s3sbg",
        "point_name": "ライブタワー武蔵浦和",
        "remark": ""
      },
      "type": "Feature"
    },
    {
      "geometry": {
        "coordinates": [
          139.647268,
          35.84511
        ],
        "type": "Point"
      },
      "properties": {
        "bangumi_id": 356774,
        "bangumi_title": "彻夜之歌",
        "ep_cut": "",
        "image_url": "https://w.junreimap.com/images/points/356774/sm03h3lnf_1738858539295.jpg",
        "location": "",
        "point_id": "sm03h3lnf",
        "point_name": "武蔵浦和",
        "remark": ""
      },
      "type": "Feature"
    },
    {
      "geometry": {
        "coordinates": [
          139.646776,
          35.840332
        ],
        "type": "Point"
      },
      "properties": {
        "bangumi_id": 356774,
        "bangumi_title": "彻夜之歌",
        "ep_cut": "",
        "image_url": "https://w.junreimap.com/images/points/356774/sm0ilv8zf_1738859481598.jpg",
        "location": "",
        "point_id": "sm0ilv8zf",
        "point_name": "ロッテ浦和工場",
        "remark": ""
      },
      "type": "Feature"
    },
    {
      "geometry": {
        "coordinates": [
          139.647945,
          35.835689
        ],
        "type": "Point"
      },
      "properties": {
        "bangumi_id": 356774,
        "bangumi_title": "彻夜之歌",
        "ep_cut": "",
        "image_url": "https://w.junreimap.com/images/points/356774/sm0kdecqe_1738859557985.jpg",
        "location": "さいたま市立内谷中学校",
        "point_id": "sm0kdecqe",
        "point_name": "さいたま市立内谷中学校",
        "remark": ""
      },
      "type": "Feature"
    },
    {
      "geometry": {
        "coordinates": [
          139.64825,
          35.836145
        ],
        "type": "Point"
      },
      "properties": {
        "bangumi_id": 356774,
        "bangumi_title": "彻夜之歌",
        "ep_cut": "",
        "image_url": "https://w.junreimap.com/images/points/356774/sm0o7ndtv_1738859825439.jpg",
        "location": "さいたま市立内谷中学校",
        "point_id": "sm0o7ndtv",
        "point_name": "さいたま市立内谷中学校",
        "remark": ""
      },
      "type": "Feature"
    },
    {
      "geometry": {
        "coordinates": [
          139.648143,
          35.836182
        ],
        "type": "Point"
      },
      "properties": {
        "bangumi_id": 356774,
        "bangumi_title": "彻夜之歌",
        "ep_cut": "",
        "image_url": "https://w.junreimap.com/images/points/356774/sm0oxi7ld_1738859833656.jpg",
        "location": "さいたま市立内谷中学校",
        "point_id": "sm0oxi7ld",
        "point_name": "さいたま市立内谷中学校",
        "remark": ""
      },
      "type": "Feature"
    },
    {
      "geometry": {
        "coordinates": [
          139.648262,
          35.836198
        ],
        "type": "Point"
      },
      "properties": {
        "bangumi_id": 356774,
        "bangumi_title": "彻夜之歌",
        "ep_cut": "",
        "image_url": "https://w.junreimap.com/images/points/356774/sm0p06w7d_1738859838165.jpg",
        "location": "さいたま市立内谷中学校",
        "point_id": "sm0p06w7d",
        "point_name": "さいたま市立内谷中学校",
        "remark": ""
      },
      "type": "Feature"
    },
    {
      "geometry": {
        "coordinates": [
          139.648202,
          35.836191
        ],
        "type": "Point"
      },
      "properties": {
        "bangumi_id": 356774,
        "bangumi_title": "彻夜之歌",
        "ep_cut": "",
        "image_url": "https://w.junreimap.com/images/points/356774/sm0p2u0e5_1738859843517.jpg",
        "location": "さいたま市立内谷中学校",
        "point_id": "sm0p2u0e5",
        "point_name": "さいたま市立内谷中学校",
        "remark": ""
      },
      "type": "Feature"
    },
    {
      "geometry": {
        "coordinates": [
          139.64831,
          35.836206
        ],
        "type": "Point"
      },
      "properties": {
        "bangumi_id": 356774,
        "bangumi_title": "彻夜之歌",
        "ep_cut": "",
        "image_url": "https://w.junreimap.com/images/points/356774/sm0p5zmyh_1738859848269.jpg",
        "location": "さいたま市立内谷中学校",
        "point_id": "sm0p5zmyh",
        "point_name": "さいたま市立内谷中学校",
        "remark": ""
      },
      "type": "Feature"
    },
    {
      "geometry": {
        "coordinates": [
          139.648234,
          35.836203
        ],
        "type": "Point"
      },
      "properties": {
        "bangumi_id": 356774,
        "bangumi_title": "彻夜之歌",
        "ep_cut": "",
        "image_url": "https://w.junreimap.com/images/points/356774/sm0pareq2_1738859856286.jpg",
        "location": "さいたま市立内谷中学校",
        "point_id": "sm0pareq2",
        "point_name": "さいたま市立内谷中学校",
        "remark": ""
      },
      "type": "Feature"
    },
    {
      "geometry": {
        "coordinates": [
          139.648283,
          35.836212
        ],
        "type": "Point"
      },
      "properties": {
        "bangumi_id": 356774,
        "bangumi_title": "彻夜之歌",
        "ep_cut": "",
        "image_url": "https://w.junreimap.com/images/points/356774/sm0pfv4fr_1738859865463.jpg",
        "location": "さいたま市立内谷中学校",
        "point_id": "sm0pfv4fr",
        "point_name": "さいたま市立内谷中学校",
        "remark": ""
      },
      "type": "Feature"
    },
    {
      "geometry": {
        "coordinates": [
          139.648356,
          35.836216
        ],
        "type": "Point"
      },
      "properties": {
        "bangumi_id": 356774,
        "bangumi_title": "彻夜之歌",
        "ep_cut": "",
        "image_url": "https://w.junreimap.com/images/points/356774/sm0pkm9yp_1738859892164.jpg",
        "location": "さいたま市立内谷中学校",
        "point_id": "sm0pkm9yp",
        "point_name": "さいたま市立内谷中学校",
        "remark": ""
      },
      "type": "Feature"
    },
    {
      "geometry": {
        "coordinates": [
          139.646653,
          35.841625
        ],
        "type": "Point"
      },
      "properties": {
        "bangumi_id": 356774,
        "bangumi_title": "彻夜之歌",
        "ep_cut": "",
        "image_url": "https://w.junreimap.com/images/points/356774/sm0raenw0_1738859994157.jpg",
        "location": "",
        "point_id": "sm0raenw0",
        "point_name": "ロッテ浦和工場",
        "remark": ""
      },
      "type": "Feature"
    },
    {
      "geometry": {
        "coordinates": [
          139.65237,
          35.836192
        ],
        "type": "Point"
      },
      "properties": {
        "bangumi_id": 356774,
        "bangumi_title": "彻夜之歌",
        "ep_cut": "",
        "image_url": "https://w.junreimap.com/images/points/356774/sm0uqlkav_1738860262618.jpg",
        "location": "クーバー・フットボール パーク 武蔵浦和",
        "point_id": "sm0uqlkav",
        "point_name": "クーバー・フットボール パーク 武蔵浦和",
        "remark": ""
      },
      "type": "Feature"
    },
    {
      "geometry": {
        "coordinates": [
          139.652309,
          35.836223
        ],
        "type": "Point"
      },
      "properties": {
        "bangumi_id": 356774,
        "bangumi_title": "彻夜之歌",
        "ep_cut": "",
        "image_url": "https://w.junreimap.com/images/points/356774/sm0w4dxg7_1738860267978.jpg",
        "location": "クーバー・フットボール パーク 武蔵浦和",
        "point_id": "sm0w4dxg7",
        "point_name": "クーバー・フットボール パーク 武蔵浦和",
        "remark": ""
      },
      "type": "Feature"
    },
    {
      "geometry": {
        "coordinates": [
          139.652166,
          35.836325
        ],
        "type": "Point"
      },
      "properties": {
        "bangumi_id": 356774,
        "bangumi_title": "彻夜之歌",
        "ep_cut": "",
        "image_url": "https://w.junreimap.com/images/points/356774/sm0w6y5ef_1738860272328.jpg",
        "location": "クーバー・フットボール パーク 武蔵浦和",
        "point_id": "sm0w6y5ef",
        "point_name": "クーバー・フットボール パーク 武蔵浦和",
        "remark": ""
      },
      "type": "Feature"
    },
    {
      "geometry": {
        "coordinates": [
          139.652301,
          35.836271
        ],
        "type": "Point"
      },
      "properties": {
        "bangumi_id": 356774,
        "bangumi_title": "彻夜之歌",
        "ep_cut": "",
        "image_url": "https://w.junreimap.com/images/points/356774/sm0wa3y2k_1738860278146.jpg",
        "location": "クーバー・フットボール パーク 武蔵浦和",
        "point_id": "sm0wa3y2k",
        "point_name": "クーバー・フットボール パーク 武蔵浦和",
        "remark": ""
      },
      "type": "Feature"
    },
    {
      "geometry": {
        "coordinates": [
          139.652254,
          35.836264
        ],
        "type": "Point"
      },
      "properties": {
        "bangumi_id": 356774,
        "bangumi_title": "彻夜之歌",
        "ep_cut": "",
        "image_url": "https://w.junreimap.com/images/points/356774/sm0wcq2ax_1738860281970.jpg",
        "location": "クーバー・フットボール パーク 武蔵浦和",
        "point_id": "sm0wcq2ax",
        "point_name": "クーバー・フットボール パーク 武蔵浦和",
        "remark": ""
      },
      "type": "Feature"
    },
    {
      "geometry": {
        "coordinates": [
          139.652267,
          35.836308
        ],
        "type": "Point"
      },
      "properties": {
        "bangumi_id": 356774,
        "bangumi_title": "彻夜之歌",
        "ep_cut": "",
        "image_url": "https://w.junreimap.com/images/points/356774/sm0wejkg5_1738860285011.jpg",
        "location": "クーバー・フットボール パーク 武蔵浦和",
        "point_id": "sm0wejkg5",
        "point_name": "クーバー・フットボール パーク 武蔵浦和",
        "remark": ""
      },
      "type": "Feature"
    },
    {
      "geometry": {
        "coordinates": [
          139.652216,
          35.836343
        ],
        "type": "Point"
      },
      "properties": {
        "bangumi_id": 356774,
        "bangumi_title": "彻夜之歌",
        "ep_cut": "",
        "image_url": "https://w.junreimap.com/images/points/356774/sm0wgepvo_1738860288148.jpg",
        "location": "クーバー・フットボール パーク 武蔵浦和",
        "point_id": "sm0wgepvo",
        "point_name": "クーバー・フットボール パーク 武蔵浦和",
        "remark": ""
      },
      "type": "Feature"
    },
    {
      "geometry": {
        "coordinates": [
          139.652166,
          35.83638
        ],
        "type": "Point"
      },
      "properties": {
        "bangumi_id": 356774,
        "bangumi_title": "彻夜之歌",
        "ep_cut": "",
        "image_url": "https://w.junreimap.com/images/points/356774/sm0wi93i8_1738860291199.jpg",
        "location": "クーバー・フットボール パーク 武蔵浦和",
        "point_id": "sm0wi93i8",
        "point_name": "クーバー・フットボール パーク 武蔵浦和",
        "remark": ""
      },
      "type": "Feature"
    },
    {
      "geometry": {
        "coordinates": [
          139.643676,
          35.843634
        ],
        "type": "Point"
      },
      "properties": {
        "bangumi_id": 356774,
        "bangumi_title": "彻夜之歌",
        "ep_cut": "",
        "image_url": "https://w.junreimap.com/images/points/356774/sm1417vds_1738860893229.jpg",
        "location": "かんのん児童遊園",
        "point_id": "sm1417vds",
        "point_name": "かんのん児童遊園",
        "remark": ""
      },
      "type": "Feature"
    },
    {
      "geometry": {
        "coordinates": [
          139.643634,
          35.843632
        ],
        "type": "Point"
      },
      "properties": {
        "bangumi_id": 356774,
        "bangumi_title": "彻夜之歌",
        "ep_cut": "",
        "image_url": "https://w.junreimap.com/images/points/356774/sm16klg0m_1738860900344.jpg",
        "location": "かんのん児童遊園",
        "point_id": "sm16klg0m",
        "point_name": "かんのん児童遊園",
        "remark": ""
      },
      "type": "Feature"
    },
    {
      "geometry": {
        "coordinates": [
          139.643672,
          35.843669
        ],
        "type": "Point"
      },
      "properties": {
        "bangumi_id": 356774,
        "bangumi_title": "彻夜之歌",
        "ep_cut": "",
        "image_url": "https://w.junreimap.com/images/points/356774/sm16wuk39_1738860922488.jpg",
        "location": "かんのん児童遊園",
        "point_id": "sm16wuk39",
        "point_name": "かんのん児童遊園",
        "remark": ""
      },
      "type": "Feature"
    },
    {
      "geometry": {
        "coordinates": [
          139.643634,
          35.843681
        ],
        "type": "Point"
      },
      "properties": {
        "bangumi_id": 356774,
        "bangumi_title": "彻夜之歌",
        "ep_cut": "",
        "image_url": "https://w.junreimap.com/images/points/356774/sm171wn01_1738860936148.jpg",
        "location": "かんのん児童遊園",
        "point_id": "sm171wn01",
        "point_name": "かんのん児童遊園",
        "remark": ""
      },
      "type": "Feature"
    },
    {
      "geometry": {
        "coordinates": [
          139.643674,
          35.843705
        ],
        "type": "Point"
      },
      "properties": {
        "bangumi_id": 356774,
        "bangumi_title": "彻夜之歌",
        "ep_cut": "",
        "image_url": "https://w.junreimap.com/images/points/356774/sm178op2m_1738860982151.jpg",
        "location": "かんのん児童遊園",
        "point_id": "sm178op2m",
        "point_name": "かんのん児童遊園",
        "remark": ""
      },
      "type": "Feature"
    },
    {
      "geometry": {
        "coordinates": [
          139.643637,
          35.843703
        ],
        "type": "Point"
      },
      "properties": {
        "bangumi_id": 356774,
        "bangumi_title": "彻夜之歌",
        "ep_cut": "",
        "image_url": "https://w.junreimap.com/images/points/356774/sm183rd0s_1738860994220.jpg",
        "location": "かんのん児童遊園",
        "point_id": "sm183rd0s",
        "point_name": "かんのん児童遊園",
        "remark": ""
      },
      "type": "Feature"
    },
    {
      "geometry": {
        "coordinates": [
          139.643648,
          35.843715
        ],
        "type": "Point"
      },
      "properties": {
        "bangumi_id": 356774,
        "bangumi_title": "彻夜之歌",
        "ep_cut": "",
        "image_url": "https://w.junreimap.com/images/points/356774/sm186xtn2_1738860999862.jpg",
        "location": "かんのん児童遊園",
        "point_id": "sm186xtn2",
        "point_name": "かんのん児童遊園",
        "remark": ""
      },
      "type": "Feature"
    },
    {
      "geometry": {
        "coordinates": [
          139.643612,
          35.843688
        ],
        "type": "Point"
      },
      "properties": {
        "bangumi_id": 356774,
        "bangumi_title": "彻夜之歌",
        "ep_cut": "",
        "image_url": "https://w.junreimap.com/images/points/356774/sm189uwkw_1738861004540.jpg",
        "location": "かんのん児童遊園",
        "point_id": "sm189uwkw",
        "point_name": "かんのん児童遊園",
        "remark": ""
      },
      "type": "Feature"
    },
    {
      "geometry": {
        "coordinates": [
          139.643612,
          35.843715
        ],
        "type": "Point"
      },
      "properties": {
        "bangumi_id": 356774,
        "bangumi_title": "彻夜之歌",
        "ep_cut": "",
        "image_url": "https://w.junreimap.com/images/points/356774/sm18ekarf_1738861014930.jpg",
        "location": "かんのん児童遊園",
        "point_id": "sm18ekarf",
        "point_name": "かんのん児童遊園",
        "remark": ""
      },
      "type": "Feature"
    },
    {
      "geometry": {
        "coordinates": [
          139.643654,
          35.843688
        ],
        "type": "Point"
      },
      "properties": {
        "bangumi_id": 356774,
        "bangumi_title": "彻夜之歌",
        "ep_cut": "",
        "image_url": "https://w.junreimap.com/images/points/356774/sm18iu04i_1738861022003.jpg",
        "location": "かんのん児童遊園",
        "point_id": "sm18iu04i",
        "point_name": "かんのん児童遊園",
        "remark": ""
      },
      "type": "Feature"
    },
    {
      "geometry": {
        "coordinates": [
          139.643602,
          35.843657
        ],
        "type": "Point"
      },
      "properties": {
        "bangumi_id": 356774,
        "bangumi_title": "彻夜之歌",
        "ep_cut": "",
        "image_url": "https://w.junreimap.com/images/points/356774/sm18mykkm_1738861026531.jpg",
        "location": "かんのん児童遊園",
        "point_id": "sm18mykkm",
        "point_name": "かんのん児童遊園",
        "remark": ""
      },
      "type": "Feature"
    },
    {
      "geometry": {
        "coordinates": [
          139.643653,
          35.843672
        ],
        "type": "Point"
      },
      "properties": {
        "bangumi_id": 356774,
        "bangumi_title": "彻夜之歌",
        "ep_cut": "",
        "image_url": "https://w.junreimap.com/images/points/356774/sm18qvgm7_1738861035394.jpg",
        "location": "かんのん児童遊園",
        "point_id": "sm18qvgm7",
        "point_name": "かんのん児童遊園",
        "remark": ""
      },
      "type": "Feature"
    },
    {
      "geometry": {
        "coordinates": [
          139.643653,
          35.843699
        ],
        "type": "Point"
      },
      "properties": {
        "bangumi_id": 356774,
        "bangumi_title": "彻夜之歌",
        "ep_cut": "",
        "image_url": "https://w.junreimap.com/images/points/356774/sm18uwjk0_1738861046631.jpg",
        "location": "かんのん児童遊園",
        "point_id": "sm18uwjk0",
        "point_name": "かんのん児童遊園",
        "remark": ""
      },
      "type": "Feature"
    },
    {
      "geometry": {
        "coordinates": [
          139.643538,
          35.843685
        ],
        "type": "Point"
      },
      "properties": {
        "bangumi_id": 356774,
        "bangumi_title": "彻夜之歌",
        "ep_cut": "",
        "image_url": "https://w.junreimap.com/images/points/356774/sm192tff1_1738861055236.jpg",
        "location": "かんのん児童遊園",
        "point_id": "sm192tff1",
        "point_name": "かんのん児童遊園",
        "remark": ""
      },
      "type": "Feature"
    },
    {
      "geometry": {
        "coordinates": [
          139.643589,
          35.843681
        ],
        "type": "Point"
      },
      "properties": {
        "bangumi_id": 356774,
        "bangumi_title": "彻夜之歌",
        "ep_cut": "",
        "image_url": "https://w.junreimap.com/images/points/356774/sm19holl5_1738861084689.jpg",
        "location": "かんのん児童遊園",
        "point_id": "sm19holl5",
        "point_name": "かんのん児童遊園",
        "remark": ""
      },
      "type": "Feature"
    },
    {
      "geometry": {
        "coordinates": [
          139.6436,
          35.843694
        ],
        "type": "Point"
      },
      "properties": {
        "bangumi_id": 356774,
        "bangumi_title": "彻夜之歌",
        "ep_cut": "",
        "image_url": "https://w.junreimap.com/images/points/356774/sm19pcbte_1738861089867.jpg",
        "location": "かんのん児童遊園",
        "point_id": "sm19pcbte",
        "point_name": "かんのん児童遊園",
        "remark": ""
      },
      "type": "Feature"
    },
    {
      "geometry": {
        "coordinates": [
          139.64362,
          35.843699
        ],
        "type": "Point"
      },
      "properties": {
        "bangumi_id": 356774,
        "bangumi_title": "彻夜之歌",
        "ep_cut": "",
        "image_url": "https://w.junreimap.com/images/points/356774/sm19r9xkb_1738861093696.jpg",
        "location": "かんのん児童遊園",
        "point_id": "sm19r9xkb",
        "point_name": "かんのん児童遊園",
        "remark": ""
      },
      "type": "Feature"
    },
    {
      "geometry": {
        "coordinates": [
          139.643616,
          35.843665
        ],
        "type": "Point"
      },
      "properties": {
        "bangumi_id": 356774,
        "bangumi_title": "彻夜之歌",
        "ep_cut": "",
        "image_url": "https://w.junreimap.com/images/points/356774/sm19udas4_1738861099758.jpg",
        "location": "かんのん児童遊園",
        "point_id": "sm19udas4",
        "point_name": "かんのん児童遊園",
        "remark": ""
      },
      "type": "Feature"
    },
    {
      "geometry": {
        "coordinates": [
          139.643634,
          35.84365
        ],
        "type": "Point"
      },
      "properties": {
        "bangumi_id": 356774,
        "bangumi_title": "彻夜之歌",
        "ep_cut": "",
        "image_url": "https://w.junreimap.com/images/points/356774/sm19xcp5u_1738861104427.jpg",
        "location": "かんのん児童遊園",
        "point_id": "sm19xcp5u",
        "point_name": "かんのん児童遊園",
        "remark": ""
      },
      "type": "Feature"
    },
    {
      "geometry": {
        "coordinates": [
          139.643633,
          35.843695
        ],
        "type": "Point"
      },
      "properties": {
        "bangumi_id": 356774,
        "bangumi_title": "彻夜之歌",
        "ep_cut": "",
        "image_url": "https://w.junreimap.com/images/points/356774/sm1a10n56_1738861111387.jpg",
        "location": "かんのん児童遊園",
        "point_id": "sm1a10n56",
        "point_name": "かんのん児童遊園",
        "remark": ""
      },
      "type": "Feature"
    },
    {
      "geometry": {
        "coordinates": [
          139.643639,
          35.843731
        ],
        "type": "Point"
      },
      "properties": {
        "bangumi_id": 356774,
        "bangumi_title": "彻夜之歌",
        "ep_cut": "",
        "image_url": "https://w.junreimap.com/images/points/356774/sm1a4y8lh_1738861117244.jpg",
        "location": "かんのん児童遊園",
        "point_id": "sm1a4y8lh",
        "point_name": "かんのん児童遊園",
        "remark": ""
      },
      "type": "Feature"
    },
    {
      "geometry": {
        "coordinates": [
          139.643608,
          35.843703
        ],
        "type": "Point"
      },
      "properties": {
        "bangumi_id": 356774,
        "bangumi_title": "彻夜之歌",
        "ep_cut": "",
        "image_url": "https://w.junreimap.com/images/points/356774/sm1a8eeft_1738861121879.jpg",
        "location": "かんのん児童遊園",
        "point_id": "sm1a8eeft",
        "point_name": "かんのん児童遊園",
        "remark": ""
      },
      "type": "Feature"
    },
    {
      "geometry": {
        "coordinates": [
          139.643568,
          35.843697
        ],
        "type": "Point"
      },
      "properties": {
        "bangumi_id": 356774,
        "bangumi_title": "彻夜之歌",
        "ep_cut": "",
        "image_url": "https://w.junreimap.com/images/points/356774/sm1aavl8n_1738861135472.jpg",
        "location": "かんのん児童遊園",
        "point_id": "sm1aavl8n",
        "point_name": "かんのん児童遊園",
        "remark": ""
      },
      "type": "Feature"
    },
    {
      "geometry": {
        "coordinates": [
          139.643541,
          35.843668
        ],
        "type": "Point"
      },
      "properties": {
        "bangumi_id": 356774,
        "bangumi_title": "彻夜之歌",
        "ep_cut": "",
        "image_url": "https://w.junreimap.com/images/points/356774/sm199gua7_1738861064003.jpg",
        "location": "かんのん児童遊園",
        "point_id": "sm199gua7",
        "point_name": "かんのん児童遊園",
        "remark": ""
      },
      "type": "Feature"
    },
    {
      "geometry": {
        "coordinates": [
          139.647722,
          35.843796
        ],
        "type": "Point"
      },
      "properties": {
        "bangumi_id": 356774,
        "bangumi_title": "彻夜之歌",
        "ep_cut": "",
        "image_url": "https://w.junreimap.com/images/points/356774/sm109xtxn_1738860520850.jpg",
        "location": "日高屋 マーレ武蔵浦和店横",
        "point_id": "sm109xtxn",
        "point_name": "日高屋 マーレ武蔵浦和店横",
        "remark": ""
      },
      "type": "Feature"
    },
    {
      "geometry": {
        "coordinates": [
          139.647722,
          35.843827
        ],
        "type": "Point"
      },
      "properties": {
        "bangumi_id": 356774,
        "bangumi_title": "彻夜之歌",
        "ep_cut": "",
        "image_url": "https://w.junreimap.com/images/points/356774/sm10cz7i7_1738860524382.jpg",
        "location": "日高屋 マーレ武蔵浦和店横",
        "point_id": "sm10cz7i7",
        "point_name": "日高屋 マーレ武蔵浦和店横",
        "remark": ""
      },
      "type": "Feature"
    },
    {
      "geometry": {
        "coordinates": [
          139.647685,
          35.84381
        ],
        "type": "Point"
      },
      "properties": {
        "bangumi_id": 356774,
        "bangumi_title": "彻夜之歌",
        "ep_cut": "",
        "image_url": "https://w.junreimap.com/images/points/356774/sm10eyasz_1738860527652.jpg",
        "location": "日高屋 マーレ武蔵浦和店横",
        "point_id": "sm10eyasz",
        "point_name": "日高屋 マーレ武蔵浦和店横",
        "remark": ""
      },
      "type": "Feature"
    },
    {
      "geometry": {
        "coordinates": [
          139.647743,
          35.843803
        ],
        "type": "Point"
      },
      "properties": {
        "bangumi_id": 356774,
        "bangumi_title": "彻夜之歌",
        "ep_cut": "",
        "image_url": "https://w.junreimap.com/images/points/356774/sm10gt3jt_1738860530507.jpg",
        "location": "日高屋 マーレ武蔵浦和店横",
        "point_id": "sm10gt3jt",
        "point_name": "日高屋 マーレ武蔵浦和店横",
        "remark": ""
      },
      "type": "Feature"
    },
    {
      "geometry": {
        "coordinates": [
          139.647709,
          35.843808
        ],
        "type": "Point"
      },
      "properties": {
        "bangumi_id": 356774,
        "bangumi_title": "彻夜之歌",
        "ep_cut": "",
        "image_url": "https://w.junreimap.com/images/points/356774/sm10j0x8x_1738860534828.jpg",
        "location": "日高屋 マーレ武蔵浦和店横",
        "point_id": "sm10j0x8x",
        "point_name": "日高屋 マーレ武蔵浦和店横",
        "remark": ""
      },
      "type": "Feature"
    },
    {
      "geometry": {
        "coordinates": [
          139.647687,
          35.843778
        ],
        "type": "Point"
      },
      "properties": {
        "bangumi_id": 356774,
        "bangumi_title": "彻夜之歌",
        "ep_cut": "",
        "image_url": "https://w.junreimap.com/images/points/356774/sm10l6nw5_1738860538097.jpg",
        "location": "日高屋 マーレ武蔵浦和店横",
        "point_id": "sm10l6nw5",
        "point_name": "日高屋 マーレ武蔵浦和店横",
        "remark": ""
      },
      "type": "Feature"
    },
    {
      "geometry": {
        "coordinates": [
          139.647734,
          35.843765
        ],
        "type": "Point"
      },
      "properties": {
        "bangumi_id": 356774,
        "bangumi_title": "彻夜之歌",
        "ep_cut": "",
        "image_url": "https://w.junreimap.com/images/points/356774/sm10n9kr0_1738860541323.jpg",
        "location": "日高屋 マーレ武蔵浦和店横",
        "point_id": "sm10n9kr0",
        "point_name": "日高屋 マーレ武蔵浦和店横",
        "remark": ""
      },
      "type": "Feature"
    },
    {
      "geometry": {
        "coordinates": [
          139.64766,
          35.843793
        ],
        "type": "Point"
      },
      "properties": {
        "bangumi_id": 356774,
        "bangumi_title": "彻夜之歌",
        "ep_cut": "",
        "image_url": "https://w.junreimap.com/images/points/356774/sm10p6ley_1738860545344.jpg",
        "location": "日高屋 マーレ武蔵浦和店横",
        "point_id": "sm10p6ley",
        "point_name": "日高屋 マーレ武蔵浦和店横",
        "remark": ""
      },
      "type": "Feature"
    },
    {
      "geometry": {
        "coordinates": [
          139.647697,
          35.843795
        ],
        "type": "Point"
      },
      "properties": {
        "bangumi_id": 356774,
        "bangumi_title": "彻夜之歌",
        "ep_cut": "",
        "image_url": "https://w.junreimap.com/images/points/356774/sm10rs76e_1738860548962.jpg",
        "location": "日高屋 マーレ武蔵浦和店横",
        "point_id": "sm10rs76e",
        "point_name": "日高屋 マーレ武蔵浦和店横",
        "remark": ""
      },
      "type": "Feature"
    },
    {
      "geometry": {
        "coordinates": [
          139.647711,
          35.843764
        ],
        "type": "Point"
      },
      "properties": {
        "bangumi_id": 356774,
        "bangumi_title": "彻夜之歌",
        "ep_cut": "",
        "image_url": "https://w.junreimap.com/images/points/356774/sm10te6yh_1738860551726.jpg",
        "location": "日高屋 マーレ武蔵浦和店横",
        "point_id": "sm10te6yh",
        "point_name": "日高屋 マーレ武蔵浦和店横",
        "remark": ""
      },
      "type": "Feature"
    },
    {
      "geometry": {
        "coordinates": [
          139.643553,
          35.847963
        ],
        "type": "Point"
      },
      "properties": {
        "bangumi_id": 356774,
        "bangumi_title": "彻夜之歌",
        "ep_cut": "",
        "image_url": "https://w.junreimap.com/images/points/356774/sm1co3qg6_1738861283537.jpg",
        "location": "",
        "point_id": "sm1co3qg6",
        "point_name": "まほら公園",
        "remark": ""
      },
      "type": "Feature"
    },
    {
      "geometry": {
        "coordinates": [
          139.642669,
          35.844006
        ],
        "type": "Point"
      },
      "properties": {
        "bangumi_id": 356774,
        "bangumi_title": "彻夜之歌",
        "ep_cut": "",
        "image_url": "https://w.junreimap.com/images/points/356774/sm1fvkmmz_1738861499990.jpg",
        "location": "器ギャラリーハセガワ",
        "point_id": "sm1fvkmmz",
        "point_name": "器ギャラリーハセガワ",
        "remark": "左边的房子是绿色的，可以做参考"
      },
      "type": "Feature"
    },
    {
      "geometry": {
        "coordinates": [
          139.642666,
          35.843992
        ],
        "type": "Point"
      },
      "properties": {
        "bangumi_id": 356774,
        "bangumi_title": "彻夜之歌",
        "ep_cut": "",
        "image_url": "https://w.junreimap.com/images/points/356774/sm1hwud8q_1738861586340.jpg",
        "location": "器ギャラリーハセガワ",
        "point_id": "sm1hwud8q",
        "point_name": "器ギャラリーハセガワ",
        "remark": ""
      },
      "type": "Feature"
    },
    {
      "geometry": {
        "coordinates": [
          139.642679,
          35.843993
        ],
        "type": "Point"
      },
      "properties": {
        "bangumi_id": 356774,
        "bangumi_title": "彻夜之歌",
        "ep_cut": "",
        "image_url": "https://w.junreimap.com/images/points/356774/sm1hzedr2_1738861589437.jpg",
        "location": "器ギャラリーハセガワ",
        "point_id": "sm1hzedr2",
        "point_name": "器ギャラリーハセガワ",
        "remark": ""
      },
      "type": "Feature"
    },
    {
      "geometry": {
        "coordinates": [
          139.642677,
          35.843979
        ],
        "type": "Point"
      },
      "properties": {
        "bangumi_id": 356774,
        "bangumi_title": "彻夜之歌",
        "ep_cut": "",
        "image_url": "https://w.junreimap.com/images/points/356774/sm1i0zrbx_1738861592543.jpg",
        "location": "器ギャラリーハセガワ",
        "point_id": "sm1i0zrbx",
        "point_name": "器ギャラリーハセガワ",
        "remark": ""
      },
      "type": "Feature"
    },
    {
      "geometry": {
        "coordinates": [
          139.642656,
          35.844006
        ],
        "type": "Point"
      },
      "properties": {
        "bangumi_id": 356774,
        "bangumi_title": "彻夜之歌",
        "ep_cut": "",
        "image_url": "https://w.junreimap.com/images/points/356774/sm1i2ts1d_1738861595795.jpg",
        "location": "器ギャラリーハセガワ",
        "point_id": "sm1i2ts1d",
        "point_name": "器ギャラリーハセガワ",
        "remark": ""
      },
      "type": "Feature"
    },
    {
      "geometry": {
        "coordinates": [
          139.642665,
          35.844011
        ],
        "type": "Point"
      },
      "properties": {
        "bangumi_id": 356774,
        "bangumi_title": "彻夜之歌",
        "ep_cut": "",
        "image_url": "https://w.junreimap.com/images/points/356774/sm1i4wemf_1738861598884.jpg",
        "location": "器ギャラリーハセガワ",
        "point_id": "sm1i4wemf",
        "point_name": "器ギャラリーハセガワ",
        "remark": ""
      },
      "type": "Feature"
    },
    {
      "geometry": {
        "coordinates": [
          139.642685,
          35.843982
        ],
        "type": "Point"
      },
      "properties": {
        "bangumi_id": 356774,
        "bangumi_title": "彻夜之歌",
        "ep_cut": "",
        "image_url": "https://w.junreimap.com/images/points/356774/sm1i6layo_1738861601581.jpg",
        "location": "器ギャラリーハセガワ",
        "point_id": "sm1i6layo",
        "point_name": "器ギャラリーハセガワ",
        "remark": ""
      },
      "type": "Feature"
    },
    {
      "geometry": {
        "coordinates": [
          139.642657,
          35.843996
        ],
        "type": "Point"
      },
      "properties": {
        "bangumi_id": 356774,
        "bangumi_title": "彻夜之歌",
        "ep_cut": "",
        "image_url": "https://w.junreimap.com/images/points/356774/sm1i84j9w_1738861604946.jpg",
        "location": "器ギャラリーハセガワ",
        "point_id": "sm1i84j9w",
        "point_name": "器ギャラリーハセガワ",
        "remark": ""
      },
      "type": "Feature"
    },
    {
      "geometry": {
        "coordinates": [
          139.64267,
          35.843986
        ],
        "type": "Point"
      },
      "properties": {
        "bangumi_id": 356774,
        "bangumi_title": "彻夜之歌",
        "ep_cut": "",
        "image_url": "https://w.junreimap.com/images/points/356774/sm1iaenlf_1738861615266.jpg",
        "location": "器ギャラリーハセガワ",
        "point_id": "sm1iaenlf",
        "point_name": "器ギャラリーハセガワ",
        "remark": ""
      },
      "type": "Feature"
    },
    {
      "geometry": {
        "coordinates": [
          139.642679,
          35.843985
        ],
        "type": "Point"
      },
      "properties": {
        "bangumi_id": 356774,
        "bangumi_title": "彻夜之歌",
        "ep_cut": "",
        "image_url": "https://w.junreimap.com/images/points/356774/sm1iguxqq_1738861620849.jpg",
        "location": "器ギャラリーハセガワ",
        "point_id": "sm1iguxqq",
        "point_name": "器ギャラリーハセガワ",
        "remark": ""
      },
      "type": "Feature"
    },
    {
      "geometry": {
        "coordinates": [
          139.642673,
          35.843982
        ],
        "type": "Point"
      },
      "properties": {
        "bangumi_id": 356774,
        "bangumi_title": "彻夜之歌",
        "ep_cut": "",
        "image_url": "https://w.junreimap.com/images/points/356774/sm1ijfgj4_1738861624026.jpg",
        "location": "器ギャラリーハセガワ",
        "point_id": "sm1ijfgj4",
        "point_name": "器ギャラリーハセガワ",
        "remark": ""
      },
      "type": "Feature"
    },
    {
      "geometry": {
        "coordinates": [
          139.642685,
          35.843987
        ],
        "type": "Point"
      },
      "properties": {
        "bangumi_id": 356774,
        "bangumi_title": "彻夜之歌",
        "ep_cut": "",
        "image_url": "https://w.junreimap.com/images/points/356774/sm1imbuow_1738861629380.jpg",
        "location": "器ギャラリーハセガワ",
        "point_id": "sm1imbuow",
        "point_name": "器ギャラリーハセガワ",
        "remark": ""
      },
      "type": "Feature"
    },
    {
      "geometry": {
        "coordinates": [
          139.642668,
          35.843997
        ],
        "type": "Point"
      },
      "properties": {
        "bangumi_id": 356774,
        "bangumi_title": "彻夜之歌",
        "ep_cut": "",
        "image_url": "https://w.junreimap.com/images/points/356774/sm1ioipg3_1738861632246.jpg",
        "location": "器ギャラリーハセガワ",
        "point_id": "sm1ioipg3",
        "point_name": "器ギャラリーハセガワ",
        "remark": ""
      },
      "type": "Feature"
    },
    {
      "geometry": {
        "coordinates": [
          139.642678,
          35.843975
        ],
        "type": "Point"
      },
      "properties": {
        "bangumi_id": 356774,
        "bangumi_title": "彻夜之歌",
        "ep_cut": "",
        "image_url": "https://w.junreimap.com/images/points/356774/sm1iqm3ke_1738861635953.jpg",
        "location": "器ギャラリーハセガワ",
        "point_id": "sm1iqm3ke",
        "point_name": "器ギャラリーハセガワ",
        "remark": ""
      },
      "type": "Feature"
    },
    {
      "geometry": {
        "coordinates": [
          139.642684,
          35.843976
        ],
        "type": "Point"
      },
      "properties": {
        "bangumi_id": 356774,
        "bangumi_title": "彻夜之歌",
        "ep_cut": "",
        "image_url": "https://w.junreimap.com/images/points/356774/sm1isfygw_1738861638986.jpg",
        "location": "器ギャラリーハセガワ",
        "point_id": "sm1isfygw",
        "point_name": "器ギャラリーハセガワ",
        "remark": ""
      },
      "type": "Feature"
    },
    {
      "geometry": {
        "coordinates": [
          139.644461,
          35.844905
        ],
        "type": "Point"
      },
      "properties": {
        "bangumi_id": 356774,
        "bangumi_title": "彻夜之歌",
        "ep_cut": "",
        "image_url": "https://w.junreimap.com/images/points/356774/sm1qdakdv_1738862118416.jpg",
        "location": "さいたま市立 浦和大里小学校の南側道路",
        "point_id": "sm1qdakdv",
        "point_name": "さいたま市立 浦和大里小学校の南側道路",
        "remark": ""
      },
      "type": "Feature"
    },
    {
      "geometry": {
        "coordinates": [
          139.644611,
          35.844892
        ],
        "type": "Point"
      },
      "properties": {
        "bangumi_id": 356774,
        "bangumi_title": "彻夜之歌",
        "ep_cut": "",
        "image_url": "https://w.junreimap.com/images/points/356774/sm1qu5bf3_1738862126280.jpg",
        "location": "さいたま市立 浦和大里小学校の南側道路",
        "point_id": "sm1qu5bf3",
        "point_name": "さいたま市立 浦和大里小学校の南側道路",
        "remark": ""
      },
      "type": "Feature"
    },
    {
      "geometry": {
        "coordinates": [
          139.644697,
          35.844935
        ],
        "type": "Point"
      },
      "properties": {
        "bangumi_id": 356774,
        "bangumi_title": "彻夜之歌",
        "ep_cut": "",
        "image_url": "https://w.junreimap.com/images/points/356774/sm1qxkz7c_1738862130670.jpg",
        "location": "さいたま市立 浦和大里小学校の南側道路",
        "point_id": "sm1qxkz7c",
        "point_name": "さいたま市立 浦和大里小学校の南側道路",
        "remark": ""
      },
      "type": "Feature"
    },
    {
      "geometry": {
        "coordinates": [
          139.644387,
          35.844883
        ],
        "type": "Point"
      },
      "properties": {
        "bangumi_id": 356774,
        "bangumi_title": "彻夜之歌",
        "ep_cut": "",
        "image_url": "https://w.junreimap.com/images/points/356774/sm1qzss6p_1738862134940.jpg",
        "location": "さいたま市立 浦和大里小学校の南側道路",
        "point_id": "sm1qzss6p",
        "point_name": "さいたま市立 浦和大里小学校の南側道路",
        "remark": ""
      },
      "type": "Feature"
    },
    {
      "geometry": {
        "coordinates": [
          139.644641,
          35.844913
        ],
        "type": "Point"
      },
      "properties": {
        "bangumi_id": 356774,
        "bangumi_title": "彻夜之歌",
        "ep_cut": "",
        "image_url": "https://w.junreimap.com/images/points/356774/sm1r2gssq_1738862139168.jpg",
        "location": "さいたま市立 浦和大里小学校の南側道路",
        "point_id": "sm1r2gssq",
        "point_name": "さいたま市立 浦和大里小学校の南側道路",
        "remark": ""
      },
      "type": "Feature"
    },
    {
      "geometry": {
        "coordinates": [
          139.644682,
          35.844912
        ],
        "type": "Point"
      },
      "properties": {
        "bangumi_id": 356774,
        "bangumi_title": "彻夜之歌",
        "ep_cut": "",
        "image_url": "https://w.junreimap.com/images/points/356774/sm1r42hcd_1738862141915.jpg",
        "location": "さいたま市立 浦和大里小学校の南側道路",
        "point_id": "sm1r42hcd",
        "point_name": "さいたま市立 浦和大里小学校の南側道路",
        "remark": ""
      },
      "type": "Feature"
    },
    {
      "geometry": {
        "coordinates": [
          139.644659,
          35.844931
        ],
        "type": "Point"
      },
      "properties": {
        "bangumi_id": 356774,
        "bangumi_title": "彻夜之歌",
        "ep_cut": "",
        "image_url": "https://w.junreimap.com/images/points/356774/sm1r5o82y_1738862144899.jpg",
        "location": "さいたま市立 浦和大里小学校の南側道路",
        "point_id": "sm1r5o82y",
        "point_name": "さいたま市立 浦和大里小学校の南側道路",
        "remark": ""
      },
      "type": "Feature"
    },
    {
      "geometry": {
        "coordinates": [
          139.644722,
          35.844912
        ],
        "type": "Point"
      },
      "properties": {
        "bangumi_id": 356774,
        "bangumi_title": "彻夜之歌",
        "ep_cut": "",
        "image_url": "https://w.junreimap.com/images/points/356774/sm1r7mm3s_1738862148550.jpg",
        "location": "さいたま市立 浦和大里小学校の南側道路",
        "point_id": "sm1r7mm3s",
        "point_name": "さいたま市立 浦和大里小学校の南側道路",
        "remark": ""
      },
      "type": "Feature"
    },
    {
      "geometry": {
        "coordinates": [
          139.644606,
          35.844918
        ],
        "type": "Point"
      },
      "properties": {
        "bangumi_id": 356774,
        "bangumi_title": "彻夜之歌",
        "ep_cut": "",
        "image_url": "https://w.junreimap.com/images/points/356774/sm1rr0pxb_1738862183023.jpg",
        "location": "さいたま市立 浦和大里小学校の南側道路",
        "point_id": "sm1rr0pxb",
        "point_name": "さいたま市立 浦和大里小学校の南側道路",
        "remark": ""
      },
      "type": "Feature"
    },
    {
      "geometry": {
        "coordinates": [
          139.644751,
          35.844928
        ],
        "type": "Point"
      },
      "properties": {
        "bangumi_id": 356774,
        "bangumi_title": "彻夜之歌",
        "ep_cut": "",
        "image_url": "https://w.junreimap.com/images/points/356774/sm1rv3yyf_1738862187870.jpg",
        "location": "さいたま市立 浦和大里小学校の南側道路",
        "point_id": "sm1rv3yyf",
        "point_name": "さいたま市立 浦和大里小学校の南側道路",
        "remark": ""
      },
      "type": "Feature"
    },
    {
      "geometry": {
        "coordinates": [
          139.644702,
          35.844913
        ],
        "type": "Point"
      },
      "properties": {
        "bangumi_id": 356774,
        "bangumi_title": "彻夜之歌",
        "ep_cut": "",
        "image_url": "https://w.junreimap.com/images/points/356774/sm1ryunvs_1738862193795.jpg",
        "location": "さいたま市立 浦和大里小学校の南側道路",
        "point_id": "sm1ryunvs",
        "point_name": "さいたま市立 浦和大里小学校の南側道路",
        "remark": ""
      },
      "type": "Feature"
    },
    {
      "geometry": {
        "coordinates": [
          139.644659,
          35.844911
        ],
        "type": "Point"
      },
      "properties": {
        "bangumi_id": 356774,
        "bangumi_title": "彻夜之歌",
        "ep_cut": "",
        "image_url": "https://w.junreimap.com/images/points/356774/sm1s0q5dc_1738862197390.jpg",
        "location": "さいたま市立 浦和大里小学校の南側道路",
        "point_id": "sm1s0q5dc",
        "point_name": "さいたま市立 浦和大里小学校の南側道路",
        "remark": ""
      },
      "type": "Feature"
    },
    {
      "geometry": {
        "coordinates": [
          139.644691,
          35.844899
        ],
        "type": "Point"
      },
      "properties": {
        "bangumi_id": 356774,
        "bangumi_title": "彻夜之歌",
        "ep_cut": "",
        "image_url": "https://w.junreimap.com/images/points/356774/sm1s2r5ur_1738862201176.jpg",
        "location": "さいたま市立 浦和大里小学校の南側道路",
        "point_id": "sm1s2r5ur",
        "point_name": "さいたま市立 浦和大里小学校の南側道路",
        "remark": ""
      },
      "type": "Feature"
    },
    {
      "geometry": {
        "coordinates": [
          139.646428,
          35.84465
        ],
        "type": "Point"
      },
      "properties": {
        "bangumi_id": 356774,
        "bangumi_title": "彻夜之歌",
        "ep_cut": "",
        "image_url": "https://w.junreimap.com/images/points/356774/souu7drzt_1739082202310.jpg",
        "location": "三菱UFJ銀行 南浦和支店武蔵浦和駅前",
        "point_id": "souu7drzt",
        "point_name": "三菱UFJ銀行 南浦和支店武蔵浦和駅前",
        "remark": ""
      },
      "type": "Feature"
    },
    {
      "geometry": {
        "coordinates": [
          139.646497,
          35.844664
        ],
        "type": "Point"
      },
      "properties": {
        "bangumi_id": 356774,
        "bangumi_title": "彻夜之歌",
        "ep_cut": "",
        "image_url": "https://w.junreimap.com/images/points/356774/souul4kfq_1739082207715.jpg",
        "location": "三菱UFJ銀行 南浦和支店武蔵浦和駅前",
        "point_id": "souul4kfq",
        "point_name": "三菱UFJ銀行 南浦和支店武蔵浦和駅前",
        "remark": ""
      },
      "type": "Feature"
    },
    {
      "geometry": {
        "coordinates": [
          139.646459,
          35.844666
        ],
        "type": "Point"
      },
      "properties": {
        "bangumi_id": 356774,
        "bangumi_title": "彻夜之歌",
        "ep_cut": "",
        "image_url": "https://w.junreimap.com/images/points/356774/souuntczc_1739082216025.jpg",
        "location": "三菱UFJ銀行 南浦和支店武蔵浦和駅前",
        "point_id": "souuntczc",
        "point_name": "三菱UFJ銀行 南浦和支店武蔵浦和駅前",
        "remark": ""
      },
      "type": "Feature"
    },
    {
      "geometry": {
        "coordinates": [
          139.646435,
          35.844619
        ],
        "type": "Point"
      },
      "properties": {
        "bangumi_id": 356774,
        "bangumi_title": "彻夜之歌",
        "ep_cut": "",
        "image_url": "https://w.junreimap.com/images/points/356774/souvb4pyg_1739082266839.jpg",
        "location": "三菱UFJ銀行 南浦和支店武蔵浦和駅前",
        "point_id": "souvb4pyg",
        "point_name": "三菱UFJ銀行 南浦和支店武蔵浦和駅前",
        "remark": ""
      },
      "type": "Feature"
    },
    {
      "geometry": {
        "coordinates": [
          139.646547,
          35.844652
        ],
        "type": "Point"
      },
      "properties": {
        "bangumi_id": 356774,
        "bangumi_title": "彻夜之歌",
        "ep_cut": "",
        "image_url": "https://w.junreimap.com/images/points/356774/souvnax84_1739082271808.jpg",
        "location": "三菱UFJ銀行 南浦和支店武蔵浦和駅前",
        "point_id": "souvnax84",
        "point_name": "三菱UFJ銀行 南浦和支店武蔵浦和駅前",
        "remark": ""
      },
      "type": "Feature"
    },
    {
      "geometry": {
        "coordinates": [
          139.646478,
          35.844634
        ],
        "type": "Point"
      },
      "properties": {
        "bangumi_id": 356774,
        "bangumi_title": "彻夜之歌",
        "ep_cut": "",
        "image_url": "https://w.junreimap.com/images/points/356774/souutpppw_1739082244962.jpg",
        "location": "三菱UFJ銀行 南浦和支店武蔵浦和駅前",
        "point_id": "souutpppw",
        "point_name": "三菱UFJ銀行 南浦和支店武蔵浦和駅前",
        "remark": ""
      },
      "type": "Feature"
    },
    {
      "geometry": {
        "coordinates": [
          139.646467,
          35.8446
        ],
        "type": "Point"
      },
      "properties": {
        "bangumi_id": 356774,
        "bangumi_title": "彻夜之歌",
        "ep_cut": "",
        "image_url": "https://w.junreimap.com/images/points/356774/souvxz0mf_1739082290130.jpg",
        "location": "三菱UFJ銀行 南浦和支店武蔵浦和駅前",
        "point_id": "souvxz0mf",
        "point_name": "三菱UFJ銀行 南浦和支店武蔵浦和駅前",
        "remark": ""
      },
      "type": "Feature"
    },
    {
      "geometry": {
        "coordinates": [
          139.646498,
          35.844612
        ],
        "type": "Point"
      },
      "properties": {
        "bangumi_id": 356774,
        "bangumi_title": "彻夜之歌",
        "ep_cut": "",
        "image_url": "https://w.junreimap.com/images/points/356774/souw0nay4_1739082294631.jpg",
        "location": "三菱UFJ銀行 南浦和支店武蔵浦和駅前",
        "point_id": "souw0nay4",
        "point_name": "三菱UFJ銀行 南浦和支店武蔵浦和駅前",
        "remark": ""
      },
      "type": "Feature"
    },
    {
      "geometry": {
        "coordinates": [
          139.646524,
          35.844621
        ],
        "type": "Point"
      },
      "properties": {
        "bangumi_id": 356774,
        "bangumi_title": "彻夜之歌",
        "ep_cut": "",
        "image_url": "https://w.junreimap.com/images/points/356774/souw6eqwx_1739082304241.jpg",
        "location": "三菱UFJ銀行 南浦和支店武蔵浦和駅前",
        "point_id": "souw6eqwx",
        "point_name": "三菱UFJ銀行 南浦和支店武蔵浦和駅前",
        "remark": ""
      },
      "type": "Feature"
    },
    {
      "geometry": {
        "coordinates": [
          139.646516,
          35.844649
        ],
        "type": "Point"
      },
      "properties": {
        "bangumi_id": 356774,
        "bangumi_title": "彻夜之歌",
        "ep_cut": "",
        "image_url": "https://w.junreimap.com/images/points/356774/souw90w9u_1739082308198.jpg",
        "location": "三菱UFJ銀行 南浦和支店武蔵浦和駅前",
        "point_id": "souw90w9u",
        "point_name": "三菱UFJ銀行 南浦和支店武蔵浦和駅前",
        "remark": ""
      },
      "type": "Feature"
    },
    {
      "geometry": {
        "coordinates": [
          139.646553,
          35.844631
        ],
        "type": "Point"
      },
      "properties": {
        "bangumi_id": 356774,
        "bangumi_title": "彻夜之歌",
        "ep_cut": "",
        "image_url": "https://w.junreimap.com/images/points/356774/souwcm3gf_1739082315386.jpg",
        "location": "三菱UFJ銀行 南浦和支店武蔵浦和駅前",
        "point_id": "souwcm3gf",
        "point_name": "三菱UFJ銀行 南浦和支店武蔵浦和駅前",
        "remark": ""
      },
      "type": "Feature"
    },
    {
      "geometry": {
        "coordinates": [
          139.64653,
          35.844664
        ],
        "type": "Point"
      },
      "properties": {
        "bangumi_id": 356774,
        "bangumi_title": "彻夜之歌",
        "ep_cut": "",
        "image_url": "https://w.junreimap.com/images/points/356774/souwg19bp_1739082320976.jpg",
        "location": "三菱UFJ銀行 南浦和支店武蔵浦和駅前",
        "point_id": "souwg19bp",
        "point_name": "三菱UFJ銀行 南浦和支店武蔵浦和駅前",
        "remark": ""
      },
      "type": "Feature"
    },
    {
      "geometry": {
        "coordinates": [
          139.645975,
          35.845655
        ],
        "type": "Point"
      },
      "properties": {
        "bangumi_id": 356774,
        "bangumi_title": "彻夜之歌",
        "ep_cut": "",
        "image_url": "https://w.junreimap.com/images/points/356774/sqe4brjcm_1739202534365.jpg",
        "location": "武蔵浦和駅西口",
        "point_id": "sqe4brjcm",
        "point_name": "武蔵浦和駅西口",
        "remark": ""
      },
      "type": "Feature"
    },
    {
      "geometry": {
        "coordinates": [
          139.646079,
          35.845607
        ],
        "type": "Point"
      },
      "properties": {
        "bangumi_id": 356774,
        "bangumi_title": "彻夜之歌",
        "ep_cut": "",
        "image_url": "https://w.junreimap.com/images/points/356774/sqe4c4qs4_1739202550164.jpg",
        "location": "武蔵浦和駅西口",
        "point_id": "sqe4c4qs4",
        "point_name": "武蔵浦和駅西口",
        "remark": ""
      },
      "type": "Feature"
    },
    {
      "geometry": {
        "coordinates": [
          139.646126,
          35.845655
        ],
        "type": "Point"
      },
      "properties": {
        "bangumi_id": 356774,
        "bangumi_title": "彻夜之歌",
        "ep_cut": "",
        "image_url": "https://w.junreimap.com/images/points/356774/sqe4cec02_1739202541769.jpg",
        "location": "武蔵浦和駅西口",
        "point_id": "sqe4cec02",
        "point_name": "武蔵浦和駅西口",
        "remark": ""
      },
      "type": "Feature"
    },
    {
      "geometry": {
        "coordinates": [
          139.646045,
          35.845693
        ],
        "type": "Point"
      },
      "properties": {
        "bangumi_id": 356774,
        "bangumi_title": "彻夜之歌",
        "ep_cut": "",
        "image_url": "https://w.junreimap.com/images/points/356774/sqe4cnxzg_1739202538147.jpg",
        "location": "武蔵浦和駅西口",
        "point_id": "sqe4cnxzg",
        "point_name": "武蔵浦和駅西口",
        "remark": ""
      },
      "type": "Feature"
    },
    {
      "geometry": {
        "coordinates": [
          139.64595,
          35.845706
        ],
        "type": "Point"
      },
      "properties": {
        "bangumi_id": 356774,
        "bangumi_title": "彻夜之歌",
        "ep_cut": "",
        "image_url": "https://w.junreimap.com/images/points/356774/sqe5uds3q_1739202624852.jpg",
        "location": "武蔵浦和駅西口",
        "point_id": "sqe5uds3q",
        "point_name": "武蔵浦和駅西口",
        "remark": ""
      },
      "type": "Feature"
    },
    {
      "geometry": {
        "coordinates": [
          139.646,
          35.845723
        ],
        "type": "Point"
      },
      "properties": {
        "bangumi_id": 356774,
        "bangumi_title": "彻夜之歌",
        "ep_cut": "",
        "image_url": "https://w.junreimap.com/images/points/356774/sqe66b8yp_1739202632338.jpg",
        "location": "武蔵浦和駅西口",
        "point_id": "sqe66b8yp",
        "point_name": "武蔵浦和駅西口",
        "remark": ""
      },
      "type": "Feature"
    },
    {
      "geometry": {
        "coordinates": [
          139.646375,
          35.846353
        ],
        "type": "Point"
      },
      "properties": {
        "bangumi_id": 356774,
        "bangumi_title": "彻夜之歌",
        "ep_cut": "",
        "image_url": "https://w.junreimap.com/images/points/356774/sqefzxhgt_1739203226822.jpg",
        "location": "武蔵浦和駅北側高架",
        "point_id": "sqefzxhgt",
        "point_name": "武蔵浦和駅北側高架",
        "remark": ""
      },
      "type": "Feature"
    },
    {
      "geometry": {
        "coordinates": [
          139.646346,
          35.846345
        ],
        "type": "Point"
      },
      "properties": {
        "bangumi_id": 356774,
        "bangumi_title": "彻夜之歌",
        "ep_cut": "",
        "image_url": "https://w.junreimap.com/images/points/356774/sqehd59xf_1739203307636.jpg",
        "location": "武蔵浦和駅北側高架",
        "point_id": "sqehd59xf",
        "point_name": "武蔵浦和駅北側高架",
        "remark": ""
      },
      "type": "Feature"
    },
    {
      "geometry": {
        "coordinates": [
          139.645054,
          35.844975
        ],
        "type": "Point"
      },
      "properties": {
        "bangumi_id": 356774,
        "bangumi_title": "彻夜之歌",
        "ep_cut": "",
        "image_url": "https://w.junreimap.com/images/points/356774/sqf7ovuho_1739204963243.jpg",
        "location": "ヒマワリ通り側の歩道橋",
        "point_id": "sqf7ovuho",
        "point_name": "ヒマワリ通り側の歩道橋",
        "remark": ""
      },
      "type": "Feature"
    },
    {
      "geometry": {
        "coordinates": [
          139.645078,
          35.844979
        ],
        "type": "Point"
      },
      "properties": {
        "bangumi_id": 356774,
        "bangumi_title": "彻夜之歌",
        "ep_cut": "",
        "image_url": "https://w.junreimap.com/images/points/356774/sqf8ukxjm_1739204970149.jpg",
        "location": "ヒマワリ通り側の歩道橋",
        "point_id": "sqf8ukxjm",
        "point_name": "ヒマワリ通り側の歩道橋",
        "remark": ""
      },
      "type": "Feature"
    },
    {
      "geometry": {
        "coordinates": [
          139.645099,
          35.844982
        ],
        "type": "Point"
      },
      "properties": {
        "bangumi_id": 356774,
        "bangumi_title": "彻夜之歌",
        "ep_cut": "",
        "image_url": "https://w.junreimap.com/images/points/356774/sqf8xa1z4_1739204974040.jpg",
        "location": "ヒマワリ通り側の歩道橋",
        "point_id": "sqf8xa1z4",
        "point_name": "ヒマワリ通り側の歩道橋",
        "remark": ""
      },
      "type": "Feature"
    },
    {
      "geometry": {
        "coordinates": [
          139.645108,
          35.844978
        ],
        "type": "Point"
      },
      "properties": {
        "bangumi_id": 356774,
        "bangumi_title": "彻夜之歌",
        "ep_cut": "",
        "image_url": "https://w.junreimap.com/images/points/356774/sqf8zo55b_1739204979912.jpg",
        "location": "ヒマワリ通り側の歩道橋",
        "point_id": "sqf8zo55b",
        "point_name": "ヒマワリ通り側の歩道橋",
        "remark": ""
      },
      "type": "Feature"
    },
    {
      "geometry": {
        "coordinates": [
          139.645115,
          35.844987
        ],
        "type": "Point"
      },
      "properties": {
        "bangumi_id": 356774,
        "bangumi_title": "彻夜之歌",
        "ep_cut": "",
        "image_url": "https://w.junreimap.com/images/points/356774/sqf93l62g_1739204986348.jpg",
        "location": "ヒマワリ通り側の歩道橋",
        "point_id": "sqf93l62g",
        "point_name": "ヒマワリ通り側の歩道橋",
        "remark": ""
      },
      "type": "Feature"
    },
    {
      "geometry": {
        "coordinates": [
          139.64512,
          35.844977
        ],
        "type": "Point"
      },
      "properties": {
        "bangumi_id": 356774,
        "bangumi_title": "彻夜之歌",
        "ep_cut": 3,
        "image_url": "https://w.junreimap.com/images/points/356774/sqf96tfv2_1739204991553.jpg",
        "location": "ヒマワリ通り側の歩道橋",
        "point_id": "sqf96tfv2",
        "point_name": "ヒマワリ通り側の歩道橋",
        "remark": ""
      },
      "type": "Feature"
    },
    {
      "geometry": {
        "coordinates": [
          139.645123,
          35.844985
        ],
        "type": "Point"
      },
      "properties": {
        "bangumi_id": 356774,
        "bangumi_title": "彻夜之歌",
        "ep_cut": 3,
        "image_url": "https://w.junreimap.com/images/points/356774/sqf99vy3x_1739204995921.jpg",
        "location": "ヒマワリ通り側の歩道橋",
        "point_id": "sqf99vy3x",
        "point_name": "ヒマワリ通り側の歩道橋",
        "remark": ""
      },
      "type": "Feature"
    },
    {
      "geometry": {
        "coordinates": [
          139.64513,
          35.84498
        ],
        "type": "Point"
      },
      "properties": {
        "bangumi_id": 356774,
        "bangumi_title": "彻夜之歌",
        "ep_cut": 3,
        "image_url": "https://w.junreimap.com/images/points/356774/sqf9cm7pu_1739205006411.jpg",
        "location": "ヒマワリ通り側の歩道橋",
        "point_id": "sqf9cm7pu",
        "point_name": "ヒマワリ通り側の歩道橋",
        "remark": ""
      },
      "type": "Feature"
    },
    {
      "geometry": {
        "coordinates": [
          139.645108,
          35.844987
        ],
        "type": "Point"
      },
      "properties": {
        "bangumi_id": 356774,
        "bangumi_title": "彻夜之歌",
        "ep_cut": 3,
        "image_url": "https://w.junreimap.com/images/points/356774/sqf9lr445_1739205015647.jpg",
        "location": "ヒマワリ通り側の歩道橋",
        "point_id": "sqf9lr445",
        "point_name": "ヒマワリ通り側の歩道橋",
        "remark": ""
      },
      "type": "Feature"
    },
    {
      "geometry": {
        "coordinates": [
          139.646376,
          35.846322
        ],
        "type": "Point"
      },
      "properties": {
        "bangumi_id": 356774,
        "bangumi_title": "彻夜之歌",
        "ep_cut": 2,
        "image_url": "https://w.junreimap.com/images/points/356774/sqehfkwcl_1739203311398.jpg",
        "location": "武蔵浦和駅北側高架",
        "point_id": "sqehfkwcl",
        "point_name": "武蔵浦和駅北側高架",
        "remark": ""
      },
      "type": "Feature"
    },
    {
      "geometry": {
        "coordinates": [
          139.645521,
          35.845775
        ],
        "type": "Point"
      },
      "properties": {
        "bangumi_id": 356774,
        "bangumi_title": "彻夜之歌",
        "ep_cut": 2,
        "image_url": "https://w.junreimap.com/images/points/356774/sqe8naajm_1739202780375.jpg",
        "location": "武蔵浦和マークス店",
        "point_id": "sqe8naajm",
        "point_name": "",
        "remark": ""
      },
      "type": "Feature"
    },
    {
      "geometry": {
        "coordinates": [
          139.64557,
          35.845778
        ],
        "type": "Point"
      },
      "properties": {
        "bangumi_id": 356774,
        "bangumi_title": "彻夜之歌",
        "ep_cut": 2,
        "image_url": "https://w.junreimap.com/images/points/356774/sqe86qeuv_1739202752420.jpg",
        "location": "武蔵浦和マークス店",
        "point_id": "sqe86qeuv",
        "point_name": "",
        "remark": ""
      },
      "type": "Feature"
    },
    {
      "geometry": {
        "coordinates": [
          139.61665,
          35.90741
        ],
        "type": "Point"
      },
      "properties": {
        "bangumi_id": 356774,
        "bangumi_title": "彻夜之歌",
        "ep_cut": "",
        "image_url": "https://w.junreimap.com/images/user/0/bangumi/356774/points/4fmy6sf-1756663100454.jpg",
        "location": "",
        "point_id": "4fmy6sf",
        "point_name": "日進湯",
        "remark": "第五话小荠洗澡的地方，2025.9.1谷歌地图上显示永久停止营业，西边一点的公园是小荠和黑猫玩的地方"
      },
      "type": "Feature"
    }
  ],
  "type": "FeatureCollection"
}