{
  "features": [
    {
      "geometry": {
        "coordinates": [
          139.813234,
          35.744957
        ],
        "type": "Point"
      },
      "properties": {
        "bangumi_id": 362335,
        "bangumi_title": "古立特宇宙",
        "ep_cut": "",
        "image_url": "https://w.junreimap.com/images/points/362335/3x66cll_1755546459389.jpg",
        "location": "足立区",
        "point_id": "3x66cll",
        "point_name": "東武伊勢崎線铁道下通路",
        "remark": ""
      },
      "type": "Feature"
    },
    {
      "geometry": {
        "coordinates": [
          139.813221,
          35.744794
        ],
        "type": "Point"
      },
      "properties": {
        "bangumi_id": 362335,
        "bangumi_title": "古立特宇宙",
        "ep_cut": "",
        "image_url": "https://w.junreimap.com/images/points/362335/3x69xkf_1755546625495.jpg",
        "location": "足立区",
        "point_id": "3x69xkf",
        "point_name": "東武伊勢崎線铁道下通路",
        "remark": ""
      },
      "type": "Feature"
    },
    {
      "geometry": {
        "coordinates": [
          139.813226,
          35.744838
        ],
        "type": "Point"
      },
      "properties": {
        "bangumi_id": 362335,
        "bangumi_title": "古立特宇宙",
        "ep_cut": "",
        "image_url": "https://w.junreimap.com/images/points/362335/3x6a4w1_1755546634693.jpg",
        "location": "足立区",
        "point_id": "3x6a4w1",
        "point_name": "東武伊勢崎線铁道下通路",
        "remark": ""
      },
      "type": "Feature"
    },
    {
      "geometry": {
        "coordinates": [
          139.813192,
          35.744818
        ],
        "type": "Point"
      },
      "properties": {
        "bangumi_id": 362335,
        "bangumi_title": "古立特宇宙",
        "ep_cut": "",
        "image_url": "https://w.junreimap.com/images/points/362335/3x6abr5_1755546645267.jpg",
        "location": "足立区",
        "point_id": "3x6abr5",
        "point_name": "東武伊勢崎線铁道下通路",
        "remark": ""
      },
      "type": "Feature"
    },
    {
      "geometry": {
        "coordinates": [
          139.813192,
          35.744798
        ],
        "type": "Point"
      },
      "properties": {
        "bangumi_id": 362335,
        "bangumi_title": "古立特宇宙",
        "ep_cut": "",
        "image_url": "https://w.junreimap.com/images/points/362335/3x6al8q_1755546660586.jpg",
        "location": "足立区",
        "point_id": "3x6al8q",
        "point_name": "東武伊勢崎線铁道下通路",
        "remark": ""
      },
      "type": "Feature"
    },
    {
      "geometry": {
        "coordinates": [
          139.596149,
          35.727723
        ],
        "type": "Point"
      },
      "properties": {
        "bangumi_id": 362335,
        "bangumi_title": "古立特宇宙",
        "ep_cut": "",
        "image_url": "https://w.junreimap.com/images/points/362335/3x6hz5j_1755547000378.jpg",
        "location": "練馬区",
        "point_id": "3x6hz5j",
        "point_name": "練馬区立上石神井東公園",
        "remark": ""
      },
      "type": "Feature"
    },
    {
      "geometry": {
        "coordinates": [
          139.596117,
          35.727746
        ],
        "type": "Point"
      },
      "properties": {
        "bangumi_id": 362335,
        "bangumi_title": "古立特宇宙",
        "ep_cut": "",
        "image_url": "https://w.junreimap.com/images/points/362335/3x6ijwu_1755547027251.jpg",
        "location": "練馬区",
        "point_id": "3x6ijwu",
        "point_name": "練馬区立上石神井東公園",
        "remark": ""
      },
      "type": "Feature"
    },
    {
      "geometry": {
        "coordinates": [
          139.5961,
          35.727753
        ],
        "type": "Point"
      },
      "properties": {
        "bangumi_id": 362335,
        "bangumi_title": "古立特宇宙",
        "ep_cut": "",
        "image_url": "https://w.junreimap.com/images/points/362335/3x6ixs9_1755547045473.jpg",
        "location": "練馬区",
        "point_id": "3x6ixs9",
        "point_name": "練馬区立上石神井東公園",
        "remark": ""
      },
      "type": "Feature"
    },
    {
      "geometry": {
        "coordinates": [
          139.596029,
          35.727779
        ],
        "type": "Point"
      },
      "properties": {
        "bangumi_id": 362335,
        "bangumi_title": "古立特宇宙",
        "ep_cut": "",
        "image_url": "https://w.junreimap.com/images/points/362335/3x6jikv_1755547072279.jpg",
        "location": "練馬区",
        "point_id": "3x6jikv",
        "point_name": "練馬区立上石神井東公園",
        "remark": ""
      },
      "type": "Feature"
    },
    {
      "geometry": {
        "coordinates": [
          139.596069,
          35.727765
        ],
        "type": "Point"
      },
      "properties": {
        "bangumi_id": 362335,
        "bangumi_title": "古立特宇宙",
        "ep_cut": "",
        "image_url": "https://w.junreimap.com/images/points/362335/3x6jbti_1755547063489.jpg",
        "location": "練馬区",
        "point_id": "3x6jbti",
        "point_name": "練馬区立上石神井東公園",
        "remark": ""
      },
      "type": "Feature"
    },
    {
      "geometry": {
        "coordinates": [
          139.596053,
          35.727778
        ],
        "type": "Point"
      },
      "properties": {
        "bangumi_id": 362335,
        "bangumi_title": "古立特宇宙",
        "ep_cut": "",
        "image_url": "https://w.junreimap.com/images/points/362335/3x6jr05_1755547084192.jpg",
        "location": "練馬区",
        "point_id": "3x6jr05",
        "point_name": "練馬区立上石神井東公園",
        "remark": ""
      },
      "type": "Feature"
    },
    {
      "geometry": {
        "coordinates": [
          139.596074,
          35.72778
        ],
        "type": "Point"
      },
      "properties": {
        "bangumi_id": 362335,
        "bangumi_title": "古立特宇宙",
        "ep_cut": "",
        "image_url": "https://w.junreimap.com/images/points/362335/3x6jzy8_1755547094791.jpg",
        "location": "練馬区",
        "point_id": "3x6jzy8",
        "point_name": "練馬区立上石神井東公園",
        "remark": ""
      },
      "type": "Feature"
    },
    {
      "geometry": {
        "coordinates": [
          139.59604,
          35.727763
        ],
        "type": "Point"
      },
      "properties": {
        "bangumi_id": 362335,
        "bangumi_title": "古立特宇宙",
        "ep_cut": "",
        "image_url": "https://w.junreimap.com/images/points/362335/3x6ki0k_1755547119066.jpg",
        "location": "練馬区",
        "point_id": "3x6ki0k",
        "point_name": "練馬区立上石神井東公園",
        "remark": ""
      },
      "type": "Feature"
    },
    {
      "geometry": {
        "coordinates": [
          139.596084,
          35.727759
        ],
        "type": "Point"
      },
      "properties": {
        "bangumi_id": 362335,
        "bangumi_title": "古立特宇宙",
        "ep_cut": "",
        "image_url": "https://w.junreimap.com/images/points/362335/3x6j2w2_1755547052893.jpg",
        "location": "練馬区",
        "point_id": "3x6j2w2",
        "point_name": "練馬区立上石神井東公園",
        "remark": ""
      },
      "type": "Feature"
    },
    {
      "geometry": {
        "coordinates": [
          139.419521,
          35.616093
        ],
        "type": "Point"
      },
      "properties": {
        "bangumi_id": 362335,
        "bangumi_title": "古立特宇宙",
        "ep_cut": "",
        "image_url": "https://w.junreimap.com/images/points/362335/3vqvsas_1755460305737.jpg",
        "location": "多摩市",
        "point_id": "3vqvsas",
        "point_name": "鶴牧東公園 鶴牧山观景台",
        "remark": ""
      },
      "type": "Feature"
    },
    {
      "geometry": {
        "coordinates": [
          139.419494,
          35.616116
        ],
        "type": "Point"
      },
      "properties": {
        "bangumi_id": 362335,
        "bangumi_title": "古立特宇宙",
        "ep_cut": "",
        "image_url": "https://w.junreimap.com/images/points/362335/3vqtxg9_1755460218883.jpg",
        "location": "多摩市",
        "point_id": "3vqtxg9",
        "point_name": "鶴牧東公園 鶴牧山观景台",
        "remark": ""
      },
      "type": "Feature"
    },
    {
      "geometry": {
        "coordinates": [
          139.419565,
          35.616131
        ],
        "type": "Point"
      },
      "properties": {
        "bangumi_id": 362335,
        "bangumi_title": "古立特宇宙",
        "ep_cut": "",
        "image_url": "https://w.junreimap.com/images/points/362335/3vqqx7s_1755460164629.jpg",
        "location": "多摩市",
        "point_id": "3vqqx7s",
        "point_name": "鶴牧東公園 鶴牧山观景台",
        "remark": ""
      },
      "type": "Feature"
    },
    {
      "geometry": {
        "coordinates": [
          139.419555,
          35.616171
        ],
        "type": "Point"
      },
      "properties": {
        "bangumi_id": 362335,
        "bangumi_title": "古立特宇宙",
        "ep_cut": "",
        "image_url": "https://w.junreimap.com/images/points/362335/3vquwer_1755460264251.jpg",
        "location": "多摩市",
        "point_id": "3vquwer",
        "point_name": "鶴牧東公園 鶴牧山观景台",
        "remark": ""
      },
      "type": "Feature"
    },
    {
      "geometry": {
        "coordinates": [
          139.808519,
          35.755957
        ],
        "type": "Point"
      },
      "properties": {
        "bangumi_id": 362335,
        "bangumi_title": "古立特宇宙",
        "ep_cut": "",
        "image_url": "https://w.junreimap.com/images/user/2176/bangumi/362335/points/uv4k1rj03-1745225625340.jpg",
        "location": "足立区",
        "point_id": "uv4k1rj03",
        "point_name": "つくばエクスプレス",
        "remark": "现实中的新条茜变身的地方"
      },
      "type": "Feature"
    },
    {
      "geometry": {
        "coordinates": [
          139.808498,
          35.756008
        ],
        "type": "Point"
      },
      "properties": {
        "bangumi_id": 362335,
        "bangumi_title": "古立特宇宙",
        "ep_cut": "",
        "image_url": "https://w.junreimap.com/images/points/362335/3vqk6uo_1755459784498.jpg",
        "location": "足立区",
        "point_id": "3vqk6uo",
        "point_name": "つくばエクスプレス",
        "remark": ""
      },
      "type": "Feature"
    },
    {
      "geometry": {
        "coordinates": [
          139.808348,
          35.755988
        ],
        "type": "Point"
      },
      "properties": {
        "bangumi_id": 362335,
        "bangumi_title": "古立特宇宙",
        "ep_cut": "",
        "image_url": "https://w.junreimap.com/images/points/362335/3vqlm54_1755459830475.jpg",
        "location": "足立区",
        "point_id": "3vqlm54",
        "point_name": "つくばエクスプレス",
        "remark": ""
      },
      "type": "Feature"
    },
    {
      "geometry": {
        "coordinates": [
          139.808353,
          35.756036
        ],
        "type": "Point"
      },
      "properties": {
        "bangumi_id": 362335,
        "bangumi_title": "古立特宇宙",
        "ep_cut": "",
        "image_url": "https://w.junreimap.com/images/points/362335/3vqm0i3_1755459849633.jpg",
        "location": "足立区",
        "point_id": "3vqm0i3",
        "point_name": "つくばエクスプレス",
        "remark": ""
      },
      "type": "Feature"
    },
    {
      "geometry": {
        "coordinates": [
          139.487225,
          35.639788
        ],
        "type": "Point"
      },
      "properties": {
        "bangumi_id": 362335,
        "bangumi_title": "古立特宇宙",
        "ep_cut": 5,
        "image_url": "https://w.junreimap.com/images/points/362335/akw0mgh_1770041521983.jpg",
        "location": "多摩​中央​警察署​向陽台​駐在所",
        "point_id": "akw0mgh",
        "point_name": "多摩​中央​警察署​向陽台​駐在所",
        "remark": ""
      },
      "type": "Feature"
    },
    {
      "geometry": {
        "coordinates": [
          139.487236,
          35.639829
        ],
        "type": "Point"
      },
      "properties": {
        "bangumi_id": 362335,
        "bangumi_title": "古立特宇宙",
        "ep_cut": 5,
        "image_url": "https://w.junreimap.com/images/points/362335/akw67bk_1770041543074.jpg",
        "location": "多摩​中央​警察署​向陽台​駐在所",
        "point_id": "akw67bk",
        "point_name": "多摩​中央​警察署​向陽台​駐在所",
        "remark": ""
      },
      "type": "Feature"
    },
    {
      "geometry": {
        "coordinates": [
          139.487726,
          35.641646
        ],
        "type": "Point"
      },
      "properties": {
        "bangumi_id": 362335,
        "bangumi_title": "古立特宇宙",
        "ep_cut": 5.1,
        "image_url": "https://w.junreimap.com/images/points/362335/almvzkz_1770086431224.jpg",
        "location": "ファインタワー",
        "point_id": "almvzkz",
        "point_name": "ファインタワー",
        "remark": ""
      },
      "type": "Feature"
    },
    {
      "geometry": {
        "coordinates": [
          139.487725,
          35.641629
        ],
        "type": "Point"
      },
      "properties": {
        "bangumi_id": 362335,
        "bangumi_title": "古立特宇宙",
        "ep_cut": 5.1,
        "image_url": "https://w.junreimap.com/images/points/362335/almwr41_1770086463206.jpg",
        "location": "ファインタワー",
        "point_id": "almwr41",
        "point_name": "ファインタワー",
        "remark": ""
      },
      "type": "Feature"
    }
  ],
  "type": "FeatureCollection"
}