{
  "features": [
    {
      "geometry": {
        "coordinates": [
          139.837181,
          35.144447
        ],
        "type": "Point"
      },
      "properties": {
        "bangumi_id": 362575,
        "bangumi_title": "通往夏日的隧道再见的出口",
        "ep_cut": 1,
        "image_url": "https://w.junreimap.com/images/user/1038/bangumi/362575/points/hr74n8gzc-1708233490703.jpg",
        "location": "",
        "point_id": "hr74n8gzc",
        "point_name": "汐止橋",
        "remark": ""
      },
      "type": "Feature"
    },
    {
      "geometry": {
        "coordinates": [
          139.836723,
          35.143586
        ],
        "type": "Point"
      },
      "properties": {
        "bangumi_id": 362575,
        "bangumi_title": "通往夏日的隧道再见的出口",
        "ep_cut": 1,
        "image_url": "https://w.junreimap.com/images/user/1038/bangumi/362575/points/hr75t0ehq-1708233617313.jpg",
        "location": "",
        "point_id": "hr75t0ehq",
        "point_name": "Motona",
        "remark": ""
      },
      "type": "Feature"
    },
    {
      "geometry": {
        "coordinates": [
          139.849485,
          35.092558
        ],
        "type": "Point"
      },
      "properties": {
        "bangumi_id": 362575,
        "bangumi_title": "通往夏日的隧道再见的出口",
        "ep_cut": 1,
        "image_url": "https://w.junreimap.com/images/user/1038/bangumi/362575/points/ho97p5jb7-1708003035114.jpg",
        "location": "",
        "point_id": "ho97p5jb7",
        "point_name": "岩井駅前タクシー乗り場",
        "remark": ""
      },
      "type": "Feature"
    },
    {
      "geometry": {
        "coordinates": [
          139.838142,
          35.140956
        ],
        "type": "Point"
      },
      "properties": {
        "bangumi_id": 362575,
        "bangumi_title": "通往夏日的隧道再见的出口",
        "ep_cut": 1,
        "image_url": "https://w.junreimap.com/images/user/1038/bangumi/362575/points/hr7dgwhoz-1708234041985.jpg",
        "location": "",
        "point_id": "hr7dgwhoz",
        "point_name": "保田站",
        "remark": ""
      },
      "type": "Feature"
    },
    {
      "geometry": {
        "coordinates": [
          132.589764,
          33.655286
        ],
        "type": "Point"
      },
      "properties": {
        "bangumi_id": 362575,
        "bangumi_title": "通往夏日的隧道再见的出口",
        "ep_cut": 1,
        "image_url": "https://w.junreimap.com/images/points/362575/ikc2m4u97_1710517583423.jpg",
        "location": "",
        "point_id": "ikc2m4u97",
        "point_name": "下灘",
        "remark": ""
      },
      "type": "Feature"
    },
    {
      "geometry": {
        "coordinates": [
          139.847635,
          35.208571
        ],
        "type": "Point"
      },
      "properties": {
        "bangumi_id": 362575,
        "bangumi_title": "通往夏日的隧道再见的出口",
        "ep_cut": 1,
        "image_url": "https://w.junreimap.com/images/user/0/bangumi/362575/points/ho7j3knh2-1707999324720.jpg",
        "location": "",
        "point_id": "ho7j3knh2",
        "point_name": "338 Takeoka, Futtsu, Chiba",
        "remark": "原学校已停办，现为プラネアール 富津竹岡学校スタジオ"
      },
      "type": "Feature"
    },
    {
      "geometry": {
        "coordinates": [
          139.830089,
          35.10194
        ],
        "type": "Point"
      },
      "properties": {
        "bangumi_id": 362575,
        "bangumi_title": "通往夏日的隧道再见的出口",
        "ep_cut": 1,
        "image_url": "https://w.junreimap.com/images/user/0/bangumi/362575/points/ho748wvqa-1707998422810.jpg",
        "location": "",
        "point_id": "ho748wvqa",
        "point_name": "Iwaifukuro",
        "remark": ""
      },
      "type": "Feature"
    },
    {
      "geometry": {
        "coordinates": [
          139.84267,
          35.090124
        ],
        "type": "Point"
      },
      "properties": {
        "bangumi_id": 362575,
        "bangumi_title": "通往夏日的隧道再见的出口",
        "ep_cut": 1,
        "image_url": "https://w.junreimap.com/images/user/1038/bangumi/362575/points/hr7aqtrmf-1708233838193.jpg",
        "location": "",
        "point_id": "hr7aqtrmf",
        "point_name": "岩井ライフセービングクラブ",
        "remark": ""
      },
      "type": "Feature"
    },
    {
      "geometry": {
        "coordinates": [
          139.824316,
          35.193838
        ],
        "type": "Point"
      },
      "properties": {
        "bangumi_id": 362575,
        "bangumi_title": "通往夏日的隧道再见的出口",
        "ep_cut": 1,
        "image_url": "https://w.junreimap.com/images/user/1038/bangumi/362575/points/ho9chw8to-1708003218599.jpg",
        "location": "",
        "point_id": "ho9chw8to",
        "point_name": "竹岡別荘",
        "remark": ""
      },
      "type": "Feature"
    },
    {
      "geometry": {
        "coordinates": [
          139.82431,
          35.193837
        ],
        "type": "Point"
      },
      "properties": {
        "bangumi_id": 362575,
        "bangumi_title": "通往夏日的隧道再见的出口",
        "ep_cut": "",
        "image_url": "https://w.junreimap.com/images/points/362575/enhgs96_1778905506578.jpg",
        "location": "",
        "point_id": "enhgs96",
        "point_name": "踏切",
        "remark": "会有列车经过，拍摄时请小心来车。图片比例为5：7"
      },
      "type": "Feature"
    },
    {
      "geometry": {
        "coordinates": [
          139.646695,
          35.337701
        ],
        "type": "Point"
      },
      "properties": {
        "bangumi_id": 362575,
        "bangumi_title": "通往夏日的隧道再见的出口",
        "ep_cut": 1,
        "image_url": "https://w.junreimap.com/images/user/1038/bangumi/362575/points/ho94w12vv-1708002798656.jpg",
        "location": "",
        "point_id": "ho94w12vv",
        "point_name": "横浜・八景島シーパラダイス アクアリゾーツ エントランス",
        "remark": ""
      },
      "type": "Feature"
    },
    {
      "geometry": {
        "coordinates": [
          139.828192,
          35.102402
        ],
        "type": "Point"
      },
      "properties": {
        "bangumi_id": 362575,
        "bangumi_title": "通往夏日的隧道再见的出口",
        "ep_cut": 1,
        "image_url": "https://w.junreimap.com/images/user/1038/bangumi/362575/points/hr7g2vd05-1708234195987.jpg",
        "location": "",
        "point_id": "hr7g2vd05",
        "point_name": "岩井袋",
        "remark": ""
      },
      "type": "Feature"
    },
    {
      "geometry": {
        "coordinates": [
          139.827049,
          35.101695
        ],
        "type": "Point"
      },
      "properties": {
        "bangumi_id": 362575,
        "bangumi_title": "通往夏日的隧道再见的出口",
        "ep_cut": 1,
        "image_url": "https://w.junreimap.com/images/user/1038/bangumi/362575/points/hr7imhvfr-1708234312985.jpg",
        "location": "",
        "point_id": "hr7imhvfr",
        "point_name": "岩井袋",
        "remark": ""
      },
      "type": "Feature"
    },
    {
      "geometry": {
        "coordinates": [
          139.847682,
          35.20846
        ],
        "type": "Point"
      },
      "properties": {
        "bangumi_id": 362575,
        "bangumi_title": "通往夏日的隧道再见的出口",
        "ep_cut": "",
        "image_url": "https://w.junreimap.com/images/user/0/bangumi/362575/points/m9d3k8w1o-1720941494882.jpg",
        "location": "",
        "point_id": "m9d3k8w1o",
        "point_name": "白狐踏切",
        "remark": ""
      },
      "type": "Feature"
    },
    {
      "geometry": {
        "coordinates": [
          132.589631,
          33.655415
        ],
        "type": "Point"
      },
      "properties": {
        "bangumi_id": 362575,
        "bangumi_title": "通往夏日的隧道再见的出口",
        "ep_cut": 1,
        "image_url": "https://w.junreimap.com/images/user/0/bangumi/362575/points/rzhjh9scz-1737094151259.jpg",
        "location": "",
        "point_id": "rzhjh9scz",
        "point_name": "下灘駅",
        "remark": ""
      },
      "type": "Feature"
    }
  ],
  "type": "FeatureCollection"
}