{
  "features": [
    {
      "geometry": {
        "coordinates": [
          135.194415,
          34.694769
        ],
        "type": "Point"
      },
      "properties": {
        "bangumi_id": 382,
        "bangumi_title": "萤火虫之墓",
        "ep_cut": "",
        "image_url": "https://w.junreimap.com/images/user/0/bangumi/382/points/d6096g1-1775672448884.jpg",
        "location": "",
        "point_id": "d6096g1",
        "point_name": "JR三宮站",
        "remark": ""
      },
      "type": "Feature"
    },
    {
      "geometry": {
        "coordinates": [
          135.193996,
          34.69467
        ],
        "type": "Point"
      },
      "properties": {
        "bangumi_id": 382,
        "bangumi_title": "萤火虫之墓",
        "ep_cut": "",
        "image_url": "https://w.junreimap.com/images/user/0/bangumi/382/points/d60spjy-1775672687849.jpg",
        "location": "",
        "point_id": "d60spjy",
        "point_name": "神戶三宮（阪急）",
        "remark": ""
      },
      "type": "Feature"
    },
    {
      "geometry": {
        "coordinates": [
          135.194636,
          34.694632
        ],
        "type": "Point"
      },
      "properties": {
        "bangumi_id": 382,
        "bangumi_title": "萤火虫之墓",
        "ep_cut": "",
        "image_url": "https://w.junreimap.com/images/user/0/bangumi/382/points/d60v9ex-1775672798814.jpg",
        "location": "",
        "point_id": "d60v9ex",
        "point_name": "JR三宮站",
        "remark": "柱子布局類似"
      },
      "type": "Feature"
    },
    {
      "geometry": {
        "coordinates": [
          135.249164,
          34.714719
        ],
        "type": "Point"
      },
      "properties": {
        "bangumi_id": 382,
        "bangumi_title": "萤火虫之墓",
        "ep_cut": "",
        "image_url": "https://w.junreimap.com/images/user/0/bangumi/382/points/d60yuq1-1775672964032.jpg",
        "location": "",
        "point_id": "d60yuq1",
        "point_name": "石屋川公園",
        "remark": "由劇中推斷出的理論上的位置"
      },
      "type": "Feature"
    },
    {
      "geometry": {
        "coordinates": [
          135.249347,
          34.716021
        ],
        "type": "Point"
      },
      "properties": {
        "bangumi_id": 382,
        "bangumi_title": "萤火虫之墓",
        "ep_cut": "",
        "image_url": "https://w.junreimap.com/images/user/0/bangumi/382/points/d610zr2-1775673067037.jpg",
        "location": "",
        "point_id": "d610zr2",
        "point_name": "市立御影公会堂",
        "remark": ""
      },
      "type": "Feature"
    },
    {
      "geometry": {
        "coordinates": [
          135.251411,
          34.7147
        ],
        "type": "Point"
      },
      "properties": {
        "bangumi_id": 382,
        "bangumi_title": "萤火虫之墓",
        "ep_cut": "",
        "image_url": "https://w.junreimap.com/images/user/0/bangumi/382/points/d612bez-1775673128800.jpg",
        "location": "",
        "point_id": "d612bez",
        "point_name": "御影小",
        "remark": "空襲後母親被送往治療的臨時救護站"
      },
      "type": "Feature"
    },
    {
      "geometry": {
        "coordinates": [
          135.250595,
          34.716876
        ],
        "type": "Point"
      },
      "properties": {
        "bangumi_id": 382,
        "bangumi_title": "萤火虫之墓",
        "ep_cut": "",
        "image_url": "https://w.junreimap.com/images/user/0/bangumi/382/points/d613ztj-1775673205170.jpg",
        "location": "",
        "point_id": "d613ztj",
        "point_name": "御影高",
        "remark": ""
      },
      "type": "Feature"
    },
    {
      "geometry": {
        "coordinates": [
          135.328984,
          34.743472
        ],
        "type": "Point"
      },
      "properties": {
        "bangumi_id": 382,
        "bangumi_title": "萤火虫之墓",
        "ep_cut": "",
        "image_url": "https://w.junreimap.com/images/user/0/bangumi/382/points/d6178x1-1775673358036.jpg",
        "location": "",
        "point_id": "d6178x1",
        "point_name": "こほろぎばし",
        "remark": ""
      },
      "type": "Feature"
    },
    {
      "geometry": {
        "coordinates": [
          135.32787,
          34.742304
        ],
        "type": "Point"
      },
      "properties": {
        "bangumi_id": 382,
        "bangumi_title": "萤火虫之墓",
        "ep_cut": "",
        "image_url": "https://w.junreimap.com/images/user/0/bangumi/382/points/d61944f-1775673455403.jpg",
        "location": "",
        "point_id": "d61944f",
        "point_name": "夙川",
        "remark": "2號月台"
      },
      "type": "Feature"
    },
    {
      "geometry": {
        "coordinates": [
          135.333352,
          34.746962
        ],
        "type": "Point"
      },
      "properties": {
        "bangumi_id": 382,
        "bangumi_title": "萤火虫之墓",
        "ep_cut": "",
        "image_url": "https://w.junreimap.com/images/user/0/bangumi/382/points/d61dgsc-1775673708006.jpg",
        "location": "",
        "point_id": "d61dgsc",
        "point_name": "ロイヤルハイム夙川(附近)",
        "remark": "可以遠眺滿地谷町，陡峭樓梯下去即可到達阿姨家"
      },
      "type": "Feature"
    },
    {
      "geometry": {
        "coordinates": [
          135.333878,
          34.747014
        ],
        "type": "Point"
      },
      "properties": {
        "bangumi_id": 382,
        "bangumi_title": "萤火虫之墓",
        "ep_cut": "",
        "image_url": "https://w.junreimap.com/images/user/0/bangumi/382/points/d61iuma-1775673883208.jpg",
        "location": "",
        "point_id": "d61iuma",
        "point_name": "オレンジ司法書士事務所(附近)",
        "remark": ""
      },
      "type": "Feature"
    },
    {
      "geometry": {
        "coordinates": [
          135.334029,
          34.746854
        ],
        "type": "Point"
      },
      "properties": {
        "bangumi_id": 382,
        "bangumi_title": "萤火虫之墓",
        "ep_cut": "",
        "image_url": "https://w.junreimap.com/images/user/0/bangumi/382/points/d61kkqj-1775673982176.jpg",
        "location": "",
        "point_id": "d61kkqj",
        "point_name": "滿地谷町",
        "remark": ""
      },
      "type": "Feature"
    },
    {
      "geometry": {
        "coordinates": [
          135.33413,
          34.749851
        ],
        "type": "Point"
      },
      "properties": {
        "bangumi_id": 382,
        "bangumi_title": "萤火虫之墓",
        "ep_cut": "",
        "image_url": "https://w.junreimap.com/images/user/0/bangumi/382/points/d61mb67-1775674099528.jpg",
        "location": "",
        "point_id": "d61mb67",
        "point_name": "二テコ池",
        "remark": "標誌性的加水塔還在"
      },
      "type": "Feature"
    },
    {
      "geometry": {
        "coordinates": [
          135.329472,
          34.745183
        ],
        "type": "Point"
      },
      "properties": {
        "bangumi_id": 382,
        "bangumi_title": "萤火虫之墓",
        "ep_cut": "",
        "image_url": "https://w.junreimap.com/images/user/0/bangumi/382/points/d61pz0h-1775674235643.jpg",
        "location": "",
        "point_id": "d61pz0h",
        "point_name": "大井手橋",
        "remark": ""
      },
      "type": "Feature"
    },
    {
      "geometry": {
        "coordinates": [
          135.327928,
          34.725774
        ],
        "type": "Point"
      },
      "properties": {
        "bangumi_id": 382,
        "bangumi_title": "萤火虫之墓",
        "ep_cut": "",
        "image_url": "https://w.junreimap.com/images/user/0/bangumi/382/points/d61rmr1-1775674294823.jpg",
        "location": "",
        "point_id": "d61rmr1",
        "point_name": "西宮回生病院",
        "remark": "歷史悠久的醫院，可惜門口已經重建過"
      },
      "type": "Feature"
    },
    {
      "geometry": {
        "coordinates": [
          135.328657,
          34.726866
        ],
        "type": "Point"
      },
      "properties": {
        "bangumi_id": 382,
        "bangumi_title": "萤火虫之墓",
        "ep_cut": "",
        "image_url": "https://w.junreimap.com/images/user/0/bangumi/382/points/d61sf91-1775674338864.jpg",
        "location": "",
        "point_id": "d61sf91",
        "point_name": "大浜公園",
        "remark": "西宮醫院旁邊"
      },
      "type": "Feature"
    },
    {
      "geometry": {
        "coordinates": [
          135.327856,
          34.725016
        ],
        "type": "Point"
      },
      "properties": {
        "bangumi_id": 382,
        "bangumi_title": "萤火虫之墓",
        "ep_cut": "",
        "image_url": "https://w.junreimap.com/images/user/0/bangumi/382/points/d61tscb-1775674455247.jpg",
        "location": "",
        "point_id": "d61tscb",
        "point_name": "香櫨園浜（御前浜公園）",
        "remark": ""
      },
      "type": "Feature"
    }
  ],
  "type": "FeatureCollection"
}