{
  "features": [
    {
      "geometry": {
        "coordinates": [
          127.66653,
          37.968132
        ],
        "type": "Point"
      },
      "properties": {
        "bangumi_id": 386772,
        "bangumi_title": "那个夏天",
        "ep_cut": "",
        "image_url": "https://w.junreimap.com/images/points/386772/r1meyekzy_1734440493587.jpg",
        "location": "",
        "point_id": "r1meyekzy",
        "point_name": "춘천댐",
        "remark": ""
      },
      "type": "Feature"
    },
    {
      "geometry": {
        "coordinates": [
          127.668234,
          37.968799
        ],
        "type": "Point"
      },
      "properties": {
        "bangumi_id": 386772,
        "bangumi_title": "那个夏天",
        "ep_cut": "",
        "image_url": "https://w.junreimap.com/images/points/386772/r1n687wwk_1734442017215.jpg",
        "location": "",
        "point_id": "r1n687wwk",
        "point_name": "춘천댐",
        "remark": ""
      },
      "type": "Feature"
    },
    {
      "geometry": {
        "coordinates": [
          127.668131,
          37.968822
        ],
        "type": "Point"
      },
      "properties": {
        "bangumi_id": 386772,
        "bangumi_title": "那个夏天",
        "ep_cut": "",
        "image_url": "https://w.junreimap.com/images/points/386772/r1n6i6i98_1734442030483.jpg",
        "location": "",
        "point_id": "r1n6i6i98",
        "point_name": "춘천댐",
        "remark": ""
      },
      "type": "Feature"
    },
    {
      "geometry": {
        "coordinates": [
          126.977039,
          37.56474
        ],
        "type": "Point"
      },
      "properties": {
        "bangumi_id": 386772,
        "bangumi_title": "那个夏天",
        "ep_cut": "",
        "image_url": "https://w.junreimap.com/images/points/386772/ow8qj5qr2_1734448605916.jpg",
        "location": "",
        "point_id": "ow8qj5qr2",
        "point_name": "시청",
        "remark": "1口"
      },
      "type": "Feature"
    },
    {
      "geometry": {
        "coordinates": [
          126.988234,
          37.551162
        ],
        "type": "Point"
      },
      "properties": {
        "bangumi_id": 386772,
        "bangumi_title": "那个夏天",
        "ep_cut": "",
        "image_url": "https://w.junreimap.com/images/points/386772/ow93fhv3e_1734448648241.jpg",
        "location": "",
        "point_id": "ow93fhv3e",
        "point_name": "남산서울타워",
        "remark": "从窗边远望"
      },
      "type": "Feature"
    },
    {
      "geometry": {
        "coordinates": [
          127.000832,
          37.55776
        ],
        "type": "Point"
      },
      "properties": {
        "bangumi_id": 386772,
        "bangumi_title": "那个夏天",
        "ep_cut": "",
        "image_url": "https://w.junreimap.com/images/points/386772/r1naf94os_1734442324219.jpg",
        "location": "",
        "point_id": "r1naf94os",
        "point_name": "동국대학교",
        "remark": "左侧建筑为东国大学明进馆（명진관）。"
      },
      "type": "Feature"
    },
    {
      "geometry": {
        "coordinates": [
          127.002638,
          37.557029
        ],
        "type": "Point"
      },
      "properties": {
        "bangumi_id": 386772,
        "bangumi_title": "那个夏天",
        "ep_cut": "",
        "image_url": "https://w.junreimap.com/images/points/386772/r1nixcj4o_1734442797819.jpg",
        "location": "",
        "point_id": "r1nixcj4o",
        "point_name": "사회과학ㆍ경영관",
        "remark": ""
      },
      "type": "Feature"
    },
    {
      "geometry": {
        "coordinates": [
          126.977956,
          37.569499
        ],
        "type": "Point"
      },
      "properties": {
        "bangumi_id": 386772,
        "bangumi_title": "那个夏天",
        "ep_cut": "",
        "image_url": "https://w.junreimap.com/images/points/386772/ow9mr45p4_1734448888104.jpg",
        "location": "",
        "point_id": "ow9mr45p4",
        "point_name": "동아일보사",
        "remark": "楼顶字实际是汉字“東亞日報”"
      },
      "type": "Feature"
    },
    {
      "geometry": {
        "coordinates": [
          127.017818,
          37.573048
        ],
        "type": "Point"
      },
      "properties": {
        "bangumi_id": 386772,
        "bangumi_title": "那个夏天",
        "ep_cut": "",
        "image_url": "https://w.junreimap.com/images/points/386772/r1qhk6kah_1734449243352.jpg",
        "location": "",
        "point_id": "r1qhk6kah",
        "point_name": "동묘벼룩시장",
        "remark": ""
      },
      "type": "Feature"
    },
    {
      "geometry": {
        "coordinates": [
          126.99252,
          37.566314
        ],
        "type": "Point"
      },
      "properties": {
        "bangumi_id": 386772,
        "bangumi_title": "那个夏天",
        "ep_cut": "",
        "image_url": "https://w.junreimap.com/images/points/386772/owa4fhgew_1734449281592.jpg",
        "location": "",
        "point_id": "owa4fhgew",
        "point_name": "을지로3가",
        "remark": "路标牌相同"
      },
      "type": "Feature"
    },
    {
      "geometry": {
        "coordinates": [
          126.987585,
          37.568526
        ],
        "type": "Point"
      },
      "properties": {
        "bangumi_id": 386772,
        "bangumi_title": "那个夏天",
        "ep_cut": "",
        "image_url": "https://w.junreimap.com/images/points/386772/owaiyffpv_1734449290286.jpg",
        "location": "",
        "point_id": "owaiyffpv",
        "point_name": "종로2가.삼일교",
        "remark": ""
      },
      "type": "Feature"
    },
    {
      "geometry": {
        "coordinates": [
          126.993093,
          37.562886
        ],
        "type": "Point"
      },
      "properties": {
        "bangumi_id": 386772,
        "bangumi_title": "那个夏天",
        "ep_cut": "",
        "image_url": "https://w.junreimap.com/images/points/386772/owau7x51t_1734449297343.jpg",
        "location": "",
        "point_id": "owau7x51t",
        "point_name": "진고개",
        "remark": ""
      },
      "type": "Feature"
    },
    {
      "geometry": {
        "coordinates": [
          126.990153,
          37.568192
        ],
        "type": "Point"
      },
      "properties": {
        "bangumi_id": 386772,
        "bangumi_title": "那个夏天",
        "ep_cut": "",
        "image_url": "https://w.junreimap.com/images/points/386772/owdlmvy1s_1734450230695.jpg",
        "location": "",
        "point_id": "owdlmvy1s",
        "point_name": "수표교",
        "remark": "两人自桥北前往桥南。"
      },
      "type": "Feature"
    },
    {
      "geometry": {
        "coordinates": [
          126.990159,
          37.568164
        ],
        "type": "Point"
      },
      "properties": {
        "bangumi_id": 386772,
        "bangumi_title": "那个夏天",
        "ep_cut": "",
        "image_url": "https://w.junreimap.com/images/points/386772/r1qwakidn_1734450120710.jpg",
        "location": "",
        "point_id": "r1qwakidn",
        "point_name": "수표교",
        "remark": ""
      },
      "type": "Feature"
    },
    {
      "geometry": {
        "coordinates": [
          126.9897,
          37.568138
        ],
        "type": "Point"
      },
      "properties": {
        "bangumi_id": 386772,
        "bangumi_title": "那个夏天",
        "ep_cut": "",
        "image_url": "https://w.junreimap.com/images/points/386772/owdvzetsu_1734450244645.jpg",
        "location": "",
        "point_id": "owdvzetsu",
        "point_name": "청계천",
        "remark": "从水标桥上望去"
      },
      "type": "Feature"
    },
    {
      "geometry": {
        "coordinates": [
          126.988809,
          37.564665
        ],
        "type": "Point"
      },
      "properties": {
        "bangumi_id": 386772,
        "bangumi_title": "那个夏天",
        "ep_cut": "",
        "image_url": "https://w.junreimap.com/images/points/386772/owfui93x4_1734450266063.jpg",
        "location": "",
        "point_id": "owfui93x4",
        "point_name": "인제대학교 서울백병원",
        "remark": "实际是最早的白医院（在野人时代出现过）。动画设定中该医院位于女主就读的大学和打工的面包店对面，现实中医院对面没有相应场景。"
      },
      "type": "Feature"
    },
    {
      "geometry": {
        "coordinates": [
          127.000111,
          37.562521
        ],
        "type": "Point"
      },
      "properties": {
        "bangumi_id": 386772,
        "bangumi_title": "那个夏天",
        "ep_cut": "",
        "image_url": "https://w.junreimap.com/images/points/386772/r1o4k30st_1734444194998.jpg",
        "location": "",
        "point_id": "r1o4k30st",
        "point_name": "퇴계로5가",
        "remark": ""
      },
      "type": "Feature"
    },
    {
      "geometry": {
        "coordinates": [
          126.995499,
          37.561633
        ],
        "type": "Point"
      },
      "properties": {
        "bangumi_id": 386772,
        "bangumi_title": "那个夏天",
        "ep_cut": "",
        "image_url": "https://w.junreimap.com/images/points/386772/r1ojq43f6_1734445068993.jpg",
        "location": "",
        "point_id": "r1ojq43f6",
        "point_name": "충무로역.호텔피제이",
        "remark": ""
      },
      "type": "Feature"
    },
    {
      "geometry": {
        "coordinates": [
          126.995474,
          37.561626
        ],
        "type": "Point"
      },
      "properties": {
        "bangumi_id": 386772,
        "bangumi_title": "那个夏天",
        "ep_cut": "",
        "image_url": "https://w.junreimap.com/images/points/386772/r1ohj5ndv_1734444939132.jpg",
        "location": "",
        "point_id": "r1ohj5ndv",
        "point_name": "대한극장",
        "remark": ""
      },
      "type": "Feature"
    },
    {
      "geometry": {
        "coordinates": [
          126.995377,
          37.561656
        ],
        "type": "Point"
      },
      "properties": {
        "bangumi_id": 386772,
        "bangumi_title": "那个夏天",
        "ep_cut": "",
        "image_url": "https://w.junreimap.com/images/points/386772/owfk41qii_1734445500270.jpg",
        "location": "",
        "point_id": "owfk41qii",
        "point_name": "충무로",
        "remark": "8口"
      },
      "type": "Feature"
    },
    {
      "geometry": {
        "coordinates": [
          126.995319,
          37.562212
        ],
        "type": "Point"
      },
      "properties": {
        "bangumi_id": 386772,
        "bangumi_title": "那个夏天",
        "ep_cut": "",
        "image_url": "https://w.junreimap.com/images/points/386772/r1onr5ue8_1734445281603.jpg",
        "location": "",
        "point_id": "r1onr5ue8",
        "point_name": "퇴계로",
        "remark": ""
      },
      "type": "Feature"
    },
    {
      "geometry": {
        "coordinates": [
          126.99579,
          37.562292
        ],
        "type": "Point"
      },
      "properties": {
        "bangumi_id": 386772,
        "bangumi_title": "那个夏天",
        "ep_cut": "",
        "image_url": "https://w.junreimap.com/images/points/386772/r1oui7yfw_1734445747610.jpg",
        "location": "",
        "point_id": "r1oui7yfw",
        "point_name": "세운상가 공중보행데크",
        "remark": ""
      },
      "type": "Feature"
    },
    {
      "geometry": {
        "coordinates": [
          126.996139,
          37.562251
        ],
        "type": "Point"
      },
      "properties": {
        "bangumi_id": 386772,
        "bangumi_title": "那个夏天",
        "ep_cut": "",
        "image_url": "https://w.junreimap.com/images/points/386772/r1oxsppd8_1734445862199.jpg",
        "location": "",
        "point_id": "r1oxsppd8",
        "point_name": "달인꽃배달",
        "remark": "名为달인꽃배달（達人花配達）的花店。"
      },
      "type": "Feature"
    },
    {
      "geometry": {
        "coordinates": [
          126.996138,
          37.562251
        ],
        "type": "Point"
      },
      "properties": {
        "bangumi_id": 386772,
        "bangumi_title": "那个夏天",
        "ep_cut": "",
        "image_url": "https://w.junreimap.com/images/points/386772/r1p0kdiy1_1734446029674.jpg",
        "location": "",
        "point_id": "r1p0kdiy1",
        "point_name": "달인꽃배달",
        "remark": "名为달인꽃배달（達人花配達）的花店。"
      },
      "type": "Feature"
    },
    {
      "geometry": {
        "coordinates": [
          126.996145,
          37.561805
        ],
        "type": "Point"
      },
      "properties": {
        "bangumi_id": 386772,
        "bangumi_title": "那个夏天",
        "ep_cut": "",
        "image_url": "https://w.junreimap.com/images/points/386772/r1p3xtc78_1734446338473.jpg",
        "location": "",
        "point_id": "r1p3xtc78",
        "point_name": "진양상가",
        "remark": ""
      },
      "type": "Feature"
    },
    {
      "geometry": {
        "coordinates": [
          126.995985,
          37.561978
        ],
        "type": "Point"
      },
      "properties": {
        "bangumi_id": 386772,
        "bangumi_title": "那个夏天",
        "ep_cut": "",
        "image_url": "https://w.junreimap.com/images/points/386772/r1p6diwnd_1734446379837.jpg",
        "location": "",
        "point_id": "r1p6diwnd",
        "point_name": "진양상가",
        "remark": "未确认。"
      },
      "type": "Feature"
    }
  ],
  "type": "FeatureCollection"
}