{
  "features": [
    {
      "geometry": {
        "coordinates": [
          139.749689,
          35.692771
        ],
        "type": "Point"
      },
      "properties": {
        "bangumi_id": 386809,
        "bangumi_title": "我推的孩子",
        "ep_cut": 1,
        "image_url": "https://w.junreimap.com/images/user/0/bangumi/386809/points/mohw7a636-1722127410165.jpg",
        "location": "",
        "point_id": "mohw7a636",
        "point_name": "日本武道馆",
        "remark": ""
      },
      "type": "Feature"
    },
    {
      "geometry": {
        "coordinates": [
          131.303397,
          32.711657
        ],
        "type": "Point"
      },
      "properties": {
        "bangumi_id": 386809,
        "bangumi_title": "我推的孩子",
        "ep_cut": 1,
        "image_url": "https://w.junreimap.com/images/user/0/bangumi/386809/points/moiwl2x5z-1722129616038.jpg",
        "location": "",
        "point_id": "moiwl2x5z",
        "point_name": " 鬼八塚（手足塚）",
        "remark": ""
      },
      "type": "Feature"
    },
    {
      "geometry": {
        "coordinates": [
          131.314506,
          32.716489
        ],
        "type": "Point"
      },
      "properties": {
        "bangumi_id": 386809,
        "bangumi_title": "我推的孩子",
        "ep_cut": 1,
        "image_url": "https://w.junreimap.com/images/user/0/bangumi/386809/points/moj5l19l3-1722130136829.jpg",
        "location": "",
        "point_id": "moj5l19l3",
        "point_name": "高千穂町​国保​病院",
        "remark": ""
      },
      "type": "Feature"
    },
    {
      "geometry": {
        "coordinates": [
          139.699204,
          35.662961
        ],
        "type": "Point"
      },
      "properties": {
        "bangumi_id": 386809,
        "bangumi_title": "我推的孩子",
        "ep_cut": 1,
        "image_url": "https://w.junreimap.com/images/user/0/bangumi/386809/points/o6mpn5jrk-1726369513362.jpg",
        "location": "",
        "point_id": "o6mpn5jrk",
        "point_name": "ファミリーマート 渋谷公園通り店前",
        "remark": ""
      },
      "type": "Feature"
    },
    {
      "geometry": {
        "coordinates": [
          139.751891,
          35.70564
        ],
        "type": "Point"
      },
      "properties": {
        "bangumi_id": 386809,
        "bangumi_title": "我推的孩子",
        "ep_cut": 1,
        "image_url": "https://w.junreimap.com/images/user/0/bangumi/386809/points/o6lwiva3n-1726367752146.jpg",
        "location": "",
        "point_id": "o6lwiva3n",
        "point_name": "東京ドーム",
        "remark": ""
      },
      "type": "Feature"
    },
    {
      "geometry": {
        "coordinates": [
          139.69949,
          35.659584
        ],
        "type": "Point"
      },
      "properties": {
        "bangumi_id": 386809,
        "bangumi_title": "我推的孩子",
        "ep_cut": 1,
        "image_url": "https://w.junreimap.com/images/user/0/bangumi/386809/points/o6mng2cgx-1726369375609.jpg",
        "location": "",
        "point_id": "o6mng2cgx",
        "point_name": "道玄坂下交差点",
        "remark": ""
      },
      "type": "Feature"
    },
    {
      "geometry": {
        "coordinates": [
          139.772241,
          35.69818
        ],
        "type": "Point"
      },
      "properties": {
        "bangumi_id": 386809,
        "bangumi_title": "我推的孩子",
        "ep_cut": 1,
        "image_url": "https://w.junreimap.com/images/user/0/bangumi/386809/points/o6lkl2qum-1726367202536.jpg",
        "location": "",
        "point_id": "o6lkl2qum",
        "point_name": "アトレ秋葉原1",
        "remark": ""
      },
      "type": "Feature"
    },
    {
      "geometry": {
        "coordinates": [
          139.77254,
          35.698234
        ],
        "type": "Point"
      },
      "properties": {
        "bangumi_id": 386809,
        "bangumi_title": "我推的孩子",
        "ep_cut": 1,
        "image_url": "https://w.junreimap.com/images/user/0/bangumi/386809/points/o6lpwx3ky-1726367378000.jpg",
        "location": "",
        "point_id": "o6lpwx3ky",
        "point_name": "JR秋葉原駅電気街口",
        "remark": ""
      },
      "type": "Feature"
    },
    {
      "geometry": {
        "coordinates": [
          139.712272,
          35.645818
        ],
        "type": "Point"
      },
      "properties": {
        "bangumi_id": 386809,
        "bangumi_title": "我推的孩子",
        "ep_cut": 2,
        "image_url": "https://w.junreimap.com/images/user/1074/bangumi/386809/points/jrytz6om3-1713936077959.jpg",
        "location": "",
        "point_id": "jrytz6om3",
        "point_name": "恵比寿MFビル",
        "remark": ""
      },
      "type": "Feature"
    },
    {
      "geometry": {
        "coordinates": [
          139.714208,
          35.63472
        ],
        "type": "Point"
      },
      "properties": {
        "bangumi_id": 386809,
        "bangumi_title": "我推的孩子",
        "ep_cut": 2,
        "image_url": "https://w.junreimap.com/images/user/0/bangumi/386809/points/o6n4bkjmf-1726370404420.jpg",
        "location": "",
        "point_id": "o6n4bkjmf",
        "point_name": "新目黒東急ビル前",
        "remark": ""
      },
      "type": "Feature"
    },
    {
      "geometry": {
        "coordinates": [
          139.715292,
          35.633836
        ],
        "type": "Point"
      },
      "properties": {
        "bangumi_id": 386809,
        "bangumi_title": "我推的孩子",
        "ep_cut": 2,
        "image_url": "https://w.junreimap.com/images/user/0/bangumi/386809/points/o6mz7e62j-1726370124108.jpg",
        "location": "",
        "point_id": "o6mz7e62j",
        "point_name": "三井住友銀行 目黒支店付近",
        "remark": ""
      },
      "type": "Feature"
    },
    {
      "geometry": {
        "coordinates": [
          139.715527,
          35.633238
        ],
        "type": "Point"
      },
      "properties": {
        "bangumi_id": 386809,
        "bangumi_title": "我推的孩子",
        "ep_cut": 2,
        "image_url": "https://w.junreimap.com/images/user/1074/bangumi/386809/points/jse7o9nxx-1713969472536.jpg",
        "location": "",
        "point_id": "jse7o9nxx",
        "point_name": "目黒駅",
        "remark": ""
      },
      "type": "Feature"
    },
    {
      "geometry": {
        "coordinates": [
          139.705981,
          35.691894
        ],
        "type": "Point"
      },
      "properties": {
        "bangumi_id": 386809,
        "bangumi_title": "我推的孩子",
        "ep_cut": 2,
        "image_url": "https://w.junreimap.com/images/user/0/bangumi/386809/points/o6mvocqpe-1726369935787.jpg",
        "location": "",
        "point_id": "o6mvocqpe",
        "point_name": "串カツ田中 新宿3丁目店前",
        "remark": ""
      },
      "type": "Feature"
    },
    {
      "geometry": {
        "coordinates": [
          139.667458,
          35.60766
        ],
        "type": "Point"
      },
      "properties": {
        "bangumi_id": 386809,
        "bangumi_title": "我推的孩子",
        "ep_cut": 3,
        "image_url": "https://w.junreimap.com/images/user/0/bangumi/386809/points/o6n6tniey-1726370552299.jpg",
        "location": "",
        "point_id": "o6n6tniey",
        "point_name": "カラオケ館 自由が丘店",
        "remark": ""
      },
      "type": "Feature"
    },
    {
      "geometry": {
        "coordinates": [
          139.731584,
          35.663847
        ],
        "type": "Point"
      },
      "properties": {
        "bangumi_id": 386809,
        "bangumi_title": "我推的孩子",
        "ep_cut": 4,
        "image_url": "https://w.junreimap.com/images/user/0/bangumi/386809/points/o6kevu8pg-1726364527765.jpg",
        "location": "",
        "point_id": "o6kevu8pg",
        "point_name": "CEDAR THE CHOP HOUSE＆BAR",
        "remark": ""
      },
      "type": "Feature"
    },
    {
      "geometry": {
        "coordinates": [
          139.708646,
          35.643438
        ],
        "type": "Point"
      },
      "properties": {
        "bangumi_id": 386809,
        "bangumi_title": "我推的孩子",
        "ep_cut": 5,
        "image_url": "https://w.junreimap.com/images/user/1074/bangumi/386809/points/jse9xndoe-1713969609583.jpg",
        "location": "",
        "point_id": "jse9xndoe",
        "point_name": "恵比寿南二公園",
        "remark": ""
      },
      "type": "Feature"
    },
    {
      "geometry": {
        "coordinates": [
          139.698552,
          35.640069
        ],
        "type": "Point"
      },
      "properties": {
        "bangumi_id": 386809,
        "bangumi_title": "我推的孩子",
        "ep_cut": 6,
        "image_url": "https://w.junreimap.com/images/user/0/bangumi/386809/points/icrd4mi0e-1726366544200.jpg",
        "location": "",
        "point_id": "icrd4mi0e",
        "point_name": "駒沢通り",
        "remark": ""
      },
      "type": "Feature"
    },
    {
      "geometry": {
        "coordinates": [
          139.744233,
          35.677723
        ],
        "type": "Point"
      },
      "properties": {
        "bangumi_id": 386809,
        "bangumi_title": "我推的孩子",
        "ep_cut": 7,
        "image_url": "https://w.junreimap.com/images/user/0/bangumi/386809/points/o6nc1hw4k-1726370862940.jpg",
        "location": "",
        "point_id": "o6nc1hw4k",
        "point_name": "国立国会図書館前",
        "remark": ""
      },
      "type": "Feature"
    },
    {
      "geometry": {
        "coordinates": [
          139.714792,
          35.633912
        ],
        "type": "Point"
      },
      "properties": {
        "bangumi_id": 386809,
        "bangumi_title": "我推的孩子",
        "ep_cut": 8,
        "image_url": "https://w.junreimap.com/images/user/0/bangumi/386809/points/o6nihql8j-1726371284373.jpg",
        "location": "",
        "point_id": "o6nihql8j",
        "point_name": "サンマルクカフェ 目黒西口店前",
        "remark": ""
      },
      "type": "Feature"
    },
    {
      "geometry": {
        "coordinates": [
          139.711411,
          35.634164
        ],
        "type": "Point"
      },
      "properties": {
        "bangumi_id": 386809,
        "bangumi_title": "我推的孩子",
        "ep_cut": 8,
        "image_url": "https://w.junreimap.com/images/user/0/bangumi/386809/points/o6nmk9vwi-1726371592822.jpg",
        "location": "",
        "point_id": "o6nmk9vwi",
        "point_name": "ココカラファイン 目黒店前",
        "remark": ""
      },
      "type": "Feature"
    },
    {
      "geometry": {
        "coordinates": [
          139.708644,
          35.636421
        ],
        "type": "Point"
      },
      "properties": {
        "bangumi_id": 386809,
        "bangumi_title": "我推的孩子",
        "ep_cut": 8,
        "image_url": "https://w.junreimap.com/images/user/0/bangumi/386809/points/o6nqk6nlc-1726371735734.jpg",
        "location": "",
        "point_id": "o6nqk6nlc",
        "point_name": "田道広場公園",
        "remark": ""
      },
      "type": "Feature"
    },
    {
      "geometry": {
        "coordinates": [
          139.771872,
          35.627718
        ],
        "type": "Point"
      },
      "properties": {
        "bangumi_id": 386809,
        "bangumi_title": "我推的孩子",
        "ep_cut": 8,
        "image_url": "https://w.junreimap.com/images/user/0/bangumi/386809/points/o6nei7z99-1726371089876.jpg",
        "location": "",
        "point_id": "o6nei7z99",
        "point_name": "お台場海浜公園 - 自由の女神像",
        "remark": ""
      },
      "type": "Feature"
    },
    {
      "geometry": {
        "coordinates": [
          139.775321,
          35.629979
        ],
        "type": "Point"
      },
      "properties": {
        "bangumi_id": 386809,
        "bangumi_title": "我推的孩子",
        "ep_cut": 8,
        "image_url": "https://w.junreimap.com/images/user/0/bangumi/386809/points/js3apek1c-1726366668320.jpg",
        "location": "",
        "point_id": "js3apek1c",
        "point_name": "お台場海浜公園",
        "remark": ""
      },
      "type": "Feature"
    },
    {
      "geometry": {
        "coordinates": [
          139.714781,
          35.635524
        ],
        "type": "Point"
      },
      "properties": {
        "bangumi_id": 386809,
        "bangumi_title": "我推的孩子",
        "ep_cut": 8,
        "image_url": "https://w.junreimap.com/images/user/0/bangumi/386809/points/o6nv1rdrw-1726372008901.jpg",
        "location": "",
        "point_id": "o6nv1rdrw",
        "point_name": "ソフトバンク目黒前～ホテルアランド前",
        "remark": ""
      },
      "type": "Feature"
    },
    {
      "geometry": {
        "coordinates": [
          139.700552,
          35.65943
        ],
        "type": "Point"
      },
      "properties": {
        "bangumi_id": 386809,
        "bangumi_title": "我推的孩子",
        "ep_cut": 10,
        "image_url": "https://w.junreimap.com/images/user/1074/bangumi/386809/points/jrz6fqtoh-1713936792986.jpg",
        "location": "",
        "point_id": "jrz6fqtoh",
        "point_name": "渋谷スクランブル交差点",
        "remark": ""
      },
      "type": "Feature"
    },
    {
      "geometry": {
        "coordinates": [
          139.770069,
          35.700321
        ],
        "type": "Point"
      },
      "properties": {
        "bangumi_id": 386809,
        "bangumi_title": "我推的孩子",
        "ep_cut": 11,
        "image_url": "https://w.junreimap.com/images/user/1074/bangumi/386809/points/jrz27kxku-1713936521725.jpg",
        "location": "",
        "point_id": "jrz27kxku",
        "point_name": "秋葉原ZEST",
        "remark": ""
      },
      "type": "Feature"
    },
    {
      "geometry": {
        "coordinates": [
          131.250641,
          32.767868
        ],
        "type": "Point"
      },
      "properties": {
        "bangumi_id": 386809,
        "bangumi_title": "我推的孩子",
        "ep_cut": "",
        "image_url": "https://w.junreimap.com/images/points/386809/913697e8_1743443456231.jpg",
        "location": "高千穂",
        "point_id": "913697e8",
        "point_name": "高千穂町の看板",
        "remark": "国道325号沿い。\n熊本との県境のループ橋を越えて700ｍほど進んだ位置にある看板。"
      },
      "type": "Feature"
    },
    {
      "geometry": {
        "coordinates": [
          131.300671,
          32.708335
        ],
        "type": "Point"
      },
      "properties": {
        "bangumi_id": 386809,
        "bangumi_title": "我推的孩子",
        "ep_cut": "",
        "image_url": "https://w.junreimap.com/images/points/386809/7448e3e7_1743443485224.jpg",
        "location": "高千穂",
        "point_id": "7448e3e7",
        "point_name": "道の駅高千穂",
        "remark": "道の駅「高千穂」にある「天鈿女命」像"
      },
      "type": "Feature"
    },
    {
      "geometry": {
        "coordinates": [
          131.305789,
          32.70818
        ],
        "type": "Point"
      },
      "properties": {
        "bangumi_id": 386809,
        "bangumi_title": "我推的孩子",
        "ep_cut": "",
        "image_url": "https://w.junreimap.com/images/points/386809/f2bcabf5_1743443558679.jpg",
        "location": "高千穂",
        "point_id": "f2bcabf5",
        "point_name": "がまだせ市場入口",
        "remark": ""
      },
      "type": "Feature"
    },
    {
      "geometry": {
        "coordinates": [
          131.278443,
          32.719792
        ],
        "type": "Point"
      },
      "properties": {
        "bangumi_id": 386809,
        "bangumi_title": "我推的孩子",
        "ep_cut": "",
        "image_url": "https://w.junreimap.com/images/points/386809/52a0e0fb_1743443573032.jpg",
        "location": "高千穂",
        "point_id": "52a0e0fb",
        "point_name": "国見ヶ丘展望台",
        "remark": "24話、アクアとあかねの語らいシーンで登場した"
      },
      "type": "Feature"
    },
    {
      "geometry": {
        "coordinates": [
          131.316885,
          32.711782
        ],
        "type": "Point"
      },
      "properties": {
        "bangumi_id": 386809,
        "bangumi_title": "我推的孩子",
        "ep_cut": "",
        "image_url": "https://w.junreimap.com/images/points/386809/275409d0_1743443583577.jpg",
        "location": "高千穂",
        "point_id": "275409d0",
        "point_name": "荒立神社",
        "remark": ""
      },
      "type": "Feature"
    },
    {
      "geometry": {
        "coordinates": [
          131.25194,
          32.77199
        ],
        "type": "Point"
      },
      "properties": {
        "bangumi_id": 386809,
        "bangumi_title": "我推的孩子",
        "ep_cut": "",
        "image_url": "https://w.junreimap.com/images/points/386809/bed99bdc_1743443595937.jpg",
        "location": "高千穂",
        "point_id": "bed99bdc",
        "point_name": "高千穂歓迎オブジェ",
        "remark": "国道325号と県道8号の交差点\n道の駅にもあった「天鈿女命」と「手力男」のオブジェ"
      },
      "type": "Feature"
    },
    {
      "geometry": {
        "coordinates": [
          131.254037,
          32.777307
        ],
        "type": "Point"
      },
      "properties": {
        "bangumi_id": 386809,
        "bangumi_title": "我推的孩子",
        "ep_cut": "",
        "image_url": "https://w.junreimap.com/images/points/386809/96794fbc_1743443609960.jpg",
        "location": "高千穂",
        "point_id": "96794fbc",
        "point_name": "熊野鳴瀧神社",
        "remark": "「POP IN 2」のMVに登場した"
      },
      "type": "Feature"
    },
    {
      "geometry": {
        "coordinates": [
          131.254721,
          32.777034
        ],
        "type": "Point"
      },
      "properties": {
        "bangumi_id": 386809,
        "bangumi_title": "我推的孩子",
        "ep_cut": "",
        "image_url": "https://w.junreimap.com/images/points/386809/849afcde_1743443619512.jpg",
        "location": "高千穂",
        "point_id": "849afcde",
        "point_name": "熊野鳴瀧神社の石段",
        "remark": "「POP IN 2」のMVに登場した"
      },
      "type": "Feature"
    },
    {
      "geometry": {
        "coordinates": [
          131.272488,
          32.806967
        ],
        "type": "Point"
      },
      "properties": {
        "bangumi_id": 386809,
        "bangumi_title": "我推的孩子",
        "ep_cut": "",
        "image_url": "https://w.junreimap.com/images/points/386809/2769297c_1743443630970.jpg",
        "location": "高千穂",
        "point_id": "2769297c",
        "point_name": "ウェストン碑",
        "remark": "イギリス人のウォルター・ウェストン氏の記念碑\n日本アルプスの命名者として知られるウェストンが、祖母山に登山したことから建てられた記念碑との事。"
      },
      "type": "Feature"
    },
    {
      "geometry": {
        "coordinates": [
          131.302214,
          32.706418
        ],
        "type": "Point"
      },
      "properties": {
        "bangumi_id": 386809,
        "bangumi_title": "我推的孩子",
        "ep_cut": "",
        "image_url": "https://w.junreimap.com/images/points/386809/25f8c4e7_1743444043567.jpg",
        "location": "高千穂",
        "point_id": "25f8c4e7",
        "point_name": "高千穂神社拝殿",
        "remark": "「POP IN 2」のMVに登場した"
      },
      "type": "Feature"
    },
    {
      "geometry": {
        "coordinates": [
          131.3026,
          32.706299
        ],
        "type": "Point"
      },
      "properties": {
        "bangumi_id": 386809,
        "bangumi_title": "我推的孩子",
        "ep_cut": "",
        "image_url": "https://w.junreimap.com/images/points/386809/e3772b67_1743444065238.jpg",
        "location": "高千穂",
        "point_id": "e3772b67",
        "point_name": "高千穂神社石段",
        "remark": "「POP IN 2」のMVに登場した"
      },
      "type": "Feature"
    },
    {
      "geometry": {
        "coordinates": [
          131.301176,
          32.702579
        ],
        "type": "Point"
      },
      "properties": {
        "bangumi_id": 386809,
        "bangumi_title": "我推的孩子",
        "ep_cut": "",
        "image_url": "https://w.junreimap.com/images/points/386809/85cd77f8_1743444078351.jpg",
        "location": "高千穂",
        "point_id": "85cd77f8",
        "point_name": "おのころ池の水車小屋",
        "remark": "「POP IN 2」のMVに登場した"
      },
      "type": "Feature"
    },
    {
      "geometry": {
        "coordinates": [
          131.277729,
          32.719419
        ],
        "type": "Point"
      },
      "properties": {
        "bangumi_id": 386809,
        "bangumi_title": "我推的孩子",
        "ep_cut": "",
        "image_url": "https://w.junreimap.com/images/points/386809/12756cca_1743444103287.jpg",
        "location": "高千穂",
        "point_id": "12756cca",
        "point_name": "金比羅神社の鳥居",
        "remark": "「POP IN 2」のMVに登場した"
      },
      "type": "Feature"
    },
    {
      "geometry": {
        "coordinates": [
          131.306676,
          32.707361
        ],
        "type": "Point"
      },
      "properties": {
        "bangumi_id": 386809,
        "bangumi_title": "我推的孩子",
        "ep_cut": "",
        "image_url": "https://w.junreimap.com/images/points/386809/7824cdee_1743444118917.jpg",
        "location": "高千穂",
        "point_id": "7824cdee",
        "point_name": "高千穂旅館 神仙",
        "remark": "皆が泊まった旅館のモデル"
      },
      "type": "Feature"
    },
    {
      "geometry": {
        "coordinates": [
          131.350068,
          32.734496
        ],
        "type": "Point"
      },
      "properties": {
        "bangumi_id": 386809,
        "bangumi_title": "我推的孩子",
        "ep_cut": "",
        "image_url": "https://w.junreimap.com/images/points/386809/c943696b_1743444129855.jpg",
        "location": "高千穂",
        "point_id": "c943696b",
        "point_name": "天岩戸神社 古神符守札納斎社",
        "remark": "「POP IN 2」のMVに登場した"
      },
      "type": "Feature"
    },
    {
      "geometry": {
        "coordinates": [
          130.859461,
          32.834974
        ],
        "type": "Point"
      },
      "properties": {
        "bangumi_id": 386809,
        "bangumi_title": "我推的孩子",
        "ep_cut": "",
        "image_url": "https://w.junreimap.com/images/points/386809/f8c2b194_1743444167566.jpg",
        "location": "熊本",
        "point_id": "f8c2b194",
        "point_name": "熊本空港　乗降所",
        "remark": ""
      },
      "type": "Feature"
    },
    {
      "geometry": {
        "coordinates": [
          130.962846,
          32.862617
        ],
        "type": "Point"
      },
      "properties": {
        "bangumi_id": 386809,
        "bangumi_title": "我推的孩子",
        "ep_cut": "",
        "image_url": "https://w.junreimap.com/images/points/386809/feafadf2_1743444179149.jpg",
        "location": "熊本",
        "point_id": "feafadf2",
        "point_name": "俵山の風車",
        "remark": ""
      },
      "type": "Feature"
    },
    {
      "geometry": {
        "coordinates": [
          139.714904,
          35.63371
        ],
        "type": "Point"
      },
      "properties": {
        "bangumi_id": 386809,
        "bangumi_title": "我推的孩子",
        "ep_cut": 2,
        "image_url": "https://w.junreimap.com/images/user/2205/bangumi/386809/points/9pf2bmf-1768138358075.jpg",
        "location": "",
        "point_id": "9pf2bmf",
        "point_name": "根据左面的电话亭车站，右面的银行拍摄",
        "remark": ""
      },
      "type": "Feature"
    },
    {
      "geometry": {
        "coordinates": [
          139.70843,
          35.6437
        ],
        "type": "Point"
      },
      "properties": {
        "bangumi_id": 386809,
        "bangumi_title": "我推的孩子",
        "ep_cut": 5,
        "image_url": "https://w.junreimap.com/images/user/2205/bangumi/386809/points/9pgb9gs-1768140474717.jpg",
        "location": "",
        "point_id": "9pgb9gs",
        "point_name": "恵比寿南二公園",
        "remark": "补截图"
      },
      "type": "Feature"
    },
    {
      "geometry": {
        "coordinates": [
          139.708457,
          35.643642
        ],
        "type": "Point"
      },
      "properties": {
        "bangumi_id": 386809,
        "bangumi_title": "我推的孩子",
        "ep_cut": 5,
        "image_url": "https://w.junreimap.com/images/user/2205/bangumi/386809/points/9pgd0bq-1768140529085.jpg",
        "location": "",
        "point_id": "9pgd0bq",
        "point_name": "恵比寿南二公園",
        "remark": ""
      },
      "type": "Feature"
    },
    {
      "geometry": {
        "coordinates": [
          139.698836,
          35.640562
        ],
        "type": "Point"
      },
      "properties": {
        "bangumi_id": 386809,
        "bangumi_title": "我推的孩子",
        "ep_cut": 7,
        "image_url": "https://w.junreimap.com/images/user/2205/bangumi/386809/points/9pgecv8-1768140598668.jpg",
        "location": "",
        "point_id": "9pgecv8",
        "point_name": "人行道前拍摄",
        "remark": ""
      },
      "type": "Feature"
    },
    {
      "geometry": {
        "coordinates": [
          139.715036,
          35.633876
        ],
        "type": "Point"
      },
      "properties": {
        "bangumi_id": 386809,
        "bangumi_title": "我推的孩子",
        "ep_cut": 8,
        "image_url": "https://w.junreimap.com/images/user/2205/bangumi/386809/points/9pgficr-1768140646001.jpg",
        "location": "",
        "point_id": "9pgficr",
        "point_name": "三井住友銀行 目黒支店付近",
        "remark": ""
      },
      "type": "Feature"
    },
    {
      "geometry": {
        "coordinates": [
          139.709697,
          35.635067
        ],
        "type": "Point"
      },
      "properties": {
        "bangumi_id": 386809,
        "bangumi_title": "我推的孩子",
        "ep_cut": 8,
        "image_url": "https://w.junreimap.com/images/user/2205/bangumi/386809/points/9pgjcvd-1768140826466.jpg",
        "location": "",
        "point_id": "9pgjcvd",
        "point_name": "根据后面的房子拍摄",
        "remark": "左面的窗子完全满足"
      },
      "type": "Feature"
    },
    {
      "geometry": {
        "coordinates": [
          139.709402,
          35.634916
        ],
        "type": "Point"
      },
      "properties": {
        "bangumi_id": 386809,
        "bangumi_title": "我推的孩子",
        "ep_cut": 8,
        "image_url": "https://w.junreimap.com/images/user/2205/bangumi/386809/points/9pgkph4-1768140889746.jpg",
        "location": "",
        "point_id": "9pgkph4",
        "point_name": "对面视角拍摄",
        "remark": ""
      },
      "type": "Feature"
    },
    {
      "geometry": {
        "coordinates": [
          139.709687,
          35.635066
        ],
        "type": "Point"
      },
      "properties": {
        "bangumi_id": 386809,
        "bangumi_title": "我推的孩子",
        "ep_cut": 8,
        "image_url": "https://w.junreimap.com/images/user/2205/bangumi/386809/points/9pglhv7-1768140928007.jpg",
        "location": "",
        "point_id": "9pglhv7",
        "point_name": "向前拍摄",
        "remark": ""
      },
      "type": "Feature"
    },
    {
      "geometry": {
        "coordinates": [
          139.70863,
          35.636408
        ],
        "type": "Point"
      },
      "properties": {
        "bangumi_id": 386809,
        "bangumi_title": "我推的孩子",
        "ep_cut": 8,
        "image_url": "https://w.junreimap.com/images/user/2205/bangumi/386809/points/9pgmdrr-1768140968010.jpg",
        "location": "",
        "point_id": "9pgmdrr",
        "point_name": "田道広場公園",
        "remark": "补截图，可爱嘞"
      },
      "type": "Feature"
    },
    {
      "geometry": {
        "coordinates": [
          139.708637,
          35.636672
        ],
        "type": "Point"
      },
      "properties": {
        "bangumi_id": 386809,
        "bangumi_title": "我推的孩子",
        "ep_cut": 8,
        "image_url": "https://w.junreimap.com/images/user/2205/bangumi/386809/points/9pgrod8-1768141215619.jpg",
        "location": "",
        "point_id": "9pgrod8",
        "point_name": "田道広場公園附近向右拍摄",
        "remark": ""
      },
      "type": "Feature"
    },
    {
      "geometry": {
        "coordinates": [
          139.708468,
          35.636329
        ],
        "type": "Point"
      },
      "properties": {
        "bangumi_id": 386809,
        "bangumi_title": "我推的孩子",
        "ep_cut": 8,
        "image_url": "https://w.junreimap.com/images/user/2205/bangumi/386809/points/9pgt5s2-1768141296772.jpg",
        "location": "",
        "point_id": "9pgt5s2",
        "point_name": "田道広場公園附近向北拍摄",
        "remark": ""
      },
      "type": "Feature"
    },
    {
      "geometry": {
        "coordinates": [
          139.708701,
          35.636661
        ],
        "type": "Point"
      },
      "properties": {
        "bangumi_id": 386809,
        "bangumi_title": "我推的孩子",
        "ep_cut": 8,
        "image_url": "https://w.junreimap.com/images/user/2205/bangumi/386809/points/9pgtydi-1768141321894.jpg",
        "location": "",
        "point_id": "9pgtydi",
        "point_name": "田道広場公園向右拍摄",
        "remark": ""
      },
      "type": "Feature"
    },
    {
      "geometry": {
        "coordinates": [
          139.775359,
          35.630007
        ],
        "type": "Point"
      },
      "properties": {
        "bangumi_id": 386809,
        "bangumi_title": "我推的孩子",
        "ep_cut": 8,
        "image_url": "https://w.junreimap.com/images/user/2205/bangumi/386809/points/9pgv4hd-1768141374813.jpg",
        "location": "",
        "point_id": "9pgv4hd",
        "point_name": "お台場海浜公園展望広場",
        "remark": ""
      },
      "type": "Feature"
    },
    {
      "geometry": {
        "coordinates": [
          139.775339,
          35.629975
        ],
        "type": "Point"
      },
      "properties": {
        "bangumi_id": 386809,
        "bangumi_title": "我推的孩子",
        "ep_cut": 8,
        "image_url": "https://w.junreimap.com/images/user/2205/bangumi/386809/points/9pgvv0m-1768141409261.jpg",
        "location": "",
        "point_id": "9pgvv0m",
        "point_name": "お台場海浜公園展望広場",
        "remark": ""
      },
      "type": "Feature"
    },
    {
      "geometry": {
        "coordinates": [
          139.775339,
          35.629977
        ],
        "type": "Point"
      },
      "properties": {
        "bangumi_id": 386809,
        "bangumi_title": "我推的孩子",
        "ep_cut": 8,
        "image_url": "https://w.junreimap.com/images/user/2205/bangumi/386809/points/9pgwigk-1768141441206.jpg",
        "location": "",
        "point_id": "9pgwigk",
        "point_name": "お台場海浜公園展望広場",
        "remark": ""
      },
      "type": "Feature"
    },
    {
      "geometry": {
        "coordinates": [
          139.775348,
          35.630003
        ],
        "type": "Point"
      },
      "properties": {
        "bangumi_id": 386809,
        "bangumi_title": "我推的孩子",
        "ep_cut": 8,
        "image_url": "https://w.junreimap.com/images/user/2205/bangumi/386809/points/9pgx6nq-1768141472420.jpg",
        "location": "",
        "point_id": "9pgx6nq",
        "point_name": "お台場海浜公園展望広場",
        "remark": ""
      },
      "type": "Feature"
    },
    {
      "geometry": {
        "coordinates": [
          139.714743,
          35.635481
        ],
        "type": "Point"
      },
      "properties": {
        "bangumi_id": 386809,
        "bangumi_title": "我推的孩子",
        "ep_cut": 8,
        "image_url": "https://w.junreimap.com/images/user/2205/bangumi/386809/points/9ph4pi3-1768141826995.jpg",
        "location": "",
        "point_id": "9ph4pi3",
        "point_name": "目黒​西口​マンション​2号館",
        "remark": ""
      },
      "type": "Feature"
    },
    {
      "geometry": {
        "coordinates": [
          139.714717,
          35.635483
        ],
        "type": "Point"
      },
      "properties": {
        "bangumi_id": 386809,
        "bangumi_title": "我推的孩子",
        "ep_cut": 8,
        "image_url": "https://w.junreimap.com/images/user/2205/bangumi/386809/points/9ph5uwq-1768141875143.jpg",
        "location": "",
        "point_id": "9ph5uwq",
        "point_name": "目黒​西口​マンション​2号館",
        "remark": ""
      },
      "type": "Feature"
    },
    {
      "geometry": {
        "coordinates": [
          139.714762,
          35.635399
        ],
        "type": "Point"
      },
      "properties": {
        "bangumi_id": 386809,
        "bangumi_title": "我推的孩子",
        "ep_cut": 8,
        "image_url": "https://w.junreimap.com/images/user/2205/bangumi/386809/points/9ph7ll6-1768141958346.jpg",
        "location": "",
        "point_id": "9ph7ll6",
        "point_name": "目黒​西口​マンション​2号館",
        "remark": ""
      },
      "type": "Feature"
    },
    {
      "geometry": {
        "coordinates": [
          139.771833,
          35.627662
        ],
        "type": "Point"
      },
      "properties": {
        "bangumi_id": 386809,
        "bangumi_title": "我推的孩子",
        "ep_cut": 10,
        "image_url": "https://w.junreimap.com/images/user/2205/bangumi/386809/points/9ph8vql-1768142019131.jpg",
        "location": "",
        "point_id": "9ph8vql",
        "point_name": "高楼视角",
        "remark": "可以尝试在附近的高楼拍摄，或者无人机"
      },
      "type": "Feature"
    },
    {
      "geometry": {
        "coordinates": [
          139.774703,
          35.624302
        ],
        "type": "Point"
      },
      "properties": {
        "bangumi_id": 386809,
        "bangumi_title": "我推的孩子",
        "ep_cut": 10,
        "image_url": "https://w.junreimap.com/images/user/2205/bangumi/386809/points/9phevos-1768142304926.jpg",
        "location": "",
        "point_id": "9phevos",
        "point_name": "台场优衣库",
        "remark": "角度应该是西南角zepp入口，东北角入口在天桥下面"
      },
      "type": "Feature"
    },
    {
      "geometry": {
        "coordinates": [
          139.77627,
          35.626173
        ],
        "type": "Point"
      },
      "properties": {
        "bangumi_id": 386809,
        "bangumi_title": "我推的孩子",
        "ep_cut": 10,
        "image_url": "https://w.junreimap.com/images/user/2205/bangumi/386809/points/9phmx10-1768142678887.jpg",
        "location": "",
        "point_id": "9phmx10",
        "point_name": "商场前",
        "remark": ""
      },
      "type": "Feature"
    },
    {
      "geometry": {
        "coordinates": [
          139.776282,
          35.626144
        ],
        "type": "Point"
      },
      "properties": {
        "bangumi_id": 386809,
        "bangumi_title": "我推的孩子",
        "ep_cut": 10,
        "image_url": "https://w.junreimap.com/images/user/2205/bangumi/386809/points/9phnxbm-1768142718069.jpg",
        "location": "",
        "point_id": "9phnxbm",
        "point_name": "商场前",
        "remark": ""
      },
      "type": "Feature"
    },
    {
      "geometry": {
        "coordinates": [
          139.77626,
          35.626142
        ],
        "type": "Point"
      },
      "properties": {
        "bangumi_id": 386809,
        "bangumi_title": "我推的孩子",
        "ep_cut": 10,
        "image_url": "https://w.junreimap.com/images/user/2205/bangumi/386809/points/9phoklb-1768142784385.jpg",
        "location": "",
        "point_id": "9phoklb",
        "point_name": "商场前",
        "remark": ""
      },
      "type": "Feature"
    },
    {
      "geometry": {
        "coordinates": [
          139.776091,
          35.626039
        ],
        "type": "Point"
      },
      "properties": {
        "bangumi_id": 386809,
        "bangumi_title": "我推的孩子",
        "ep_cut": 10,
        "image_url": "https://w.junreimap.com/images/user/2205/bangumi/386809/points/9phrq2f-1768142897572.jpg",
        "location": "",
        "point_id": "9phrq2f",
        "point_name": "商场前",
        "remark": ""
      },
      "type": "Feature"
    },
    {
      "geometry": {
        "coordinates": [
          139.779884,
          35.629729
        ],
        "type": "Point"
      },
      "properties": {
        "bangumi_id": 386809,
        "bangumi_title": "我推的孩子",
        "ep_cut": 10,
        "image_url": "https://w.junreimap.com/images/user/2205/bangumi/386809/points/9pi1v6a-1768143373486.jpg",
        "location": "",
        "point_id": "9pi1v6a",
        "point_name": "台场海滨公园车站前",
        "remark": "谷歌给我的实景是2021年的图片，那时候还有摩天轮，后面的火车站没有隔音墙，只能放在中间。被动漫误导了，以为都在一个位置，其实是走动的"
      },
      "type": "Feature"
    }
  ],
  "type": "FeatureCollection"
}