{
  "features": [
    {
      "geometry": {
        "coordinates": [
          132.707484,
          33.874958
        ],
        "type": "Point"
      },
      "properties": {
        "bangumi_id": 392307,
        "bangumi_title": "龙族Ⅲ : 黑月之潮（下）",
        "ep_cut": "",
        "image_url": "https://w.junreimap.com/images/user/0/bangumi/392307/points/kla9e9deq-1720230573845.jpg",
        "location": "",
        "point_id": "kla9e9deq",
        "point_name": "梅津寺",
        "remark": "路明非和绘梨衣看日落，送她回东京的电车站"
      },
      "type": "Feature"
    },
    {
      "geometry": {
        "coordinates": [
          139.809035,
          35.710363
        ],
        "type": "Point"
      },
      "properties": {
        "bangumi_id": 392307,
        "bangumi_title": "龙族Ⅲ : 黑月之潮（下）",
        "ep_cut": "",
        "image_url": "https://w.junreimap.com/images/user/0/bangumi/392307/points/pj4p8k3xk-1730171649384.jpg",
        "location": "迎着阳光盛大逃亡",
        "point_id": "pj4p8k3xk",
        "point_name": "とうきょう​スカイツリー",
        "remark": "“04.24，和Sakura去东京天空树，世界上最暖和的地方在天空树的顶上。”"
      },
      "type": "Feature"
    },
    {
      "geometry": {
        "coordinates": [
          139.699385,
          35.676411
        ],
        "type": "Point"
      },
      "properties": {
        "bangumi_id": 392307,
        "bangumi_title": "龙族Ⅲ : 黑月之潮（下）",
        "ep_cut": "",
        "image_url": "https://w.junreimap.com/images/user/0/bangumi/392307/points/pj5mbdhep-1730172615951.jpg",
        "location": "迎着阳光盛大逃亡",
        "point_id": "pj5mbdhep",
        "point_name": "めいじじんぐう",
        "remark": "“04.26，和Sakura去明治神宫，有人在那里举办婚礼。”"
      },
      "type": "Feature"
    },
    {
      "geometry": {
        "coordinates": [
          139.881907,
          35.631218
        ],
        "type": "Point"
      },
      "properties": {
        "bangumi_id": 392307,
        "bangumi_title": "龙族Ⅲ : 黑月之潮（下）",
        "ep_cut": "",
        "image_url": "https://w.junreimap.com/images/user/0/bangumi/392307/points/pj62ljdh8-1730173194970.jpg",
        "location": "迎着阳光盛大逃亡",
        "point_id": "pj62ljdh8",
        "point_name": "幽靈公館",
        "remark": "“04.25，和Sakura去迪士尼，鬼屋很可怕，但是有Sakura在，所以不可怕。”"
      },
      "type": "Feature"
    },
    {
      "geometry": {
        "coordinates": [
          139.714538,
          35.641892
        ],
        "type": "Point"
      },
      "properties": {
        "bangumi_id": 392307,
        "bangumi_title": "龙族Ⅲ : 黑月之潮（下）",
        "ep_cut": "",
        "image_url": "https://w.junreimap.com/images/user/0/bangumi/392307/points/pj6mi3yzg-1730174458560.jpg",
        "location": "迎着阳光盛大逃亡",
        "point_id": "pj6mi3yzg",
        "point_name": "Gastronomy “Joël Robuchon”",
        "remark": "今天路明非说要带她去很高级的地方吃饭，她足足花了两个半小时来挑选衣服，白色塔夫绸的高腰裙子、奥黛丽赫本式的小黑裙、米色短风衣配高跟靴子……反复地试，满地都是她的裙子鞋子袜子"
      },
      "type": "Feature"
    },
    {
      "geometry": {
        "coordinates": [
          132.707455,
          33.874967
        ],
        "type": "Point"
      },
      "properties": {
        "bangumi_id": 392307,
        "bangumi_title": "龙族Ⅲ : 黑月之潮（下）",
        "ep_cut": "",
        "image_url": "https://w.junreimap.com/images/user/0/bangumi/392307/points/pj6t3y0ca-1730174938502.jpg",
        "location": "迎着阳光盛大逃亡",
        "point_id": "pj6t3y0ca",
        "point_name": "梅津寺駅",
        "remark": "路明非和绘梨衣隔着车窗对视，这种来往海边小站的列车居然还是老式的D51蒸汽机车，只是拖挂了新式的车厢。列车在启动中喷出浓密的白色蒸汽，像云一样在站台上流动。"
      },
      "type": "Feature"
    },
    {
      "geometry": {
        "coordinates": [
          139.745333,
          35.6586
        ],
        "type": "Point"
      },
      "properties": {
        "bangumi_id": 392307,
        "bangumi_title": "龙族Ⅲ : 黑月之潮（下）",
        "ep_cut": "",
        "image_url": "https://w.junreimap.com/images/user/0/bangumi/392307/points/dbbyrlk-1776698550626.jpg",
        "location": "",
        "point_id": "dbbyrlk",
        "point_name": "東京タワー",
        "remark": "樱忽然笑了，就像是她发现芬格尔时露出的那种干净笑容。她转向路明非的方向，双手按着膝盖深鞠躬，用清晰的唇形说：\n \n\"ありがとうございます。\""
      },
      "type": "Feature"
    }
  ],
  "type": "FeatureCollection"
}