{
  "features": [
    {
      "geometry": {
        "coordinates": [
          139.714569,
          35.731628
        ],
        "type": "Point"
      },
      "properties": {
        "bangumi_id": 398951,
        "bangumi_title": "更衣人偶坠入爱河 第二季",
        "ep_cut": 1,
        "image_url": "https://w.junreimap.com/images/points/398951/8saql2s_1766478310377.jpg",
        "location": "",
        "point_id": "8saql2s",
        "point_name": "ユザワヤ WACCA ​IKEBUKURO",
        "remark": "13話"
      },
      "type": "Feature"
    },
    {
      "geometry": {
        "coordinates": [
          139.711687,
          35.688447
        ],
        "type": "Point"
      },
      "properties": {
        "bangumi_id": 398951,
        "bangumi_title": "更衣人偶坠入爱河 第二季",
        "ep_cut": 1,
        "image_url": "https://w.junreimap.com/images/points/398951/8sbuvjz_1766478341955.jpg",
        "location": "",
        "point_id": "8sbuvjz",
        "point_name": "新宿御苑前駅",
        "remark": "13話"
      },
      "type": "Feature"
    },
    {
      "geometry": {
        "coordinates": [
          139.712229,
          35.688486
        ],
        "type": "Point"
      },
      "properties": {
        "bangumi_id": 398951,
        "bangumi_title": "更衣人偶坠入爱河 第二季",
        "ep_cut": 1,
        "image_url": "https://w.junreimap.com/images/points/398951/8sbx6x3_1766478369021.jpg",
        "location": "",
        "point_id": "8sbx6x3",
        "point_name": "Studio Macaron night",
        "remark": "13話"
      },
      "type": "Feature"
    },
    {
      "geometry": {
        "coordinates": [
          139.697724,
          35.660093
        ],
        "type": "Point"
      },
      "properties": {
        "bangumi_id": 398951,
        "bangumi_title": "更衣人偶坠入爱河 第二季",
        "ep_cut": 1,
        "image_url": "https://w.junreimap.com/images/points/398951/8sbz6o9_1766478394036.jpg",
        "location": "",
        "point_id": "8sbz6o9",
        "point_name": "(株)黒澤楽器店 G-CLUB Shibuya",
        "remark": "13話"
      },
      "type": "Feature"
    },
    {
      "geometry": {
        "coordinates": [
          139.719768,
          35.728589
        ],
        "type": "Point"
      },
      "properties": {
        "bangumi_id": 398951,
        "bangumi_title": "更衣人偶坠入爱河 第二季",
        "ep_cut": 2,
        "image_url": "https://w.junreimap.com/images/points/398951/8sbs7ts_1766478420398.jpg",
        "location": "",
        "point_id": "8sbs7ts",
        "point_name": "サンシャイン​水族館",
        "remark": "14話"
      },
      "type": "Feature"
    },
    {
      "geometry": {
        "coordinates": [
          139.717751,
          35.730123
        ],
        "type": "Point"
      },
      "properties": {
        "bangumi_id": 398951,
        "bangumi_title": "更衣人偶坠入爱河 第二季",
        "ep_cut": 3,
        "image_url": "https://w.junreimap.com/images/points/398951/8sbbu8g_1766478467599.jpg",
        "location": "",
        "point_id": "8sbbu8g",
        "point_name": "池袋PACKS",
        "remark": "15話"
      },
      "type": "Feature"
    },
    {
      "geometry": {
        "coordinates": [
          139.718108,
          35.730186
        ],
        "type": "Point"
      },
      "properties": {
        "bangumi_id": 398951,
        "bangumi_title": "更衣人偶坠入爱河 第二季",
        "ep_cut": 3,
        "image_url": "https://w.junreimap.com/images/points/398951/8sbkyn4_1766478621527.jpg",
        "location": "",
        "point_id": "8sbkyn4",
        "point_name": "豊島区立東池袋中央公園",
        "remark": "15話"
      },
      "type": "Feature"
    },
    {
      "geometry": {
        "coordinates": [
          139.718642,
          35.730062
        ],
        "type": "Point"
      },
      "properties": {
        "bangumi_id": 398951,
        "bangumi_title": "更衣人偶坠入爱河 第二季",
        "ep_cut": 3,
        "image_url": "https://w.junreimap.com/images/points/398951/8sbq62p_1766478785608.jpg",
        "location": "",
        "point_id": "8sbq62p",
        "point_name": "東池袋中央公園",
        "remark": "15話"
      },
      "type": "Feature"
    },
    {
      "geometry": {
        "coordinates": [
          139.718674,
          35.729785
        ],
        "type": "Point"
      },
      "properties": {
        "bangumi_id": 398951,
        "bangumi_title": "更衣人偶坠入爱河 第二季",
        "ep_cut": 3,
        "image_url": "https://w.junreimap.com/images/points/398951/8sbnf28_1766478880425.jpg",
        "location": "",
        "point_id": "8sbnf28",
        "point_name": "サンシャインシティ",
        "remark": "15話"
      },
      "type": "Feature"
    },
    {
      "geometry": {
        "coordinates": [
          139.712145,
          35.730841
        ],
        "type": "Point"
      },
      "properties": {
        "bangumi_id": 398951,
        "bangumi_title": "更衣人偶坠入爱河 第二季",
        "ep_cut": 3,
        "image_url": "https://w.junreimap.com/images/points/398951/8savkzf_1766478951816.jpg",
        "location": "",
        "point_id": "8savkzf",
        "point_name": "いけふくろう",
        "remark": "15話"
      },
      "type": "Feature"
    },
    {
      "geometry": {
        "coordinates": [
          139.760831,
          35.683651
        ],
        "type": "Point"
      },
      "properties": {
        "bangumi_id": 398951,
        "bangumi_title": "更衣人偶坠入爱河 第二季",
        "ep_cut": 3,
        "image_url": "https://w.junreimap.com/images/points/398951/8sc0skm_1766479267568.jpg",
        "location": "",
        "point_id": "8sc0skm",
        "point_name": "和田倉噴水公園",
        "remark": "15話"
      },
      "type": "Feature"
    },
    {
      "geometry": {
        "coordinates": [
          139.762218,
          35.683493
        ],
        "type": "Point"
      },
      "properties": {
        "bangumi_id": 398951,
        "bangumi_title": "更衣人偶坠入爱河 第二季",
        "ep_cut": 3,
        "image_url": "https://w.junreimap.com/images/points/398951/8sc1es6_1766479325718.jpg",
        "location": "",
        "point_id": "8sc1es6",
        "point_name": "和田倉門跡",
        "remark": "15話"
      },
      "type": "Feature"
    },
    {
      "geometry": {
        "coordinates": [
          139.699003,
          35.647013
        ],
        "type": "Point"
      },
      "properties": {
        "bangumi_id": 398951,
        "bangumi_title": "更衣人偶坠入爱河 第二季",
        "ep_cut": 7,
        "image_url": "https://w.junreimap.com/images/user/1073/bangumi/398951/points/8sc3lsn-1766634450575.jpg",
        "location": "",
        "point_id": "8sc3lsn",
        "point_name": "CERISIER 7",
        "remark": "19話"
      },
      "type": "Feature"
    },
    {
      "geometry": {
        "coordinates": [
          139.628605,
          35.909029
        ],
        "type": "Point"
      },
      "properties": {
        "bangumi_id": 398951,
        "bangumi_title": "更衣人偶坠入爱河 第二季",
        "ep_cut": 7,
        "image_url": "https://w.junreimap.com/images/user/1073/bangumi/398951/points/8xzw7hh-1766634502109.jpg",
        "location": "",
        "point_id": "8xzw7hh",
        "point_name": "ポンメガネ大宮",
        "remark": "19話"
      },
      "type": "Feature"
    },
    {
      "geometry": {
        "coordinates": [
          139.62828,
          35.907927
        ],
        "type": "Point"
      },
      "properties": {
        "bangumi_id": 398951,
        "bangumi_title": "更衣人偶坠入爱河 第二季",
        "ep_cut": 7,
        "image_url": "https://w.junreimap.com/images/user/1073/bangumi/398951/points/8sdbw97-1766634524780.jpg",
        "location": "",
        "point_id": "8sdbw97",
        "point_name": "マルエツ 大宮店",
        "remark": "19話"
      },
      "type": "Feature"
    },
    {
      "geometry": {
        "coordinates": [
          139.695882,
          35.954933
        ],
        "type": "Point"
      },
      "properties": {
        "bangumi_id": 398951,
        "bangumi_title": "更衣人偶坠入爱河 第二季",
        "ep_cut": 7,
        "image_url": "https://w.junreimap.com/images/user/1073/bangumi/398951/points/8xzz0sq-1766634546779.jpg",
        "location": "",
        "point_id": "8xzz0sq",
        "point_name": "(株)​公司​人形​工場",
        "remark": "19話"
      },
      "type": "Feature"
    },
    {
      "geometry": {
        "coordinates": [
          139.696424,
          35.95421
        ],
        "type": "Point"
      },
      "properties": {
        "bangumi_id": 398951,
        "bangumi_title": "更衣人偶坠入爱河 第二季",
        "ep_cut": 7,
        "image_url": "https://w.junreimap.com/images/user/1073/bangumi/398951/points/8xzzrnj-1766634570670.jpg",
        "location": "",
        "point_id": "8xzzrnj",
        "point_name": "プラン​ドール​愛宕",
        "remark": "19話"
      },
      "type": "Feature"
    },
    {
      "geometry": {
        "coordinates": [
          139.631683,
          35.918399
        ],
        "type": "Point"
      },
      "properties": {
        "bangumi_id": 398951,
        "bangumi_title": "更衣人偶坠入爱河 第二季",
        "ep_cut": 7,
        "image_url": "https://w.junreimap.com/images/user/1073/bangumi/398951/points/4gg6pra-1756712195827.jpg",
        "location": "",
        "point_id": "4gg6pra",
        "point_name": "大宮公園 儿童遊園地",
        "remark": "19話"
      },
      "type": "Feature"
    },
    {
      "geometry": {
        "coordinates": [
          139.63144,
          35.91863
        ],
        "type": "Point"
      },
      "properties": {
        "bangumi_id": 398951,
        "bangumi_title": "更衣人偶坠入爱河 第二季",
        "ep_cut": 7,
        "image_url": "https://w.junreimap.com/images/user/1073/bangumi/398951/points/8y0oeg7-1766634618647.jpg",
        "location": "",
        "point_id": "8y0oeg7",
        "point_name": "大宮公園1",
        "remark": "19話（佳能打钱时刻）"
      },
      "type": "Feature"
    },
    {
      "geometry": {
        "coordinates": [
          139.63062,
          35.918971
        ],
        "type": "Point"
      },
      "properties": {
        "bangumi_id": 398951,
        "bangumi_title": "更衣人偶坠入爱河 第二季",
        "ep_cut": 7,
        "image_url": "https://w.junreimap.com/images/user/1073/bangumi/398951/points/8y0qwvq-1766634659605.jpg",
        "location": "",
        "point_id": "8y0qwvq",
        "point_name": "大宮公園2",
        "remark": "19話（佳能打钱时刻）"
      },
      "type": "Feature"
    },
    {
      "geometry": {
        "coordinates": [
          139.63021,
          35.91891
        ],
        "type": "Point"
      },
      "properties": {
        "bangumi_id": 398951,
        "bangumi_title": "更衣人偶坠入爱河 第二季",
        "ep_cut": 7,
        "image_url": "https://w.junreimap.com/images/user/1073/bangumi/398951/points/8y0sk0n-1766634693716.jpg",
        "location": "",
        "point_id": "8y0sk0n",
        "point_name": "大宮公園3",
        "remark": "19話（佳能打钱时刻）"
      },
      "type": "Feature"
    },
    {
      "geometry": {
        "coordinates": [
          139.631031,
          35.91835
        ],
        "type": "Point"
      },
      "properties": {
        "bangumi_id": 398951,
        "bangumi_title": "更衣人偶坠入爱河 第二季",
        "ep_cut": 7,
        "image_url": "https://w.junreimap.com/images/user/1073/bangumi/398951/points/8y0v0i6-1766634801725.jpg",
        "location": "",
        "point_id": "8y0v0i6",
        "point_name": "大宮公園4",
        "remark": "19話"
      },
      "type": "Feature"
    },
    {
      "geometry": {
        "coordinates": [
          139.717998,
          35.730139
        ],
        "type": "Point"
      },
      "properties": {
        "bangumi_id": 398951,
        "bangumi_title": "更衣人偶坠入爱河 第二季",
        "ep_cut": 8,
        "image_url": "https://w.junreimap.com/images/user/1073/bangumi/398951/points/8sbidiu-1766638370163.jpg",
        "location": "",
        "point_id": "8sbidiu",
        "point_name": "豊島区立東池袋中央公園",
        "remark": "20話"
      },
      "type": "Feature"
    },
    {
      "geometry": {
        "coordinates": [
          139.718789,
          35.729525
        ],
        "type": "Point"
      },
      "properties": {
        "bangumi_id": 398951,
        "bangumi_title": "更衣人偶坠入爱河 第二季",
        "ep_cut": 8,
        "image_url": "https://w.junreimap.com/images/user/1073/bangumi/398951/points/8sc5evc-1766638982561.jpg",
        "location": "",
        "point_id": "8sc5evc",
        "point_name": "サンシャインシティ",
        "remark": "20話"
      },
      "type": "Feature"
    },
    {
      "geometry": {
        "coordinates": [
          139.717053,
          35.729494
        ],
        "type": "Point"
      },
      "properties": {
        "bangumi_id": 398951,
        "bangumi_title": "更衣人偶坠入爱河 第二季",
        "ep_cut": 8,
        "image_url": "https://w.junreimap.com/images/user/1073/bangumi/398951/points/8sb4zsg-1766639063815.jpg",
        "location": "",
        "point_id": "8sb4zsg",
        "point_name": "ファミリー​マート​サンシャイン​西​店",
        "remark": "20話"
      },
      "type": "Feature"
    },
    {
      "geometry": {
        "coordinates": [
          139.71975,
          35.729698
        ],
        "type": "Point"
      },
      "properties": {
        "bangumi_id": 398951,
        "bangumi_title": "更衣人偶坠入爱河 第二季",
        "ep_cut": 8,
        "image_url": "https://w.junreimap.com/images/user/1073/bangumi/398951/points/8sbrjvq-1766639178056.jpg",
        "location": "",
        "point_id": "8sbrjvq",
        "point_name": "サンシャインシティプリンスホテル",
        "remark": "20話"
      },
      "type": "Feature"
    },
    {
      "geometry": {
        "coordinates": [
          139.629756,
          35.611384
        ],
        "type": "Point"
      },
      "properties": {
        "bangumi_id": 398951,
        "bangumi_title": "更衣人偶坠入爱河 第二季",
        "ep_cut": 8,
        "image_url": "https://w.junreimap.com/images/user/1073/bangumi/398951/points/8sc7e4e-1766639214131.jpg",
        "location": "",
        "point_id": "8sc7e4e",
        "point_name": "SOLSO HOME",
        "remark": "20話"
      },
      "type": "Feature"
    },
    {
      "geometry": {
        "coordinates": [
          139.630106,
          35.611326
        ],
        "type": "Point"
      },
      "properties": {
        "bangumi_id": 398951,
        "bangumi_title": "更衣人偶坠入爱河 第二季",
        "ep_cut": 9,
        "image_url": "https://w.junreimap.com/images/user/1073/bangumi/398951/points/4gfmvh0-1756711221528.jpg",
        "location": "",
        "point_id": "4gfmvh0",
        "point_name": "二子玉川ライズS.C.",
        "remark": "21話"
      },
      "type": "Feature"
    },
    {
      "geometry": {
        "coordinates": [
          139.629806,
          35.611453
        ],
        "type": "Point"
      },
      "properties": {
        "bangumi_id": 398951,
        "bangumi_title": "更衣人偶坠入爱河 第二季",
        "ep_cut": 9,
        "image_url": "https://w.junreimap.com/images/user/1073/bangumi/398951/points/4gfpm8r-1756711339718.jpg",
        "location": "",
        "point_id": "4gfpm8r",
        "point_name": "二子玉川ライズS.C.",
        "remark": "21話"
      },
      "type": "Feature"
    },
    {
      "geometry": {
        "coordinates": [
          139.625367,
          35.907726
        ],
        "type": "Point"
      },
      "properties": {
        "bangumi_id": 398951,
        "bangumi_title": "更衣人偶坠入爱河 第二季",
        "ep_cut": 9,
        "image_url": "https://w.junreimap.com/images/user/1073/bangumi/398951/points/8sccijj-1766639360948.jpg",
        "location": "",
        "point_id": "8sccijj",
        "point_name": "ドン・キホーテ 大宮東口店",
        "remark": "21話"
      },
      "type": "Feature"
    },
    {
      "geometry": {
        "coordinates": [
          139.69414,
          35.951191
        ],
        "type": "Point"
      },
      "properties": {
        "bangumi_id": 398951,
        "bangumi_title": "更衣人偶坠入爱河 第二季",
        "ep_cut": 10,
        "image_url": "https://w.junreimap.com/images/user/1073/bangumi/398951/points/8y024pm-1766639469520.jpg",
        "location": "",
        "point_id": "8y024pm",
        "point_name": "美容室ピノキオ",
        "remark": "22話"
      },
      "type": "Feature"
    },
    {
      "geometry": {
        "coordinates": [
          139.693003,
          35.950074
        ],
        "type": "Point"
      },
      "properties": {
        "bangumi_id": 398951,
        "bangumi_title": "更衣人偶坠入爱河 第二季",
        "ep_cut": 10,
        "image_url": "https://w.junreimap.com/images/user/1073/bangumi/398951/points/8y05spc-1766639500120.jpg",
        "location": "",
        "point_id": "8y05spc",
        "point_name": "岩槻​駅",
        "remark": "22話"
      },
      "type": "Feature"
    },
    {
      "geometry": {
        "coordinates": [
          139.627431,
          35.906977
        ],
        "type": "Point"
      },
      "properties": {
        "bangumi_id": 398951,
        "bangumi_title": "更衣人偶坠入爱河 第二季",
        "ep_cut": 10,
        "image_url": "https://w.junreimap.com/images/user/1073/bangumi/398951/points/8scj9om-1766639525713.jpg",
        "location": "",
        "point_id": "8scj9om",
        "point_name": "大宮門街",
        "remark": "22話"
      },
      "type": "Feature"
    },
    {
      "geometry": {
        "coordinates": [
          139.71185,
          35.730223
        ],
        "type": "Point"
      },
      "properties": {
        "bangumi_id": 398951,
        "bangumi_title": "更衣人偶坠入爱河 第二季",
        "ep_cut": 11,
        "image_url": "https://w.junreimap.com/images/points/398951/8sawrv2_1766935358009.jpg",
        "location": "",
        "point_id": "8sawrv2",
        "point_name": "青山フラワーマーケット 池袋東口店",
        "remark": "23話"
      },
      "type": "Feature"
    },
    {
      "geometry": {
        "coordinates": [
          139.734697,
          35.779052
        ],
        "type": "Point"
      },
      "properties": {
        "bangumi_id": 398951,
        "bangumi_title": "更衣人偶坠入爱河 第二季",
        "ep_cut": 11,
        "image_url": "https://w.junreimap.com/images/points/398951/8y09wux_1766935380442.jpg",
        "location": "",
        "point_id": "8y09wux",
        "point_name": "ゲストハウスモシモ",
        "remark": "23話"
      },
      "type": "Feature"
    },
    {
      "geometry": {
        "coordinates": [
          139.611307,
          35.550792
        ],
        "type": "Point"
      },
      "properties": {
        "bangumi_id": 398951,
        "bangumi_title": "更衣人偶坠入爱河 第二季",
        "ep_cut": 12,
        "image_url": "https://w.junreimap.com/images/points/398951/8y0i5nk_1766935404035.jpg",
        "location": "",
        "point_id": "8y0i5nk",
        "point_name": "A STUDIO",
        "remark": "24話"
      },
      "type": "Feature"
    },
    {
      "geometry": {
        "coordinates": [
          139.611873,
          35.551241
        ],
        "type": "Point"
      },
      "properties": {
        "bangumi_id": 398951,
        "bangumi_title": "更衣人偶坠入爱河 第二季",
        "ep_cut": 12,
        "image_url": "https://w.junreimap.com/images/points/398951/8y0io26_1766935550680.jpg",
        "location": "",
        "point_id": "8y0io26",
        "point_name": "（有）西電機製作所",
        "remark": "24話"
      },
      "type": "Feature"
    },
    {
      "geometry": {
        "coordinates": [
          139.612882,
          35.551065
        ],
        "type": "Point"
      },
      "properties": {
        "bangumi_id": 398951,
        "bangumi_title": "更衣人偶坠入爱河 第二季",
        "ep_cut": 12,
        "image_url": "https://w.junreimap.com/images/points/398951/8y0k0ko_1766935566831.jpg",
        "location": "",
        "point_id": "8y0k0ko",
        "point_name": "稲坂橋",
        "remark": "24話"
      },
      "type": "Feature"
    },
    {
      "geometry": {
        "coordinates": [
          139.615182,
          35.550195
        ],
        "type": "Point"
      },
      "properties": {
        "bangumi_id": 398951,
        "bangumi_title": "更衣人偶坠入爱河 第二季",
        "ep_cut": 12,
        "image_url": "https://w.junreimap.com/images/points/398951/8y0m51c_1766935582711.jpg",
        "location": "",
        "point_id": "8y0m51c",
        "point_name": "(株)​津田​製作所",
        "remark": "24話"
      },
      "type": "Feature"
    },
    {
      "geometry": {
        "coordinates": [
          139.710682,
          35.730509
        ],
        "type": "Point"
      },
      "properties": {
        "bangumi_id": 398951,
        "bangumi_title": "更衣人偶坠入爱河 第二季",
        "ep_cut": 12,
        "image_url": "https://w.junreimap.com/images/points/398951/8sb0gnb_1766935604824.jpg",
        "location": "",
        "point_id": "8sb0gnb",
        "point_name": "東武ツーリストインフォメーションセンター池袋",
        "remark": "24話"
      },
      "type": "Feature"
    },
    {
      "geometry": {
        "coordinates": [
          139.711247,
          35.7302
        ],
        "type": "Point"
      },
      "properties": {
        "bangumi_id": 398951,
        "bangumi_title": "更衣人偶坠入爱河 第二季",
        "ep_cut": 12,
        "image_url": "https://w.junreimap.com/images/points/398951/8saxzri_1766935619845.jpg",
        "location": "",
        "point_id": "8saxzri",
        "point_name": "池袋駅 中央みどりの窓口",
        "remark": "24話"
      },
      "type": "Feature"
    },
    {
      "geometry": {
        "coordinates": [
          139.627992,
          35.907229
        ],
        "type": "Point"
      },
      "properties": {
        "bangumi_id": 398951,
        "bangumi_title": "更衣人偶坠入爱河 第二季",
        "ep_cut": 12,
        "image_url": "https://w.junreimap.com/images/points/398951/8scjruk_1766935643199.jpg",
        "location": "",
        "point_id": "8scjruk",
        "point_name": "大宮門街",
        "remark": "24話"
      },
      "type": "Feature"
    },
    {
      "geometry": {
        "coordinates": [
          139.710677,
          35.729889
        ],
        "type": "Point"
      },
      "properties": {
        "bangumi_id": 398951,
        "bangumi_title": "更衣人偶坠入爱河 第二季",
        "ep_cut": 12,
        "image_url": "https://w.junreimap.com/images/points/398951/8sazf0m_1766935657329.jpg",
        "location": "",
        "point_id": "8sazf0m",
        "point_name": "池袋駅",
        "remark": "24話"
      },
      "type": "Feature"
    },
    {
      "geometry": {
        "coordinates": [
          139.623449,
          35.905142
        ],
        "type": "Point"
      },
      "properties": {
        "bangumi_id": 398951,
        "bangumi_title": "更衣人偶坠入爱河 第二季",
        "ep_cut": 12,
        "image_url": "https://w.junreimap.com/images/points/398951/8y0bvot_1766935674487.jpg",
        "location": "",
        "point_id": "8y0bvot",
        "point_name": "大宮駅22番ホーム",
        "remark": "24話"
      },
      "type": "Feature"
    }
  ],
  "type": "FeatureCollection"
}