{
  "features": [
    {
      "geometry": {
        "coordinates": [
          130.554176,
          33.497083
        ],
        "type": "Point"
      },
      "properties": {
        "bangumi_id": 3994,
        "bangumi_title": "素描本",
        "ep_cut": "",
        "image_url": "",
        "location": "",
        "point_id": "kpx6onjge",
        "point_name": "橋",
        "remark": ""
      },
      "type": "Feature"
    },
    {
      "geometry": {
        "coordinates": [
          130.552131,
          33.491822
        ],
        "type": "Point"
      },
      "properties": {
        "bangumi_id": 3994,
        "bangumi_title": "素描本",
        "ep_cut": "",
        "image_url": "",
        "location": "",
        "point_id": "kpx6oniz8",
        "point_name": "次回予告",
        "remark": ""
      },
      "type": "Feature"
    },
    {
      "geometry": {
        "coordinates": [
          130.547823,
          33.493662
        ],
        "type": "Point"
      },
      "properties": {
        "bangumi_id": 3994,
        "bangumi_title": "素描本",
        "ep_cut": "",
        "image_url": "",
        "location": "",
        "point_id": "kpx6onj8e",
        "point_name": "OPの鉄塔",
        "remark": ""
      },
      "type": "Feature"
    },
    {
      "geometry": {
        "coordinates": [
          130.518596,
          33.495078
        ],
        "type": "Point"
      },
      "properties": {
        "bangumi_id": 3994,
        "bangumi_title": "素描本",
        "ep_cut": "",
        "image_url": "",
        "location": "",
        "point_id": "kpx6onjyl",
        "point_name": "二日市駅（福岡）",
        "remark": ""
      },
      "type": "Feature"
    },
    {
      "geometry": {
        "coordinates": [
          130.544625,
          33.503011
        ],
        "type": "Point"
      },
      "properties": {
        "bangumi_id": 3994,
        "bangumi_title": "素描本",
        "ep_cut": "",
        "image_url": "",
        "location": "",
        "point_id": "kpx6onk26",
        "point_name": "福岡県立太宰府高校",
        "remark": ""
      },
      "type": "Feature"
    },
    {
      "geometry": {
        "coordinates": [
          130.484895,
          33.589773
        ],
        "type": "Point"
      },
      "properties": {
        "bangumi_id": 3994,
        "bangumi_title": "素描本",
        "ep_cut": "",
        "image_url": "",
        "location": "",
        "point_id": "kpx6onjqe",
        "point_name": "志免鉄道記念公園",
        "remark": ""
      },
      "type": "Feature"
    },
    {
      "geometry": {
        "coordinates": [
          130.522052,
          33.530547
        ],
        "type": "Point"
      },
      "properties": {
        "bangumi_id": 3994,
        "bangumi_title": "素描本",
        "ep_cut": "",
        "image_url": "",
        "location": "",
        "point_id": "kpx6onk4c",
        "point_name": "四王寺山　駐車場",
        "remark": ""
      },
      "type": "Feature"
    },
    {
      "geometry": {
        "coordinates": [
          130.521151,
          33.533659
        ],
        "type": "Point"
      },
      "properties": {
        "bangumi_id": 3994,
        "bangumi_title": "素描本",
        "ep_cut": "",
        "image_url": "",
        "location": "",
        "point_id": "kpx6onkmc",
        "point_name": "九州自然歩道の看板",
        "remark": ""
      },
      "type": "Feature"
    },
    {
      "geometry": {
        "coordinates": [
          130.465205,
          33.54534
        ],
        "type": "Point"
      },
      "properties": {
        "bangumi_id": 3994,
        "bangumi_title": "素描本",
        "ep_cut": "",
        "image_url": "",
        "location": "",
        "point_id": "kpx6onkgv",
        "point_name": "グルメシティ雑餉隈",
        "remark": ""
      },
      "type": "Feature"
    },
    {
      "geometry": {
        "coordinates": [
          130.465387,
          33.545738
        ],
        "type": "Point"
      },
      "properties": {
        "bangumi_id": 3994,
        "bangumi_title": "素描本",
        "ep_cut": "",
        "image_url": "",
        "location": "",
        "point_id": "kpx6onkf8",
        "point_name": "踏切他",
        "remark": ""
      },
      "type": "Feature"
    },
    {
      "geometry": {
        "coordinates": [
          130.483452,
          33.590467
        ],
        "type": "Point"
      },
      "properties": {
        "bangumi_id": 3994,
        "bangumi_title": "素描本",
        "ep_cut": "",
        "image_url": "",
        "location": "",
        "point_id": "kpx6onkos",
        "point_name": "13話の交差点",
        "remark": ""
      },
      "type": "Feature"
    },
    {
      "geometry": {
        "coordinates": [
          130.463164,
          33.547187
        ],
        "type": "Point"
      },
      "properties": {
        "bangumi_id": 3994,
        "bangumi_title": "素描本",
        "ep_cut": "",
        "image_url": "",
        "location": "",
        "point_id": "kpx6onlwe",
        "point_name": "喫茶店オンドリアモデル",
        "remark": ""
      },
      "type": "Feature"
    },
    {
      "geometry": {
        "coordinates": [
          130.399497,
          33.588758
        ],
        "type": "Point"
      },
      "properties": {
        "bangumi_id": 3994,
        "bangumi_title": "素描本",
        "ep_cut": "",
        "image_url": "",
        "location": "",
        "point_id": "kpx6onldh",
        "point_name": "12話OP",
        "remark": ""
      },
      "type": "Feature"
    },
    {
      "geometry": {
        "coordinates": [
          130.39999,
          33.589563
        ],
        "type": "Point"
      },
      "properties": {
        "bangumi_id": 3994,
        "bangumi_title": "素描本",
        "ep_cut": "",
        "image_url": "",
        "location": "",
        "point_id": "kpx6onlq7",
        "point_name": "12話OP",
        "remark": ""
      },
      "type": "Feature"
    },
    {
      "geometry": {
        "coordinates": [
          130.399486,
          33.590707
        ],
        "type": "Point"
      },
      "properties": {
        "bangumi_id": 3994,
        "bangumi_title": "素描本",
        "ep_cut": "",
        "image_url": "",
        "location": "",
        "point_id": "kpx6onlyo",
        "point_name": "12話OP",
        "remark": ""
      },
      "type": "Feature"
    }
  ],
  "type": "FeatureCollection"
}