{
  "features": [
    {
      "geometry": {
        "coordinates": [
          139.407993,
          35.615981
        ],
        "type": "Point"
      },
      "properties": {
        "bangumi_id": 4022,
        "bangumi_title": "罚抄",
        "ep_cut": "",
        "image_url": "https://w.junreimap.com/images/points/4022/lx7mwpfg6_1719989186793.jpg",
        "location": "",
        "point_id": "lx7mwpfg6",
        "point_name": "榎戸公園のそば",
        "remark": ""
      },
      "type": "Feature"
    },
    {
      "geometry": {
        "coordinates": [
          139.072923,
          36.38418
        ],
        "type": "Point"
      },
      "properties": {
        "bangumi_id": 4022,
        "bangumi_title": "罚抄",
        "ep_cut": "",
        "image_url": "https://w.junreimap.com/images/points/4022/m2x7gcrkk_1720436669813.jpg",
        "location": "",
        "point_id": "m2x7gcrkk",
        "point_name": "",
        "remark": ""
      },
      "type": "Feature"
    },
    {
      "geometry": {
        "coordinates": [
          141.340874,
          42.96877
        ],
        "type": "Point"
      },
      "properties": {
        "bangumi_id": 4022,
        "bangumi_title": "罚抄",
        "ep_cut": "",
        "image_url": "https://w.junreimap.com/images/points/4022/m2xcy4ibj_1720437000867.jpg",
        "location": "",
        "point_id": "m2xcy4ibj",
        "point_name": "",
        "remark": ""
      },
      "type": "Feature"
    },
    {
      "geometry": {
        "coordinates": [
          139.727472,
          35.660582
        ],
        "type": "Point"
      },
      "properties": {
        "bangumi_id": 4022,
        "bangumi_title": "罚抄",
        "ep_cut": "",
        "image_url": "https://w.junreimap.com/images/points/4022/m2xel26cg_1720437108538.jpg",
        "location": "",
        "point_id": "m2xel26cg",
        "point_name": "ROOP六本木",
        "remark": ""
      },
      "type": "Feature"
    },
    {
      "geometry": {
        "coordinates": [
          135.502038,
          34.661359
        ],
        "type": "Point"
      },
      "properties": {
        "bangumi_id": 4022,
        "bangumi_title": "罚抄",
        "ep_cut": "",
        "image_url": "https://w.junreimap.com/images/points/4022/m4mpefybp_1720570555309.jpg",
        "location": "",
        "point_id": "m4mpefybp",
        "point_name": "なんばパークス",
        "remark": ""
      },
      "type": "Feature"
    },
    {
      "geometry": {
        "coordinates": [
          135.502048,
          34.661318
        ],
        "type": "Point"
      },
      "properties": {
        "bangumi_id": 4022,
        "bangumi_title": "罚抄",
        "ep_cut": "",
        "image_url": "https://w.junreimap.com/images/points/4022/ndm88lu1y_1724095888230.jpg",
        "location": "",
        "point_id": "ndm88lu1y",
        "point_name": "なんばパークス",
        "remark": ""
      },
      "type": "Feature"
    },
    {
      "geometry": {
        "coordinates": [
          135.498399,
          34.713089
        ],
        "type": "Point"
      },
      "properties": {
        "bangumi_id": 4022,
        "bangumi_title": "罚抄",
        "ep_cut": "",
        "image_url": "https://w.junreimap.com/images/points/4022/ndmvrcbb8_1724097314573.jpg",
        "location": "",
        "point_id": "ndmvrcbb8",
        "point_name": "",
        "remark": ""
      },
      "type": "Feature"
    },
    {
      "geometry": {
        "coordinates": [
          135.190481,
          34.700637
        ],
        "type": "Point"
      },
      "properties": {
        "bangumi_id": 4022,
        "bangumi_title": "罚抄",
        "ep_cut": "",
        "image_url": "https://w.junreimap.com/images/points/4022/ndn0l08nf_1724097601813.jpg",
        "location": "",
        "point_id": "ndn0l08nf",
        "point_name": "",
        "remark": ""
      },
      "type": "Feature"
    },
    {
      "geometry": {
        "coordinates": [
          135.190679,
          34.702933
        ],
        "type": "Point"
      },
      "properties": {
        "bangumi_id": 4022,
        "bangumi_title": "罚抄",
        "ep_cut": "",
        "image_url": "https://w.junreimap.com/images/points/4022/ndn2b5711_1724097716775.jpg",
        "location": "",
        "point_id": "ndn2b5711",
        "point_name": "うろこの家",
        "remark": "镜像反转后获得的图像，换个角度就是fate远坂家的原型"
      },
      "type": "Feature"
    },
    {
      "geometry": {
        "coordinates": [
          135.502012,
          34.662475
        ],
        "type": "Point"
      },
      "properties": {
        "bangumi_id": 4022,
        "bangumi_title": "罚抄",
        "ep_cut": "",
        "image_url": "https://w.junreimap.com/images/user/0/bangumi/4022/points/8jvsdjv-1765626947296.jpg",
        "location": "",
        "point_id": "8jvsdjv",
        "point_name": "难波公园",
        "remark": "实际为商场顶层公园，无学校围墙且校外地景不完全一致"
      },
      "type": "Feature"
    }
  ],
  "type": "FeatureCollection"
}