{
  "features": [
    {
      "geometry": {
        "coordinates": [
          138.494146,
          35.009715
        ],
        "type": "Point"
      },
      "properties": {
        "bangumi_id": 404115,
        "bangumi_title": "星灵感应",
        "ep_cut": 4,
        "image_url": "https://w.junreimap.com/images/user/0/bangumi/404115/points/g7g3jh2zc-1703864989219.jpg",
        "location": "",
        "point_id": "g7g3jh2zc",
        "point_name": "ドリームスカイ",
        "remark": ""
      },
      "type": "Feature"
    },
    {
      "geometry": {
        "coordinates": [
          138.494437,
          35.01001
        ],
        "type": "Point"
      },
      "properties": {
        "bangumi_id": 404115,
        "bangumi_title": "星灵感应",
        "ep_cut": 4,
        "image_url": "https://w.junreimap.com/images/user/0/bangumi/404115/points/g7gcn00ty-1703865143751.jpg",
        "location": "",
        "point_id": "g7gcn00ty",
        "point_name": "清水マリンパーク",
        "remark": "第四话海果同遥乃和幽集合的位置"
      },
      "type": "Feature"
    },
    {
      "geometry": {
        "coordinates": [
          138.49328,
          35.010261
        ],
        "type": "Point"
      },
      "properties": {
        "bangumi_id": 404115,
        "bangumi_title": "星灵感应",
        "ep_cut": 4,
        "image_url": "https://w.junreimap.com/images/user/0/bangumi/404115/points/g7gepfjvi-1703865285208.jpg",
        "location": "",
        "point_id": "g7gepfjvi",
        "point_name": "エスパルスドリームプラザ",
        "remark": "取景于商场二楼摩天轮附近"
      },
      "type": "Feature"
    },
    {
      "geometry": {
        "coordinates": [
          138.452499,
          34.954421
        ],
        "type": "Point"
      },
      "properties": {
        "bangumi_id": 404115,
        "bangumi_title": "星灵感应",
        "ep_cut": "",
        "image_url": "https://w.junreimap.com/images/user/0/bangumi/404115/points/g7gid31a9-1703865653879.jpg",
        "location": "",
        "point_id": "g7gid31a9",
        "point_name": "いちご海岸通り",
        "remark": "主视图取景地。(2026-3-22)步行道已经被拆。附近有久能山德川家康陵和日本平，非常值得一去"
      },
      "type": "Feature"
    },
    {
      "geometry": {
        "coordinates": [
          138.531969,
          35.01066
        ],
        "type": "Point"
      },
      "properties": {
        "bangumi_id": 404115,
        "bangumi_title": "星灵感应",
        "ep_cut": 4,
        "image_url": "https://w.junreimap.com/images/user/0/bangumi/404115/points/g7gnc0dxc-1703865832833.jpg",
        "location": "",
        "point_id": "g7gnc0dxc",
        "point_name": "三保松原海岸",
        "remark": "第4话、11话火箭对决场地"
      },
      "type": "Feature"
    },
    {
      "geometry": {
        "coordinates": [
          138.412993,
          34.986335
        ],
        "type": "Point"
      },
      "properties": {
        "bangumi_id": 404115,
        "bangumi_title": "星灵感应",
        "ep_cut": 11,
        "image_url": "https://w.junreimap.com/images/user/0/bangumi/404115/points/g7hcuap4n-1703867419798.jpg",
        "location": "",
        "point_id": "g7hcuap4n",
        "point_name": "東静岡駅北口",
        "remark": "第11话海果，幽，遥乃集合的车站"
      },
      "type": "Feature"
    },
    {
      "geometry": {
        "coordinates": [
          138.591817,
          35.41309
        ],
        "type": "Point"
      },
      "properties": {
        "bangumi_id": 404115,
        "bangumi_title": "星灵感应",
        "ep_cut": 6,
        "image_url": "https://w.junreimap.com/images/user/2173/bangumi/404115/points/mfdy7a-1748366585937.jpg",
        "location": "",
        "point_id": "mfdy7a",
        "point_name": "あさぎりフードパーク",
        "remark": ""
      },
      "type": "Feature"
    },
    {
      "geometry": {
        "coordinates": [
          138.590805,
          35.411841
        ],
        "type": "Point"
      },
      "properties": {
        "bangumi_id": 404115,
        "bangumi_title": "星灵感应",
        "ep_cut": 6,
        "image_url": "https://w.junreimap.com/images/user/2173/bangumi/404115/points/mfjmq7-1748366722935.jpg",
        "location": "",
        "point_id": "mfjmq7",
        "point_name": "溶岩樹型",
        "remark": ""
      },
      "type": "Feature"
    },
    {
      "geometry": {
        "coordinates": [
          138.590661,
          35.41162
        ],
        "type": "Point"
      },
      "properties": {
        "bangumi_id": 404115,
        "bangumi_title": "星灵感应",
        "ep_cut": 6,
        "image_url": "https://w.junreimap.com/images/user/2173/bangumi/404115/points/mfmieb-1748366880164.jpg",
        "location": "",
        "point_id": "mfmieb",
        "point_name": "富士正酒造",
        "remark": ""
      },
      "type": "Feature"
    },
    {
      "geometry": {
        "coordinates": [
          138.591596,
          35.412184
        ],
        "type": "Point"
      },
      "properties": {
        "bangumi_id": 404115,
        "bangumi_title": "星灵感应",
        "ep_cut": 6,
        "image_url": "https://w.junreimap.com/images/user/2173/bangumi/404115/points/mg48r1-1748367834695.jpg",
        "location": "",
        "point_id": "mg48r1",
        "point_name": "あさぎりフードパーク イベント広場",
        "remark": "此处活动广场不定期举办各种活动，详见朝雾食品公园官网\nhttps://asagiri-foodpark.com/"
      },
      "type": "Feature"
    },
    {
      "geometry": {
        "coordinates": [
          138.593413,
          35.411847
        ],
        "type": "Point"
      },
      "properties": {
        "bangumi_id": 404115,
        "bangumi_title": "星灵感应",
        "ep_cut": 6,
        "image_url": "https://w.junreimap.com/images/user/2173/bangumi/404115/points/mgddbs-1748368216573.jpg",
        "location": "",
        "point_id": "mgddbs",
        "point_name": "富士山スカイグラウンド",
        "remark": "原本是无人机飞行广场，官网历史活动列表似乎没有自制火箭活动，但有火箭发射的照片，可能是游客可以自行发射"
      },
      "type": "Feature"
    },
    {
      "geometry": {
        "coordinates": [
          138.530428,
          35.010564
        ],
        "type": "Point"
      },
      "properties": {
        "bangumi_id": 404115,
        "bangumi_title": "星灵感应",
        "ep_cut": 1,
        "image_url": "https://w.junreimap.com/images/user/2173/bangumi/404115/points/mh9o6w-1748369628539.jpg",
        "location": "",
        "point_id": "mh9o6w",
        "point_name": "清水灯台",
        "remark": "根据剧中人物活动范围，且第5话中火箭比赛中背景亦有出现灯塔，推测原型应该是此灯塔，但地形完全不同，并非在海边。不过动画放送时官方在此举办了登塔活动，可以断定原型在此"
      },
      "type": "Feature"
    },
    {
      "geometry": {
        "coordinates": [
          138.515282,
          35.020176
        ],
        "type": "Point"
      },
      "properties": {
        "bangumi_id": 404115,
        "bangumi_title": "星灵感应",
        "ep_cut": 1,
        "image_url": "https://w.junreimap.com/images/user/2173/bangumi/404115/points/mhpqwb-1748370985346.jpg",
        "location": "",
        "point_id": "mhpqwb",
        "point_name": "清水真崎灯台",
        "remark": "根据下方清水灯台处的导览地图，此处应当有一个清水真崎灯台，但谷歌地图上并无显示，不过谷歌搜索和谷歌图片中是有此造型的临海灯台的，但周边与剧中的圆形岛屿状不同，是直线海滩边上的灯台"
      },
      "type": "Feature"
    },
    {
      "geometry": {
        "coordinates": [
          139.677106,
          35.141144
        ],
        "type": "Point"
      },
      "properties": {
        "bangumi_id": 404115,
        "bangumi_title": "星灵感应",
        "ep_cut": 1,
        "image_url": "https://w.junreimap.com/images/user/0/bangumi/404115/points/fuyu6ad-1781534797097.jpg",
        "location": "",
        "point_id": "fuyu6ad",
        "point_name": "剱埼灯台",
        "remark": ""
      },
      "type": "Feature"
    }
  ],
  "type": "FeatureCollection"
}