{
  "features": [
    {
      "geometry": {
        "coordinates": [
          129.86675,
          32.731688
        ],
        "type": "Point"
      },
      "properties": {
        "bangumi_id": 409576,
        "bangumi_title": "你的颜色",
        "ep_cut": "",
        "image_url": "https://w.junreimap.com/images/points/409576/b94b3f5b_1725482891577.jpg",
        "location": "長崎市",
        "point_id": "b94b3f5b",
        "point_name": "ドンドン坂",
        "remark": ""
      },
      "type": "Feature"
    },
    {
      "geometry": {
        "coordinates": [
          129.866008,
          32.732261
        ],
        "type": "Point"
      },
      "properties": {
        "bangumi_id": 409576,
        "bangumi_title": "你的颜色",
        "ep_cut": "",
        "image_url": "https://w.junreimap.com/images/points/409576/0c7d30cd_1725482892895.jpg",
        "location": "長崎市",
        "point_id": "0c7d30cd",
        "point_name": "小曽根乾堂通り",
        "remark": ""
      },
      "type": "Feature"
    },
    {
      "geometry": {
        "coordinates": [
          129.867014,
          32.731606
        ],
        "type": "Point"
      },
      "properties": {
        "bangumi_id": 409576,
        "bangumi_title": "你的颜色",
        "ep_cut": "",
        "image_url": "https://w.junreimap.com/images/points/409576/fa900bbc_1725482894420.jpg",
        "location": "長崎市",
        "point_id": "fa900bbc",
        "point_name": "グラバー通り",
        "remark": ""
      },
      "type": "Feature"
    },
    {
      "geometry": {
        "coordinates": [
          129.85735,
          32.794038
        ],
        "type": "Point"
      },
      "properties": {
        "bangumi_id": 409576,
        "bangumi_title": "你的颜色",
        "ep_cut": "",
        "image_url": "https://w.junreimap.com/images/points/409576/66503884_1725482896285.jpg",
        "location": "長崎市",
        "point_id": "66503884",
        "point_name": "赤迫電停",
        "remark": ""
      },
      "type": "Feature"
    },
    {
      "geometry": {
        "coordinates": [
          129.880036,
          32.746415
        ],
        "type": "Point"
      },
      "properties": {
        "bangumi_id": 409576,
        "bangumi_title": "你的颜色",
        "ep_cut": "",
        "image_url": "https://w.junreimap.com/images/points/409576/0991ab87_1725482898698.jpg",
        "location": "長崎市",
        "point_id": "0991ab87",
        "point_name": "中通り商店街付近",
        "remark": ""
      },
      "type": "Feature"
    },
    {
      "geometry": {
        "coordinates": [
          129.878005,
          32.743313
        ],
        "type": "Point"
      },
      "properties": {
        "bangumi_id": 409576,
        "bangumi_title": "你的颜色",
        "ep_cut": "",
        "image_url": "https://w.junreimap.com/images/points/409576/b440a37d_1725482900345.jpg",
        "location": "長崎市",
        "point_id": "b440a37d",
        "point_name": "観光通電停",
        "remark": ""
      },
      "type": "Feature"
    },
    {
      "geometry": {
        "coordinates": [
          129.877783,
          32.743448
        ],
        "type": "Point"
      },
      "properties": {
        "bangumi_id": 409576,
        "bangumi_title": "你的颜色",
        "ep_cut": "",
        "image_url": "https://w.junreimap.com/images/points/409576/8f59ecb2_1725482902441.jpg",
        "location": "長崎市",
        "point_id": "8f59ecb2",
        "point_name": "観光通電停付近",
        "remark": ""
      },
      "type": "Feature"
    },
    {
      "geometry": {
        "coordinates": [
          129.879527,
          32.74627
        ],
        "type": "Point"
      },
      "properties": {
        "bangumi_id": 409576,
        "bangumi_title": "你的颜色",
        "ep_cut": "",
        "image_url": "https://w.junreimap.com/images/points/409576/f01901d7_1725482904453.jpg",
        "location": "長崎市",
        "point_id": "f01901d7",
        "point_name": "東古川町の路地",
        "remark": ""
      },
      "type": "Feature"
    },
    {
      "geometry": {
        "coordinates": [
          129.865047,
          32.730911
        ],
        "type": "Point"
      },
      "properties": {
        "bangumi_id": 409576,
        "bangumi_title": "你的颜色",
        "ep_cut": "",
        "image_url": "https://w.junreimap.com/images/user/0/bangumi/409576/points/1044eea3-1782977525555.webp",
        "location": "長崎市",
        "point_id": "1044eea3",
        "point_name": "掲示板を見る2人",
        "remark": ""
      },
      "type": "Feature"
    },
    {
      "geometry": {
        "coordinates": [
          129.880126,
          32.745786
        ],
        "type": "Point"
      },
      "properties": {
        "bangumi_id": 409576,
        "bangumi_title": "你的颜色",
        "ep_cut": "",
        "image_url": "https://w.junreimap.com/images/points/409576/97c864e0_1725482912681.jpg",
        "location": "長崎市",
        "point_id": "97c864e0",
        "point_name": "コロッケ付近",
        "remark": "トツ子が白猫に誘われてしろねこ堂へ向かうシーン"
      },
      "type": "Feature"
    },
    {
      "geometry": {
        "coordinates": [
          129.878927,
          32.745043
        ],
        "type": "Point"
      },
      "properties": {
        "bangumi_id": 409576,
        "bangumi_title": "你的颜色",
        "ep_cut": "",
        "image_url": "https://w.junreimap.com/images/points/409576/321fd0ae_1725482913773.jpg",
        "location": "長崎市",
        "point_id": "321fd0ae",
        "point_name": "ドトールコーヒーショップ 長崎観光通り店前",
        "remark": ""
      },
      "type": "Feature"
    },
    {
      "geometry": {
        "coordinates": [
          129.87891,
          32.744982
        ],
        "type": "Point"
      },
      "properties": {
        "bangumi_id": 409576,
        "bangumi_title": "你的颜色",
        "ep_cut": "",
        "image_url": "https://w.junreimap.com/images/points/409576/d2d7b0b2_1725482914947.jpg",
        "location": "長崎市",
        "point_id": "d2d7b0b2",
        "point_name": "くじら工芸前",
        "remark": ""
      },
      "type": "Feature"
    },
    {
      "geometry": {
        "coordinates": [
          129.868373,
          32.745434
        ],
        "type": "Point"
      },
      "properties": {
        "bangumi_id": 409576,
        "bangumi_title": "你的颜色",
        "ep_cut": "",
        "image_url": "https://w.junreimap.com/images/user/0/bangumi/409576/points/8f845454-1753960103443.jpg",
        "location": "長崎市",
        "point_id": "8f845454",
        "point_name": "長崎港ターミナル前",
        "remark": "船酔いのトツ子がきみと別れて歩いていくシーン"
      },
      "type": "Feature"
    },
    {
      "geometry": {
        "coordinates": [
          129.891448,
          32.752628
        ],
        "type": "Point"
      },
      "properties": {
        "bangumi_id": 409576,
        "bangumi_title": "你的颜色",
        "ep_cut": "",
        "image_url": "https://w.junreimap.com/images/points/409576/7a7e0221_1725482916149.jpg",
        "location": "長崎市",
        "point_id": "7a7e0221",
        "point_name": "（コミック）中川橋",
        "remark": "第8話扉絵"
      },
      "type": "Feature"
    },
    {
      "geometry": {
        "coordinates": [
          129.867742,
          32.767522
        ],
        "type": "Point"
      },
      "properties": {
        "bangumi_id": 409576,
        "bangumi_title": "你的颜色",
        "ep_cut": "",
        "image_url": "https://w.junreimap.com/images/points/409576/d3452a03_1725482917534.jpg",
        "location": "長崎市",
        "point_id": "d3452a03",
        "point_name": "（コミック）山王神社",
        "remark": "第6話扉絵"
      },
      "type": "Feature"
    },
    {
      "geometry": {
        "coordinates": [
          129.873311,
          32.736722
        ],
        "type": "Point"
      },
      "properties": {
        "bangumi_id": 409576,
        "bangumi_title": "你的颜色",
        "ep_cut": "",
        "image_url": "https://w.junreimap.com/images/points/409576/2fbc6e56_1725482919126.jpg",
        "location": "長崎市",
        "point_id": "2fbc6e56",
        "point_name": "（コミック）オランダ坂",
        "remark": "第8話"
      },
      "type": "Feature"
    },
    {
      "geometry": {
        "coordinates": [
          128.903693,
          32.802286
        ],
        "type": "Point"
      },
      "properties": {
        "bangumi_id": 409576,
        "bangumi_title": "你的颜色",
        "ep_cut": "",
        "image_url": "https://w.junreimap.com/images/points/409576/0f8c3b1d_1725482920847.jpg",
        "location": "久賀島",
        "point_id": "0f8c3b1d",
        "point_name": "旧五輪教会堂",
        "remark": "バンドの練習場所"
      },
      "type": "Feature"
    },
    {
      "geometry": {
        "coordinates": [
          128.903636,
          32.802352
        ],
        "type": "Point"
      },
      "properties": {
        "bangumi_id": 409576,
        "bangumi_title": "你的颜色",
        "ep_cut": "",
        "image_url": "https://w.junreimap.com/images/points/409576/844baef9_1725482922513.jpg",
        "location": "久賀島",
        "point_id": "844baef9",
        "point_name": "教会前から海を望む",
        "remark": ""
      },
      "type": "Feature"
    },
    {
      "geometry": {
        "coordinates": [
          128.90437,
          32.802842
        ],
        "type": "Point"
      },
      "properties": {
        "bangumi_id": 409576,
        "bangumi_title": "你的颜色",
        "ep_cut": "",
        "image_url": "https://w.junreimap.com/images/points/409576/6a5218e3_1725482923755.jpg",
        "location": "久賀島",
        "point_id": "6a5218e3",
        "point_name": "五輪教会堂付近の堤防",
        "remark": ""
      },
      "type": "Feature"
    },
    {
      "geometry": {
        "coordinates": [
          129.714971,
          33.17384
        ],
        "type": "Point"
      },
      "properties": {
        "bangumi_id": 409576,
        "bangumi_title": "你的颜色",
        "ep_cut": "",
        "image_url": "https://w.junreimap.com/images/points/409576/a54f7b68_1725482926790.jpg",
        "location": "佐世保市中心部",
        "point_id": "a54f7b68",
        "point_name": "佐世保市民文化ホール（凱旋記念館）",
        "remark": ""
      },
      "type": "Feature"
    },
    {
      "geometry": {
        "coordinates": [
          129.109442,
          32.989576
        ],
        "type": "Point"
      },
      "properties": {
        "bangumi_id": 409576,
        "bangumi_title": "你的颜色",
        "ep_cut": "",
        "image_url": "https://w.junreimap.com/images/points/409576/3bb69aaa_1725482928987.jpg",
        "location": "中通島",
        "point_id": "3bb69aaa",
        "point_name": "有川港の防波堤",
        "remark": ""
      },
      "type": "Feature"
    },
    {
      "geometry": {
        "coordinates": [
          129.536964,
          33.139068
        ],
        "type": "Point"
      },
      "properties": {
        "bangumi_id": 409576,
        "bangumi_title": "你的颜色",
        "ep_cut": "",
        "image_url": "https://w.junreimap.com/images/points/409576/eff0ab5c_1725482930698.jpg",
        "location": "黒島",
        "point_id": "eff0ab5c",
        "point_name": "黒島天主堂",
        "remark": ""
      },
      "type": "Feature"
    },
    {
      "geometry": {
        "coordinates": [
          135.350571,
          34.759058
        ],
        "type": "Point"
      },
      "properties": {
        "bangumi_id": 409576,
        "bangumi_title": "你的颜色",
        "ep_cut": "",
        "image_url": "https://w.junreimap.com/images/points/409576/2f090b1f_1725482932167.jpg",
        "location": "兵庫県西宮市",
        "point_id": "2f090b1f",
        "point_name": "神戸女学院大学　総務館",
        "remark": ""
      },
      "type": "Feature"
    },
    {
      "geometry": {
        "coordinates": [
          135.350491,
          34.758251
        ],
        "type": "Point"
      },
      "properties": {
        "bangumi_id": 409576,
        "bangumi_title": "你的颜色",
        "ep_cut": "",
        "image_url": "https://w.junreimap.com/images/points/409576/455f1051_1725482934357.jpg",
        "location": "兵庫県西宮市",
        "point_id": "455f1051",
        "point_name": "神戸女学院大学　廊下",
        "remark": ""
      },
      "type": "Feature"
    },
    {
      "geometry": {
        "coordinates": [
          130.419658,
          33.590254
        ],
        "type": "Point"
      },
      "properties": {
        "bangumi_id": 409576,
        "bangumi_title": "你的颜色",
        "ep_cut": "",
        "image_url": "",
        "location": "福岡市",
        "point_id": "5e96882c",
        "point_name": "博多駅入口",
        "remark": ""
      },
      "type": "Feature"
    },
    {
      "geometry": {
        "coordinates": [
          130.420699,
          33.589838
        ],
        "type": "Point"
      },
      "properties": {
        "bangumi_id": 409576,
        "bangumi_title": "你的颜色",
        "ep_cut": "",
        "image_url": "",
        "location": "福岡市",
        "point_id": "a9ea8725",
        "point_name": "博多駅構内",
        "remark": ""
      },
      "type": "Feature"
    },
    {
      "geometry": {
        "coordinates": [
          129.865017,
          32.730916
        ],
        "type": "Point"
      },
      "properties": {
        "bangumi_id": 409576,
        "bangumi_title": "你的颜色",
        "ep_cut": "",
        "image_url": "https://w.junreimap.com/images/user/0/bangumi/409576/points/gitzlbh-1782977653817.webp",
        "location": "",
        "point_id": "gitzlbh",
        "point_name": "掲示板",
        "remark": ""
      },
      "type": "Feature"
    }
  ],
  "type": "FeatureCollection"
}