{
  "features": [
    {
      "geometry": {
        "coordinates": [
          139.40454,
          35.864569
        ],
        "type": "Point"
      },
      "properties": {
        "bangumi_id": 420817,
        "bangumi_title": "毁掉一切地狱再爱",
        "ep_cut": 4,
        "image_url": "https://w.junreimap.com/images/points/420817/eywh8rh_1779595854649.jpg",
        "location": "入间川",
        "point_id": "eywh8rh",
        "point_name": "スターバックス コーヒー 狭山市入間川にこにこテラス店",
        "remark": ""
      },
      "type": "Feature"
    },
    {
      "geometry": {
        "coordinates": [
          139.40446,
          35.864427
        ],
        "type": "Point"
      },
      "properties": {
        "bangumi_id": 420817,
        "bangumi_title": "毁掉一切地狱再爱",
        "ep_cut": 4,
        "image_url": "https://w.junreimap.com/images/points/420817/eywm4si_1779595940538.jpg",
        "location": "入间川",
        "point_id": "eywm4si",
        "point_name": "スターバックス コーヒー 狭山市入間川にこにこテラス店",
        "remark": ""
      },
      "type": "Feature"
    },
    {
      "geometry": {
        "coordinates": [
          139.404427,
          35.864159
        ],
        "type": "Point"
      },
      "properties": {
        "bangumi_id": 420817,
        "bangumi_title": "毁掉一切地狱再爱",
        "ep_cut": 4,
        "image_url": "https://w.junreimap.com/images/points/420817/eywjvcz_1779595840306.jpg",
        "location": "入间川",
        "point_id": "eywjvcz",
        "point_name": "入間川にこにこテラス（河川敷中央公園）",
        "remark": ""
      },
      "type": "Feature"
    },
    {
      "geometry": {
        "coordinates": [
          139.404435,
          35.864184
        ],
        "type": "Point"
      },
      "properties": {
        "bangumi_id": 420817,
        "bangumi_title": "毁掉一切地狱再爱",
        "ep_cut": 4,
        "image_url": "https://w.junreimap.com/images/points/420817/eywl5jy_1779595901026.jpg",
        "location": "入间川",
        "point_id": "eywl5jy",
        "point_name": "入間川にこにこテラス（河川敷中央公園）",
        "remark": ""
      },
      "type": "Feature"
    },
    {
      "geometry": {
        "coordinates": [
          139.405315,
          35.864022
        ],
        "type": "Point"
      },
      "properties": {
        "bangumi_id": 420817,
        "bangumi_title": "毁掉一切地狱再爱",
        "ep_cut": 10,
        "image_url": "https://w.junreimap.com/images/points/420817/eyy456v_1779598470512.jpg",
        "location": "入间川",
        "point_id": "eyy456v",
        "point_name": "昭代橋",
        "remark": ""
      },
      "type": "Feature"
    },
    {
      "geometry": {
        "coordinates": [
          139.405969,
          35.864282
        ],
        "type": "Point"
      },
      "properties": {
        "bangumi_id": 420817,
        "bangumi_title": "毁掉一切地狱再爱",
        "ep_cut": 10,
        "image_url": "https://w.junreimap.com/images/points/420817/eyy576q_1779598566069.jpg",
        "location": "入间川",
        "point_id": "eyy576q",
        "point_name": "昭代橋",
        "remark": ""
      },
      "type": "Feature"
    },
    {
      "geometry": {
        "coordinates": [
          139.702052,
          35.694897
        ],
        "type": "Point"
      },
      "properties": {
        "bangumi_id": 420817,
        "bangumi_title": "毁掉一切地狱再爱",
        "ep_cut": 12,
        "image_url": "https://w.junreimap.com/images/points/420817/eywugx4_1779596359571.jpg",
        "location": "新宿",
        "point_id": "eywugx4",
        "point_name": "TOHO シネマズ 新宿",
        "remark": "右下角一格吉泽站立的位置应该是电梯旁的电影院售票口。"
      },
      "type": "Feature"
    },
    {
      "geometry": {
        "coordinates": [
          139.403535,
          35.649607
        ],
        "type": "Point"
      },
      "properties": {
        "bangumi_id": 420817,
        "bangumi_title": "毁掉一切地狱再爱",
        "ep_cut": 19,
        "image_url": "https://w.junreimap.com/images/points/420817/eyxrsr9_1779597890123.jpg",
        "location": "多摩动物公园",
        "point_id": "eyxrsr9",
        "point_name": "多摩動物公園",
        "remark": ""
      },
      "type": "Feature"
    },
    {
      "geometry": {
        "coordinates": [
          139.403777,
          35.649498
        ],
        "type": "Point"
      },
      "properties": {
        "bangumi_id": 420817,
        "bangumi_title": "毁掉一切地狱再爱",
        "ep_cut": 20,
        "image_url": "https://w.junreimap.com/images/points/420817/eyxs5ty_1779597907661.jpg",
        "location": "多摩动物公园",
        "point_id": "eyxs5ty",
        "point_name": "多摩動物公園",
        "remark": "背景中的轨道是多摩单轨。"
      },
      "type": "Feature"
    },
    {
      "geometry": {
        "coordinates": [
          139.4027,
          35.650795
        ],
        "type": "Point"
      },
      "properties": {
        "bangumi_id": 420817,
        "bangumi_title": "毁掉一切地狱再爱",
        "ep_cut": 20,
        "image_url": "https://w.junreimap.com/images/points/420817/eyxwcxh_1779598107868.jpg",
        "location": "多摩动物公园",
        "point_id": "eyxwcxh",
        "point_name": "多摩動物公園 昆虫生態園",
        "remark": ""
      },
      "type": "Feature"
    },
    {
      "geometry": {
        "coordinates": [
          139.402696,
          35.650825
        ],
        "type": "Point"
      },
      "properties": {
        "bangumi_id": 420817,
        "bangumi_title": "毁掉一切地狱再爱",
        "ep_cut": 20,
        "image_url": "https://w.junreimap.com/images/points/420817/eyxwysb_1779598126770.jpg",
        "location": "多摩动物公园",
        "point_id": "eyxwysb",
        "point_name": "多摩動物公園 昆虫生態園",
        "remark": ""
      },
      "type": "Feature"
    },
    {
      "geometry": {
        "coordinates": [
          139.402747,
          35.650802
        ],
        "type": "Point"
      },
      "properties": {
        "bangumi_id": 420817,
        "bangumi_title": "毁掉一切地狱再爱",
        "ep_cut": 20,
        "image_url": "https://w.junreimap.com/images/points/420817/eyxx9fc_1779598135463.jpg",
        "location": "多摩动物公园",
        "point_id": "eyxx9fc",
        "point_name": "多摩動物公園 昆虫生態園",
        "remark": ""
      },
      "type": "Feature"
    },
    {
      "geometry": {
        "coordinates": [
          139.402177,
          35.651135
        ],
        "type": "Point"
      },
      "properties": {
        "bangumi_id": 420817,
        "bangumi_title": "毁掉一切地狱再爱",
        "ep_cut": 20,
        "image_url": "https://w.junreimap.com/images/points/420817/eyxybb6_1779598198210.jpg",
        "location": "多摩动物公园",
        "point_id": "eyxybb6",
        "point_name": "多摩動物公園 昆虫生態園",
        "remark": ""
      },
      "type": "Feature"
    }
  ],
  "type": "FeatureCollection"
}