{
  "features": [
    {
      "geometry": {
        "coordinates": [
          139.546449,
          35.701939
        ],
        "type": "Point"
      },
      "properties": {
        "bangumi_id": 4214,
        "bangumi_title": "圣母在上",
        "ep_cut": "第4季第13集",
        "image_url": "https://w.junreimap.com/images/points/4214/iz9gx4rat_1734545622573.jpg",
        "location": "",
        "point_id": "iz9gx4rat",
        "point_name": "日本獣医生命科学大学",
        "remark": "４期13話"
      },
      "type": "Feature"
    },
    {
      "geometry": {
        "coordinates": [
          139.546578,
          35.701869
        ],
        "type": "Point"
      },
      "properties": {
        "bangumi_id": 4214,
        "bangumi_title": "圣母在上",
        "ep_cut": "第4季第13集",
        "image_url": "https://w.junreimap.com/images/points/4214/iz9gx4rgi_1734545628725.jpg",
        "location": "",
        "point_id": "iz9gx4rgi",
        "point_name": "日本獣医生命科学大学内",
        "remark": "４期13話"
      },
      "type": "Feature"
    },
    {
      "geometry": {
        "coordinates": [
          139.60435,
          35.74034
        ],
        "type": "Point"
      },
      "properties": {
        "bangumi_id": 4214,
        "bangumi_title": "圣母在上",
        "ep_cut": 13,
        "image_url": "https://w.junreimap.com/images/user/0/bangumi/4214/points/iz9gx4r9y-1724792063014.jpg",
        "location": "",
        "point_id": "iz9gx4r9y",
        "point_name": "イタリアンレストラン ロニオン",
        "remark": "１期13話"
      },
      "type": "Feature"
    },
    {
      "geometry": {
        "coordinates": [
          139.57753,
          35.703764
        ],
        "type": "Point"
      },
      "properties": {
        "bangumi_id": 4214,
        "bangumi_title": "圣母在上",
        "ep_cut": 10,
        "image_url": "https://w.junreimap.com/images/points/4214/iz9gx4r24_1734545016427.jpg",
        "location": "",
        "point_id": "iz9gx4r24",
        "point_name": "吉祥寺パルコ付近 10話",
        "remark": "１期10話"
      },
      "type": "Feature"
    },
    {
      "geometry": {
        "coordinates": [
          139.580811,
          35.703796
        ],
        "type": "Point"
      },
      "properties": {
        "bangumi_id": 4214,
        "bangumi_title": "圣母在上",
        "ep_cut": 12,
        "image_url": "https://w.junreimap.com/images/user/0/bangumi/4214/points/iz9gx4rbx-1724790974652.jpg",
        "location": "",
        "point_id": "iz9gx4rbx",
        "point_name": "吉祥寺北口付近",
        "remark": "１期12話"
      },
      "type": "Feature"
    },
    {
      "geometry": {
        "coordinates": [
          139.579714,
          35.703195
        ],
        "type": "Point"
      },
      "properties": {
        "bangumi_id": 4214,
        "bangumi_title": "圣母在上",
        "ep_cut": 12,
        "image_url": "https://w.junreimap.com/images/user/0/bangumi/4214/points/iz9gx4r9c-1724791221990.jpg",
        "location": "",
        "point_id": "iz9gx4r9c",
        "point_name": "吉祥寺駅アトレ本館口（西口）",
        "remark": "１期12話詳しい位置までは分かりません"
      },
      "type": "Feature"
    },
    {
      "geometry": {
        "coordinates": [
          139.578305,
          35.703343
        ],
        "type": "Point"
      },
      "properties": {
        "bangumi_id": 4214,
        "bangumi_title": "圣母在上",
        "ep_cut": 12,
        "image_url": "https://w.junreimap.com/images/points/4214/iz9gx4r7v_1734544554707.jpg",
        "location": "",
        "point_id": "iz9gx4r7v",
        "point_name": "吉祥寺パルコ付近 12話 1",
        "remark": "１期12話"
      },
      "type": "Feature"
    },
    {
      "geometry": {
        "coordinates": [
          139.578069,
          35.703444
        ],
        "type": "Point"
      },
      "properties": {
        "bangumi_id": 4214,
        "bangumi_title": "圣母在上",
        "ep_cut": 12,
        "image_url": "https://w.junreimap.com/images/points/4214/iz9gx4qv2_1734544623763.jpg",
        "location": "",
        "point_id": "iz9gx4qv2",
        "point_name": "吉祥寺パルコ付近 12話 2",
        "remark": "１期12話"
      },
      "type": "Feature"
    },
    {
      "geometry": {
        "coordinates": [
          139.580567,
          35.702936
        ],
        "type": "Point"
      },
      "properties": {
        "bangumi_id": 4214,
        "bangumi_title": "圣母在上",
        "ep_cut": 12,
        "image_url": "https://w.junreimap.com/images/points/4214/iz9gx4r3p_1734544736290.jpg",
        "location": "",
        "point_id": "iz9gx4r3p",
        "point_name": "京王吉祥寺駅ビル付近 12話 1",
        "remark": "１期12話"
      },
      "type": "Feature"
    },
    {
      "geometry": {
        "coordinates": [
          139.580813,
          35.70286
        ],
        "type": "Point"
      },
      "properties": {
        "bangumi_id": 4214,
        "bangumi_title": "圣母在上",
        "ep_cut": 12,
        "image_url": "https://w.junreimap.com/images/points/4214/iz9gx4rc2_1734544764970.jpg",
        "location": "",
        "point_id": "iz9gx4rc2",
        "point_name": "京王吉祥寺駅ビル付近 12話 2",
        "remark": "１期12話"
      },
      "type": "Feature"
    },
    {
      "geometry": {
        "coordinates": [
          139.578705,
          35.699366
        ],
        "type": "Point"
      },
      "properties": {
        "bangumi_id": 4214,
        "bangumi_title": "圣母在上",
        "ep_cut": 12,
        "image_url": "https://w.junreimap.com/images/points/4214/iz9gx4qv3_1734544860363.jpg",
        "location": "",
        "point_id": "iz9gx4qv3",
        "point_name": "井の頭恩賜公園",
        "remark": "１期12話目安にしてください"
      },
      "type": "Feature"
    },
    {
      "geometry": {
        "coordinates": [
          139.578759,
          35.699412
        ],
        "type": "Point"
      },
      "properties": {
        "bangumi_id": 4214,
        "bangumi_title": "圣母在上",
        "ep_cut": 12,
        "image_url": "https://w.junreimap.com/images/points/4214/iz9gx4r3o_1734544874907.jpg",
        "location": "",
        "point_id": "iz9gx4r3o",
        "point_name": "井の頭恩賜公園ベンチ",
        "remark": "１期12話目安にしてください同じ形のベンチが一つしかないので分かりやすいと思います"
      },
      "type": "Feature"
    },
    {
      "geometry": {
        "coordinates": [
          139.579848,
          35.703847
        ],
        "type": "Point"
      },
      "properties": {
        "bangumi_id": 4214,
        "bangumi_title": "圣母在上",
        "ep_cut": 12,
        "image_url": "https://w.junreimap.com/images/points/4214/iz9gx4reg_1734544078538.jpg",
        "location": "",
        "point_id": "iz9gx4reg",
        "point_name": "マクドナルド吉祥寺店",
        "remark": "１期12話"
      },
      "type": "Feature"
    },
    {
      "geometry": {
        "coordinates": [
          139.581065,
          35.706099
        ],
        "type": "Point"
      },
      "properties": {
        "bangumi_id": 4214,
        "bangumi_title": "圣母在上",
        "ep_cut": 13,
        "image_url": "https://w.junreimap.com/images/points/4214/iz9gx4r42_1734544099410.jpg",
        "location": "",
        "point_id": "iz9gx4r42",
        "point_name": "ジーンズメイト吉祥寺店",
        "remark": "１期13話"
      },
      "type": "Feature"
    },
    {
      "geometry": {
        "coordinates": [
          139.579888,
          35.703892
        ],
        "type": "Point"
      },
      "properties": {
        "bangumi_id": 4214,
        "bangumi_title": "圣母在上",
        "ep_cut": 13,
        "image_url": "https://w.junreimap.com/images/points/4214/iz9gx4rbu_1734544129657.jpg",
        "location": "",
        "point_id": "iz9gx4rbu",
        "point_name": "マクドナルド吉祥寺店付近",
        "remark": "１期13話"
      },
      "type": "Feature"
    },
    {
      "geometry": {
        "coordinates": [
          139.58084,
          35.704422
        ],
        "type": "Point"
      },
      "properties": {
        "bangumi_id": 4214,
        "bangumi_title": "圣母在上",
        "ep_cut": 13,
        "image_url": "https://w.junreimap.com/images/points/4214/iz9gx4rdp_1734544139849.jpg",
        "location": "",
        "point_id": "iz9gx4rdp",
        "point_name": "中央三井信託銀行吉祥寺支店",
        "remark": "１期13話"
      },
      "type": "Feature"
    },
    {
      "geometry": {
        "coordinates": [
          139.581275,
          35.704901
        ],
        "type": "Point"
      },
      "properties": {
        "bangumi_id": 4214,
        "bangumi_title": "圣母在上",
        "ep_cut": 13,
        "image_url": "https://w.junreimap.com/images/points/4214/iz9gx4rd8_1734544163210.jpg",
        "location": "",
        "point_id": "iz9gx4rd8",
        "point_name": "ヨドバシカメラ吉祥寺店付近1",
        "remark": "１期13話"
      },
      "type": "Feature"
    },
    {
      "geometry": {
        "coordinates": [
          139.581065,
          35.704463
        ],
        "type": "Point"
      },
      "properties": {
        "bangumi_id": 4214,
        "bangumi_title": "圣母在上",
        "ep_cut": 13,
        "image_url": "https://w.junreimap.com/images/points/4214/iz9gx4r9f_1734545078291.jpg",
        "location": "",
        "point_id": "iz9gx4r9f",
        "point_name": "ヨドバシカメラ吉祥寺店付近2",
        "remark": "１期13話"
      },
      "type": "Feature"
    },
    {
      "geometry": {
        "coordinates": [
          139.580864,
          35.702884
        ],
        "type": "Point"
      },
      "properties": {
        "bangumi_id": 4214,
        "bangumi_title": "圣母在上",
        "ep_cut": 13,
        "image_url": "https://w.junreimap.com/images/points/4214/iz9gx4qu4_1734544222522.jpg",
        "location": "",
        "point_id": "iz9gx4qu4",
        "point_name": "京王吉祥寺駅ビル付近 13話",
        "remark": "１期13話"
      },
      "type": "Feature"
    },
    {
      "geometry": {
        "coordinates": [
          139.578619,
          35.705236
        ],
        "type": "Point"
      },
      "properties": {
        "bangumi_id": 4214,
        "bangumi_title": "圣母在上",
        "ep_cut": 13,
        "image_url": "https://w.junreimap.com/images/points/4214/iz9gx4rbf_1734544188890.jpg",
        "location": "",
        "point_id": "iz9gx4rbf",
        "point_name": "吉祥寺PENNY LANE",
        "remark": "１期13話"
      },
      "type": "Feature"
    },
    {
      "geometry": {
        "coordinates": [
          139.571259,
          35.70183
        ],
        "type": "Point"
      },
      "properties": {
        "bangumi_id": 4214,
        "bangumi_title": "圣母在上",
        "ep_cut": "第二季 2黄蔷薇勇往直前",
        "image_url": "https://w.junreimap.com/images/user/0/bangumi/4214/points/iz9gx4r29-1724791427569.jpg",
        "location": "",
        "point_id": "iz9gx4r29",
        "point_name": "井の頭自然文化園",
        "remark": "２期２話"
      },
      "type": "Feature"
    },
    {
      "geometry": {
        "coordinates": [
          139.577622,
          35.703502
        ],
        "type": "Point"
      },
      "properties": {
        "bangumi_id": 4214,
        "bangumi_title": "圣母在上",
        "ep_cut": "",
        "image_url": "https://w.junreimap.com/images/points/4214/iz9gx4qvh_1734545110540.jpg",
        "location": "",
        "point_id": "iz9gx4qvh",
        "point_name": "吉祥寺パルコ付近 3-2",
        "remark": "３期２話"
      },
      "type": "Feature"
    },
    {
      "geometry": {
        "coordinates": [
          139.54901,
          35.716764
        ],
        "type": "Point"
      },
      "properties": {
        "bangumi_id": 4214,
        "bangumi_title": "圣母在上",
        "ep_cut": "",
        "image_url": "",
        "location": "",
        "point_id": "iz9gx4r3v",
        "point_name": "武蔵野大学正門",
        "remark": "１期３話"
      },
      "type": "Feature"
    },
    {
      "geometry": {
        "coordinates": [
          139.560635,
          35.70284
        ],
        "type": "Point"
      },
      "properties": {
        "bangumi_id": 4214,
        "bangumi_title": "圣母在上",
        "ep_cut": 11,
        "image_url": "https://w.junreimap.com/images/user/0/bangumi/4214/points/iz9gx4qtt-1734808894398.jpg",
        "location": "",
        "point_id": "iz9gx4qtt",
        "point_name": "三鷹駅",
        "remark": "１期11話詳しい位置までは分かりません"
      },
      "type": "Feature"
    },
    {
      "geometry": {
        "coordinates": [
          139.56064,
          35.702723
        ],
        "type": "Point"
      },
      "properties": {
        "bangumi_id": 4214,
        "bangumi_title": "圣母在上",
        "ep_cut": "第三季 5 贵安，姊姊",
        "image_url": "https://w.junreimap.com/images/user/0/bangumi/4214/points/iz9gx4r07-1725126319443.jpg",
        "location": "",
        "point_id": "iz9gx4r07",
        "point_name": "三鷹駅",
        "remark": "１期11話、３期２話、３期５話、４期５話、４期13話詳しい位置までは分かりません"
      },
      "type": "Feature"
    },
    {
      "geometry": {
        "coordinates": [
          139.549,
          35.716226
        ],
        "type": "Point"
      },
      "properties": {
        "bangumi_id": 4214,
        "bangumi_title": "圣母在上",
        "ep_cut": 12,
        "image_url": "",
        "location": "",
        "point_id": "iz9gx4rao",
        "point_name": "武蔵野大学バス停付近",
        "remark": "２期５話、２期12話"
      },
      "type": "Feature"
    },
    {
      "geometry": {
        "coordinates": [
          139.549241,
          35.716879
        ],
        "type": "Point"
      },
      "properties": {
        "bangumi_id": 4214,
        "bangumi_title": "圣母在上",
        "ep_cut": 11,
        "image_url": "",
        "location": "",
        "point_id": "iz9gx4r8a",
        "point_name": "武蔵野大学正門付近",
        "remark": "２期11話"
      },
      "type": "Feature"
    },
    {
      "geometry": {
        "coordinates": [
          139.560874,
          35.703343
        ],
        "type": "Point"
      },
      "properties": {
        "bangumi_id": 4214,
        "bangumi_title": "圣母在上",
        "ep_cut": "",
        "image_url": "",
        "location": "",
        "point_id": "iz9gx4rbe",
        "point_name": "三鷹駅北口周辺",
        "remark": "３期１話"
      },
      "type": "Feature"
    },
    {
      "geometry": {
        "coordinates": [
          139.560514,
          35.703147
        ],
        "type": "Point"
      },
      "properties": {
        "bangumi_id": 4214,
        "bangumi_title": "圣母在上",
        "ep_cut": "",
        "image_url": "",
        "location": "",
        "point_id": "iz9gx4qtp",
        "point_name": "三鷹駅北口周辺",
        "remark": "３期１話"
      },
      "type": "Feature"
    },
    {
      "geometry": {
        "coordinates": [
          139.560777,
          35.703182
        ],
        "type": "Point"
      },
      "properties": {
        "bangumi_id": 4214,
        "bangumi_title": "圣母在上",
        "ep_cut": "",
        "image_url": "",
        "location": "",
        "point_id": "iz9gx4r9j",
        "point_name": "三鷹駅北口周辺",
        "remark": "３期１話"
      },
      "type": "Feature"
    },
    {
      "geometry": {
        "coordinates": [
          139.560922,
          35.7032
        ],
        "type": "Point"
      },
      "properties": {
        "bangumi_id": 4214,
        "bangumi_title": "圣母在上",
        "ep_cut": "",
        "image_url": "",
        "location": "",
        "point_id": "iz9gx4qxu",
        "point_name": "三鷹駅北口周辺",
        "remark": "３期１話"
      },
      "type": "Feature"
    },
    {
      "geometry": {
        "coordinates": [
          139.561059,
          35.70337
        ],
        "type": "Point"
      },
      "properties": {
        "bangumi_id": 4214,
        "bangumi_title": "圣母在上",
        "ep_cut": "",
        "image_url": "",
        "location": "",
        "point_id": "iz9gx4r3c",
        "point_name": "三鷹駅北口周辺",
        "remark": "３期１話"
      },
      "type": "Feature"
    },
    {
      "geometry": {
        "coordinates": [
          139.560512,
          35.705077
        ],
        "type": "Point"
      },
      "properties": {
        "bangumi_id": 4214,
        "bangumi_title": "圣母在上",
        "ep_cut": "",
        "image_url": "",
        "location": "",
        "point_id": "iz9gx4rce",
        "point_name": "三鷹駅北方面",
        "remark": "３期１話"
      },
      "type": "Feature"
    },
    {
      "geometry": {
        "coordinates": [
          139.560273,
          35.703184
        ],
        "type": "Point"
      },
      "properties": {
        "bangumi_id": 4214,
        "bangumi_title": "圣母在上",
        "ep_cut": "",
        "image_url": "",
        "location": "",
        "point_id": "iz9gx4rak",
        "point_name": "三鷹駅北口周辺",
        "remark": "３期２話"
      },
      "type": "Feature"
    },
    {
      "geometry": {
        "coordinates": [
          139.549091,
          35.716694
        ],
        "type": "Point"
      },
      "properties": {
        "bangumi_id": 4214,
        "bangumi_title": "圣母在上",
        "ep_cut": "",
        "image_url": "",
        "location": "",
        "point_id": "iz9gx4qrb",
        "point_name": "武蔵野大学正門",
        "remark": "１期９話、４期２話"
      },
      "type": "Feature"
    },
    {
      "geometry": {
        "coordinates": [
          139.548739,
          35.716494
        ],
        "type": "Point"
      },
      "properties": {
        "bangumi_id": 4214,
        "bangumi_title": "圣母在上",
        "ep_cut": "",
        "image_url": "",
        "location": "",
        "point_id": "iz9gx4qtg",
        "point_name": "武蔵野大学バス停付近",
        "remark": "４期２話"
      },
      "type": "Feature"
    },
    {
      "geometry": {
        "coordinates": [
          139.560796,
          35.70362
        ],
        "type": "Point"
      },
      "properties": {
        "bangumi_id": 4214,
        "bangumi_title": "圣母在上",
        "ep_cut": 13,
        "image_url": "",
        "location": "",
        "point_id": "iz9gx4rg3",
        "point_name": "三鷹駅北口周辺",
        "remark": "４期５話、４期13話"
      },
      "type": "Feature"
    },
    {
      "geometry": {
        "coordinates": [
          139.561059,
          35.702864
        ],
        "type": "Point"
      },
      "properties": {
        "bangumi_id": 4214,
        "bangumi_title": "圣母在上",
        "ep_cut": "",
        "image_url": "",
        "location": "",
        "point_id": "iz9gx4qvw",
        "point_name": "三鷹駅",
        "remark": "４期６話詳しい位置までは分かりません"
      },
      "type": "Feature"
    },
    {
      "geometry": {
        "coordinates": [
          139.560367,
          35.703193
        ],
        "type": "Point"
      },
      "properties": {
        "bangumi_id": 4214,
        "bangumi_title": "圣母在上",
        "ep_cut": 13,
        "image_url": "",
        "location": "",
        "point_id": "iz9gx4qxw",
        "point_name": "三鷹駅北口バス停付近",
        "remark": "４期13話"
      },
      "type": "Feature"
    },
    {
      "geometry": {
        "coordinates": [
          139.561064,
          35.701276
        ],
        "type": "Point"
      },
      "properties": {
        "bangumi_id": 4214,
        "bangumi_title": "圣母在上",
        "ep_cut": 11,
        "image_url": "https://w.junreimap.com/images/user/0/bangumi/4214/points/iz9gx4qsv-1734809008836.jpg",
        "location": "",
        "point_id": "iz9gx4qsv",
        "point_name": "三鷹駅南口周辺",
        "remark": "１期11話"
      },
      "type": "Feature"
    },
    {
      "geometry": {
        "coordinates": [
          139.561051,
          35.701642
        ],
        "type": "Point"
      },
      "properties": {
        "bangumi_id": 4214,
        "bangumi_title": "圣母在上",
        "ep_cut": "",
        "image_url": "",
        "location": "",
        "point_id": "iz9gx4rbq",
        "point_name": "三鷹駅南口周辺",
        "remark": "２期１話"
      },
      "type": "Feature"
    },
    {
      "geometry": {
        "coordinates": [
          139.561493,
          35.701475
        ],
        "type": "Point"
      },
      "properties": {
        "bangumi_id": 4214,
        "bangumi_title": "圣母在上",
        "ep_cut": "",
        "image_url": "",
        "location": "",
        "point_id": "iz9gx4rf4",
        "point_name": "ファミリーマート三鷹駅前店",
        "remark": "２期１話"
      },
      "type": "Feature"
    },
    {
      "geometry": {
        "coordinates": [
          139.561045,
          35.701845
        ],
        "type": "Point"
      },
      "properties": {
        "bangumi_id": 4214,
        "bangumi_title": "圣母在上",
        "ep_cut": "",
        "image_url": "https://w.junreimap.com/images/user/0/bangumi/4214/points/iz9gx4qy2-1734808562301.jpg",
        "location": "",
        "point_id": "iz9gx4qy2",
        "point_name": "三鷹駅南口周辺",
        "remark": "２期１話"
      },
      "type": "Feature"
    },
    {
      "geometry": {
        "coordinates": [
          139.560828,
          35.702341
        ],
        "type": "Point"
      },
      "properties": {
        "bangumi_id": 4214,
        "bangumi_title": "圣母在上",
        "ep_cut": "",
        "image_url": "https://w.junreimap.com/images/user/0/bangumi/4214/points/iz9gx4rh6-1734808725280.jpg",
        "location": "",
        "point_id": "iz9gx4rh6",
        "point_name": "三鷹駅南口周辺",
        "remark": "２期３話"
      },
      "type": "Feature"
    },
    {
      "geometry": {
        "coordinates": [
          139.560257,
          35.702365
        ],
        "type": "Point"
      },
      "properties": {
        "bangumi_id": 4214,
        "bangumi_title": "圣母在上",
        "ep_cut": "",
        "image_url": "https://w.junreimap.com/images/user/0/bangumi/4214/points/iz9gx4r0p-1734808753936.jpg",
        "location": "",
        "point_id": "iz9gx4r0p",
        "point_name": "三鷹駅南口周辺",
        "remark": "２期３話"
      },
      "type": "Feature"
    },
    {
      "geometry": {
        "coordinates": [
          139.560879,
          35.702111
        ],
        "type": "Point"
      },
      "properties": {
        "bangumi_id": 4214,
        "bangumi_title": "圣母在上",
        "ep_cut": "",
        "image_url": "https://w.junreimap.com/images/user/0/bangumi/4214/points/iz9gx4qta-1734808771821.jpg",
        "location": "",
        "point_id": "iz9gx4qta",
        "point_name": "三鷹駅南口周辺",
        "remark": "３期２話"
      },
      "type": "Feature"
    },
    {
      "geometry": {
        "coordinates": [
          139.548031,
          35.716106
        ],
        "type": "Point"
      },
      "properties": {
        "bangumi_id": 4214,
        "bangumi_title": "圣母在上",
        "ep_cut": "",
        "image_url": "",
        "location": "",
        "point_id": "iz9gx4rhc",
        "point_name": "東京電力武蔵野支社武蔵野制御所境変電所付近",
        "remark": "１期５話"
      },
      "type": "Feature"
    },
    {
      "geometry": {
        "coordinates": [
          139.546092,
          35.716391
        ],
        "type": "Point"
      },
      "properties": {
        "bangumi_id": 4214,
        "bangumi_title": "圣母在上",
        "ep_cut": "",
        "image_url": "https://w.junreimap.com/images/user/0/bangumi/4214/points/iz9gx4rd7-1734808425575.jpg",
        "location": "",
        "point_id": "iz9gx4rd7",
        "point_name": "武蔵野大学付属幼稚園門付近",
        "remark": "１期９話、２期５話"
      },
      "type": "Feature"
    },
    {
      "geometry": {
        "coordinates": [
          139.549018,
          35.716661
        ],
        "type": "Point"
      },
      "properties": {
        "bangumi_id": 4214,
        "bangumi_title": "圣母在上",
        "ep_cut": "",
        "image_url": "",
        "location": "",
        "point_id": "iz9gx4r3h",
        "point_name": "武蔵野大学正門",
        "remark": "１期９話"
      },
      "type": "Feature"
    },
    {
      "geometry": {
        "coordinates": [
          139.548868,
          35.7165
        ],
        "type": "Point"
      },
      "properties": {
        "bangumi_id": 4214,
        "bangumi_title": "圣母在上",
        "ep_cut": 12,
        "image_url": "https://w.junreimap.com/images/user/0/bangumi/4214/points/iz9gx4rg9-1734808329386.jpg",
        "location": "",
        "point_id": "iz9gx4rg9",
        "point_name": "武蔵野大学バス停付近",
        "remark": "１期12話"
      },
      "type": "Feature"
    },
    {
      "geometry": {
        "coordinates": [
          139.549187,
          35.716609
        ],
        "type": "Point"
      },
      "properties": {
        "bangumi_id": 4214,
        "bangumi_title": "圣母在上",
        "ep_cut": 12,
        "image_url": "",
        "location": "",
        "point_id": "iz9gx4qum",
        "point_name": "武蔵野大学正門",
        "remark": "１期12話、３期２話"
      },
      "type": "Feature"
    },
    {
      "geometry": {
        "coordinates": [
          139.549287,
          35.716842
        ],
        "type": "Point"
      },
      "properties": {
        "bangumi_id": 4214,
        "bangumi_title": "圣母在上",
        "ep_cut": 12,
        "image_url": "",
        "location": "",
        "point_id": "iz9gx4r11",
        "point_name": "武蔵野大学正門",
        "remark": "２期12話"
      },
      "type": "Feature"
    },
    {
      "geometry": {
        "coordinates": [
          139.567311,
          35.7189
        ],
        "type": "Point"
      },
      "properties": {
        "bangumi_id": 4214,
        "bangumi_title": "圣母在上",
        "ep_cut": "",
        "image_url": "https://w.junreimap.com/images/user/0/bangumi/4214/points/iz9gx4r26-1734808069852.jpg",
        "location": "",
        "point_id": "iz9gx4r26",
        "point_name": "市営プールバス停付近",
        "remark": "３期２話"
      },
      "type": "Feature"
    },
    {
      "geometry": {
        "coordinates": [
          139.567665,
          35.719479
        ],
        "type": "Point"
      },
      "properties": {
        "bangumi_id": 4214,
        "bangumi_title": "圣母在上",
        "ep_cut": "",
        "image_url": "",
        "location": "",
        "point_id": "iz9gx4qro",
        "point_name": "市営プールバス停付近",
        "remark": "３期２話"
      },
      "type": "Feature"
    },
    {
      "geometry": {
        "coordinates": [
          139.567791,
          35.719468
        ],
        "type": "Point"
      },
      "properties": {
        "bangumi_id": 4214,
        "bangumi_title": "圣母在上",
        "ep_cut": "",
        "image_url": "",
        "location": "",
        "point_id": "iz9gx4r63",
        "point_name": "市営プールバス停付近",
        "remark": "３期２話"
      },
      "type": "Feature"
    },
    {
      "geometry": {
        "coordinates": [
          139.549289,
          35.716422
        ],
        "type": "Point"
      },
      "properties": {
        "bangumi_id": 4214,
        "bangumi_title": "圣母在上",
        "ep_cut": "",
        "image_url": "",
        "location": "",
        "point_id": "iz9gx4r9n",
        "point_name": "武蔵野大学前歩道橋",
        "remark": "３期２話"
      },
      "type": "Feature"
    },
    {
      "geometry": {
        "coordinates": [
          139.549305,
          35.716387
        ],
        "type": "Point"
      },
      "properties": {
        "bangumi_id": 4214,
        "bangumi_title": "圣母在上",
        "ep_cut": "",
        "image_url": "",
        "location": "",
        "point_id": "iz9gx4qsn",
        "point_name": "武蔵野大学前歩道橋",
        "remark": "４期２話"
      },
      "type": "Feature"
    },
    {
      "geometry": {
        "coordinates": [
          139.549029,
          35.716607
        ],
        "type": "Point"
      },
      "properties": {
        "bangumi_id": 4214,
        "bangumi_title": "圣母在上",
        "ep_cut": "",
        "image_url": "",
        "location": "",
        "point_id": "iz9gx4r67",
        "point_name": "武蔵野大学バス停付近",
        "remark": "４期２話"
      },
      "type": "Feature"
    },
    {
      "geometry": {
        "coordinates": [
          139.548978,
          35.716548
        ],
        "type": "Point"
      },
      "properties": {
        "bangumi_id": 4214,
        "bangumi_title": "圣母在上",
        "ep_cut": "",
        "image_url": "",
        "location": "",
        "point_id": "iz9gx4qvy",
        "point_name": "武蔵野大学バス停付近",
        "remark": "４期２話"
      },
      "type": "Feature"
    },
    {
      "geometry": {
        "coordinates": [
          139.548895,
          35.716589
        ],
        "type": "Point"
      },
      "properties": {
        "bangumi_id": 4214,
        "bangumi_title": "圣母在上",
        "ep_cut": "",
        "image_url": "https://w.junreimap.com/images/user/0/bangumi/4214/points/iz9gx4rgh-1734808188234.jpg",
        "location": "",
        "point_id": "iz9gx4rgh",
        "point_name": "武蔵野大学バス停付近",
        "remark": "４期２話"
      },
      "type": "Feature"
    },
    {
      "geometry": {
        "coordinates": [
          139.539766,
          35.728003
        ],
        "type": "Point"
      },
      "properties": {
        "bangumi_id": 4214,
        "bangumi_title": "圣母在上",
        "ep_cut": "第4季第13集",
        "image_url": "https://w.junreimap.com/images/points/4214/iz9gx4raq_1734545460125.jpg",
        "location": "",
        "point_id": "iz9gx4raq",
        "point_name": "田無駅北口周辺",
        "remark": "４期13話"
      },
      "type": "Feature"
    },
    {
      "geometry": {
        "coordinates": [
          139.538811,
          35.727129
        ],
        "type": "Point"
      },
      "properties": {
        "bangumi_id": 4214,
        "bangumi_title": "圣母在上",
        "ep_cut": "第4季第13集",
        "image_url": "https://w.junreimap.com/images/points/4214/iz9gx4qyn_1734545470292.jpg",
        "location": "",
        "point_id": "iz9gx4qyn",
        "point_name": "田無駅（４番線）",
        "remark": "４期13話"
      },
      "type": "Feature"
    },
    {
      "geometry": {
        "coordinates": [
          139.318525,
          35.851203
        ],
        "type": "Point"
      },
      "properties": {
        "bangumi_id": 4214,
        "bangumi_title": "圣母在上",
        "ep_cut": "第4季第13集",
        "image_url": "https://w.junreimap.com/images/points/4214/iz9gx4r9m_1734545481476.jpg",
        "location": "",
        "point_id": "iz9gx4r9m",
        "point_name": "飯能駅（１番線）",
        "remark": "４期13話"
      },
      "type": "Feature"
    },
    {
      "geometry": {
        "coordinates": [
          139.083545,
          35.989644
        ],
        "type": "Point"
      },
      "properties": {
        "bangumi_id": 4214,
        "bangumi_title": "圣母在上",
        "ep_cut": "第4季第13集",
        "image_url": "https://w.junreimap.com/images/points/4214/iz9gx4r16_1734545362851.jpg",
        "location": "",
        "point_id": "iz9gx4r16",
        "point_name": "西武秩父駅周辺1",
        "remark": "４期13話"
      },
      "type": "Feature"
    },
    {
      "geometry": {
        "coordinates": [
          139.08365,
          35.989857
        ],
        "type": "Point"
      },
      "properties": {
        "bangumi_id": 4214,
        "bangumi_title": "圣母在上",
        "ep_cut": "第4季第13集",
        "image_url": "https://w.junreimap.com/images/points/4214/iz9gx4r09_1734545369987.jpg",
        "location": "",
        "point_id": "iz9gx4r09",
        "point_name": "西武秩父駅周辺2",
        "remark": "４期13話"
      },
      "type": "Feature"
    },
    {
      "geometry": {
        "coordinates": [
          139.083846,
          35.990041
        ],
        "type": "Point"
      },
      "properties": {
        "bangumi_id": 4214,
        "bangumi_title": "圣母在上",
        "ep_cut": "第4季第13集",
        "image_url": "https://w.junreimap.com/images/points/4214/iz9gx4rfj_1734545376052.jpg",
        "location": "",
        "point_id": "iz9gx4rfj",
        "point_name": "西武秩父駅周辺3",
        "remark": "４期13話"
      },
      "type": "Feature"
    },
    {
      "geometry": {
        "coordinates": [
          139.083706,
          35.989386
        ],
        "type": "Point"
      },
      "properties": {
        "bangumi_id": 4214,
        "bangumi_title": "圣母在上",
        "ep_cut": "第4季第13集",
        "image_url": "https://w.junreimap.com/images/points/4214/iz9gx4qus_1734545382875.jpg",
        "location": "",
        "point_id": "iz9gx4qus",
        "point_name": "西武秩父駅周辺4",
        "remark": "４期13話"
      },
      "type": "Feature"
    },
    {
      "geometry": {
        "coordinates": [
          139.083577,
          35.989783
        ],
        "type": "Point"
      },
      "properties": {
        "bangumi_id": 4214,
        "bangumi_title": "圣母在上",
        "ep_cut": "第4季第13集",
        "image_url": "https://w.junreimap.com/images/points/4214/lclfmpdj5_1734545389259.jpg",
        "location": "",
        "point_id": "lclfmpdj5",
        "point_name": "西武秩父駅周辺5",
        "remark": "４期13話"
      },
      "type": "Feature"
    },
    {
      "geometry": {
        "coordinates": [
          139.083848,
          35.989909
        ],
        "type": "Point"
      },
      "properties": {
        "bangumi_id": 4214,
        "bangumi_title": "圣母在上",
        "ep_cut": "第4季第13集",
        "image_url": "https://w.junreimap.com/images/points/4214/iz9gx4qsg_1734545395411.jpg",
        "location": "",
        "point_id": "iz9gx4qsg",
        "point_name": "西武秩父駅周辺6",
        "remark": "４期13話"
      },
      "type": "Feature"
    },
    {
      "geometry": {
        "coordinates": [
          139.075399,
          36.001783
        ],
        "type": "Point"
      },
      "properties": {
        "bangumi_id": 4214,
        "bangumi_title": "圣母在上",
        "ep_cut": "第4季第13集",
        "image_url": "https://w.junreimap.com/images/points/4214/lclfmpd0t_1734545212542.jpg",
        "location": "",
        "point_id": "lclfmpd0t",
        "point_name": "秩父公園橋（秩父ハープ橋）",
        "remark": "４期13話"
      },
      "type": "Feature"
    },
    {
      "geometry": {
        "coordinates": [
          139.059982,
          35.999218
        ],
        "type": "Point"
      },
      "properties": {
        "bangumi_id": 4214,
        "bangumi_title": "圣母在上",
        "ep_cut": "第4季第13集",
        "image_url": "https://w.junreimap.com/images/points/4214/iz9gx4qun_1734545220051.jpg",
        "location": "",
        "point_id": "iz9gx4qun",
        "point_name": "「薬用植物園」バス停周辺",
        "remark": "４期13話詳しい位置までは分かりません"
      },
      "type": "Feature"
    },
    {
      "geometry": {
        "coordinates": [
          139.071996,
          36.004995
        ],
        "type": "Point"
      },
      "properties": {
        "bangumi_id": 4214,
        "bangumi_title": "圣母在上",
        "ep_cut": "第4季第13集",
        "image_url": "https://w.junreimap.com/images/points/4214/iz9gx4qqo_1734545254091.jpg",
        "location": "",
        "point_id": "iz9gx4qqo",
        "point_name": "老人ホーム杏子苑付近1",
        "remark": "４期13話"
      },
      "type": "Feature"
    },
    {
      "geometry": {
        "coordinates": [
          139.071695,
          36.004973
        ],
        "type": "Point"
      },
      "properties": {
        "bangumi_id": 4214,
        "bangumi_title": "圣母在上",
        "ep_cut": "第4季第13集",
        "image_url": "https://w.junreimap.com/images/points/4214/iz9gx4r57_1734545288994.jpg",
        "location": "",
        "point_id": "iz9gx4r57",
        "point_name": "老人ホーム杏子苑付近2",
        "remark": "４期13話"
      },
      "type": "Feature"
    },
    {
      "geometry": {
        "coordinates": [
          139.767232,
          35.710076
        ],
        "type": "Point"
      },
      "properties": {
        "bangumi_id": 4214,
        "bangumi_title": "圣母在上",
        "ep_cut": "",
        "image_url": "https://w.junreimap.com/images/points/4214/iz9gx4rab_1734543786618.jpg",
        "location": "",
        "point_id": "iz9gx4rab",
        "point_name": "旧岩崎邸庭園1",
        "remark": "２期１話"
      },
      "type": "Feature"
    },
    {
      "geometry": {
        "coordinates": [
          139.767141,
          35.709914
        ],
        "type": "Point"
      },
      "properties": {
        "bangumi_id": 4214,
        "bangumi_title": "圣母在上",
        "ep_cut": "",
        "image_url": "https://w.junreimap.com/images/points/4214/iz9gx4r0e_1734543794248.jpg",
        "location": "",
        "point_id": "iz9gx4r0e",
        "point_name": "旧岩崎邸庭園2",
        "remark": "２期１話"
      },
      "type": "Feature"
    },
    {
      "geometry": {
        "coordinates": [
          139.767122,
          35.709457
        ],
        "type": "Point"
      },
      "properties": {
        "bangumi_id": 4214,
        "bangumi_title": "圣母在上",
        "ep_cut": "",
        "image_url": "https://w.junreimap.com/images/points/4214/iz9gx4rbm_1734543829153.jpg",
        "location": "",
        "point_id": "iz9gx4rbm",
        "point_name": "旧岩崎邸庭園3",
        "remark": "２期１話"
      },
      "type": "Feature"
    },
    {
      "geometry": {
        "coordinates": [
          139.766985,
          35.71003
        ],
        "type": "Point"
      },
      "properties": {
        "bangumi_id": 4214,
        "bangumi_title": "圣母在上",
        "ep_cut": "",
        "image_url": "https://w.junreimap.com/images/points/4214/iz9gx4rdz_1734543836256.jpg",
        "location": "",
        "point_id": "iz9gx4rdz",
        "point_name": "旧岩崎邸庭園4",
        "remark": "２期１話"
      },
      "type": "Feature"
    },
    {
      "geometry": {
        "coordinates": [
          139.75837,
          35.695119
        ],
        "type": "Point"
      },
      "properties": {
        "bangumi_id": 4214,
        "bangumi_title": "圣母在上",
        "ep_cut": 10,
        "image_url": "https://w.junreimap.com/images/points/4214/iz9gx4ra8_1734545184292.jpg",
        "location": "",
        "point_id": "iz9gx4ra8",
        "point_name": "集英社神保町ビル",
        "remark": "１期10話"
      },
      "type": "Feature"
    },
    {
      "geometry": {
        "coordinates": [
          139.161447,
          36.222024
        ],
        "type": "Point"
      },
      "properties": {
        "bangumi_id": 4214,
        "bangumi_title": "圣母在上",
        "ep_cut": "第3季第1集",
        "image_url": "https://w.junreimap.com/images/points/4214/iz9gx4r9z_1734543809592.jpg",
        "location": "",
        "point_id": "iz9gx4r9z",
        "point_name": "本庄児玉IC付近",
        "remark": "３期１話"
      },
      "type": "Feature"
    },
    {
      "geometry": {
        "coordinates": [
          138.739659,
          36.339284
        ],
        "type": "Point"
      },
      "properties": {
        "bangumi_id": 4214,
        "bangumi_title": "圣母在上",
        "ep_cut": "第3季第1集",
        "image_url": "https://w.junreimap.com/images/points/4214/iz9gx4qrh_1734543817705.jpg",
        "location": "",
        "point_id": "iz9gx4qrh",
        "point_name": "横川ＳＡ（下り）",
        "remark": "３期１話"
      },
      "type": "Feature"
    },
    {
      "geometry": {
        "coordinates": [
          138.626363,
          36.37163
        ],
        "type": "Point"
      },
      "properties": {
        "bangumi_id": 4214,
        "bangumi_title": "圣母在上",
        "ep_cut": "第3季第1集",
        "image_url": "https://w.junreimap.com/images/points/4214/iz9gx4re7_1734543717936.jpg",
        "location": "",
        "point_id": "iz9gx4re7",
        "point_name": "「三笠」バス停付近",
        "remark": "３期１話"
      },
      "type": "Feature"
    },
    {
      "geometry": {
        "coordinates": [
          138.626132,
          36.373215
        ],
        "type": "Point"
      },
      "properties": {
        "bangumi_id": 4214,
        "bangumi_title": "圣母在上",
        "ep_cut": "第3季第1集",
        "image_url": "https://w.junreimap.com/images/points/4214/iz9gx4rcb_1734543724368.jpg",
        "location": "",
        "point_id": "iz9gx4rcb",
        "point_name": "旧三笠ホテル内",
        "remark": "３期１話"
      },
      "type": "Feature"
    },
    {
      "geometry": {
        "coordinates": [
          138.635976,
          36.359105
        ],
        "type": "Point"
      },
      "properties": {
        "bangumi_id": 4214,
        "bangumi_title": "圣母在上",
        "ep_cut": "第3季第1集",
        "image_url": "https://w.junreimap.com/images/user/0/bangumi/4214/points/iz9gx4qyc-1724792392509.jpg",
        "location": "",
        "point_id": "iz9gx4qyc",
        "point_name": "軽井沢観光会館",
        "remark": "３期１話"
      },
      "type": "Feature"
    },
    {
      "geometry": {
        "coordinates": [
          138.634927,
          36.357941
        ],
        "type": "Point"
      },
      "properties": {
        "bangumi_id": 4214,
        "bangumi_title": "圣母在上",
        "ep_cut": "第3季第1集",
        "image_url": "https://w.junreimap.com/images/user/0/bangumi/4214/points/lclfmpdjr-1733531286981.jpg",
        "location": "",
        "point_id": "lclfmpdjr",
        "point_name": "ミカドコーヒー",
        "remark": "３期１話"
      },
      "type": "Feature"
    },
    {
      "geometry": {
        "coordinates": [
          138.634914,
          36.358051
        ],
        "type": "Point"
      },
      "properties": {
        "bangumi_id": 4214,
        "bangumi_title": "圣母在上",
        "ep_cut": "第3季第1集",
        "image_url": "https://w.junreimap.com/images/points/4214/iz9gx4qzx_1734543735841.jpg",
        "location": "",
        "point_id": "iz9gx4qzx",
        "point_name": "ミカドコーヒー街",
        "remark": "３期１話"
      },
      "type": "Feature"
    },
    {
      "geometry": {
        "coordinates": [
          138.634291,
          36.359546
        ],
        "type": "Point"
      },
      "properties": {
        "bangumi_id": 4214,
        "bangumi_title": "圣母在上",
        "ep_cut": "第3季第1集",
        "image_url": "https://w.junreimap.com/images/points/4214/iz9gx4qx5_1734543742744.jpg",
        "location": "",
        "point_id": "iz9gx4qx5",
        "point_name": "聖パウロカトリック教会",
        "remark": "３期１話"
      },
      "type": "Feature"
    },
    {
      "geometry": {
        "coordinates": [
          138.626271,
          36.372978
        ],
        "type": "Point"
      },
      "properties": {
        "bangumi_id": 4214,
        "bangumi_title": "圣母在上",
        "ep_cut": "第3季第1集",
        "image_url": "https://w.junreimap.com/images/points/4214/iz9gx4qwg_1734543750008.jpg",
        "location": "",
        "point_id": "iz9gx4qwg",
        "point_name": "旧三笠ホテル",
        "remark": "３期１話"
      },
      "type": "Feature"
    },
    {
      "geometry": {
        "coordinates": [
          132.219976,
          34.222005
        ],
        "type": "Point"
      },
      "properties": {
        "bangumi_id": 4214,
        "bangumi_title": "圣母在上",
        "ep_cut": "",
        "image_url": "https://w.junreimap.com/images/points/4214/iz9gx4r0y_1734543661552.jpg",
        "location": "",
        "point_id": "iz9gx4r0y",
        "point_name": "大竹市総合市民会館前",
        "remark": "１期５話"
      },
      "type": "Feature"
    },
    {
      "geometry": {
        "coordinates": [
          132.21967,
          34.222089
        ],
        "type": "Point"
      },
      "properties": {
        "bangumi_id": 4214,
        "bangumi_title": "圣母在上",
        "ep_cut": "",
        "image_url": "https://w.junreimap.com/images/points/4214/iz9gx4qvf_1734543669048.jpg",
        "location": "",
        "point_id": "iz9gx4qvf",
        "point_name": "大竹市総合市民会館門",
        "remark": "４期４話"
      },
      "type": "Feature"
    },
    {
      "geometry": {
        "coordinates": [
          140.384921,
          35.764875
        ],
        "type": "Point"
      },
      "properties": {
        "bangumi_id": 4214,
        "bangumi_title": "圣母在上",
        "ep_cut": "第三季 5 贵安，姊姊",
        "image_url": "https://w.junreimap.com/images/points/4214/lclfmpd60_1734543612897.jpg",
        "location": "",
        "point_id": "lclfmpd60",
        "point_name": "成田国際空港第１ターミナル北ウイング（４Ｆ）",
        "remark": "３期５話"
      },
      "type": "Feature"
    },
    {
      "geometry": {
        "coordinates": [
          140.383454,
          35.764879
        ],
        "type": "Point"
      },
      "properties": {
        "bangumi_id": 4214,
        "bangumi_title": "圣母在上",
        "ep_cut": "第三季 5 贵安，姊姊",
        "image_url": "https://w.junreimap.com/images/points/4214/lclfmpd6r_1734543622848.jpg",
        "location": "",
        "point_id": "lclfmpd6r",
        "point_name": "成田国際空港第１ターミナル北ウイング（４Ｆ）案内板",
        "remark": "３期５話"
      },
      "type": "Feature"
    },
    {
      "geometry": {
        "coordinates": [
          140.384304,
          35.765271
        ],
        "type": "Point"
      },
      "properties": {
        "bangumi_id": 4214,
        "bangumi_title": "圣母在上",
        "ep_cut": "第三季 5 贵安，姊姊",
        "image_url": "https://w.junreimap.com/images/points/4214/lclfmpd1d_1734543639121.jpg",
        "location": "",
        "point_id": "lclfmpd1d",
        "point_name": "成田国際空港第１ターミナル北ウイング内（４Ｆ）",
        "remark": "３期５話"
      },
      "type": "Feature"
    },
    {
      "geometry": {
        "coordinates": [
          139.547671,
          35.337769
        ],
        "type": "Point"
      },
      "properties": {
        "bangumi_id": 4214,
        "bangumi_title": "圣母在上",
        "ep_cut": "第二季 7 樱花盛开",
        "image_url": "https://w.junreimap.com/images/user/0/bangumi/4214/points/lclg6ztvo-1725126004700.jpg",
        "location": "",
        "point_id": "lclg6ztvo",
        "point_name": "円覚寺",
        "remark": "２期７話"
      },
      "type": "Feature"
    }
  ],
  "type": "FeatureCollection"
}