{
  "features": [
    {
      "geometry": {
        "coordinates": [
          139.753596,
          35.705854
        ],
        "type": "Point"
      },
      "properties": {
        "bangumi_id": 424379,
        "bangumi_title": "超超超超超喜欢你的100个女朋友",
        "ep_cut": 5,
        "image_url": "https://w.junreimap.com/images/user/0/bangumi/424379/points/u8ltnaw6f-1743451007589.jpg",
        "location": "",
        "point_id": "u8ltnaw6f",
        "point_name": "恋超人和荣逢凪乃去的游乐园",
        "remark": ""
      },
      "type": "Feature"
    }
  ],
  "type": "FeatureCollection"
}