{
  "features": [
    {
      "geometry": {
        "coordinates": [
          139.555839,
          35.32224
        ],
        "type": "Point"
      },
      "properties": {
        "bangumi_id": 424573,
        "bangumi_title": "擅长逃跑的殿下",
        "ep_cut": 1,
        "image_url": "https://w.junreimap.com/images/points/424573/m1qr57gjf_1720347899461.jpg",
        "location": "",
        "point_id": "m1qr57gjf",
        "point_name": "若宮大路幕府跡",
        "remark": "1236年~1333年期间北条氏镰仓幕府所在地。1333年被新田义贞攻破，镰仓幕府宣告灭亡。范围大约为现代的神奈川県鎌倉市雪ノ下1丁目10到1丁目16。有石碑树立于1丁目13-26。"
      },
      "type": "Feature"
    },
    {
      "geometry": {
        "coordinates": [
          139.555557,
          35.324666
        ],
        "type": "Point"
      },
      "properties": {
        "bangumi_id": 424573,
        "bangumi_title": "擅长逃跑的殿下",
        "ep_cut": 1,
        "image_url": "https://w.junreimap.com/images/points/424573/m1qzvrfw4_1720347875949.jpg",
        "location": "",
        "point_id": "m1qzvrfw4",
        "point_name": "鶴岡八幡宮",
        "remark": "远处可以看到鹤冈八幡宫本宫。"
      },
      "type": "Feature"
    },
    {
      "geometry": {
        "coordinates": [
          135.611343,
          35.002661
        ],
        "type": "Point"
      },
      "properties": {
        "bangumi_id": 424573,
        "bangumi_title": "擅长逃跑的殿下",
        "ep_cut": 1,
        "image_url": "https://w.junreimap.com/images/points/424573/m1r2tcn25_1720347855452.jpg",
        "location": "",
        "point_id": "m1r2tcn25",
        "point_name": "篠村八幡宮",
        "remark": "足利尊氏起兵倒幕之地。"
      },
      "type": "Feature"
    },
    {
      "geometry": {
        "coordinates": [
          139.559337,
          35.320478
        ],
        "type": "Point"
      },
      "properties": {
        "bangumi_id": 424573,
        "bangumi_title": "擅长逃跑的殿下",
        "ep_cut": 1,
        "image_url": "https://w.junreimap.com/images/points/424573/m1s50m0oj_1720347468333.jpg",
        "location": "",
        "point_id": "m1s50m0oj",
        "point_name": "東勝寺跡",
        "remark": "北条高时战败后带领家人和臣子切腹自杀之地。"
      },
      "type": "Feature"
    },
    {
      "geometry": {
        "coordinates": [
          139.559656,
          35.320403
        ],
        "type": "Point"
      },
      "properties": {
        "bangumi_id": 424573,
        "bangumi_title": "擅长逃跑的殿下",
        "ep_cut": 1,
        "image_url": "https://w.junreimap.com/images/points/424573/m1s7gp7fw_1720347828580.jpg",
        "location": "",
        "point_id": "m1s7gp7fw",
        "point_name": "北条高時腹切りやぐら",
        "remark": "Yagura（やぐら）是历史上曾流行于镰仓周边地区的洞穴式纳骨窟或供养堂，此处设有北条高时的Yagura。"
      },
      "type": "Feature"
    },
    {
      "geometry": {
        "coordinates": [
          138.134541,
          35.992629
        ],
        "type": "Point"
      },
      "properties": {
        "bangumi_id": 424573,
        "bangumi_title": "擅长逃跑的殿下",
        "ep_cut": 3,
        "image_url": "https://w.junreimap.com/images/points/424573/mv7p70s41_1722653819498.jpg",
        "location": "",
        "point_id": "mv7p70s41",
        "point_name": "諏訪大社 上社前宮",
        "remark": "诹访大社四社中最古老的一社，内有诹访赖重供养塔。"
      },
      "type": "Feature"
    },
    {
      "geometry": {
        "coordinates": [
          138.133654,
          35.991262
        ],
        "type": "Point"
      },
      "properties": {
        "bangumi_id": 424573,
        "bangumi_title": "擅长逃跑的殿下",
        "ep_cut": 3,
        "image_url": "https://w.junreimap.com/images/points/424573/mv984ecxd_1722657116254.jpg",
        "location": "",
        "point_id": "mv984ecxd",
        "point_name": "諏訪大社 四本の御柱",
        "remark": "立于神社四角的四根巨木，诹访大社的四个社各有四根御柱，共十六根。"
      },
      "type": "Feature"
    },
    {
      "geometry": {
        "coordinates": [
          135.764963,
          35.014578
        ],
        "type": "Point"
      },
      "properties": {
        "bangumi_id": 424573,
        "bangumi_title": "擅长逃跑的殿下",
        "ep_cut": 4,
        "image_url": "https://w.junreimap.com/images/points/424573/mv87kym0f_1722656874259.jpg",
        "location": "",
        "point_id": "mv87kym0f",
        "point_name": "二條富小路内裏址",
        "remark": "后醍醐天皇的皇居冷泉富小路殿所在地。现存纪念碑一座。实际上的宫殿原址在更东一点的地方。参考：https://greengreengrass.hatenadiary.jp/entry/2021/07/18/171958#godaigo"
      },
      "type": "Feature"
    },
    {
      "geometry": {
        "coordinates": [
          138.134495,
          35.99258
        ],
        "type": "Point"
      },
      "properties": {
        "bangumi_id": 424573,
        "bangumi_title": "擅长逃跑的殿下",
        "ep_cut": 4,
        "image_url": "https://w.junreimap.com/images/points/424573/nbz7zv0et_1723967452722.jpg",
        "location": "",
        "point_id": "nbz7zv0et",
        "point_name": "諏訪大社 上社前宮",
        "remark": ""
      },
      "type": "Feature"
    },
    {
      "geometry": {
        "coordinates": [
          137.947077,
          36.12945
        ],
        "type": "Point"
      },
      "properties": {
        "bangumi_id": 424573,
        "bangumi_title": "擅长逃跑的殿下",
        "ep_cut": 5,
        "image_url": "https://w.junreimap.com/images/points/424573/nbycd53h3_1723966236185.jpg",
        "location": "",
        "point_id": "nbycd53h3",
        "point_name": "桔梗ヶ原",
        "remark": "桔梗之原位于長野县盐尻市的奈良井川和田川之间的一片土地。当地有名为玄蕃之丞的狐狸传说。"
      },
      "type": "Feature"
    },
    {
      "geometry": {
        "coordinates": [
          137.827843,
          35.487252
        ],
        "type": "Point"
      },
      "properties": {
        "bangumi_id": 424573,
        "bangumi_title": "擅长逃跑的殿下",
        "ep_cut": 5,
        "image_url": "https://w.junreimap.com/images/points/424573/nby0agel7_1723965399725.jpg",
        "location": "",
        "point_id": "nby0agel7",
        "point_name": "松尾城跡",
        "remark": "小笠原家在镰仓时代的根据地。1334年，小笠原贞宗被任命为信浓国守护，随后将根据地迁移至信浓国府中，并建立了井川城。"
      },
      "type": "Feature"
    },
    {
      "geometry": {
        "coordinates": [
          138.084599,
          36.049698
        ],
        "type": "Point"
      },
      "properties": {
        "bangumi_id": 424573,
        "bangumi_title": "擅长逃跑的殿下",
        "ep_cut": 7,
        "image_url": "https://w.junreimap.com/images/points/424573/nbzcgvth8_1723967716346.jpg",
        "location": "",
        "point_id": "nbzcgvth8",
        "point_name": "諏訪湖",
        "remark": ""
      },
      "type": "Feature"
    },
    {
      "geometry": {
        "coordinates": [
          138.134559,
          35.992615
        ],
        "type": "Point"
      },
      "properties": {
        "bangumi_id": 424573,
        "bangumi_title": "擅长逃跑的殿下",
        "ep_cut": 7,
        "image_url": "https://w.junreimap.com/images/points/424573/nbzcydgvj_1723967746299.jpg",
        "location": "",
        "point_id": "nbzcydgvj",
        "point_name": "諏訪大社 上社前宮",
        "remark": ""
      },
      "type": "Feature"
    },
    {
      "geometry": {
        "coordinates": [
          138.001442,
          36.199198
        ],
        "type": "Point"
      },
      "properties": {
        "bangumi_id": 424573,
        "bangumi_title": "擅长逃跑的殿下",
        "ep_cut": 7,
        "image_url": "https://w.junreimap.com/images/points/424573/nbz6cfx9w_1723967684926.jpg",
        "location": "",
        "point_id": "nbz6cfx9w",
        "point_name": "中山庄",
        "remark": "架空地名，对应了现实中的松本市中山。"
      },
      "type": "Feature"
    },
    {
      "geometry": {
        "coordinates": [
          137.996332,
          36.161931
        ],
        "type": "Point"
      },
      "properties": {
        "bangumi_id": 424573,
        "bangumi_title": "擅长逃跑的殿下",
        "ep_cut": 7,
        "image_url": "https://w.junreimap.com/images/points/424573/nbzitrp74_1723968136937.jpg",
        "location": "",
        "point_id": "nbzitrp74",
        "point_name": "浅田庄",
        "remark": "架空地名，对应了现实中松本市内田向井北部的浅田地区。"
      },
      "type": "Feature"
    },
    {
      "geometry": {
        "coordinates": [
          138.011083,
          35.591404
        ],
        "type": "Point"
      },
      "properties": {
        "bangumi_id": 424573,
        "bangumi_title": "擅长逃跑的殿下",
        "ep_cut": "ED",
        "image_url": "https://w.junreimap.com/images/points/424573/m1r5mra2a_1720345260288.jpg",
        "location": "",
        "point_id": "m1r5mra2a",
        "point_name": "伝 北条時行墓碑",
        "remark": "长野县大鹿村有北条时行隐居于此并留下后代的传说，此墓碑则被当地人传为北条时行之墓。"
      },
      "type": "Feature"
    },
    {
      "geometry": {
        "coordinates": [
          138.26645,
          35.91441
        ],
        "type": "Point"
      },
      "properties": {
        "bangumi_id": 424573,
        "bangumi_title": "擅长逃跑的殿下",
        "ep_cut": "",
        "image_url": "",
        "location": "",
        "point_id": "mv7z1l85w",
        "point_name": "乙事諏訪神社",
        "remark": "漫画中诹访大社本殿原型。"
      },
      "type": "Feature"
    }
  ],
  "type": "FeatureCollection"
}