{
  "features": [
    {
      "geometry": {
        "coordinates": [
          139.700553,
          35.659779
        ],
        "type": "Point"
      },
      "properties": {
        "bangumi_id": 425909,
        "bangumi_title": "夜晚的水母不会游泳",
        "ep_cut": 1,
        "image_url": "https://w.junreimap.com/images/user/0/bangumi/425909/points/o0fbxse7u-1725883303742.jpg",
        "location": "S01EP01",
        "point_id": "o0fbxse7u",
        "point_name": "SHIBUYA TSUTAYA",
        "remark": ""
      },
      "type": "Feature"
    },
    {
      "geometry": {
        "coordinates": [
          139.702123,
          35.659941
        ],
        "type": "Point"
      },
      "properties": {
        "bangumi_id": 425909,
        "bangumi_title": "夜晚的水母不会游泳",
        "ep_cut": 1,
        "image_url": "https://w.junreimap.com/images/user/1075/bangumi/425909/points/jx0ygt42i-1714332530008.jpg",
        "location": "S01EP01",
        "point_id": "jx0ygt42i",
        "point_name": "澀谷TOEI",
        "remark": "真昼（夜）路过的电影院门口，实际22年已永久停业"
      },
      "type": "Feature"
    },
    {
      "geometry": {
        "coordinates": [
          139.69712,
          35.662608
        ],
        "type": "Point"
      },
      "properties": {
        "bangumi_id": 425909,
        "bangumi_title": "夜晚的水母不会游泳",
        "ep_cut": 1,
        "image_url": "https://w.junreimap.com/images/user/0/bangumi/425909/points/nzc3tb8o5-1725797904303.jpg",
        "location": "S01EP01",
        "point_id": "nzc3tb8o5",
        "point_name": "CONA 渋谷宇田川町店周邊",
        "remark": ""
      },
      "type": "Feature"
    },
    {
      "geometry": {
        "coordinates": [
          139.698872,
          35.661458
        ],
        "type": "Point"
      },
      "properties": {
        "bangumi_id": 425909,
        "bangumi_title": "夜晚的水母不会游泳",
        "ep_cut": 1,
        "image_url": "https://w.junreimap.com/images/user/0/bangumi/425909/points/jhz8cz2i2-1713154006766.jpg",
        "location": "S01EP01",
        "point_id": "jhz8cz2i2",
        "point_name": "スペイン坂",
        "remark": "第一集まひる试眼镜的店子"
      },
      "type": "Feature"
    },
    {
      "geometry": {
        "coordinates": [
          139.701432,
          35.660277
        ],
        "type": "Point"
      },
      "properties": {
        "bangumi_id": 425909,
        "bangumi_title": "夜晚的水母不会游泳",
        "ep_cut": 1,
        "image_url": "https://w.junreimap.com/images/user/0/bangumi/425909/points/jhzsmrlq8-1713154512019.jpg",
        "location": "S01EP01",
        "point_id": "jhzsmrlq8",
        "point_name": "のんべい横丁",
        "remark": ""
      },
      "type": "Feature"
    },
    {
      "geometry": {
        "coordinates": [
          139.69882,
          35.661644
        ],
        "type": "Point"
      },
      "properties": {
        "bangumi_id": 425909,
        "bangumi_title": "夜晚的水母不会游泳",
        "ep_cut": 1,
        "image_url": "https://w.junreimap.com/images/user/0/bangumi/425909/points/jhzykuee6-1713154804164.jpg",
        "location": "S01EP01",
        "point_id": "jhzykuee6",
        "point_name": "渋谷PARCO",
        "remark": "第1集まひる买袜子的地方"
      },
      "type": "Feature"
    },
    {
      "geometry": {
        "coordinates": [
          139.7016,
          35.660735
        ],
        "type": "Point"
      },
      "properties": {
        "bangumi_id": 425909,
        "bangumi_title": "夜晚的水母不会游泳",
        "ep_cut": 1,
        "image_url": "https://w.junreimap.com/images/user/1075/bangumi/425909/points/jy3v5punw-1714417174652.jpg",
        "location": "S01EP01",
        "point_id": "jy3v5punw",
        "point_name": "宮下公園スケート場",
        "remark": "花音和夜聊天时附近的滑板场"
      },
      "type": "Feature"
    },
    {
      "geometry": {
        "coordinates": [
          139.701885,
          35.661368
        ],
        "type": "Point"
      },
      "properties": {
        "bangumi_id": 425909,
        "bangumi_title": "夜晚的水母不会游泳",
        "ep_cut": 1,
        "image_url": "https://w.junreimap.com/images/user/0/bangumi/425909/points/ji0jual5e-1713156122125.jpg",
        "location": "S01EP01",
        "point_id": "ji0jual5e",
        "point_name": "渋谷区立宮下公園",
        "remark": "捏鼻子的楼梯"
      },
      "type": "Feature"
    },
    {
      "geometry": {
        "coordinates": [
          139.702171,
          35.663235
        ],
        "type": "Point"
      },
      "properties": {
        "bangumi_id": 425909,
        "bangumi_title": "夜晚的水母不会游泳",
        "ep_cut": 1,
        "image_url": "https://w.junreimap.com/images/user/0/bangumi/425909/points/jhzv3sm9x-1713154653630.jpg",
        "location": "S01EP01",
        "point_id": "jhzv3sm9x",
        "point_name": "宮下第1歩道橋",
        "remark": "经典的两个人在步道桥上聊天，但实际上这里后面会有一栋很近的楼，拍出来没有这么好看……\n此桥实则为宫下第2步道桥，远景大楼更符合原作图"
      },
      "type": "Feature"
    },
    {
      "geometry": {
        "coordinates": [
          139.70211,
          35.66326
        ],
        "type": "Point"
      },
      "properties": {
        "bangumi_id": 425909,
        "bangumi_title": "夜晚的水母不会游泳",
        "ep_cut": 1,
        "image_url": "https://w.junreimap.com/images/user/0/bangumi/425909/points/o0epqfjce-1725881976702.jpg",
        "location": "S01EP01",
        "point_id": "o0epqfjce",
        "point_name": "宮下第二歩道橋",
        "remark": ""
      },
      "type": "Feature"
    },
    {
      "geometry": {
        "coordinates": [
          139.702231,
          35.663132
        ],
        "type": "Point"
      },
      "properties": {
        "bangumi_id": 425909,
        "bangumi_title": "夜晚的水母不会游泳",
        "ep_cut": 1,
        "image_url": "https://w.junreimap.com/images/user/1069/bangumi/425909/points/jhwldmepx-1713147651132.jpg",
        "location": "S01EP01",
        "point_id": "jhwldmepx",
        "point_name": "明治通り渋谷区神宮前六丁目",
        "remark": ""
      },
      "type": "Feature"
    },
    {
      "geometry": {
        "coordinates": [
          139.702009,
          35.660747
        ],
        "type": "Point"
      },
      "properties": {
        "bangumi_id": 425909,
        "bangumi_title": "夜晚的水母不会游泳",
        "ep_cut": 1,
        "image_url": "https://w.junreimap.com/images/user/0/bangumi/425909/points/nzccd4lps-1725798394789.jpg",
        "location": "S01EP01",
        "point_id": "nzccd4lps",
        "point_name": "ファミリー​マート\n渋谷​一丁目​店",
        "remark": ""
      },
      "type": "Feature"
    },
    {
      "geometry": {
        "coordinates": [
          139.700961,
          35.659384
        ],
        "type": "Point"
      },
      "properties": {
        "bangumi_id": 425909,
        "bangumi_title": "夜晚的水母不会游泳",
        "ep_cut": 1,
        "image_url": "https://w.junreimap.com/images/user/1069/bangumi/425909/points/jhx29rlrm-1713148871211.jpg",
        "location": "S01EP01",
        "point_id": "jhx29rlrm",
        "point_name": "渋谷駅前クロスライン橋の下",
        "remark": ""
      },
      "type": "Feature"
    },
    {
      "geometry": {
        "coordinates": [
          139.701437,
          35.660347
        ],
        "type": "Point"
      },
      "properties": {
        "bangumi_id": 425909,
        "bangumi_title": "夜晚的水母不会游泳",
        "ep_cut": 1,
        "image_url": "https://w.junreimap.com/images/user/0/bangumi/425909/points/jhzod5d84-1713154380518.jpg",
        "location": "S01EP01",
        "point_id": "jhzod5d84",
        "point_name": "中渋谷ガード駐輪場",
        "remark": "两个人跑过的涵洞"
      },
      "type": "Feature"
    },
    {
      "geometry": {
        "coordinates": [
          139.697793,
          35.660085
        ],
        "type": "Point"
      },
      "properties": {
        "bangumi_id": 425909,
        "bangumi_title": "夜晚的水母不会游泳",
        "ep_cut": 2,
        "image_url": "https://w.junreimap.com/images/user/1075/bangumi/425909/points/jwzqpr936-1714329950528.jpg",
        "location": "S01EP02",
        "point_id": "jwzqpr936",
        "point_name": "(株)黒澤楽器店 G-CLUB Shibuya",
        "remark": "OP中木村酱路过的乐器店，在涩谷唐吉坷德本店对面"
      },
      "type": "Feature"
    },
    {
      "geometry": {
        "coordinates": [
          139.705979,
          35.668656
        ],
        "type": "Point"
      },
      "properties": {
        "bangumi_id": 425909,
        "bangumi_title": "夜晚的水母不会游泳",
        "ep_cut": 2,
        "image_url": "https://w.junreimap.com/images/user/1075/bangumi/425909/points/jwwt4bx8i-1714323405910.jpg",
        "location": "S01EP02",
        "point_id": "jwwt4bx8i",
        "point_name": "東急​プラザ​表参道​原宿",
        "remark": "OP中花音坐电梯离开的商圈"
      },
      "type": "Feature"
    },
    {
      "geometry": {
        "coordinates": [
          139.700985,
          35.661934
        ],
        "type": "Point"
      },
      "properties": {
        "bangumi_id": 425909,
        "bangumi_title": "夜晚的水母不会游泳",
        "ep_cut": 2,
        "image_url": "https://w.junreimap.com/images/user/0/bangumi/425909/points/o4tz9hxmb-1726228933144.jpg",
        "location": "S01EP02",
        "point_id": "o4tz9hxmb",
        "point_name": "タワーレコード 渋谷店",
        "remark": "OP畫面(1話及12話沒有OP)\n以下是各話OP出現秒數\n[ 2話 1:18、3話 1:43、4話 1:41、5話 1:16、6話 2:15、7話 3:06、8話 2:12、9話 1:28、10話 1:11、11話 1:20 ]"
      },
      "type": "Feature"
    },
    {
      "geometry": {
        "coordinates": [
          139.701996,
          35.659321
        ],
        "type": "Point"
      },
      "properties": {
        "bangumi_id": 425909,
        "bangumi_title": "夜晚的水母不会游泳",
        "ep_cut": 2,
        "image_url": "https://w.junreimap.com/images/user/0/bangumi/425909/points/ji43zkl41-1713163835825.jpg",
        "location": "S01EP02",
        "point_id": "ji43zkl41",
        "point_name": "渋谷駅前",
        "remark": "澀谷車站旁的公交站"
      },
      "type": "Feature"
    },
    {
      "geometry": {
        "coordinates": [
          139.773828,
          35.721059
        ],
        "type": "Point"
      },
      "properties": {
        "bangumi_id": 425909,
        "bangumi_title": "夜晚的水母不会游泳",
        "ep_cut": 2,
        "image_url": "https://w.junreimap.com/images/user/1069/bangumi/425909/points/jxwnmtq1l-1714401742109.jpg",
        "location": "S01EP02",
        "point_id": "jxwnmtq1l",
        "point_name": "东京音乐艺术大附属音乐高校",
        "remark": "看街景对比，有一些差别，也有很多相似的地方，不太确定是不是原型"
      },
      "type": "Feature"
    },
    {
      "geometry": {
        "coordinates": [
          139.719007,
          35.729071
        ],
        "type": "Point"
      },
      "properties": {
        "bangumi_id": 425909,
        "bangumi_title": "夜晚的水母不会游泳",
        "ep_cut": 2,
        "image_url": "https://w.junreimap.com/images/user/0/bangumi/425909/points/nzch5xepj-1725798771386.jpg",
        "location": "S01EP02",
        "point_id": "nzch5xepj",
        "point_name": "サンシャインシティ 噴水広場",
        "remark": ""
      },
      "type": "Feature"
    },
    {
      "geometry": {
        "coordinates": [
          139.581147,
          35.704679
        ],
        "type": "Point"
      },
      "properties": {
        "bangumi_id": 425909,
        "bangumi_title": "夜晚的水母不会游泳",
        "ep_cut": 2,
        "image_url": "https://w.junreimap.com/images/user/0/bangumi/425909/points/nyr7yroug-1725752420781.jpg",
        "location": "S01EP02",
        "point_id": "nyr7yroug",
        "point_name": "ヨドバシカメラ マルチメディア吉祥寺",
        "remark": ""
      },
      "type": "Feature"
    },
    {
      "geometry": {
        "coordinates": [
          139.701813,
          35.662536
        ],
        "type": "Point"
      },
      "properties": {
        "bangumi_id": 425909,
        "bangumi_title": "夜晚的水母不会游泳",
        "ep_cut": 3,
        "image_url": "https://w.junreimap.com/images/user/1075/bangumi/425909/points/jwwnb9ma1-1714323103102.jpg",
        "location": "S01EP03",
        "point_id": "jwwnb9ma1",
        "point_name": "スターバックス​コーヒー​MIYASHITA ​PARK​店",
        "remark": "第二集OP第三集都有出现，Jelly常聚会的地点——楼顶星巴克"
      },
      "type": "Feature"
    },
    {
      "geometry": {
        "coordinates": [
          139.699804,
          35.659523
        ],
        "type": "Point"
      },
      "properties": {
        "bangumi_id": 425909,
        "bangumi_title": "夜晚的水母不会游泳",
        "ep_cut": 3,
        "image_url": "https://w.junreimap.com/images/user/0/bangumi/425909/points/ny8vblt9p-1725712640525.jpg",
        "location": "S01EP03",
        "point_id": "ny8vblt9p",
        "point_name": "道玄坂（LUSH 澀谷站前店前）",
        "remark": ""
      },
      "type": "Feature"
    },
    {
      "geometry": {
        "coordinates": [
          139.701026,
          35.691922
        ],
        "type": "Point"
      },
      "properties": {
        "bangumi_id": 425909,
        "bangumi_title": "夜晚的水母不会游泳",
        "ep_cut": 4,
        "image_url": "https://w.junreimap.com/images/user/0/bangumi/425909/points/ny9yy6hwr-1725714967795.jpg",
        "location": "S01EP04",
        "point_id": "ny9yy6hwr",
        "point_name": "JR新宿駅東口",
        "remark": ""
      },
      "type": "Feature"
    },
    {
      "geometry": {
        "coordinates": [
          139.701269,
          35.691457
        ],
        "type": "Point"
      },
      "properties": {
        "bangumi_id": 425909,
        "bangumi_title": "夜晚的水母不会游泳",
        "ep_cut": 4,
        "image_url": "https://w.junreimap.com/images/user/0/bangumi/425909/points/nyac1x988-1725715696463.jpg",
        "location": "S01EP04",
        "point_id": "nyac1x988",
        "point_name": "JR新宿駅 東改札",
        "remark": ""
      },
      "type": "Feature"
    },
    {
      "geometry": {
        "coordinates": [
          139.702975,
          35.6998
        ],
        "type": "Point"
      },
      "properties": {
        "bangumi_id": 425909,
        "bangumi_title": "夜晚的水母不会游泳",
        "ep_cut": 4,
        "image_url": "https://w.junreimap.com/images/user/0/bangumi/425909/points/nyac9s4ro-1725715705009.jpg",
        "location": "S01EP04",
        "point_id": "nyac9s4ro",
        "point_name": "イケメン通り",
        "remark": ""
      },
      "type": "Feature"
    },
    {
      "geometry": {
        "coordinates": [
          139.701961,
          35.689916
        ],
        "type": "Point"
      },
      "properties": {
        "bangumi_id": 425909,
        "bangumi_title": "夜晚的水母不会游泳",
        "ep_cut": 4,
        "image_url": "https://w.junreimap.com/images/user/1075/bangumi/425909/points/jvwmgu6t3-1714244697255.jpg",
        "location": "S01EP04",
        "point_id": "jvwmgu6t3",
        "point_name": "生そば",
        "remark": "偶像团体坐车附近街区，左边是塔店巡礼点，右边是荞麦面店招牌"
      },
      "type": "Feature"
    },
    {
      "geometry": {
        "coordinates": [
          139.701619,
          35.689848
        ],
        "type": "Point"
      },
      "properties": {
        "bangumi_id": 425909,
        "bangumi_title": "夜晚的水母不会游泳",
        "ep_cut": 4,
        "image_url": "https://w.junreimap.com/images/user/1075/bangumi/425909/points/jvwimvsah-1714244542925.jpg",
        "location": "S01EP04",
        "point_id": "jvwimvsah",
        "point_name": "タワーレコード 新宿店",
        "remark": "扶梯立牌店主挠头.jpg"
      },
      "type": "Feature"
    },
    {
      "geometry": {
        "coordinates": [
          139.649662,
          35.701186
        ],
        "type": "Point"
      },
      "properties": {
        "bangumi_id": 425909,
        "bangumi_title": "夜晚的水母不会游泳",
        "ep_cut": 4,
        "image_url": "https://w.junreimap.com/images/user/1075/bangumi/425909/points/jvv6lgj3w-1714246257888.jpg",
        "location": "S01EP04",
        "point_id": "jvv6lgj3w",
        "point_name": "2000Toys高円寺店",
        "remark": "这个玩具店在协力名单里，但没出现在剧情画面中，估计是四个玩具盲盒的赞助（猜的）"
      },
      "type": "Feature"
    },
    {
      "geometry": {
        "coordinates": [
          139.719767,
          35.728596
        ],
        "type": "Point"
      },
      "properties": {
        "bangumi_id": 425909,
        "bangumi_title": "夜晚的水母不会游泳",
        "ep_cut": 5,
        "image_url": "https://w.junreimap.com/images/user/0/bangumi/425909/points/nyaxzfctf-1725717067111.jpg",
        "location": "S01EP05",
        "point_id": "nyaxzfctf",
        "point_name": "サンシャイン水族館",
        "remark": ""
      },
      "type": "Feature"
    },
    {
      "geometry": {
        "coordinates": [
          139.705336,
          35.692684
        ],
        "type": "Point"
      },
      "properties": {
        "bangumi_id": 425909,
        "bangumi_title": "夜晚的水母不会游泳",
        "ep_cut": 5,
        "image_url": "https://w.junreimap.com/images/user/0/bangumi/425909/points/nyajo7due-1725716233799.jpg",
        "location": "S01EP05",
        "point_id": "nyajo7due",
        "point_name": "花園神社",
        "remark": ""
      },
      "type": "Feature"
    },
    {
      "geometry": {
        "coordinates": [
          139.699225,
          35.657987
        ],
        "type": "Point"
      },
      "properties": {
        "bangumi_id": 425909,
        "bangumi_title": "夜晚的水母不会游泳",
        "ep_cut": 6,
        "image_url": "https://w.junreimap.com/images/user/0/bangumi/425909/points/ny9fzhzf5-1725713723130.jpg",
        "location": "S01EP06",
        "point_id": "ny9fzhzf5",
        "point_name": "フジキビル",
        "remark": ""
      },
      "type": "Feature"
    },
    {
      "geometry": {
        "coordinates": [
          139.705429,
          35.69346
        ],
        "type": "Point"
      },
      "properties": {
        "bangumi_id": 425909,
        "bangumi_title": "夜晚的水母不会游泳",
        "ep_cut": 6,
        "image_url": "https://w.junreimap.com/images/user/0/bangumi/425909/points/nyas9lk3b-1725716745040.jpg",
        "location": "S01EP06",
        "point_id": "nyas9lk3b",
        "point_name": "花園神社",
        "remark": ""
      },
      "type": "Feature"
    },
    {
      "geometry": {
        "coordinates": [
          139.697973,
          35.730462
        ],
        "type": "Point"
      },
      "properties": {
        "bangumi_id": 425909,
        "bangumi_title": "夜晚的水母不会游泳",
        "ep_cut": 7,
        "image_url": "https://w.junreimap.com/images/user/0/bangumi/425909/points/nyb0789fb-1725717182724.jpg",
        "location": "S01EP07",
        "point_id": "nyb0789fb",
        "point_name": "レンタル819池袋",
        "remark": ""
      },
      "type": "Feature"
    },
    {
      "geometry": {
        "coordinates": [
          139.701641,
          35.659451
        ],
        "type": "Point"
      },
      "properties": {
        "bangumi_id": 425909,
        "bangumi_title": "夜晚的水母不会游泳",
        "ep_cut": 7,
        "image_url": "https://w.junreimap.com/images/user/0/bangumi/425909/points/ny9uojn0e-1725714597540.jpg",
        "location": "S01EP07",
        "point_id": "ny9uojn0e",
        "point_name": "LOEWEオブジェクト",
        "remark": ""
      },
      "type": "Feature"
    },
    {
      "geometry": {
        "coordinates": [
          139.701697,
          35.660805
        ],
        "type": "Point"
      },
      "properties": {
        "bangumi_id": 425909,
        "bangumi_title": "夜晚的水母不会游泳",
        "ep_cut": 7,
        "image_url": "https://w.junreimap.com/images/user/0/bangumi/425909/points/o0fox2v59-1725887088046.jpg",
        "location": "S01EP07",
        "point_id": "o0fox2v59",
        "point_name": "ミヤシタカフェ+ソフトクリーム",
        "remark": ""
      },
      "type": "Feature"
    },
    {
      "geometry": {
        "coordinates": [
          139.774006,
          35.62925
        ],
        "type": "Point"
      },
      "properties": {
        "bangumi_id": 425909,
        "bangumi_title": "夜晚的水母不会游泳",
        "ep_cut": 7,
        "image_url": "https://w.junreimap.com/images/user/0/bangumi/425909/points/nycb24oan-1725719949900.jpg",
        "location": "S01EP07",
        "point_id": "nycb24oan",
        "point_name": "お台場海浜公園船着場",
        "remark": ""
      },
      "type": "Feature"
    },
    {
      "geometry": {
        "coordinates": [
          139.625408,
          35.906453
        ],
        "type": "Point"
      },
      "properties": {
        "bangumi_id": 425909,
        "bangumi_title": "夜晚的水母不会游泳",
        "ep_cut": 8,
        "image_url": "https://w.junreimap.com/images/user/0/bangumi/425909/points/nyclyb7i4-1725720628370.jpg",
        "location": "S01EP08",
        "point_id": "nyclyb7i4",
        "point_name": "JR大宮駅東口",
        "remark": ""
      },
      "type": "Feature"
    },
    {
      "geometry": {
        "coordinates": [
          139.625477,
          35.907069
        ],
        "type": "Point"
      },
      "properties": {
        "bangumi_id": 425909,
        "bangumi_title": "夜晚的水母不会游泳",
        "ep_cut": 8,
        "image_url": "https://w.junreimap.com/images/user/0/bangumi/425909/points/o0fvd6wg5-1725884662500.jpg",
        "location": "S01EP08",
        "point_id": "o0fvd6wg5",
        "point_name": "みずほ​銀行​ATM",
        "remark": ""
      },
      "type": "Feature"
    },
    {
      "geometry": {
        "coordinates": [
          139.71272,
          35.73471
        ],
        "type": "Point"
      },
      "properties": {
        "bangumi_id": 425909,
        "bangumi_title": "夜晚的水母不会游泳",
        "ep_cut": 8,
        "image_url": "https://w.junreimap.com/images/user/0/bangumi/425909/points/nycxcscan-1725721290609.jpg",
        "location": "S01EP08",
        "point_id": "nycxcscan",
        "point_name": "ホテルロータス 池袋店",
        "remark": ""
      },
      "type": "Feature"
    },
    {
      "geometry": {
        "coordinates": [
          139.698287,
          35.661459
        ],
        "type": "Point"
      },
      "properties": {
        "bangumi_id": 425909,
        "bangumi_title": "夜晚的水母不会游泳",
        "ep_cut": 8,
        "image_url": "https://w.junreimap.com/images/user/0/bangumi/425909/points/ny9e74xfj-1725713835456.jpg",
        "location": "S01EP08",
        "point_id": "ny9e74xfj",
        "point_name": "SHIBUYA CYCLONE",
        "remark": ""
      },
      "type": "Feature"
    },
    {
      "geometry": {
        "coordinates": [
          139.697867,
          35.659287
        ],
        "type": "Point"
      },
      "properties": {
        "bangumi_id": 425909,
        "bangumi_title": "夜晚的水母不会游泳",
        "ep_cut": 10,
        "image_url": "https://w.junreimap.com/images/user/0/bangumi/425909/points/nzdo7soly-1725801283577.jpg",
        "location": "S01EP10",
        "point_id": "nzdo7soly",
        "point_name": "珈琲店トップ 渋谷道玄坂店",
        "remark": ""
      },
      "type": "Feature"
    },
    {
      "geometry": {
        "coordinates": [
          139.700545,
          35.659258
        ],
        "type": "Point"
      },
      "properties": {
        "bangumi_id": 425909,
        "bangumi_title": "夜晚的水母不会游泳",
        "ep_cut": 10,
        "image_url": "https://w.junreimap.com/images/user/0/bangumi/425909/points/nzdes2hk5-1725800760795.jpg",
        "location": "S01EP10",
        "point_id": "nzdes2hk5",
        "point_name": "地球のうえに あそぶこどもたち",
        "remark": ""
      },
      "type": "Feature"
    },
    {
      "geometry": {
        "coordinates": [
          139.705026,
          35.698209
        ],
        "type": "Point"
      },
      "properties": {
        "bangumi_id": 425909,
        "bangumi_title": "夜晚的水母不会游泳",
        "ep_cut": 10,
        "image_url": "https://w.junreimap.com/images/user/0/bangumi/425909/points/nzcy19o7f-1725799730651.jpg",
        "location": "S01EP10",
        "point_id": "nzcy19o7f",
        "point_name": "すしざんまい 東新宿店 脇の道路",
        "remark": ""
      },
      "type": "Feature"
    },
    {
      "geometry": {
        "coordinates": [
          139.609906,
          35.94026
        ],
        "type": "Point"
      },
      "properties": {
        "bangumi_id": 425909,
        "bangumi_title": "夜晚的水母不会游泳",
        "ep_cut": 11,
        "image_url": "https://w.junreimap.com/images/user/0/bangumi/425909/points/nzdx6d6o0-1725801836747.jpg",
        "location": "S01EP11",
        "point_id": "nzdx6d6o0",
        "point_name": "JR宮原駅東口",
        "remark": ""
      },
      "type": "Feature"
    },
    {
      "geometry": {
        "coordinates": [
          139.610529,
          35.940402
        ],
        "type": "Point"
      },
      "properties": {
        "bangumi_id": 425909,
        "bangumi_title": "夜晚的水母不会游泳",
        "ep_cut": 11,
        "image_url": "https://w.junreimap.com/images/user/0/bangumi/425909/points/nze053c0e-1725802010100.jpg",
        "location": "S01EP11",
        "point_id": "nze053c0e",
        "point_name": "日高屋 宮原東口店",
        "remark": ""
      },
      "type": "Feature"
    },
    {
      "geometry": {
        "coordinates": [
          139.62571,
          35.90501
        ],
        "type": "Point"
      },
      "properties": {
        "bangumi_id": 425909,
        "bangumi_title": "夜晚的水母不会游泳",
        "ep_cut": 11,
        "image_url": "https://w.junreimap.com/images/user/0/bangumi/425909/points/nze313ky5-1725802179641.jpg",
        "location": "S01EP11",
        "point_id": "nze313ky5",
        "point_name": "アピナ大宮店（※昨年閉店済）",
        "remark": ""
      },
      "type": "Feature"
    },
    {
      "geometry": {
        "coordinates": [
          139.701632,
          35.66028
        ],
        "type": "Point"
      },
      "properties": {
        "bangumi_id": 425909,
        "bangumi_title": "夜晚的水母不会游泳",
        "ep_cut": 12,
        "image_url": "https://w.junreimap.com/images/user/1073/bangumi/425909/points/lmhtjxxg4-1719149371655.jpg",
        "location": "S01EP12",
        "point_id": "lmhtjxxg4",
        "point_name": "宮下公園",
        "remark": "向日葵娃娃和JELEE联动演出地"
      },
      "type": "Feature"
    },
    {
      "geometry": {
        "coordinates": [
          139.701625,
          35.660243
        ],
        "type": "Point"
      },
      "properties": {
        "bangumi_id": 425909,
        "bangumi_title": "夜晚的水母不会游泳",
        "ep_cut": 12,
        "image_url": "https://w.junreimap.com/images/points/425909/lmi2fzaq0_1719149911317.jpg",
        "location": "S01EP12",
        "point_id": "lmi2fzaq0",
        "point_name": "宮下公園",
        "remark": ""
      },
      "type": "Feature"
    },
    {
      "geometry": {
        "coordinates": [
          139.449463,
          35.726017
        ],
        "type": "Point"
      },
      "properties": {
        "bangumi_id": 425909,
        "bangumi_title": "夜晚的水母不会游泳",
        "ep_cut": 12,
        "image_url": "https://w.junreimap.com/images/user/1073/bangumi/425909/points/lmiw4xbd2-1719151704336.jpg",
        "location": "S01EP12",
        "point_id": "lmiw4xbd2",
        "point_name": "武蔵野美術大学",
        "remark": "实际是方门"
      },
      "type": "Feature"
    },
    {
      "geometry": {
        "coordinates": [
          139.601552,
          35.946066
        ],
        "type": "Point"
      },
      "properties": {
        "bangumi_id": 425909,
        "bangumi_title": "夜晚的水母不会游泳",
        "ep_cut": 12,
        "image_url": "https://w.junreimap.com/images/user/1073/bangumi/425909/points/lmizzh6wg-1719152051866.jpg",
        "location": "S01EP12",
        "point_id": "lmizzh6wg",
        "point_name": "さいたま市立大宮北高等学校",
        "remark": ""
      },
      "type": "Feature"
    }
  ],
  "type": "FeatureCollection"
}