{
  "features": [
    {
      "geometry": {
        "coordinates": [
          136.888972,
          35.021871
        ],
        "type": "Point"
      },
      "properties": {
        "bangumi_id": 427233,
        "bangumi_title": "五等分的新娘∽",
        "ep_cut": "视觉图",
        "image_url": "https://w.junreimap.com/images/user/2090/bangumi/427233/points/p12dl5cfo-1728754580786.jpg",
        "location": "爱知县东海市 日本福祉大学",
        "point_id": "p12dl5cfo",
        "point_name": "日本福祉大東海キャンパス 右侧入口",
        "remark": ""
      },
      "type": "Feature"
    },
    {
      "geometry": {
        "coordinates": [
          136.889193,
          35.02226
        ],
        "type": "Point"
      },
      "properties": {
        "bangumi_id": 427233,
        "bangumi_title": "五等分的新娘∽",
        "ep_cut": 1,
        "image_url": "https://w.junreimap.com/images/user/2090/bangumi/427233/points/p12fx40kw-1728754688737.jpg",
        "location": "爱知县东海市 日本福祉大学",
        "point_id": "p12fx40kw",
        "point_name": "日本​福祉​大​東海​キャンパス",
        "remark": ""
      },
      "type": "Feature"
    },
    {
      "geometry": {
        "coordinates": [
          135.758803,
          34.98616
        ],
        "type": "Point"
      },
      "properties": {
        "bangumi_id": 427233,
        "bangumi_title": "五等分的新娘∽",
        "ep_cut": 1,
        "image_url": "https://w.junreimap.com/images/user/2090/bangumi/427233/points/p12udmcy9-1728755560555.jpg",
        "location": "京都府京都市 京都站",
        "point_id": "p12udmcy9",
        "point_name": "JR京都站 中央口",
        "remark": "左下角的那张照片"
      },
      "type": "Feature"
    },
    {
      "geometry": {
        "coordinates": [
          136.888678,
          35.021396
        ],
        "type": "Point"
      },
      "properties": {
        "bangumi_id": 427233,
        "bangumi_title": "五等分的新娘∽",
        "ep_cut": 1,
        "image_url": "https://w.junreimap.com/images/user/2090/bangumi/427233/points/p12y8jlm3-1728755792974.jpg",
        "location": "爱知县东海市 日本福祉大学",
        "point_id": "p12y8jlm3",
        "point_name": "日本福祉大東海キャンパス 前的椅子",
        "remark": ""
      },
      "type": "Feature"
    },
    {
      "geometry": {
        "coordinates": [
          135.778544,
          35.003486
        ],
        "type": "Point"
      },
      "properties": {
        "bangumi_id": 427233,
        "bangumi_title": "五等分的新娘∽",
        "ep_cut": 1,
        "image_url": "https://w.junreimap.com/images/user/2090/bangumi/427233/points/p131yfm9t-1728756100858.jpg",
        "location": "京都府京都市 八坂神社",
        "point_id": "p131yfm9t",
        "point_name": "八坂神社",
        "remark": ""
      },
      "type": "Feature"
    },
    {
      "geometry": {
        "coordinates": [
          136.902529,
          35.022837
        ],
        "type": "Point"
      },
      "properties": {
        "bangumi_id": 427233,
        "bangumi_title": "五等分的新娘∽",
        "ep_cut": 1,
        "image_url": "https://w.junreimap.com/images/user/2090/bangumi/427233/points/p161v01hs-1728762535837.jpg",
        "location": "爱知县东海市",
        "point_id": "p161v01hs",
        "point_name": "東海市",
        "remark": ""
      },
      "type": "Feature"
    },
    {
      "geometry": {
        "coordinates": [
          135.707777,
          35.016795
        ],
        "type": "Point"
      },
      "properties": {
        "bangumi_id": 427233,
        "bangumi_title": "五等分的新娘∽",
        "ep_cut": 1,
        "image_url": "https://w.junreimap.com/images/user/2090/bangumi/427233/points/p13dony8c-1728756725336.jpg",
        "location": "京都府京都市 东映太秦映画村",
        "point_id": "p13dony8c",
        "point_name": "长屋门对面的座位",
        "remark": "图3"
      },
      "type": "Feature"
    },
    {
      "geometry": {
        "coordinates": [
          136.898474,
          35.002755
        ],
        "type": "Point"
      },
      "properties": {
        "bangumi_id": 427233,
        "bangumi_title": "五等分的新娘∽",
        "ep_cut": 1,
        "image_url": "https://w.junreimap.com/images/user/2090/bangumi/427233/points/p13ho3tfr-1728756967364.jpg",
        "location": "爱知县东海市 汐见丘公园",
        "point_id": "p13ho3tfr",
        "point_name": "汐見が丘公園",
        "remark": "图4"
      },
      "type": "Feature"
    },
    {
      "geometry": {
        "coordinates": [
          136.898348,
          35.00277
        ],
        "type": "Point"
      },
      "properties": {
        "bangumi_id": 427233,
        "bangumi_title": "五等分的新娘∽",
        "ep_cut": 1,
        "image_url": "https://w.junreimap.com/images/user/2090/bangumi/427233/points/p13ka0ion-1728757120702.jpg",
        "location": "爱知县东海市 汐见丘公园",
        "point_id": "p13ka0ion",
        "point_name": "汐見が丘公園 秋千",
        "remark": "图4"
      },
      "type": "Feature"
    },
    {
      "geometry": {
        "coordinates": [
          137.868452,
          35.477739
        ],
        "type": "Point"
      },
      "properties": {
        "bangumi_id": 427233,
        "bangumi_title": "五等分的新娘∽",
        "ep_cut": 1,
        "image_url": "https://w.junreimap.com/images/user/2090/bangumi/427233/points/p13n67mot-1728757296841.jpg",
        "location": "长野县饭田市",
        "point_id": "p13n67mot",
        "point_name": "虎岩​交流​センター",
        "remark": "图3"
      },
      "type": "Feature"
    },
    {
      "geometry": {
        "coordinates": [
          135.774717,
          34.966999
        ],
        "type": "Point"
      },
      "properties": {
        "bangumi_id": 427233,
        "bangumi_title": "五等分的新娘∽",
        "ep_cut": 1,
        "image_url": "https://w.junreimap.com/images/user/2090/bangumi/427233/points/p13pncx6a-1728757456466.jpg",
        "location": "京都府京都市 伏见稻荷大社",
        "point_id": "p13pncx6a",
        "point_name": "伏見稲荷大社千本鳥居",
        "remark": "图1"
      },
      "type": "Feature"
    },
    {
      "geometry": {
        "coordinates": [
          136.892493,
          35.020575
        ],
        "type": "Point"
      },
      "properties": {
        "bangumi_id": 427233,
        "bangumi_title": "五等分的新娘∽",
        "ep_cut": 1,
        "image_url": "https://w.junreimap.com/images/user/2090/bangumi/427233/points/p13rs709p-1728757581062.jpg",
        "location": "爱知县东海市 太田川站",
        "point_id": "p13rs709p",
        "point_name": "スターバックスコーヒー ラスパ太田川店",
        "remark": ""
      },
      "type": "Feature"
    },
    {
      "geometry": {
        "coordinates": [
          135.77855,
          35.003486
        ],
        "type": "Point"
      },
      "properties": {
        "bangumi_id": 427233,
        "bangumi_title": "五等分的新娘∽",
        "ep_cut": 1,
        "image_url": "https://w.junreimap.com/images/user/2090/bangumi/427233/points/p13w1gwjx-1728757832965.jpg",
        "location": "京都府京都市 八坂神社",
        "point_id": "p13w1gwjx",
        "point_name": "八坂神社",
        "remark": ""
      },
      "type": "Feature"
    },
    {
      "geometry": {
        "coordinates": [
          135.77855,
          35.003518
        ],
        "type": "Point"
      },
      "properties": {
        "bangumi_id": 427233,
        "bangumi_title": "五等分的新娘∽",
        "ep_cut": 1,
        "image_url": "https://w.junreimap.com/images/user/2090/bangumi/427233/points/p13x9tbnh-1728757918283.jpg",
        "location": "京都府京都市 八坂神社",
        "point_id": "p13x9tbnh",
        "point_name": "八坂神社 钱币箱",
        "remark": ""
      },
      "type": "Feature"
    },
    {
      "geometry": {
        "coordinates": [
          135.202788,
          34.669143
        ],
        "type": "Point"
      },
      "properties": {
        "bangumi_id": 427233,
        "bangumi_title": "五等分的新娘∽",
        "ep_cut": 1,
        "image_url": "https://w.junreimap.com/images/user/2090/bangumi/427233/points/p14djswdb-1728758890267.jpg",
        "location": "兵库县神户市",
        "point_id": "p14djswdb",
        "point_name": "Cafeteria BREATH",
        "remark": ""
      },
      "type": "Feature"
    },
    {
      "geometry": {
        "coordinates": [
          136.909811,
          35.134918
        ],
        "type": "Point"
      },
      "properties": {
        "bangumi_id": 427233,
        "bangumi_title": "五等分的新娘∽",
        "ep_cut": 1,
        "image_url": "https://w.junreimap.com/images/user/2090/bangumi/427233/points/p14jw3uaq-1728759662238.jpg",
        "location": "爱知县名古屋市",
        "point_id": "p14jw3uaq",
        "point_name": "ザ・​ライオンズミッドキャピタルタワー",
        "remark": ""
      },
      "type": "Feature"
    },
    {
      "geometry": {
        "coordinates": [
          136.893518,
          35.019684
        ],
        "type": "Point"
      },
      "properties": {
        "bangumi_id": 427233,
        "bangumi_title": "五等分的新娘∽",
        "ep_cut": 1,
        "image_url": "https://w.junreimap.com/images/user/2090/bangumi/427233/points/p150xdzjm-1728760324788.jpg",
        "location": "爱知县东海市 太田川站",
        "point_id": "p150xdzjm",
        "point_name": "ソラト太田川",
        "remark": ""
      },
      "type": "Feature"
    },
    {
      "geometry": {
        "coordinates": [
          135.202787,
          34.669145
        ],
        "type": "Point"
      },
      "properties": {
        "bangumi_id": 427233,
        "bangumi_title": "五等分的新娘∽",
        "ep_cut": 1,
        "image_url": "https://w.junreimap.com/images/user/2090/bangumi/427233/points/p14e9mx1j-1728758935652.jpg",
        "location": "兵库县神户市",
        "point_id": "p14e9mx1j",
        "point_name": "Cafeteria BREATH",
        "remark": ""
      },
      "type": "Feature"
    },
    {
      "geometry": {
        "coordinates": [
          135.202802,
          34.669138
        ],
        "type": "Point"
      },
      "properties": {
        "bangumi_id": 427233,
        "bangumi_title": "五等分的新娘∽",
        "ep_cut": 1,
        "image_url": "https://w.junreimap.com/images/user/2090/bangumi/427233/points/p14evul3t-1728758982220.jpg",
        "location": "兵库县神户市",
        "point_id": "p14evul3t",
        "point_name": "Cafeteria BREATH",
        "remark": ""
      },
      "type": "Feature"
    },
    {
      "geometry": {
        "coordinates": [
          136.898384,
          35.002774
        ],
        "type": "Point"
      },
      "properties": {
        "bangumi_id": 427233,
        "bangumi_title": "五等分的新娘∽",
        "ep_cut": 1,
        "image_url": "https://w.junreimap.com/images/user/2090/bangumi/427233/points/p15x3funr-1728762275599.jpg",
        "location": "爱知县东海市 汐见丘公园",
        "point_id": "p15x3funr",
        "point_name": "汐見が丘公園 秋千",
        "remark": ""
      },
      "type": "Feature"
    },
    {
      "geometry": {
        "coordinates": [
          135.774683,
          34.96703
        ],
        "type": "Point"
      },
      "properties": {
        "bangumi_id": 427233,
        "bangumi_title": "五等分的新娘∽",
        "ep_cut": 1,
        "image_url": "https://w.junreimap.com/images/user/2090/bangumi/427233/points/p166o5klt-1728762827435.jpg",
        "location": "京都府京都市 伏见稻荷大社",
        "point_id": "p166o5klt",
        "point_name": "伏見稲荷大社千本鳥居",
        "remark": "图3"
      },
      "type": "Feature"
    },
    {
      "geometry": {
        "coordinates": [
          136.88891,
          35.021834
        ],
        "type": "Point"
      },
      "properties": {
        "bangumi_id": 427233,
        "bangumi_title": "五等分的新娘∽",
        "ep_cut": 1,
        "image_url": "https://w.junreimap.com/images/user/2090/bangumi/427233/points/p168s33u8-1728762958740.jpg",
        "location": "爱知县东海市 日本福祉大学",
        "point_id": "p168s33u8",
        "point_name": "日本福祉大東海キャンパス",
        "remark": "图5"
      },
      "type": "Feature"
    },
    {
      "geometry": {
        "coordinates": [
          135.707582,
          35.016185
        ],
        "type": "Point"
      },
      "properties": {
        "bangumi_id": 427233,
        "bangumi_title": "五等分的新娘∽",
        "ep_cut": 1,
        "image_url": "https://w.junreimap.com/images/user/2090/bangumi/427233/points/p169ylkfz-1728763033724.jpg",
        "location": "京都府京都市 东映太秦映画村",
        "point_id": "p169ylkfz",
        "point_name": "扮装写真館",
        "remark": "图8"
      },
      "type": "Feature"
    },
    {
      "geometry": {
        "coordinates": [
          135.707793,
          35.016791
        ],
        "type": "Point"
      },
      "properties": {
        "bangumi_id": 427233,
        "bangumi_title": "五等分的新娘∽",
        "ep_cut": 1,
        "image_url": "https://w.junreimap.com/images/user/2090/bangumi/427233/points/p16b0llqb-1728763092351.jpg",
        "location": "京都府京都市 东映太秦映画村",
        "point_id": "p16b0llqb",
        "point_name": "长屋门对面的座位",
        "remark": "图10"
      },
      "type": "Feature"
    },
    {
      "geometry": {
        "coordinates": [
          139.760708,
          35.674681
        ],
        "type": "Point"
      },
      "properties": {
        "bangumi_id": 427233,
        "bangumi_title": "五等分的新娘∽",
        "ep_cut": 1,
        "image_url": "https://w.junreimap.com/images/user/2090/bangumi/427233/points/p16ccsek7-1728763177614.jpg",
        "location": "东京都千代田区",
        "point_id": "p16ccsek7",
        "point_name": "ThePeninsula东京 客房",
        "remark": "图11"
      },
      "type": "Feature"
    },
    {
      "geometry": {
        "coordinates": [
          136.894894,
          35.002127
        ],
        "type": "Point"
      },
      "properties": {
        "bangumi_id": 427233,
        "bangumi_title": "五等分的新娘∽",
        "ep_cut": 1,
        "image_url": "https://w.junreimap.com/images/user/2090/bangumi/427233/points/p16fxzadp-1728763390974.jpg",
        "location": "爱知县东海市 中之池公园",
        "point_id": "p16fxzadp",
        "point_name": "中ノ池公園",
        "remark": "图2"
      },
      "type": "Feature"
    },
    {
      "geometry": {
        "coordinates": [
          136.924204,
          35.150193
        ],
        "type": "Point"
      },
      "properties": {
        "bangumi_id": 427233,
        "bangumi_title": "五等分的新娘∽",
        "ep_cut": 1,
        "image_url": "https://w.junreimap.com/images/user/2090/bangumi/427233/points/p16hebln2-1728763494187.jpg",
        "location": "爱知县名古屋市",
        "point_id": "p16hebln2",
        "point_name": "グラストニア",
        "remark": "结婚照"
      },
      "type": "Feature"
    },
    {
      "geometry": {
        "coordinates": [
          136.898799,
          34.998869
        ],
        "type": "Point"
      },
      "properties": {
        "bangumi_id": 427233,
        "bangumi_title": "五等分的新娘∽",
        "ep_cut": 1,
        "image_url": "https://w.junreimap.com/images/user/2090/bangumi/427233/points/p17hdz291-1728765652960.jpg",
        "location": "爱知县东海市 西知多综合病院",
        "point_id": "p17hdz291",
        "point_name": "西知多総合病院",
        "remark": ""
      },
      "type": "Feature"
    },
    {
      "geometry": {
        "coordinates": [
          136.899282,
          34.999186
        ],
        "type": "Point"
      },
      "properties": {
        "bangumi_id": 427233,
        "bangumi_title": "五等分的新娘∽",
        "ep_cut": 1,
        "image_url": "https://w.junreimap.com/images/user/2090/bangumi/427233/points/p17itnfw4-1728765746568.jpg",
        "location": "爱知县东海市 西知多综合病院",
        "point_id": "p17itnfw4",
        "point_name": "西知多総合病院 病房",
        "remark": "四人间"
      },
      "type": "Feature"
    },
    {
      "geometry": {
        "coordinates": [
          136.898585,
          34.99914
        ],
        "type": "Point"
      },
      "properties": {
        "bangumi_id": 427233,
        "bangumi_title": "五等分的新娘∽",
        "ep_cut": 1,
        "image_url": "https://w.junreimap.com/images/user/2090/bangumi/427233/points/nub2r1813-1725403872942.jpg",
        "location": "爱知县东海市 西知多综合病院",
        "point_id": "nub2r1813",
        "point_name": "西知多総合病院 门口",
        "remark": ""
      },
      "type": "Feature"
    },
    {
      "geometry": {
        "coordinates": [
          136.899268,
          34.999179
        ],
        "type": "Point"
      },
      "properties": {
        "bangumi_id": 427233,
        "bangumi_title": "五等分的新娘∽",
        "ep_cut": 1,
        "image_url": "https://w.junreimap.com/images/user/2090/bangumi/427233/points/o6wndmt18-1726391141595.jpg",
        "location": "爱知县东海市 西知多综合病院",
        "point_id": "o6wndmt18",
        "point_name": "西知多総合病院 病房",
        "remark": "店长住的这个应该是四人间"
      },
      "type": "Feature"
    },
    {
      "geometry": {
        "coordinates": [
          136.898909,
          34.999146
        ],
        "type": "Point"
      },
      "properties": {
        "bangumi_id": 427233,
        "bangumi_title": "五等分的新娘∽",
        "ep_cut": 1,
        "image_url": "https://w.junreimap.com/images/user/2090/bangumi/427233/points/p17ppn6wy-1728766147542.jpg",
        "location": "爱知县东海市 西知多综合病院",
        "point_id": "p17ppn6wy",
        "point_name": "西知多総合病院 大厅",
        "remark": ""
      },
      "type": "Feature"
    },
    {
      "geometry": {
        "coordinates": [
          136.898932,
          34.999153
        ],
        "type": "Point"
      },
      "properties": {
        "bangumi_id": 427233,
        "bangumi_title": "五等分的新娘∽",
        "ep_cut": 1,
        "image_url": "https://w.junreimap.com/images/user/2090/bangumi/427233/points/p17qznsio-1728766269169.jpg",
        "location": "爱知县东海市 西知多综合病院",
        "point_id": "p17qznsio",
        "point_name": "西知多総合病院 大厅",
        "remark": ""
      },
      "type": "Feature"
    },
    {
      "geometry": {
        "coordinates": [
          136.898925,
          34.999153
        ],
        "type": "Point"
      },
      "properties": {
        "bangumi_id": 427233,
        "bangumi_title": "五等分的新娘∽",
        "ep_cut": 1,
        "image_url": "https://w.junreimap.com/images/user/2090/bangumi/427233/points/nub63y6cp-1725404058079.jpg",
        "location": "爱知县东海市 西知多综合病院",
        "point_id": "nub63y6cp",
        "point_name": "西知多総合病院 大厅",
        "remark": ""
      },
      "type": "Feature"
    },
    {
      "geometry": {
        "coordinates": [
          136.898892,
          34.999153
        ],
        "type": "Point"
      },
      "properties": {
        "bangumi_id": 427233,
        "bangumi_title": "五等分的新娘∽",
        "ep_cut": 1,
        "image_url": "https://w.junreimap.com/images/user/2090/bangumi/427233/points/nuba662x9-1725404265163.jpg",
        "location": "爱知县东海市 西知多综合病院",
        "point_id": "nuba662x9",
        "point_name": "西知多総合病院 大厅",
        "remark": ""
      },
      "type": "Feature"
    },
    {
      "geometry": {
        "coordinates": [
          136.909801,
          35.135024
        ],
        "type": "Point"
      },
      "properties": {
        "bangumi_id": 427233,
        "bangumi_title": "五等分的新娘∽",
        "ep_cut": 1,
        "image_url": "https://w.junreimap.com/images/user/2090/bangumi/427233/points/p17uee9fo-1728766452627.jpg",
        "location": "爱知县名古屋市",
        "point_id": "p17uee9fo",
        "point_name": "ザ・​ライオンズミッドキャピタルタワー",
        "remark": ""
      },
      "type": "Feature"
    },
    {
      "geometry": {
        "coordinates": [
          136.894868,
          35.002166
        ],
        "type": "Point"
      },
      "properties": {
        "bangumi_id": 427233,
        "bangumi_title": "五等分的新娘∽",
        "ep_cut": 1,
        "image_url": "https://w.junreimap.com/images/user/2090/bangumi/427233/points/p182kt5he-1728766966249.jpg",
        "location": "爱知县东海市 中之池公园",
        "point_id": "p182kt5he",
        "point_name": "中ノ池公園",
        "remark": ""
      },
      "type": "Feature"
    },
    {
      "geometry": {
        "coordinates": [
          136.891318,
          35.020788
        ],
        "type": "Point"
      },
      "properties": {
        "bangumi_id": 427233,
        "bangumi_title": "五等分的新娘∽",
        "ep_cut": 1,
        "image_url": "https://w.junreimap.com/images/user/2090/bangumi/427233/points/p18e9ffzh-1728767648119.jpg",
        "location": "爱知县东海市 太田川站",
        "point_id": "p18e9ffzh",
        "point_name": "东海市艺术剧场附近的天桥",
        "remark": ""
      },
      "type": "Feature"
    },
    {
      "geometry": {
        "coordinates": [
          136.730565,
          35.028971
        ],
        "type": "Point"
      },
      "properties": {
        "bangumi_id": 427233,
        "bangumi_title": "五等分的新娘∽",
        "ep_cut": 2,
        "image_url": "https://w.junreimap.com/images/user/2090/bangumi/427233/points/nrv4tgdtu-1725212445673.jpg",
        "location": "三重县桑名市",
        "point_id": "nrv4tgdtu",
        "point_name": "ジャンボ海水プール 入口",
        "remark": ""
      },
      "type": "Feature"
    },
    {
      "geometry": {
        "coordinates": [
          136.73054,
          35.029221
        ],
        "type": "Point"
      },
      "properties": {
        "bangumi_id": 427233,
        "bangumi_title": "五等分的新娘∽",
        "ep_cut": 2,
        "image_url": "https://w.junreimap.com/images/user/2090/bangumi/427233/points/p18ih6w7p-1728767926834.jpg",
        "location": "三重县桑名市",
        "point_id": "p18ih6w7p",
        "point_name": "ジャンボ海水プール 入口北侧",
        "remark": ""
      },
      "type": "Feature"
    },
    {
      "geometry": {
        "coordinates": [
          136.730572,
          35.029063
        ],
        "type": "Point"
      },
      "properties": {
        "bangumi_id": 427233,
        "bangumi_title": "五等分的新娘∽",
        "ep_cut": 2,
        "image_url": "https://w.junreimap.com/images/user/2090/bangumi/427233/points/o0vlesy02-1725918798357.jpg",
        "location": "三重县桑名市",
        "point_id": "o0vlesy02",
        "point_name": "ジャンボ海水プール 入口处的标牌",
        "remark": ""
      },
      "type": "Feature"
    },
    {
      "geometry": {
        "coordinates": [
          136.7303,
          35.028992
        ],
        "type": "Point"
      },
      "properties": {
        "bangumi_id": 427233,
        "bangumi_title": "五等分的新娘∽",
        "ep_cut": 2,
        "image_url": "https://w.junreimap.com/images/user/2090/bangumi/427233/points/p18kar8r8-1728768040269.jpg",
        "location": "三重县桑名市",
        "point_id": "p18kar8r8",
        "point_name": "ジャンボ海水プール 存物间",
        "remark": ""
      },
      "type": "Feature"
    },
    {
      "geometry": {
        "coordinates": [
          136.730407,
          35.028918
        ],
        "type": "Point"
      },
      "properties": {
        "bangumi_id": 427233,
        "bangumi_title": "五等分的新娘∽",
        "ep_cut": 2,
        "image_url": "https://w.junreimap.com/images/user/2090/bangumi/427233/points/p18mehjqp-1728768137675.jpg",
        "location": "三重县桑名市",
        "point_id": "p18mehjqp",
        "point_name": "ジャンボ海水プール 入口",
        "remark": ""
      },
      "type": "Feature"
    },
    {
      "geometry": {
        "coordinates": [
          136.729452,
          35.029289
        ],
        "type": "Point"
      },
      "properties": {
        "bangumi_id": 427233,
        "bangumi_title": "五等分的新娘∽",
        "ep_cut": 2,
        "image_url": "https://w.junreimap.com/images/user/2090/bangumi/427233/points/nrvaf5ycl-1725212751688.jpg",
        "location": "三重县桑名市",
        "point_id": "nrvaf5ycl",
        "point_name": "Water Tube",
        "remark": ""
      },
      "type": "Feature"
    },
    {
      "geometry": {
        "coordinates": [
          136.728524,
          35.029111
        ],
        "type": "Point"
      },
      "properties": {
        "bangumi_id": 427233,
        "bangumi_title": "五等分的新娘∽",
        "ep_cut": 2,
        "image_url": "https://w.junreimap.com/images/points/427233/nrvgyqis6_1725230643286_c16v9.jpg",
        "location": "三重县桑名市",
        "point_id": "nrvgyqis6",
        "point_name": "Family Restaurant",
        "remark": ""
      },
      "type": "Feature"
    },
    {
      "geometry": {
        "coordinates": [
          136.729018,
          35.028786
        ],
        "type": "Point"
      },
      "properties": {
        "bangumi_id": 427233,
        "bangumi_title": "五等分的新娘∽",
        "ep_cut": 2,
        "image_url": "https://w.junreimap.com/images/user/2090/bangumi/427233/points/o35xzsdhp-1726097964032.jpg",
        "location": "三重县桑名市",
        "point_id": "o35xzsdhp",
        "point_name": "Water Tube",
        "remark": ""
      },
      "type": "Feature"
    },
    {
      "geometry": {
        "coordinates": [
          136.729073,
          35.029173
        ],
        "type": "Point"
      },
      "properties": {
        "bangumi_id": 427233,
        "bangumi_title": "五等分的新娘∽",
        "ep_cut": 2,
        "image_url": "https://w.junreimap.com/images/user/2090/bangumi/427233/points/o3612m5nn-1726098178005.jpg",
        "location": "三重县桑名市",
        "point_id": "o3612m5nn",
        "point_name": "Water Tube",
        "remark": ""
      },
      "type": "Feature"
    },
    {
      "geometry": {
        "coordinates": [
          136.727962,
          35.028878
        ],
        "type": "Point"
      },
      "properties": {
        "bangumi_id": 427233,
        "bangumi_title": "五等分的新娘∽",
        "ep_cut": 2,
        "image_url": "https://w.junreimap.com/images/user/2090/bangumi/427233/points/o363myws5-1726098313585.jpg",
        "location": "三重县桑名市",
        "point_id": "o363myws5",
        "point_name": "冲浪池",
        "remark": ""
      },
      "type": "Feature"
    },
    {
      "geometry": {
        "coordinates": [
          136.72747,
          35.02811
        ],
        "type": "Point"
      },
      "properties": {
        "bangumi_id": 427233,
        "bangumi_title": "五等分的新娘∽",
        "ep_cut": 2,
        "image_url": "https://w.junreimap.com/images/user/2090/bangumi/427233/points/p18p342k9-1728768291700.jpg",
        "location": "三重县桑名市",
        "point_id": "p18p342k9",
        "point_name": "冲浪池与第四休息场之间",
        "remark": ""
      },
      "type": "Feature"
    },
    {
      "geometry": {
        "coordinates": [
          136.728314,
          35.030497
        ],
        "type": "Point"
      },
      "properties": {
        "bangumi_id": 427233,
        "bangumi_title": "五等分的新娘∽",
        "ep_cut": 2,
        "image_url": "https://w.junreimap.com/images/points/427233/nrvwhrt9j_1725230648529_c16v9.jpg",
        "location": "三重县桑名市",
        "point_id": "nrvwhrt9j",
        "point_name": "钢龙2000",
        "remark": ""
      },
      "type": "Feature"
    },
    {
      "geometry": {
        "coordinates": [
          136.727387,
          35.02823
        ],
        "type": "Point"
      },
      "properties": {
        "bangumi_id": 427233,
        "bangumi_title": "五等分的新娘∽",
        "ep_cut": 2,
        "image_url": "https://w.junreimap.com/images/user/2090/bangumi/427233/points/o367towoq-1726098512681.jpg",
        "location": "三重县桑名市",
        "point_id": "o367towoq",
        "point_name": "冲浪池与第四休息场之间",
        "remark": ""
      },
      "type": "Feature"
    },
    {
      "geometry": {
        "coordinates": [
          136.727285,
          35.028316
        ],
        "type": "Point"
      },
      "properties": {
        "bangumi_id": 427233,
        "bangumi_title": "五等分的新娘∽",
        "ep_cut": 2,
        "image_url": "https://w.junreimap.com/images/points/427233/nrw4vyyyj_1725230693980.jpg",
        "location": "三重县桑名市",
        "point_id": "nrw4vyyyj",
        "point_name": "冲浪池与第四休息场之间",
        "remark": ""
      },
      "type": "Feature"
    },
    {
      "geometry": {
        "coordinates": [
          136.728683,
          35.028247
        ],
        "type": "Point"
      },
      "properties": {
        "bangumi_id": 427233,
        "bangumi_title": "五等分的新娘∽",
        "ep_cut": 2,
        "image_url": "https://w.junreimap.com/images/user/2090/bangumi/427233/points/nrw8lg530-1725249632434.jpg",
        "location": "三重县桑名市",
        "point_id": "nrw8lg530",
        "point_name": "Kids Slider南边的厕所",
        "remark": ""
      },
      "type": "Feature"
    },
    {
      "geometry": {
        "coordinates": [
          136.72946,
          35.028685
        ],
        "type": "Point"
      },
      "properties": {
        "bangumi_id": 427233,
        "bangumi_title": "五等分的新娘∽",
        "ep_cut": 2,
        "image_url": "https://w.junreimap.com/images/user/2090/bangumi/427233/points/o36usolda-1726099934645.jpg",
        "location": "三重县桑名市",
        "point_id": "o36usolda",
        "point_name": "Water Tube 东南部的桥",
        "remark": ""
      },
      "type": "Feature"
    },
    {
      "geometry": {
        "coordinates": [
          136.72751,
          35.030206
        ],
        "type": "Point"
      },
      "properties": {
        "bangumi_id": 427233,
        "bangumi_title": "五等分的新娘∽",
        "ep_cut": 2,
        "image_url": "https://w.junreimap.com/images/user/2090/bangumi/427233/points/o36f5cpd3-1726098953720.jpg",
        "location": "三重县桑名市",
        "point_id": "o36f5cpd3",
        "point_name": "钢龙2000",
        "remark": ""
      },
      "type": "Feature"
    },
    {
      "geometry": {
        "coordinates": [
          136.728686,
          35.028732
        ],
        "type": "Point"
      },
      "properties": {
        "bangumi_id": 427233,
        "bangumi_title": "五等分的新娘∽",
        "ep_cut": 2,
        "image_url": "https://w.junreimap.com/images/user/2090/bangumi/427233/points/o36qmbvvt-1726099697947.jpg",
        "location": "三重县桑名市",
        "point_id": "o36qmbvvt",
        "point_name": "Japaaaan",
        "remark": ""
      },
      "type": "Feature"
    },
    {
      "geometry": {
        "coordinates": [
          136.730734,
          35.027737
        ],
        "type": "Point"
      },
      "properties": {
        "bangumi_id": 427233,
        "bangumi_title": "五等分的新娘∽",
        "ep_cut": 2,
        "image_url": "https://w.junreimap.com/images/user/2090/bangumi/427233/points/nscwk9k3l-1725251073160.jpg",
        "location": "三重县桑名市",
        "point_id": "nscwk9k3l",
        "point_name": "ホテル 花水木",
        "remark": ""
      },
      "type": "Feature"
    },
    {
      "geometry": {
        "coordinates": [
          136.727917,
          35.029973
        ],
        "type": "Point"
      },
      "properties": {
        "bangumi_id": 427233,
        "bangumi_title": "五等分的新娘∽",
        "ep_cut": 2,
        "image_url": "https://w.junreimap.com/images/user/2090/bangumi/427233/points/nsd1gliz2-1725251375572.jpg",
        "location": "三重县桑名市",
        "point_id": "nsd1gliz2",
        "point_name": "Boomerang Twist",
        "remark": ""
      },
      "type": "Feature"
    },
    {
      "geometry": {
        "coordinates": [
          136.727142,
          35.028887
        ],
        "type": "Point"
      },
      "properties": {
        "bangumi_id": 427233,
        "bangumi_title": "五等分的新娘∽",
        "ep_cut": 2,
        "image_url": "https://w.junreimap.com/images/user/2090/bangumi/427233/points/o373hamwv-1726100431182.jpg",
        "location": "三重县桑名市",
        "point_id": "o373hamwv",
        "point_name": "Free Fall Slider",
        "remark": ""
      },
      "type": "Feature"
    },
    {
      "geometry": {
        "coordinates": [
          136.726962,
          35.028926
        ],
        "type": "Point"
      },
      "properties": {
        "bangumi_id": 427233,
        "bangumi_title": "五等分的新娘∽",
        "ep_cut": 2,
        "image_url": "https://w.junreimap.com/images/user/2090/bangumi/427233/points/nrvd781mg-1725212963597.jpg",
        "location": "三重县桑名市",
        "point_id": "nrvd781mg",
        "point_name": "Free Fall Slider",
        "remark": ""
      },
      "type": "Feature"
    },
    {
      "geometry": {
        "coordinates": [
          136.72709,
          35.029134
        ],
        "type": "Point"
      },
      "properties": {
        "bangumi_id": 427233,
        "bangumi_title": "五等分的新娘∽",
        "ep_cut": 2,
        "image_url": "https://w.junreimap.com/images/user/2090/bangumi/427233/points/o37735hoq-1726100663669.jpg",
        "location": "三重县桑名市",
        "point_id": "o37735hoq",
        "point_name": "Big One Slider",
        "remark": ""
      },
      "type": "Feature"
    },
    {
      "geometry": {
        "coordinates": [
          136.727234,
          35.0289
        ],
        "type": "Point"
      },
      "properties": {
        "bangumi_id": 427233,
        "bangumi_title": "五等分的新娘∽",
        "ep_cut": 2,
        "image_url": "https://w.junreimap.com/images/user/2090/bangumi/427233/points/o37b907x1-1726100900664.jpg",
        "location": "三重县桑名市",
        "point_id": "o37b907x1",
        "point_name": "Free Fall Slider",
        "remark": ""
      },
      "type": "Feature"
    },
    {
      "geometry": {
        "coordinates": [
          136.728554,
          35.029031
        ],
        "type": "Point"
      },
      "properties": {
        "bangumi_id": 427233,
        "bangumi_title": "五等分的新娘∽",
        "ep_cut": 2,
        "image_url": "https://w.junreimap.com/images/user/2090/bangumi/427233/points/o370z9twb-1726100280154.jpg",
        "location": "三重县桑名市",
        "point_id": "o370z9twb",
        "point_name": "Family Restaurant",
        "remark": ""
      },
      "type": "Feature"
    },
    {
      "geometry": {
        "coordinates": [
          136.730619,
          35.028986
        ],
        "type": "Point"
      },
      "properties": {
        "bangumi_id": 427233,
        "bangumi_title": "五等分的新娘∽",
        "ep_cut": 2,
        "image_url": "https://w.junreimap.com/images/user/2090/bangumi/427233/points/o37fnyyzx-1726101168008.jpg",
        "location": "三重县桑名市",
        "point_id": "o37fnyyzx",
        "point_name": "ジャンボ海水プール 入口",
        "remark": ""
      },
      "type": "Feature"
    },
    {
      "geometry": {
        "coordinates": [
          136.7301,
          35.02819
        ],
        "type": "Point"
      },
      "properties": {
        "bangumi_id": 427233,
        "bangumi_title": "五等分的新娘∽",
        "ep_cut": 2,
        "image_url": "https://w.junreimap.com/images/user/2090/bangumi/427233/points/o37oposvh-1726101803625.jpg",
        "location": "三重县桑名市",
        "point_id": "o37oposvh",
        "point_name": "スパキッズ 南侧的道路",
        "remark": ""
      },
      "type": "Feature"
    },
    {
      "geometry": {
        "coordinates": [
          136.728679,
          35.027788
        ],
        "type": "Point"
      },
      "properties": {
        "bangumi_id": 427233,
        "bangumi_title": "五等分的新娘∽",
        "ep_cut": 2,
        "image_url": "https://w.junreimap.com/images/user/2090/bangumi/427233/points/o37t7peta-1726101980632.jpg",
        "location": "三重县桑名市",
        "point_id": "o37t7peta",
        "point_name": "Family Pool 南侧的道路",
        "remark": ""
      },
      "type": "Feature"
    },
    {
      "geometry": {
        "coordinates": [
          136.728585,
          35.027716
        ],
        "type": "Point"
      },
      "properties": {
        "bangumi_id": 427233,
        "bangumi_title": "五等分的新娘∽",
        "ep_cut": 2,
        "image_url": "https://w.junreimap.com/images/user/2090/bangumi/427233/points/o37v5t96e-1726102168024.jpg",
        "location": "三重县桑名市",
        "point_id": "o37v5t96e",
        "point_name": "Family Pool 南侧的道路",
        "remark": ""
      },
      "type": "Feature"
    },
    {
      "geometry": {
        "coordinates": [
          136.728202,
          35.027548
        ],
        "type": "Point"
      },
      "properties": {
        "bangumi_id": 427233,
        "bangumi_title": "五等分的新娘∽",
        "ep_cut": 2,
        "image_url": "https://w.junreimap.com/images/user/2090/bangumi/427233/points/o37x8tzzv-1726102289891.jpg",
        "location": "三重县桑名市",
        "point_id": "o37x8tzzv",
        "point_name": "Family Pond 南侧的天桥",
        "remark": ""
      },
      "type": "Feature"
    },
    {
      "geometry": {
        "coordinates": [
          136.892441,
          35.020501
        ],
        "type": "Point"
      },
      "properties": {
        "bangumi_id": 427233,
        "bangumi_title": "五等分的新娘∽",
        "ep_cut": 2,
        "image_url": "https://w.junreimap.com/images/user/2090/bangumi/427233/points/p18wd4yiw-1728768742939.jpg",
        "location": "爱知县东海市 太田川站",
        "point_id": "p18wd4yiw",
        "point_name": "太田川站 西出口外",
        "remark": ""
      },
      "type": "Feature"
    },
    {
      "geometry": {
        "coordinates": [
          136.889185,
          35.022228
        ],
        "type": "Point"
      },
      "properties": {
        "bangumi_id": 427233,
        "bangumi_title": "五等分的新娘∽",
        "ep_cut": 2,
        "image_url": "https://w.junreimap.com/images/user/2090/bangumi/427233/points/p18ys83no-1728768880704.jpg",
        "location": "爱知县东海市 日本福祉大学",
        "point_id": "p18ys83no",
        "point_name": "日本​福祉​大​東海​キャンパス",
        "remark": ""
      },
      "type": "Feature"
    },
    {
      "geometry": {
        "coordinates": [
          135.20279,
          34.669136
        ],
        "type": "Point"
      },
      "properties": {
        "bangumi_id": 427233,
        "bangumi_title": "五等分的新娘∽",
        "ep_cut": 2,
        "image_url": "https://w.junreimap.com/images/user/2090/bangumi/427233/points/p1901b7ge-1728768967454.jpg",
        "location": "兵库县神户市",
        "point_id": "p1901b7ge",
        "point_name": "Cafeteria BREATH",
        "remark": ""
      },
      "type": "Feature"
    },
    {
      "geometry": {
        "coordinates": [
          136.898377,
          35.002777
        ],
        "type": "Point"
      },
      "properties": {
        "bangumi_id": 427233,
        "bangumi_title": "五等分的新娘∽",
        "ep_cut": 2,
        "image_url": "https://w.junreimap.com/images/user/2090/bangumi/427233/points/nubldozpc-1725404965999.jpg",
        "location": "爱知县东海市 汐见丘公园",
        "point_id": "nubldozpc",
        "point_name": "汐見が丘公園 秋千",
        "remark": ""
      },
      "type": "Feature"
    },
    {
      "geometry": {
        "coordinates": [
          136.899278,
          34.999172
        ],
        "type": "Point"
      },
      "properties": {
        "bangumi_id": 427233,
        "bangumi_title": "五等分的新娘∽",
        "ep_cut": 2,
        "image_url": "https://w.junreimap.com/images/user/2090/bangumi/427233/points/p194isgi2-1728769222297.jpg",
        "location": "爱知县东海市 西知多综合病院",
        "point_id": "p194isgi2",
        "point_name": "西知多総合病院 病房",
        "remark": ""
      },
      "type": "Feature"
    },
    {
      "geometry": {
        "coordinates": [
          135.437627,
          34.668028
        ],
        "type": "Point"
      },
      "properties": {
        "bangumi_id": 427233,
        "bangumi_title": "五等分的新娘∽",
        "ep_cut": 2,
        "image_url": "https://w.junreimap.com/images/user/2090/bangumi/427233/points/p196kjc5r-1728769349286.jpg",
        "location": "大阪府大阪市",
        "point_id": "p196kjc5r",
        "point_name": "日本环球影城公园大酒店",
        "remark": ""
      },
      "type": "Feature"
    },
    {
      "geometry": {
        "coordinates": [
          136.894794,
          35.002105
        ],
        "type": "Point"
      },
      "properties": {
        "bangumi_id": 427233,
        "bangumi_title": "五等分的新娘∽",
        "ep_cut": 2,
        "image_url": "https://w.junreimap.com/images/user/2090/bangumi/427233/points/p197i90bn-1728769433554.jpg",
        "location": "爱知县东海市 中之池公园",
        "point_id": "p197i90bn",
        "point_name": "中ノ池公園",
        "remark": ""
      },
      "type": "Feature"
    },
    {
      "geometry": {
        "coordinates": [
          136.894396,
          35.002102
        ],
        "type": "Point"
      },
      "properties": {
        "bangumi_id": 427233,
        "bangumi_title": "五等分的新娘∽",
        "ep_cut": 2,
        "image_url": "https://w.junreimap.com/images/user/2090/bangumi/427233/points/p198xgocd-1728769505613.jpg",
        "location": "爱知县东海市 中之池公园",
        "point_id": "p198xgocd",
        "point_name": "中ノ池公園",
        "remark": ""
      },
      "type": "Feature"
    },
    {
      "geometry": {
        "coordinates": [
          136.894515,
          35.002115
        ],
        "type": "Point"
      },
      "properties": {
        "bangumi_id": 427233,
        "bangumi_title": "五等分的新娘∽",
        "ep_cut": 2,
        "image_url": "https://w.junreimap.com/images/user/2090/bangumi/427233/points/p19ar7w7b-1728769600468.jpg",
        "location": "爱知县东海市 中之池公园",
        "point_id": "p19ar7w7b",
        "point_name": "中ノ池公園",
        "remark": ""
      },
      "type": "Feature"
    },
    {
      "geometry": {
        "coordinates": [
          136.8944,
          35.002105
        ],
        "type": "Point"
      },
      "properties": {
        "bangumi_id": 427233,
        "bangumi_title": "五等分的新娘∽",
        "ep_cut": 2,
        "image_url": "https://w.junreimap.com/images/user/2090/bangumi/427233/points/p19c009p6-1728769674027.jpg",
        "location": "爱知县东海市 中之池公园",
        "point_id": "p19c009p6",
        "point_name": "中ノ池公園",
        "remark": ""
      },
      "type": "Feature"
    },
    {
      "geometry": {
        "coordinates": [
          136.909798,
          35.134914
        ],
        "type": "Point"
      },
      "properties": {
        "bangumi_id": 427233,
        "bangumi_title": "五等分的新娘∽",
        "ep_cut": 2,
        "image_url": "https://w.junreimap.com/images/user/2090/bangumi/427233/points/p19dnklla-1728769786660.jpg",
        "location": "爱知县名古屋市",
        "point_id": "p19dnklla",
        "point_name": "ザ・​ライオンズミッドキャピタルタワー",
        "remark": ""
      },
      "type": "Feature"
    },
    {
      "geometry": {
        "coordinates": [
          136.733796,
          35.029874
        ],
        "type": "Point"
      },
      "properties": {
        "bangumi_id": 427233,
        "bangumi_title": "五等分的新娘∽",
        "ep_cut": 2,
        "image_url": "https://w.junreimap.com/images/user/2090/bangumi/427233/points/p19jgneqo-1728770128029.jpg",
        "location": "三重县桑名市",
        "point_id": "p19jgneqo",
        "point_name": "大観覧車オーロラ",
        "remark": ""
      },
      "type": "Feature"
    },
    {
      "geometry": {
        "coordinates": [
          136.909819,
          35.134923
        ],
        "type": "Point"
      },
      "properties": {
        "bangumi_id": 427233,
        "bangumi_title": "五等分的新娘∽",
        "ep_cut": 2,
        "image_url": "https://w.junreimap.com/images/user/2090/bangumi/427233/points/p19mzdwqp-1728770351937.jpg",
        "location": "爱知县名古屋市",
        "point_id": "p19mzdwqp",
        "point_name": "ザ・​ライオンズミッドキャピタルタワー",
        "remark": ""
      },
      "type": "Feature"
    }
  ],
  "type": "FeatureCollection"
}