{
  "features": [
    {
      "geometry": {
        "coordinates": [
          140.704389,
          41.759428
        ],
        "type": "Point"
      },
      "properties": {
        "bangumi_id": 429644,
        "bangumi_title": "名侦探柯南：百万美元的五棱星",
        "ep_cut": "",
        "image_url": "https://w.junreimap.com/images/points/429644/ngau8q1dr_1724306222823.jpg",
        "location": "",
        "point_id": "ngau8q1dr",
        "point_name": "函館山展望台",
        "remark": ""
      },
      "type": "Feature"
    },
    {
      "geometry": {
        "coordinates": [
          140.704445,
          41.759516
        ],
        "type": "Point"
      },
      "properties": {
        "bangumi_id": 429644,
        "bangumi_title": "名侦探柯南：百万美元的五棱星",
        "ep_cut": "",
        "image_url": "https://w.junreimap.com/images/points/429644/ngazrcnmg_1724306587381.jpg",
        "location": "",
        "point_id": "ngazrcnmg",
        "point_name": "函館山展望台",
        "remark": "在函馆山展望台可拍摄到类似景别"
      },
      "type": "Feature"
    },
    {
      "geometry": {
        "coordinates": [
          140.704683,
          41.759416
        ],
        "type": "Point"
      },
      "properties": {
        "bangumi_id": 429644,
        "bangumi_title": "名侦探柯南：百万美元的五棱星",
        "ep_cut": "",
        "image_url": "https://w.junreimap.com/images/points/429644/ngdsdjklu_1724312615980.jpg",
        "location": "",
        "point_id": "ngdsdjklu",
        "point_name": "函館山展望台",
        "remark": ""
      },
      "type": "Feature"
    },
    {
      "geometry": {
        "coordinates": [
          140.704325,
          41.759405
        ],
        "type": "Point"
      },
      "properties": {
        "bangumi_id": 429644,
        "bangumi_title": "名侦探柯南：百万美元的五棱星",
        "ep_cut": "",
        "image_url": "https://w.junreimap.com/images/points/429644/ngdst1nsb_1724312638781.jpg",
        "location": "",
        "point_id": "ngdst1nsb",
        "point_name": "函館山展望台",
        "remark": ""
      },
      "type": "Feature"
    },
    {
      "geometry": {
        "coordinates": [
          140.704253,
          41.759416
        ],
        "type": "Point"
      },
      "properties": {
        "bangumi_id": 429644,
        "bangumi_title": "名侦探柯南：百万美元的五棱星",
        "ep_cut": "",
        "image_url": "https://w.junreimap.com/images/points/429644/ngdtegkjh_1724312671168.jpg",
        "location": "",
        "point_id": "ngdtegkjh",
        "point_name": "函館山展望台",
        "remark": "平次表白和叶"
      },
      "type": "Feature"
    },
    {
      "geometry": {
        "coordinates": [
          140.756983,
          41.796807
        ],
        "type": "Point"
      },
      "properties": {
        "bangumi_id": 429644,
        "bangumi_title": "名侦探柯南：百万美元的五棱星",
        "ep_cut": "",
        "image_url": "https://w.junreimap.com/images/points/429644/ngal278ap_1724306249536.jpg",
        "location": "",
        "point_id": "ngal278ap",
        "point_name": "五稜郭",
        "remark": ""
      },
      "type": "Feature"
    },
    {
      "geometry": {
        "coordinates": [
          140.756486,
          41.797242
        ],
        "type": "Point"
      },
      "properties": {
        "bangumi_id": 429644,
        "bangumi_title": "名侦探柯南：百万美元的五棱星",
        "ep_cut": "68,69|288,289",
        "image_url": "https://w.junreimap.com/images/points/429644/ngaw7nahg_1724306333411.jpg",
        "location": "",
        "point_id": "ngaw7nahg",
        "point_name": "五稜郭",
        "remark": ""
      },
      "type": "Feature"
    },
    {
      "geometry": {
        "coordinates": [
          140.755561,
          41.795358
        ],
        "type": "Point"
      },
      "properties": {
        "bangumi_id": 429644,
        "bangumi_title": "名侦探柯南：百万美元的五棱星",
        "ep_cut": "",
        "image_url": "https://w.junreimap.com/images/points/429644/ngdpgowsi_1724312454976.jpg",
        "location": "",
        "point_id": "ngdpgowsi",
        "point_name": "五稜郭タワー",
        "remark": ""
      },
      "type": "Feature"
    },
    {
      "geometry": {
        "coordinates": [
          140.753892,
          41.794544
        ],
        "type": "Point"
      },
      "properties": {
        "bangumi_id": 429644,
        "bangumi_title": "名侦探柯南：百万美元的五棱星",
        "ep_cut": "",
        "image_url": "https://w.junreimap.com/images/points/429644/ngavjtkfb_1738299588715.jpg",
        "location": "",
        "point_id": "ngavjtkfb",
        "point_name": "五稜郭タワー",
        "remark": ""
      },
      "type": "Feature"
    },
    {
      "geometry": {
        "coordinates": [
          140.722854,
          41.771078
        ],
        "type": "Point"
      },
      "properties": {
        "bangumi_id": 429644,
        "bangumi_title": "名侦探柯南：百万美元的五棱星",
        "ep_cut": "",
        "image_url": "https://w.junreimap.com/images/points/429644/ngaxjjlmi_1724306442474.jpg",
        "location": "",
        "point_id": "ngaxjjlmi",
        "point_name": "センチュリー​マリーナ​函館",
        "remark": ""
      },
      "type": "Feature"
    },
    {
      "geometry": {
        "coordinates": [
          140.721985,
          41.770286
        ],
        "type": "Point"
      },
      "properties": {
        "bangumi_id": 429644,
        "bangumi_title": "名侦探柯南：百万美元的五棱星",
        "ep_cut": "",
        "image_url": "https://w.junreimap.com/images/points/429644/ngaxnrmrf_1724306436973.jpg",
        "location": "",
        "point_id": "ngaxnrmrf",
        "point_name": "センチュリー​マリーナ​函館",
        "remark": "从酒店客房内可以拍摄到类似角度"
      },
      "type": "Feature"
    },
    {
      "geometry": {
        "coordinates": [
          140.708912,
          41.76504
        ],
        "type": "Point"
      },
      "properties": {
        "bangumi_id": 429644,
        "bangumi_title": "名侦探柯南：百万美元的五棱星",
        "ep_cut": "",
        "image_url": "https://w.junreimap.com/images/points/429644/ngdml6s8x_1738297293988.jpg",
        "location": "",
        "point_id": "ngdml6s8x",
        "point_name": "旧函館区公会堂",
        "remark": "剑道大会在此处举办，大会与圣演武的场所位于2楼。须付费入内，馆内设有柯南集章处"
      },
      "type": "Feature"
    },
    {
      "geometry": {
        "coordinates": [
          140.708901,
          41.765
        ],
        "type": "Point"
      },
      "properties": {
        "bangumi_id": 429644,
        "bangumi_title": "名侦探柯南：百万美元的五棱星",
        "ep_cut": "",
        "image_url": "https://w.junreimap.com/images/points/429644/ngdmufeq2_1724312275171.jpg",
        "location": "",
        "point_id": "ngdmufeq2",
        "point_name": "旧函館区公会堂",
        "remark": "柯南，和叶与圣相遇的庭院，位于一楼回廊一侧"
      },
      "type": "Feature"
    },
    {
      "geometry": {
        "coordinates": [
          140.708866,
          41.765012
        ],
        "type": "Point"
      },
      "properties": {
        "bangumi_id": 429644,
        "bangumi_title": "名侦探柯南：百万美元的五棱星",
        "ep_cut": "",
        "image_url": "https://w.junreimap.com/images/points/429644/ngdmziwtb_1724312281595.jpg",
        "location": "",
        "point_id": "ngdmziwtb",
        "point_name": "旧函館区公会堂",
        "remark": ""
      },
      "type": "Feature"
    },
    {
      "geometry": {
        "coordinates": [
          140.709108,
          41.765238
        ],
        "type": "Point"
      },
      "properties": {
        "bangumi_id": 429644,
        "bangumi_title": "名侦探柯南：百万美元的五棱星",
        "ep_cut": "",
        "image_url": "https://w.junreimap.com/images/points/429644/ngdnifmjm_1738298720212.jpg",
        "location": "",
        "point_id": "ngdnifmjm",
        "point_name": "旧函館区公会堂",
        "remark": "片中追车片段，平次和柯南从正面的庭院经过"
      },
      "type": "Feature"
    },
    {
      "geometry": {
        "coordinates": [
          140.716511,
          41.766655
        ],
        "type": "Point"
      },
      "properties": {
        "bangumi_id": 429644,
        "bangumi_title": "名侦探柯南：百万美元的五棱星",
        "ep_cut": "",
        "image_url": "https://w.junreimap.com/images/points/429644/ngdnuve9f_1724312375060.jpg",
        "location": "",
        "point_id": "ngdnuve9f",
        "point_name": "金森赤レンガ倉庫",
        "remark": "函馆港西码头附近，斧江拓三杀死久垣律师的地方"
      },
      "type": "Feature"
    },
    {
      "geometry": {
        "coordinates": [
          140.716315,
          41.766732
        ],
        "type": "Point"
      },
      "properties": {
        "bangumi_id": 429644,
        "bangumi_title": "名侦探柯南：百万美元的五棱星",
        "ep_cut": "",
        "image_url": "https://w.junreimap.com/images/points/429644/nn11ztvdb_1724833438961.jpg",
        "location": "",
        "point_id": "nn11ztvdb",
        "point_name": "",
        "remark": ""
      },
      "type": "Feature"
    },
    {
      "geometry": {
        "coordinates": [
          140.715922,
          41.766843
        ],
        "type": "Point"
      },
      "properties": {
        "bangumi_id": 429644,
        "bangumi_title": "名侦探柯南：百万美元的五棱星",
        "ep_cut": "",
        "image_url": "https://w.junreimap.com/images/points/429644/nn144zezc_1724833572409.jpg",
        "location": "",
        "point_id": "nn144zezc",
        "point_name": "ラッキー​ピエロ​マリーナ​末広​店",
        "remark": ""
      },
      "type": "Feature"
    },
    {
      "geometry": {
        "coordinates": [
          140.71605,
          41.766813
        ],
        "type": "Point"
      },
      "properties": {
        "bangumi_id": 429644,
        "bangumi_title": "名侦探柯南：百万美元的五棱星",
        "ep_cut": "",
        "image_url": "https://w.junreimap.com/images/points/429644/nn14agfnk_1724833577676.jpg",
        "location": "",
        "point_id": "nn14agfnk",
        "point_name": "ラッキー​ピエロ​マリーナ​末広​店",
        "remark": ""
      },
      "type": "Feature"
    },
    {
      "geometry": {
        "coordinates": [
          140.752096,
          41.796
        ],
        "type": "Point"
      },
      "properties": {
        "bangumi_id": 429644,
        "bangumi_title": "名侦探柯南：百万美元的五棱星",
        "ep_cut": "",
        "image_url": "https://w.junreimap.com/images/points/429644/ngdp3g2j8_1724312417272.jpg",
        "location": "",
        "point_id": "ngdp3g2j8",
        "point_name": "北海道​警察\n函館​方面​本部",
        "remark": "片中西村警部和川添刑警所在处即为函館中央警察署"
      },
      "type": "Feature"
    },
    {
      "geometry": {
        "coordinates": [
          140.751639,
          41.795922
        ],
        "type": "Point"
      },
      "properties": {
        "bangumi_id": 429644,
        "bangumi_title": "名侦探柯南：百万美元的五棱星",
        "ep_cut": "",
        "image_url": "https://w.junreimap.com/images/points/429644/sewe93wpw_1738301990198.jpg",
        "location": "",
        "point_id": "sewe93wpw",
        "point_name": "北海道​警察 函館​方面​本部",
        "remark": ""
      },
      "type": "Feature"
    },
    {
      "geometry": {
        "coordinates": [
          140.713257,
          41.760672
        ],
        "type": "Point"
      },
      "properties": {
        "bangumi_id": 429644,
        "bangumi_title": "名侦探柯南：百万美元的五棱星",
        "ep_cut": "",
        "image_url": "https://w.junreimap.com/images/points/429644/ngdr72dp0_1724312570572.jpg",
        "location": "",
        "point_id": "ngdr72dp0",
        "point_name": "函館山ロープウェイ",
        "remark": ""
      },
      "type": "Feature"
    },
    {
      "geometry": {
        "coordinates": [
          140.712386,
          41.764394
        ],
        "type": "Point"
      },
      "properties": {
        "bangumi_id": 429644,
        "bangumi_title": "名侦探柯南：百万美元的五棱星",
        "ep_cut": "",
        "image_url": "https://w.junreimap.com/images/points/429644/nn0bf023u_1738298944772.jpg",
        "location": "",
        "point_id": "nn0bf023u",
        "point_name": "",
        "remark": "函馆著名街道，与圣分开后柯南途经此处"
      },
      "type": "Feature"
    },
    {
      "geometry": {
        "coordinates": [
          140.712971,
          41.76493
        ],
        "type": "Point"
      },
      "properties": {
        "bangumi_id": 429644,
        "bangumi_title": "名侦探柯南：百万美元的五棱星",
        "ep_cut": "",
        "image_url": "https://w.junreimap.com/images/points/429644/nn0qaad8t_1738299146158.jpg",
        "location": "",
        "point_id": "nn0qaad8t",
        "point_name": 26,
        "remark": "服部救起柯南"
      },
      "type": "Feature"
    },
    {
      "geometry": {
        "coordinates": [
          140.713843,
          41.765746
        ],
        "type": "Point"
      },
      "properties": {
        "bangumi_id": 429644,
        "bangumi_title": "名侦探柯南：百万美元的五棱星",
        "ep_cut": "",
        "image_url": "https://w.junreimap.com/images/points/429644/sev5sr8bt_1738299290782.jpg",
        "location": "",
        "point_id": "sev5sr8bt",
        "point_name": "八幡坂 西部環状線",
        "remark": "八幡坂下与电车交口"
      },
      "type": "Feature"
    },
    {
      "geometry": {
        "coordinates": [
          140.725382,
          41.772166
        ],
        "type": "Point"
      },
      "properties": {
        "bangumi_id": 429644,
        "bangumi_title": "名侦探柯南：百万美元的五棱星",
        "ep_cut": "",
        "image_url": "https://w.junreimap.com/images/points/429644/nn0cr6j1q_1739868235917.jpg",
        "location": "",
        "point_id": "nn0cr6j1q",
        "point_name": "函館朝市ひろば",
        "remark": "追逐基德的柯南和平次，沿开港大街途径此处"
      },
      "type": "Feature"
    },
    {
      "geometry": {
        "coordinates": [
          140.724407,
          41.77357
        ],
        "type": "Point"
      },
      "properties": {
        "bangumi_id": 429644,
        "bangumi_title": "名侦探柯南：百万美元的五棱星",
        "ep_cut": "",
        "image_url": "https://w.junreimap.com/images/points/429644/nn0ft0ir8_1738298027243.jpg",
        "location": "",
        "point_id": "nn0ft0ir8",
        "point_name": "中央埠頭付近(ともえ大橋の下)",
        "remark": "基德的小船被袭击后停泊在此处"
      },
      "type": "Feature"
    },
    {
      "geometry": {
        "coordinates": [
          140.724263,
          41.773598
        ],
        "type": "Point"
      },
      "properties": {
        "bangumi_id": 429644,
        "bangumi_title": "名侦探柯南：百万美元的五棱星",
        "ep_cut": "",
        "image_url": "https://w.junreimap.com/images/points/429644/nn19ncv6q_1724833901671.jpg",
        "location": "",
        "point_id": "nn19ncv6q",
        "point_name": "ともえ大橋",
        "remark": ""
      },
      "type": "Feature"
    },
    {
      "geometry": {
        "coordinates": [
          140.734116,
          41.801421
        ],
        "type": "Point"
      },
      "properties": {
        "bangumi_id": 429644,
        "bangumi_title": "名侦探柯南：百万美元的五棱星",
        "ep_cut": "",
        "image_url": "https://w.junreimap.com/images/points/429644/nn0inpgo8_1738298152682.jpg",
        "location": "",
        "point_id": "nn0inpgo8",
        "point_name": "道南いさりび鉄道",
        "remark": "柯南与基德在车厢内对话。暂有柯南涂装列车在此路线运行"
      },
      "type": "Feature"
    },
    {
      "geometry": {
        "coordinates": [
          140.718767,
          41.764114
        ],
        "type": "Point"
      },
      "properties": {
        "bangumi_id": 429644,
        "bangumi_title": "名侦探柯南：百万美元的五棱星",
        "ep_cut": "",
        "image_url": "https://w.junreimap.com/images/points/429644/nn0l1rowk_1724832415388.jpg",
        "location": "",
        "point_id": "nn0l1rowk",
        "point_name": "十字街電停付近＆箱館ハイカラ號",
        "remark": ""
      },
      "type": "Feature"
    },
    {
      "geometry": {
        "coordinates": [
          140.785465,
          41.838381
        ],
        "type": "Point"
      },
      "properties": {
        "bangumi_id": 429644,
        "bangumi_title": "名侦探柯南：百万美元的五棱星",
        "ep_cut": "",
        "image_url": "https://w.junreimap.com/images/points/429644/nge7k80fl_1738298448803.jpg",
        "location": "",
        "point_id": "nge7k80fl",
        "point_name": "北海道東照宮",
        "remark": ""
      },
      "type": "Feature"
    },
    {
      "geometry": {
        "coordinates": [
          140.785225,
          41.83854
        ],
        "type": "Point"
      },
      "properties": {
        "bangumi_id": 429644,
        "bangumi_title": "名侦探柯南：百万美元的五棱星",
        "ep_cut": "",
        "image_url": "https://w.junreimap.com/images/points/429644/sywrp2sup_1739870040838.jpg",
        "location": "",
        "point_id": "sywrp2sup",
        "point_name": "北海道東照宮 院内",
        "remark": "“毛利”到访"
      },
      "type": "Feature"
    },
    {
      "geometry": {
        "coordinates": [
          140.784939,
          41.838543
        ],
        "type": "Point"
      },
      "properties": {
        "bangumi_id": 429644,
        "bangumi_title": "名侦探柯南：百万美元的五棱星",
        "ep_cut": "",
        "image_url": "https://w.junreimap.com/images/points/429644/syx0d4oxc_1739870695685.jpg",
        "location": "",
        "point_id": "syx0d4oxc",
        "point_name": "北海道東照宮 奉斎月夜見尊",
        "remark": ""
      },
      "type": "Feature"
    },
    {
      "geometry": {
        "coordinates": [
          140.728257,
          41.779997
        ],
        "type": "Point"
      },
      "properties": {
        "bangumi_id": 429644,
        "bangumi_title": "名侦探柯南：百万美元的五棱星",
        "ep_cut": "",
        "image_url": "https://w.junreimap.com/images/points/429644/nmzs43bp9_1724830673947.jpg",
        "location": "",
        "point_id": "nmzs43bp9",
        "point_name": "JR北海道 函館運輸所",
        "remark": "狐面男与基德，柯南和平次械斗的场所。"
      },
      "type": "Feature"
    },
    {
      "geometry": {
        "coordinates": [
          140.72809,
          41.779972
        ],
        "type": "Point"
      },
      "properties": {
        "bangumi_id": 429644,
        "bangumi_title": "名侦探柯南：百万美元的五棱星",
        "ep_cut": "",
        "image_url": "https://w.junreimap.com/images/points/429644/nn0rckfg0_1724832803798.jpg",
        "location": "",
        "point_id": "nn0rckfg0",
        "point_name": "はこだてライナー",
        "remark": ""
      },
      "type": "Feature"
    },
    {
      "geometry": {
        "coordinates": [
          140.728001,
          41.780048
        ],
        "type": "Point"
      },
      "properties": {
        "bangumi_id": 429644,
        "bangumi_title": "名侦探柯南：百万美元的五棱星",
        "ep_cut": "",
        "image_url": "https://w.junreimap.com/images/points/429644/nn0uv7otl_1724833029186.jpg",
        "location": "",
        "point_id": "nn0uv7otl",
        "point_name": "道南いさりび鉄道キハ40",
        "remark": ""
      },
      "type": "Feature"
    },
    {
      "geometry": {
        "coordinates": [
          140.728983,
          41.781087
        ],
        "type": "Point"
      },
      "properties": {
        "bangumi_id": 429644,
        "bangumi_title": "名侦探柯南：百万美元的五棱星",
        "ep_cut": "",
        "image_url": "https://w.junreimap.com/images/points/429644/nn0w6ef8e_1724833132503.jpg",
        "location": "",
        "point_id": "nn0w6ef8e",
        "point_name": "JR北海道函館運輸所近くの跨線橋",
        "remark": ""
      },
      "type": "Feature"
    },
    {
      "geometry": {
        "coordinates": [
          140.72855,
          41.779976
        ],
        "type": "Point"
      },
      "properties": {
        "bangumi_id": 429644,
        "bangumi_title": "名侦探柯南：百万美元的五棱星",
        "ep_cut": "",
        "image_url": "https://w.junreimap.com/images/points/429644/syw7wow88_1739868875216.jpg",
        "location": "",
        "point_id": "syw7wow88",
        "point_name": "JR北海道 函館運輸所",
        "remark": ""
      },
      "type": "Feature"
    },
    {
      "geometry": {
        "coordinates": [
          140.756797,
          41.797098
        ],
        "type": "Point"
      },
      "properties": {
        "bangumi_id": 429644,
        "bangumi_title": "名侦探柯南：百万美元的五棱星",
        "ep_cut": "",
        "image_url": "https://w.junreimap.com/images/points/429644/nn0yi02l0_1724833228241.jpg",
        "location": "",
        "point_id": "nn0yi02l0",
        "point_name": "箱館奉行所",
        "remark": ""
      },
      "type": "Feature"
    },
    {
      "geometry": {
        "coordinates": [
          140.756987,
          41.797196
        ],
        "type": "Point"
      },
      "properties": {
        "bangumi_id": 429644,
        "bangumi_title": "名侦探柯南：百万美元的五棱星",
        "ep_cut": "",
        "image_url": "https://w.junreimap.com/images/points/429644/nn0yvehp2_1724833262877.jpg",
        "location": "",
        "point_id": "nn0yvehp2",
        "point_name": "箱館奉行所",
        "remark": ""
      },
      "type": "Feature"
    },
    {
      "geometry": {
        "coordinates": [
          140.711267,
          41.767374
        ],
        "type": "Point"
      },
      "properties": {
        "bangumi_id": 429644,
        "bangumi_title": "名侦探柯南：百万美元的五棱星",
        "ep_cut": "",
        "image_url": "https://w.junreimap.com/images/points/429644/nn10alp9g_1738299394424.jpg",
        "location": "",
        "point_id": "nn10alp9g",
        "point_name": "相馬社屋空撮",
        "remark": "斧江被包围"
      },
      "type": "Feature"
    },
    {
      "geometry": {
        "coordinates": [
          140.70009,
          41.794289
        ],
        "type": "Point"
      },
      "properties": {
        "bangumi_id": 429644,
        "bangumi_title": "名侦探柯南：百万美元的五棱星",
        "ep_cut": "",
        "image_url": "https://w.junreimap.com/images/points/429644/nmzw1ck1y_1724830910990.jpg",
        "location": "",
        "point_id": "nmzw1ck1y",
        "point_name": "海岸町船溜まりからの夜景",
        "remark": ""
      },
      "type": "Feature"
    },
    {
      "geometry": {
        "coordinates": [
          141.353498,
          43.062506
        ],
        "type": "Point"
      },
      "properties": {
        "bangumi_id": 429644,
        "bangumi_title": "名侦探柯南：百万美元的五棱星",
        "ep_cut": "",
        "image_url": "https://w.junreimap.com/images/points/429644/pornlrult_1738297657026.jpg",
        "location": "",
        "point_id": "pornlrult",
        "point_name": "札幌市時計台",
        "remark": "大冈红叶"
      },
      "type": "Feature"
    },
    {
      "geometry": {
        "coordinates": [
          141.353698,
          43.06234
        ],
        "type": "Point"
      },
      "properties": {
        "bangumi_id": 429644,
        "bangumi_title": "名侦探柯南：百万美元的五棱星",
        "ep_cut": "",
        "image_url": "https://w.junreimap.com/images/points/429644/seugp1458_1738297734596.jpg",
        "location": "",
        "point_id": "seugp1458",
        "point_name": "北1条雁来通",
        "remark": "札幌市時計台前"
      },
      "type": "Feature"
    },
    {
      "geometry": {
        "coordinates": [
          140.790126,
          41.781097
        ],
        "type": "Point"
      },
      "properties": {
        "bangumi_id": 429644,
        "bangumi_title": "名侦探柯南：百万美元的五棱星",
        "ep_cut": "",
        "image_url": "https://w.junreimap.com/images/points/429644/syw14ysc0_1739868482846.jpg",
        "location": "",
        "point_id": "syw14ysc0",
        "point_name": "湯の川駅",
        "remark": ""
      },
      "type": "Feature"
    },
    {
      "geometry": {
        "coordinates": [
          141.936606,
          45.522935
        ],
        "type": "Point"
      },
      "properties": {
        "bangumi_id": 429644,
        "bangumi_title": "名侦探柯南：百万美元的五棱星",
        "ep_cut": "",
        "image_url": "https://w.junreimap.com/images/points/429644/porpgl5al_1738298347795.jpg",
        "location": "",
        "point_id": "porpgl5al",
        "point_name": "宗谷岬",
        "remark": "大冈红叶"
      },
      "type": "Feature"
    },
    {
      "geometry": {
        "coordinates": [
          140.714777,
          41.766632
        ],
        "type": "Point"
      },
      "properties": {
        "bangumi_id": 429644,
        "bangumi_title": "名侦探柯南：百万美元的五棱星",
        "ep_cut": "",
        "image_url": "https://w.junreimap.com/images/points/429644/syxdybuvb_1739871398962.jpg",
        "location": "",
        "point_id": "syxdybuvb",
        "point_name": "函館港",
        "remark": ""
      },
      "type": "Feature"
    },
    {
      "geometry": {
        "coordinates": [
          140.648403,
          41.90486
        ],
        "type": "Point"
      },
      "properties": {
        "bangumi_id": 429644,
        "bangumi_title": "名侦探柯南：百万美元的五棱星",
        "ep_cut": "",
        "image_url": "https://w.junreimap.com/images/points/429644/sevw2m6tr_1738300849174.jpg",
        "location": "",
        "point_id": "sevw2m6tr",
        "point_name": "新函館北斗駅鳥瞰",
        "remark": ""
      },
      "type": "Feature"
    },
    {
      "geometry": {
        "coordinates": [
          140.649156,
          41.904555
        ],
        "type": "Point"
      },
      "properties": {
        "bangumi_id": 429644,
        "bangumi_title": "名侦探柯南：百万美元的五棱星",
        "ep_cut": "",
        "image_url": "https://w.junreimap.com/images/points/429644/sevtqkw3z_1738300698252.jpg",
        "location": "",
        "point_id": "sevtqkw3z",
        "point_name": "新函館北斗駅",
        "remark": "博士带侦探团四人来函馆"
      },
      "type": "Feature"
    },
    {
      "geometry": {
        "coordinates": [
          140.726473,
          41.772738
        ],
        "type": "Point"
      },
      "properties": {
        "bangumi_id": 429644,
        "bangumi_title": "名侦探柯南：百万美元的五棱星",
        "ep_cut": "",
        "image_url": "https://w.junreimap.com/images/points/429644/sew45yzaf_1738301347906.jpg",
        "location": "",
        "point_id": "sew45yzaf",
        "point_name": "プレミア​ホテル\n-​CABIN ​PRESIDENT​-​函館",
        "remark": ""
      },
      "type": "Feature"
    },
    {
      "geometry": {
        "coordinates": [
          140.726636,
          41.773562
        ],
        "type": "Point"
      },
      "properties": {
        "bangumi_id": 429644,
        "bangumi_title": "名侦探柯南：百万美元的五棱星",
        "ep_cut": "",
        "image_url": "https://w.junreimap.com/images/points/429644/sywltzdgv_1739869773434.jpg",
        "location": "",
        "point_id": "sywltzdgv",
        "point_name": "函館駅",
        "remark": ""
      },
      "type": "Feature"
    },
    {
      "geometry": {
        "coordinates": [
          140.72653,
          41.772673
        ],
        "type": "Point"
      },
      "properties": {
        "bangumi_id": 429644,
        "bangumi_title": "名侦探柯南：百万美元的五棱星",
        "ep_cut": "",
        "image_url": "https://w.junreimap.com/images/user/0/bangumi/429644/points/u8q3l2ygq-1743460590223.jpg",
        "location": "",
        "point_id": "u8q3l2ygq",
        "point_name": "Premier Hotel-CABIN PRESIDENT-Hakodate",
        "remark": ""
      },
      "type": "Feature"
    },
    {
      "geometry": {
        "coordinates": [
          140.722413,
          41.769481
        ],
        "type": "Point"
      },
      "properties": {
        "bangumi_id": 429644,
        "bangumi_title": "名侦探柯南：百万美元的五棱星",
        "ep_cut": 27,
        "image_url": "https://w.junreimap.com/images/user/0/bangumi/429644/points/uxuk0wpmo-1745429111505.jpg",
        "location": "函馆国际酒店",
        "point_id": "uxuk0wpmo",
        "point_name": "函館国際ホテル",
        "remark": ""
      },
      "type": "Feature"
    },
    {
      "geometry": {
        "coordinates": [
          140.722413,
          41.769481
        ],
        "type": "Point"
      },
      "properties": {
        "bangumi_id": 429644,
        "bangumi_title": "名侦探柯南：百万美元的五棱星",
        "ep_cut": 27,
        "image_url": "https://w.junreimap.com/images/user/0/bangumi/429644/points/uxultlxbv-1745429199664.jpg",
        "location": "函馆国际酒店",
        "point_id": "uxultlxbv",
        "point_name": "函館国際ホテル",
        "remark": "大厅"
      },
      "type": "Feature"
    },
    {
      "geometry": {
        "coordinates": [
          140.69543,
          41.766415
        ],
        "type": "Point"
      },
      "properties": {
        "bangumi_id": 429644,
        "bangumi_title": "名侦探柯南：百万美元的五棱星",
        "ep_cut": 27,
        "image_url": "https://w.junreimap.com/images/user/0/bangumi/429644/points/uxunfmzol-1745429303399.jpg",
        "location": "",
        "point_id": "uxunfmzol",
        "point_name": "ティー​ショップ​夕日",
        "remark": "圣无双"
      },
      "type": "Feature"
    },
    {
      "geometry": {
        "coordinates": [
          140.697108,
          41.767728
        ],
        "type": "Point"
      },
      "properties": {
        "bangumi_id": 429644,
        "bangumi_title": "名侦探柯南：百万美元的五棱星",
        "ep_cut": 27,
        "image_url": "https://w.junreimap.com/images/user/0/bangumi/429644/points/uxusqg847-1745429605067.jpg",
        "location": "",
        "point_id": "uxusqg847",
        "point_name": "地藏寺",
        "remark": ""
      },
      "type": "Feature"
    },
    {
      "geometry": {
        "coordinates": [
          140.709006,
          41.765118
        ],
        "type": "Point"
      },
      "properties": {
        "bangumi_id": 429644,
        "bangumi_title": "名侦探柯南：百万美元的五棱星",
        "ep_cut": "",
        "image_url": "https://w.junreimap.com/images/user/0/bangumi/429644/points/10bn47v-1749207748693.jpg",
        "location": "",
        "point_id": "10bn47v",
        "point_name": "旧函館区公会堂2階ベランダ",
        "remark": ""
      },
      "type": "Feature"
    },
    {
      "geometry": {
        "coordinates": [
          140.756597,
          41.796806
        ],
        "type": "Point"
      },
      "properties": {
        "bangumi_id": 429644,
        "bangumi_title": "名侦探柯南：百万美元的五棱星",
        "ep_cut": "",
        "image_url": "https://w.junreimap.com/images/user/0/bangumi/429644/points/10cavxf-1749207949723.jpg",
        "location": "",
        "point_id": "10cavxf",
        "point_name": "五稜郭タワー土方歳三の彫像",
        "remark": ""
      },
      "type": "Feature"
    },
    {
      "geometry": {
        "coordinates": [
          140.753999,
          41.794491
        ],
        "type": "Point"
      },
      "properties": {
        "bangumi_id": 429644,
        "bangumi_title": "名侦探柯南：百万美元的五棱星",
        "ep_cut": "",
        "image_url": "https://w.junreimap.com/images/user/0/bangumi/429644/points/10cfelr-1749208189302.jpg",
        "location": "",
        "point_id": "10cfelr",
        "point_name": "五稜郭タワーガラスの床",
        "remark": ""
      },
      "type": "Feature"
    }
  ],
  "type": "FeatureCollection"
}