{
  "features": [
    {
      "geometry": {
        "coordinates": [
          131.122023,
          32.827286
        ],
        "type": "Point"
      },
      "properties": {
        "bangumi_id": 433729,
        "bangumi_title": "邪神与厨二病少女【世纪末篇】",
        "ep_cut": "",
        "image_url": "https://w.junreimap.com/images/points/433729/d67e0d84_1743446916948.jpg",
        "location": "熊本県阿蘇郡高森町",
        "point_id": "d67e0d84",
        "point_name": "高森町役場",
        "remark": ""
      },
      "type": "Feature"
    },
    {
      "geometry": {
        "coordinates": [
          131.158348,
          32.856481
        ],
        "type": "Point"
      },
      "properties": {
        "bangumi_id": 433729,
        "bangumi_title": "邪神与厨二病少女【世纪末篇】",
        "ep_cut": "",
        "image_url": "https://w.junreimap.com/images/points/433729/d94b67c1_1743446931685.jpg",
        "location": "熊本県阿蘇郡高森町",
        "point_id": "d94b67c1",
        "point_name": "上色見熊野座神社入口",
        "remark": ""
      },
      "type": "Feature"
    },
    {
      "geometry": {
        "coordinates": [
          131.158809,
          32.853698
        ],
        "type": "Point"
      },
      "properties": {
        "bangumi_id": 433729,
        "bangumi_title": "邪神与厨二病少女【世纪末篇】",
        "ep_cut": "",
        "image_url": "https://w.junreimap.com/images/points/433729/94904776_1743446942924.jpg",
        "location": "熊本県阿蘇郡高森町",
        "point_id": "94904776",
        "point_name": "上色見熊野座神社",
        "remark": ""
      },
      "type": "Feature"
    },
    {
      "geometry": {
        "coordinates": [
          131.15826,
          32.85323
        ],
        "type": "Point"
      },
      "properties": {
        "bangumi_id": 433729,
        "bangumi_title": "邪神与厨二病少女【世纪末篇】",
        "ep_cut": "",
        "image_url": "https://w.junreimap.com/images/points/433729/114c15ae_1743446962109.jpg",
        "location": "熊本県阿蘇郡高森町",
        "point_id": "114c15ae",
        "point_name": "穿戸岩",
        "remark": ""
      },
      "type": "Feature"
    },
    {
      "geometry": {
        "coordinates": [
          131.136017,
          32.836273
        ],
        "type": "Point"
      },
      "properties": {
        "bangumi_id": 433729,
        "bangumi_title": "邪神与厨二病少女【世纪末篇】",
        "ep_cut": "",
        "image_url": "https://w.junreimap.com/images/points/433729/fbfac8e5_1743446974413.jpg",
        "location": "熊本県阿蘇郡高森町",
        "point_id": "fbfac8e5",
        "point_name": "高森田楽の里",
        "remark": ""
      },
      "type": "Feature"
    },
    {
      "geometry": {
        "coordinates": [
          131.122479,
          32.813567
        ],
        "type": "Point"
      },
      "properties": {
        "bangumi_id": 433729,
        "bangumi_title": "邪神与厨二病少女【世纪末篇】",
        "ep_cut": "",
        "image_url": "https://w.junreimap.com/images/points/433729/f11cc8ae_1743446984959.jpg",
        "location": "熊本県阿蘇郡高森町",
        "point_id": "f11cc8ae",
        "point_name": "高森湧水トンネル公園",
        "remark": ""
      },
      "type": "Feature"
    },
    {
      "geometry": {
        "coordinates": [
          131.122546,
          32.819434
        ],
        "type": "Point"
      },
      "properties": {
        "bangumi_id": 433729,
        "bangumi_title": "邪神与厨二病少女【世纪末篇】",
        "ep_cut": "",
        "image_url": "https://w.junreimap.com/images/points/433729/652b10af_1743447043461.jpg",
        "location": "熊本県阿蘇郡高森町",
        "point_id": "652b10af",
        "point_name": "高森駅",
        "remark": "南阿蘇鉄道終点"
      },
      "type": "Feature"
    },
    {
      "geometry": {
        "coordinates": [
          131.122801,
          32.819224
        ],
        "type": "Point"
      },
      "properties": {
        "bangumi_id": 433729,
        "bangumi_title": "邪神与厨二病少女【世纪末篇】",
        "ep_cut": "",
        "image_url": "https://w.junreimap.com/images/points/433729/u8k2wayc1_1743447174763.jpg",
        "location": "",
        "point_id": "u8k2wayc1",
        "point_name": "高森駅前",
        "remark": ""
      },
      "type": "Feature"
    }
  ],
  "type": "FeatureCollection"
}