{
  "features": [
    {
      "geometry": {
        "coordinates": [
          127.728376,
          26.266629
        ],
        "type": "Point"
      },
      "properties": {
        "bangumi_id": 442614,
        "bangumi_title": "电影 Love Live! 虹咲学园校园偶像同好会 完结篇 第1章",
        "ep_cut": "",
        "image_url": "https://w.junreimap.com/images/user/1073/bangumi/442614/points/t45ntoizh-1740281236792.jpg",
        "location": "",
        "point_id": "t45ntoizh",
        "point_name": "A&W牧港店",
        "remark": ""
      },
      "type": "Feature"
    },
    {
      "geometry": {
        "coordinates": [
          139.774056,
          35.626605
        ],
        "type": "Point"
      },
      "properties": {
        "bangumi_id": 442614,
        "bangumi_title": "电影 Love Live! 虹咲学园校园偶像同好会 完结篇 第1章",
        "ep_cut": 1,
        "image_url": "https://w.junreimap.com/images/points/442614/2c9e42f1_1740411710512.jpg",
        "location": "東京",
        "point_id": "2c9e42f1",
        "point_name": "フジテレビ 本社ビル 球形展望室",
        "remark": "球形展望室"
      },
      "type": "Feature"
    },
    {
      "geometry": {
        "coordinates": [
          139.797303,
          35.632961
        ],
        "type": "Point"
      },
      "properties": {
        "bangumi_id": 442614,
        "bangumi_title": "电影 Love Live! 虹咲学园校园偶像同好会 完结篇 第1章",
        "ep_cut": "",
        "image_url": "https://w.junreimap.com/images/points/442614/fdc52c64_1740411743152.jpg",
        "location": "東京",
        "point_id": "fdc52c64",
        "point_name": "東京ビッグサイト",
        "remark": ""
      },
      "type": "Feature"
    },
    {
      "geometry": {
        "coordinates": [
          139.791583,
          35.638283
        ],
        "type": "Point"
      },
      "properties": {
        "bangumi_id": 442614,
        "bangumi_title": "电影 Love Live! 虹咲学园校园偶像同好会 完结篇 第1章",
        "ep_cut": 1,
        "image_url": "https://w.junreimap.com/images/points/442614/0faa8553_1740411779578.jpg",
        "location": "東京",
        "point_id": "0faa8553",
        "point_name": "泉天空の湯 有明ガーデン",
        "remark": ""
      },
      "type": "Feature"
    },
    {
      "geometry": {
        "coordinates": [
          139.804189,
          35.646965
        ],
        "type": "Point"
      },
      "properties": {
        "bangumi_id": 442614,
        "bangumi_title": "电影 Love Live! 虹咲学园校园偶像同好会 完结篇 第1章",
        "ep_cut": 1,
        "image_url": "https://w.junreimap.com/images/points/442614/dd3eb840_1740411799575.jpg",
        "location": "東京",
        "point_id": "dd3eb840",
        "point_name": "東雲キャナルコートＣＯＤＡＮ",
        "remark": ""
      },
      "type": "Feature"
    },
    {
      "geometry": {
        "coordinates": [
          139.807423,
          35.646555
        ],
        "type": "Point"
      },
      "properties": {
        "bangumi_id": 442614,
        "bangumi_title": "电影 Love Live! 虹咲学园校园偶像同好会 完结篇 第1章",
        "ep_cut": "",
        "image_url": "https://w.junreimap.com/images/points/442614/91204627_1740403713816.jpg",
        "location": "東京",
        "point_id": "91204627",
        "point_name": "辰巳桜橋",
        "remark": ""
      },
      "type": "Feature"
    },
    {
      "geometry": {
        "coordinates": [
          139.805447,
          35.646988
        ],
        "type": "Point"
      },
      "properties": {
        "bangumi_id": 442614,
        "bangumi_title": "电影 Love Live! 虹咲学园校园偶像同好会 完结篇 第1章",
        "ep_cut": "",
        "image_url": "https://w.junreimap.com/images/points/442614/771adc65_1740403729445.jpg",
        "location": "東京",
        "point_id": "771adc65",
        "point_name": "東雲水辺公園 水の広場",
        "remark": ""
      },
      "type": "Feature"
    },
    {
      "geometry": {
        "coordinates": [
          127.650573,
          26.205503
        ],
        "type": "Point"
      },
      "properties": {
        "bangumi_id": 442614,
        "bangumi_title": "电影 Love Live! 虹咲学园校园偶像同好会 完结篇 第1章",
        "ep_cut": 1,
        "image_url": "https://w.junreimap.com/images/points/442614/f14026b8_1740490237743.jpg",
        "location": "那覇市内エリア",
        "point_id": "f14026b8",
        "point_name": "那覇空港 見学者デッキ",
        "remark": "歩夢が佇んでいた那覇空港。JAL側です。"
      },
      "type": "Feature"
    },
    {
      "geometry": {
        "coordinates": [
          127.674922,
          26.2113
        ],
        "type": "Point"
      },
      "properties": {
        "bangumi_id": 442614,
        "bangumi_title": "电影 Love Live! 虹咲学园校园偶像同好会 完结篇 第1章",
        "ep_cut": "",
        "image_url": "https://w.junreimap.com/images/points/442614/72d193da_1740404192555.jpg",
        "location": "那覇市内エリア",
        "point_id": "72d193da",
        "point_name": "旭橋交差点",
        "remark": "シーサー集合写真の次に映ったゆいレールの駅が見える交差点。天が乗ったバスが走っていきます。"
      },
      "type": "Feature"
    },
    {
      "geometry": {
        "coordinates": [
          127.680148,
          26.213843
        ],
        "type": "Point"
      },
      "properties": {
        "bangumi_id": 442614,
        "bangumi_title": "电影 Love Live! 虹咲学园校园偶像同好会 完结篇 第1章",
        "ep_cut": 1,
        "image_url": "https://w.junreimap.com/images/points/442614/72005fb9_1740490257738.jpg",
        "location": "那覇市内エリア",
        "point_id": "72005fb9",
        "point_name": "パレットくもじ階段",
        "remark": "彼方が買い物があると歩夢と別れるシーン。階段の上から下を見ています。"
      },
      "type": "Feature"
    },
    {
      "geometry": {
        "coordinates": [
          127.679315,
          26.213697
        ],
        "type": "Point"
      },
      "properties": {
        "bangumi_id": 442614,
        "bangumi_title": "电影 Love Live! 虹咲学园校园偶像同好会 完结篇 第1章",
        "ep_cut": 1,
        "image_url": "https://w.junreimap.com/images/points/442614/01ee8b02_1740490297743.jpg",
        "location": "那覇市内エリア",
        "point_id": "01ee8b02",
        "point_name": "デパートリウボウ屋上",
        "remark": "終盤、歩夢と侑のシーン。パレットくもじ。"
      },
      "type": "Feature"
    },
    {
      "geometry": {
        "coordinates": [
          127.679413,
          26.212912
        ],
        "type": "Point"
      },
      "properties": {
        "bangumi_id": 442614,
        "bangumi_title": "电影 Love Live! 虹咲学园校园偶像同好会 完结篇 第1章",
        "ep_cut": 1,
        "image_url": "https://w.junreimap.com/images/points/442614/e2e98de5_1740490312097.jpg",
        "location": "那覇市内エリア",
        "point_id": "e2e98de5",
        "point_name": "愛のシーサー公園",
        "remark": "歩夢とランジュが会話した夜のシーサー公園"
      },
      "type": "Feature"
    },
    {
      "geometry": {
        "coordinates": [
          127.679025,
          26.212985
        ],
        "type": "Point"
      },
      "properties": {
        "bangumi_id": 442614,
        "bangumi_title": "电影 Love Live! 虹咲学园校园偶像同好会 完结篇 第1章",
        "ep_cut": 1,
        "image_url": "https://w.junreimap.com/images/points/442614/6286f4de_1740490335559.jpg",
        "location": "那覇市内エリア",
        "point_id": "6286f4de",
        "point_name": "那覇市役所",
        "remark": "クライマックス、外観が登場"
      },
      "type": "Feature"
    },
    {
      "geometry": {
        "coordinates": [
          127.681499,
          26.213901
        ],
        "type": "Point"
      },
      "properties": {
        "bangumi_id": 442614,
        "bangumi_title": "电影 Love Live! 虹咲学园校园偶像同好会 完结篇 第1章",
        "ep_cut": "",
        "image_url": "https://w.junreimap.com/images/points/442614/229f6245_1740403759014.jpg",
        "location": "那覇市内エリア",
        "point_id": "229f6245",
        "point_name": "御菓子御殿 国際通り松尾店",
        "remark": "各校のスクールアイドルがライブを行っていました"
      },
      "type": "Feature"
    },
    {
      "geometry": {
        "coordinates": [
          127.685276,
          26.215394
        ],
        "type": "Point"
      },
      "properties": {
        "bangumi_id": 442614,
        "bangumi_title": "电影 Love Live! 虹咲学园校园偶像同好会 完结篇 第1章",
        "ep_cut": "",
        "image_url": "https://w.junreimap.com/images/points/442614/8ac48ead_1740308132413.jpg",
        "location": "那覇市内エリア",
        "point_id": "8ac48ead",
        "point_name": "おきなわ屋 本店前",
        "remark": "各校のスクールアイドルがライブを行っていました"
      },
      "type": "Feature"
    },
    {
      "geometry": {
        "coordinates": [
          127.686754,
          26.215923
        ],
        "type": "Point"
      },
      "properties": {
        "bangumi_id": 442614,
        "bangumi_title": "电影 Love Live! 虹咲学园校园偶像同好会 完结篇 第1章",
        "ep_cut": "",
        "image_url": "https://w.junreimap.com/images/points/442614/6e6a744c_1740308136981.jpg",
        "location": "那覇市内エリア",
        "point_id": "6e6a744c",
        "point_name": "POCO CAFE OKINAWA 国際通り店付近",
        "remark": "かすみと猫が配信映像を撮影。"
      },
      "type": "Feature"
    },
    {
      "geometry": {
        "coordinates": [
          127.688654,
          26.216348
        ],
        "type": "Point"
      },
      "properties": {
        "bangumi_id": 442614,
        "bangumi_title": "电影 Love Live! 虹咲学园校园偶像同好会 完结篇 第1章",
        "ep_cut": "",
        "image_url": "https://w.junreimap.com/images/points/442614/749f8b1f_1740308139689.jpg",
        "location": "那覇市内エリア",
        "point_id": "749f8b1f",
        "point_name": "国際通りのれん街付近",
        "remark": "序盤、各校のスクールアイドルがライブを行っていました。ステーキハウス88国際通り店前。右側の建物は国際通りのれん街（旧沖縄三越）"
      },
      "type": "Feature"
    },
    {
      "geometry": {
        "coordinates": [
          127.689405,
          26.216508
        ],
        "type": "Point"
      },
      "properties": {
        "bangumi_id": 442614,
        "bangumi_title": "电影 Love Live! 虹咲学园校园偶像同好会 完结篇 第1章",
        "ep_cut": "",
        "image_url": "https://w.junreimap.com/images/points/442614/9aede8c6_1740404101733.jpg",
        "location": "那覇市内エリア",
        "point_id": "9aede8c6",
        "point_name": "てんぶす那覇",
        "remark": "建物前の広場で他校のスクールアイドルがライブを行っているのをかすみとランジュが目撃"
      },
      "type": "Feature"
    },
    {
      "geometry": {
        "coordinates": [
          127.689233,
          26.216719
        ],
        "type": "Point"
      },
      "properties": {
        "bangumi_id": 442614,
        "bangumi_title": "电影 Love Live! 虹咲学园校园偶像同好会 完结篇 第1章",
        "ep_cut": "",
        "image_url": "https://w.junreimap.com/images/points/442614/a768cf96_1740308141847.jpg",
        "location": "那覇市内エリア",
        "point_id": "a768cf96",
        "point_name": "JUMBO STEAK HAN’S 国際通り牧志店前",
        "remark": "てんぶす那覇の向かい側。かすみとランジュがライブを見ていました。"
      },
      "type": "Feature"
    },
    {
      "geometry": {
        "coordinates": [
          127.692076,
          26.217691
        ],
        "type": "Point"
      },
      "properties": {
        "bangumi_id": 442614,
        "bangumi_title": "电影 Love Live! 虹咲学园校园偶像同好会 完结篇 第1章",
        "ep_cut": "",
        "image_url": "https://w.junreimap.com/images/points/442614/bc53a9e1_1740404153451.jpg",
        "location": "那覇市内エリア",
        "point_id": "bc53a9e1",
        "point_name": "牧志公園",
        "remark": "円形のベンチが登場。1日目、みんなでどこでライブするかを話し合っていた。"
      },
      "type": "Feature"
    },
    {
      "geometry": {
        "coordinates": [
          127.692702,
          26.217695
        ],
        "type": "Point"
      },
      "properties": {
        "bangumi_id": 442614,
        "bangumi_title": "电影 Love Live! 虹咲学园校园偶像同好会 完结篇 第1章",
        "ep_cut": "",
        "image_url": "https://w.junreimap.com/images/points/442614/1c72a691_1740308149740.jpg",
        "location": "那覇市内エリア",
        "point_id": "1c72a691",
        "point_name": "さいおん うふシーサー",
        "remark": "モノレール牧志駅の前。集合写真のカット。"
      },
      "type": "Feature"
    },
    {
      "geometry": {
        "coordinates": [
          127.694725,
          26.219016
        ],
        "type": "Point"
      },
      "properties": {
        "bangumi_id": 442614,
        "bangumi_title": "电影 Love Live! 虹咲学园校园偶像同好会 完结篇 第1章",
        "ep_cut": "",
        "image_url": "https://w.junreimap.com/images/points/442614/ac26ae31_1740403898930.jpg",
        "location": "那覇市内エリア",
        "point_id": "ac26ae31",
        "point_name": "白昼夢喫茶ロマン座",
        "remark": "ランジュが撮影をした喫茶店"
      },
      "type": "Feature"
    },
    {
      "geometry": {
        "coordinates": [
          127.690974,
          26.213166
        ],
        "type": "Point"
      },
      "properties": {
        "bangumi_id": 442614,
        "bangumi_title": "电影 Love Live! 虹咲学园校园偶像同好会 完结篇 第1章",
        "ep_cut": 1,
        "image_url": "https://w.junreimap.com/images/points/442614/710b3f05_1740411833049.jpg",
        "location": "那覇市内エリア",
        "point_id": "710b3f05",
        "point_name": "壺屋やちむん通り",
        "remark": "ランジュが車に乗った母に会うシーン。UTSUWAチャタロウさん前です。"
      },
      "type": "Feature"
    },
    {
      "geometry": {
        "coordinates": [
          127.688603,
          26.2159
        ],
        "type": "Point"
      },
      "properties": {
        "bangumi_id": 442614,
        "bangumi_title": "电影 Love Live! 虹咲学园校园偶像同好会 完结篇 第1章",
        "ep_cut": 1,
        "image_url": "https://w.junreimap.com/images/points/442614/2b1d60fe_1740490393084.jpg",
        "location": "那覇市内エリア",
        "point_id": "2b1d60fe",
        "point_name": "SANBASHI",
        "remark": "彼方がサンゴのアクセサリーを作っていたお店"
      },
      "type": "Feature"
    },
    {
      "geometry": {
        "coordinates": [
          127.688837,
          26.214017
        ],
        "type": "Point"
      },
      "properties": {
        "bangumi_id": 442614,
        "bangumi_title": "电影 Love Live! 虹咲学园校园偶像同好会 完结篇 第1章",
        "ep_cut": "",
        "image_url": "https://w.junreimap.com/images/points/442614/ab229345_1740403796353.jpg",
        "location": "那覇市内エリア",
        "point_id": "ab229345",
        "point_name": "平和通り商店街",
        "remark": "しずくのライブシーンで登場。Y字路になっているところです。"
      },
      "type": "Feature"
    },
    {
      "geometry": {
        "coordinates": [
          127.690074,
          26.214802
        ],
        "type": "Point"
      },
      "properties": {
        "bangumi_id": 442614,
        "bangumi_title": "电影 Love Live! 虹咲学园校园偶像同好会 完结篇 第1章",
        "ep_cut": 1,
        "image_url": "https://w.junreimap.com/images/points/442614/36f16088_1740411849276.jpg",
        "location": "那覇市内エリア",
        "point_id": "36f16088",
        "point_name": "桜坂劇場",
        "remark": "桜坂しずくが訪問。勿論「えいがさき」も上映されました。"
      },
      "type": "Feature"
    },
    {
      "geometry": {
        "coordinates": [
          127.720274,
          26.21401
        ],
        "type": "Point"
      },
      "properties": {
        "bangumi_id": 442614,
        "bangumi_title": "电影 Love Live! 虹咲学园校园偶像同好会 完结篇 第1章",
        "ep_cut": "",
        "image_url": "https://w.junreimap.com/images/points/442614/20e5dfe2_1740403822534.jpg",
        "location": "那覇市内エリア",
        "point_id": "20e5dfe2",
        "point_name": "首里崎山公園",
        "remark": "那覇市街地の俯瞰"
      },
      "type": "Feature"
    },
    {
      "geometry": {
        "coordinates": [
          127.719604,
          26.217057
        ],
        "type": "Point"
      },
      "properties": {
        "bangumi_id": 442614,
        "bangumi_title": "电影 Love Live! 虹咲学园校园偶像同好会 完结篇 第1章",
        "ep_cut": "",
        "image_url": "https://w.junreimap.com/images/points/442614/1d4d5f86_1740308152140.jpg",
        "location": "那覇市内エリア",
        "point_id": "1d4d5f86",
        "point_name": "首里城（イメージ）",
        "remark": "終盤、嵐珠のライブシーンの背景セット。イマジナリー首里城です。"
      },
      "type": "Feature"
    },
    {
      "geometry": {
        "coordinates": [
          127.671983,
          26.221179
        ],
        "type": "Point"
      },
      "properties": {
        "bangumi_id": 442614,
        "bangumi_title": "电影 Love Live! 虹咲学园校园偶像同好会 完结篇 第1章",
        "ep_cut": "",
        "image_url": "",
        "location": "那覇市内エリア",
        "point_id": "4eb191c5",
        "point_name": "波の上ビーチ",
        "remark": ""
      },
      "type": "Feature"
    },
    {
      "geometry": {
        "coordinates": [
          127.640357,
          26.176659
        ],
        "type": "Point"
      },
      "properties": {
        "bangumi_id": 442614,
        "bangumi_title": "电影 Love Live! 虹咲学园校园偶像同好会 完结篇 第1章",
        "ep_cut": "",
        "image_url": "https://w.junreimap.com/images/points/442614/f80311d4_1740403844810.jpg",
        "location": "那覇市内エリア",
        "point_id": "f80311d4",
        "point_name": "瀬長島ウミカジテラス",
        "remark": "歩夢とエマが訪れた海の近くの白い建物群。"
      },
      "type": "Feature"
    },
    {
      "geometry": {
        "coordinates": [
          127.64063,
          26.175956
        ],
        "type": "Point"
      },
      "properties": {
        "bangumi_id": 442614,
        "bangumi_title": "电影 Love Live! 虹咲学园校园偶像同好会 完结篇 第1章",
        "ep_cut": "",
        "image_url": "https://w.junreimap.com/images/points/442614/d430ec0a_1740403865449.jpg",
        "location": "那覇市内エリア",
        "point_id": "d430ec0a",
        "point_name": "氾濫バーガー チムフガス 瀬長島ウミカジテラス店",
        "remark": "歩夢とエマがハンバーガーを食べていたお店"
      },
      "type": "Feature"
    },
    {
      "geometry": {
        "coordinates": [
          127.650667,
          26.156342
        ],
        "type": "Point"
      },
      "properties": {
        "bangumi_id": 442614,
        "bangumi_title": "电影 Love Live! 虹咲学园校园偶像同好会 完结篇 第1章",
        "ep_cut": 1,
        "image_url": "https://w.junreimap.com/images/points/442614/72e3c67d_1740411863263.jpg",
        "location": "那覇市内エリア",
        "point_id": "72e3c67d",
        "point_name": "DMMかりゆし水族館",
        "remark": "クラゲの水槽があるところをしずくが歩いていた"
      },
      "type": "Feature"
    },
    {
      "geometry": {
        "coordinates": [
          127.728358,
          26.266758
        ],
        "type": "Point"
      },
      "properties": {
        "bangumi_id": 442614,
        "bangumi_title": "电影 Love Live! 虹咲学园校园偶像同好会 完结篇 第1章",
        "ep_cut": "",
        "image_url": "https://w.junreimap.com/images/points/442614/ffa2d449_1740308156100.jpg",
        "location": "北谷・アメリカンビレッジ周辺エリア",
        "point_id": "ffa2d449",
        "point_name": "Ａ&Ｗ 牧港店",
        "remark": "外観が特徴的なＡ&Ｗのお店。"
      },
      "type": "Feature"
    },
    {
      "geometry": {
        "coordinates": [
          127.732955,
          26.279052
        ],
        "type": "Point"
      },
      "properties": {
        "bangumi_id": 442614,
        "bangumi_title": "电影 Love Live! 虹咲学园校园偶像同好会 完结篇 第1章",
        "ep_cut": "",
        "image_url": "https://w.junreimap.com/images/points/442614/26241221_1740308158708.jpg",
        "location": "北谷・アメリカンビレッジ周辺エリア",
        "point_id": "26241221",
        "point_name": "沖縄コンベンションセンター",
        "remark": "回想シーンで小糸と天がライブを行っていたステージ。外観やホールなどが登場。※基本的にイベント開催時でないと入れません。撮影OKと言ってくれるかは警備員さんによって対応が違うようです…。"
      },
      "type": "Feature"
    },
    {
      "geometry": {
        "coordinates": [
          127.754747,
          26.316241
        ],
        "type": "Point"
      },
      "properties": {
        "bangumi_id": 442614,
        "bangumi_title": "电影 Love Live! 虹咲学园校园偶像同好会 完结篇 第1章",
        "ep_cut": "",
        "image_url": "https://w.junreimap.com/images/points/442614/e18bb9de_1740308161038.jpg",
        "location": "北谷・アメリカンビレッジ周辺エリア",
        "point_id": "e18bb9de",
        "point_name": "アメリカンビレッジ",
        "remark": "初日の夜に他校のスクールアイドル達と訪れた"
      },
      "type": "Feature"
    },
    {
      "geometry": {
        "coordinates": [
          127.75384,
          26.315651
        ],
        "type": "Point"
      },
      "properties": {
        "bangumi_id": 442614,
        "bangumi_title": "电影 Love Live! 虹咲学园校园偶像同好会 完结篇 第1章",
        "ep_cut": "",
        "image_url": "https://w.junreimap.com/images/points/442614/ba65bb09_1740308163110.jpg",
        "location": "北谷・アメリカンビレッジ周辺エリア",
        "point_id": "ba65bb09",
        "point_name": "デポアイランド",
        "remark": "歩夢が侑のぬいぐるみで撮影していたクマのオブジェがある場所など"
      },
      "type": "Feature"
    },
    {
      "geometry": {
        "coordinates": [
          127.756686,
          26.316098
        ],
        "type": "Point"
      },
      "properties": {
        "bangumi_id": 442614,
        "bangumi_title": "电影 Love Live! 虹咲学园校园偶像同好会 完结篇 第1章",
        "ep_cut": "",
        "image_url": "https://w.junreimap.com/images/points/442614/b160e866_1740308165490.jpg",
        "location": "北谷・アメリカンビレッジ周辺エリア",
        "point_id": "b160e866",
        "point_name": "アメリカンデポB館前",
        "remark": "ポッケファームさんの前です。"
      },
      "type": "Feature"
    },
    {
      "geometry": {
        "coordinates": [
          127.756246,
          26.316032
        ],
        "type": "Point"
      },
      "properties": {
        "bangumi_id": 442614,
        "bangumi_title": "电影 Love Live! 虹咲学园校园偶像同好会 完结篇 第1章",
        "ep_cut": "",
        "image_url": "https://w.junreimap.com/images/points/442614/89d8a1df_1740308167682.jpg",
        "location": "北谷・アメリカンビレッジ周辺エリア",
        "point_id": "89d8a1df",
        "point_name": "北谷メロンパン Re:MELO 北谷本店",
        "remark": "エマたちが訪れたお店"
      },
      "type": "Feature"
    },
    {
      "geometry": {
        "coordinates": [
          127.755775,
          26.315923
        ],
        "type": "Point"
      },
      "properties": {
        "bangumi_id": 442614,
        "bangumi_title": "电影 Love Live! 虹咲学园校园偶像同好会 完结篇 第1章",
        "ep_cut": "",
        "image_url": "https://w.junreimap.com/images/points/442614/c0932b21_1740308170103.jpg",
        "location": "北谷・アメリカンビレッジ周辺エリア",
        "point_id": "c0932b21",
        "point_name": "hug 3do（ハグサンド）アメリカンビレッジ店",
        "remark": "しずくや彼方が訪れたお店"
      },
      "type": "Feature"
    },
    {
      "geometry": {
        "coordinates": [
          127.754879,
          26.315661
        ],
        "type": "Point"
      },
      "properties": {
        "bangumi_id": 442614,
        "bangumi_title": "电影 Love Live! 虹咲学园校园偶像同好会 完结篇 第1章",
        "ep_cut": "",
        "image_url": "https://w.junreimap.com/images/points/442614/a73cd811_1740308172141.jpg",
        "location": "北谷・アメリカンビレッジ周辺エリア",
        "point_id": "a73cd811",
        "point_name": "SMOOTHIE BOO",
        "remark": "彼方たちが訪れたお店"
      },
      "type": "Feature"
    },
    {
      "geometry": {
        "coordinates": [
          127.7544,
          26.315621
        ],
        "type": "Point"
      },
      "properties": {
        "bangumi_id": 442614,
        "bangumi_title": "电影 Love Live! 虹咲学园校园偶像同好会 完结篇 第1章",
        "ep_cut": "",
        "image_url": "https://w.junreimap.com/images/points/442614/9796fe50_1740403921364.jpg",
        "location": "北谷・アメリカンビレッジ周辺エリア",
        "point_id": "9796fe50",
        "point_name": "FDDI ファイヤーステーション",
        "remark": "記念撮影をしていた車"
      },
      "type": "Feature"
    },
    {
      "geometry": {
        "coordinates": [
          127.754792,
          26.317179
        ],
        "type": "Point"
      },
      "properties": {
        "bangumi_id": 442614,
        "bangumi_title": "电影 Love Live! 虹咲学园校园偶像同好会 完结篇 第1章",
        "ep_cut": "",
        "image_url": "https://w.junreimap.com/images/points/442614/85c241ca_1740308174721.jpg",
        "location": "北谷・アメリカンビレッジ周辺エリア",
        "point_id": "85c241ca",
        "point_name": "ジョーズのオブジェ前",
        "remark": "エマやかすみが訪れたお店"
      },
      "type": "Feature"
    },
    {
      "geometry": {
        "coordinates": [
          127.76122,
          26.313703
        ],
        "type": "Point"
      },
      "properties": {
        "bangumi_id": 442614,
        "bangumi_title": "电影 Love Live! 虹咲学园校园偶像同好会 完结篇 第1章",
        "ep_cut": 1,
        "image_url": "https://w.junreimap.com/images/points/442614/c2c39efa_1740411900193.jpg",
        "location": "北谷・アメリカンビレッジ周辺エリア",
        "point_id": "c2c39efa",
        "point_name": "ブルーシール 北谷カフェ",
        "remark": "彼方が訪れたお店"
      },
      "type": "Feature"
    },
    {
      "geometry": {
        "coordinates": [
          127.811025,
          26.337306
        ],
        "type": "Point"
      },
      "properties": {
        "bangumi_id": 442614,
        "bangumi_title": "电影 Love Live! 虹咲学园校园偶像同好会 完结篇 第1章",
        "ep_cut": 1,
        "image_url": "https://w.junreimap.com/images/points/442614/1bb11bb7_1740412490534.jpg",
        "location": "本島中部エリア",
        "point_id": "1bb11bb7",
        "point_name": "中乃湯",
        "remark": "エマのライブシーンで登場。現役の銭湯なので撮影は不可。"
      },
      "type": "Feature"
    },
    {
      "geometry": {
        "coordinates": [
          127.817511,
          26.362555
        ],
        "type": "Point"
      },
      "properties": {
        "bangumi_id": 442614,
        "bangumi_title": "电影 Love Live! 虹咲学园校园偶像同好会 完结篇 第1章",
        "ep_cut": 1,
        "image_url": "https://w.junreimap.com/images/points/442614/611cc2a9_1740490945645.jpg",
        "location": "本島中部エリア",
        "point_id": "611cc2a9",
        "point_name": "ワッシュランドちばな店",
        "remark": "エマのライブシーンで登場したコインランドリー"
      },
      "type": "Feature"
    },
    {
      "geometry": {
        "coordinates": [
          127.806539,
          26.375755
        ],
        "type": "Point"
      },
      "properties": {
        "bangumi_id": 442614,
        "bangumi_title": "电影 Love Live! 虹咲学园校园偶像同好会 完结篇 第1章",
        "ep_cut": 1,
        "image_url": "https://w.junreimap.com/images/points/442614/54cad1f6_1740412131091.jpg",
        "location": "本島中部エリア",
        "point_id": "54cad1f6",
        "point_name": "東南植物楽園",
        "remark": "かすみがヤギに囲まれて配信していました"
      },
      "type": "Feature"
    },
    {
      "geometry": {
        "coordinates": [
          127.797693,
          26.422192
        ],
        "type": "Point"
      },
      "properties": {
        "bangumi_id": 442614,
        "bangumi_title": "电影 Love Live! 虹咲学园校园偶像同好会 完结篇 第1章",
        "ep_cut": 1,
        "image_url": "https://w.junreimap.com/images/points/442614/2af29575_1740490427319.jpg",
        "location": "本島中部エリア",
        "point_id": "2af29575",
        "point_name": "ビオスの丘",
        "remark": "ランジュのライブシーン、カヌーに乗っていました"
      },
      "type": "Feature"
    },
    {
      "geometry": {
        "coordinates": [
          127.775291,
          26.429455
        ],
        "type": "Point"
      },
      "properties": {
        "bangumi_id": 442614,
        "bangumi_title": "电影 Love Live! 虹咲学园校园偶像同好会 完结篇 第1章",
        "ep_cut": 1,
        "image_url": "https://w.junreimap.com/images/points/442614/20cb5f7b_1740490464272.jpg",
        "location": "本島中部エリア",
        "point_id": "20cb5f7b",
        "point_name": "琉球村",
        "remark": "特設ステージのお知らせの前に登場。"
      },
      "type": "Feature"
    },
    {
      "geometry": {
        "coordinates": [
          127.794678,
          26.436243
        ],
        "type": "Point"
      },
      "properties": {
        "bangumi_id": 442614,
        "bangumi_title": "电影 Love Live! 虹咲学园校园偶像同好会 完结篇 第1章",
        "ep_cut": 1,
        "image_url": "https://w.junreimap.com/images/points/442614/47e93e33_1740490493210.jpg",
        "location": "本島中部エリア",
        "point_id": "47e93e33",
        "point_name": "おんなの駅なかゆくい市場",
        "remark": "特設ステージのお知らせの前に登場。"
      },
      "type": "Feature"
    },
    {
      "geometry": {
        "coordinates": [
          127.794725,
          26.436287
        ],
        "type": "Point"
      },
      "properties": {
        "bangumi_id": 442614,
        "bangumi_title": "电影 Love Live! 虹咲学园校园偶像同好会 完结篇 第1章",
        "ep_cut": 1,
        "image_url": "https://w.junreimap.com/images/points/442614/a6593411_1740490506527.jpg",
        "location": "本島中部エリア",
        "point_id": "a6593411",
        "point_name": "琉冰【Ryu-Pin】",
        "remark": "特設ステージのお知らせの前に登場。"
      },
      "type": "Feature"
    },
    {
      "geometry": {
        "coordinates": [
          127.803887,
          26.447439
        ],
        "type": "Point"
      },
      "properties": {
        "bangumi_id": 442614,
        "bangumi_title": "电影 Love Live! 虹咲学园校园偶像同好会 完结篇 第1章",
        "ep_cut": "",
        "image_url": "https://w.junreimap.com/images/points/442614/29dee604_1740308176676.jpg",
        "location": "本島中部エリア",
        "point_id": "29dee604",
        "point_name": "ステーキハウス88 恩納店",
        "remark": "ステーキ対決のお店。店内の様子が一致。公式コラボも決定しました。"
      },
      "type": "Feature"
    },
    {
      "geometry": {
        "coordinates": [
          127.850442,
          26.50525
        ],
        "type": "Point"
      },
      "properties": {
        "bangumi_id": 442614,
        "bangumi_title": "电影 Love Live! 虹咲学园校园偶像同好会 完结篇 第1章",
        "ep_cut": 1,
        "image_url": "https://w.junreimap.com/images/points/442614/911452ae_1740490530247.jpg",
        "location": "本島中部エリア",
        "point_id": "911452ae",
        "point_name": "万座毛",
        "remark": "他校のスクールアイドルのライブでワンカット登場。「万座毛」と書かれたモニュメントがあった。"
      },
      "type": "Feature"
    },
    {
      "geometry": {
        "coordinates": [
          127.932269,
          26.542222
        ],
        "type": "Point"
      },
      "properties": {
        "bangumi_id": 442614,
        "bangumi_title": "电影 Love Live! 虹咲学园校园偶像同好会 完结篇 第1章",
        "ep_cut": 1,
        "image_url": "https://w.junreimap.com/images/points/442614/4d645e39_1740490550698.jpg",
        "location": "本島中部エリア",
        "point_id": "4d645e39",
        "point_name": "ブセナ海中公園",
        "remark": "彼方が訪れた場所。錨のオブジェがあるカット。ランブルフィッシュ ザ・ブセナテラス前。"
      },
      "type": "Feature"
    },
    {
      "geometry": {
        "coordinates": [
          127.931699,
          26.5423
        ],
        "type": "Point"
      },
      "properties": {
        "bangumi_id": 442614,
        "bangumi_title": "电影 Love Live! 虹咲学园校园偶像同好会 完结篇 第1章",
        "ep_cut": "",
        "image_url": "https://w.junreimap.com/images/points/442614/f54fae78_1740308178653.jpg",
        "location": "本島中部エリア",
        "point_id": "f54fae78",
        "point_name": "ブセナ海中公園　海中展望塔",
        "remark": "彼方のライブシーンで登場。海中展望塔は沖縄本土復帰前の1970年竣工。"
      },
      "type": "Feature"
    },
    {
      "geometry": {
        "coordinates": [
          127.980894,
          26.568569
        ],
        "type": "Point"
      },
      "properties": {
        "bangumi_id": 442614,
        "bangumi_title": "电影 Love Live! 虹咲学园校园偶像同好会 完结篇 第1章",
        "ep_cut": 1,
        "image_url": "",
        "location": "本島中部エリア",
        "point_id": "899f23cf",
        "point_name": "数久田公民館前の歩道橋",
        "remark": "リムジンが走る海沿いの幹線道路。道の駅許田の歩道橋だと思ってましたがこちらの方が合うようです。"
      },
      "type": "Feature"
    },
    {
      "geometry": {
        "coordinates": [
          127.977361,
          26.591529
        ],
        "type": "Point"
      },
      "properties": {
        "bangumi_id": 442614,
        "bangumi_title": "电影 Love Live! 虹咲学园校园偶像同好会 完结篇 第1章",
        "ep_cut": 1,
        "image_url": "https://w.junreimap.com/images/points/442614/8a1e459f_1740490576088.jpg",
        "location": "本島中部エリア",
        "point_id": "8a1e459f",
        "point_name": "名護市役所の屋上",
        "remark": "他校のスクールアイドルがライブをしていた場所。終盤、侑が来るシーンの前。"
      },
      "type": "Feature"
    },
    {
      "geometry": {
        "coordinates": [
          128.0014,
          26.397583
        ],
        "type": "Point"
      },
      "properties": {
        "bangumi_id": 442614,
        "bangumi_title": "电影 Love Live! 虹咲学园校园偶像同好会 完结篇 第1章",
        "ep_cut": 1,
        "image_url": "https://w.junreimap.com/images/points/442614/32e8192d_1740490599099.jpg",
        "location": "本島中部エリア",
        "point_id": "32e8192d",
        "point_name": "AJリゾートアイランド伊計島",
        "remark": "ランジュのライブシーンの背景にあるウォールアート"
      },
      "type": "Feature"
    },
    {
      "geometry": {
        "coordinates": [
          127.875568,
          26.649363
        ],
        "type": "Point"
      },
      "properties": {
        "bangumi_id": 442614,
        "bangumi_title": "电影 Love Live! 虹咲学园校园偶像同好会 完结篇 第1章",
        "ep_cut": 1,
        "image_url": "https://w.junreimap.com/images/points/442614/c5a6542b_1740412657591.jpg",
        "location": "瀬底島・本部周辺エリア",
        "point_id": "c5a6542b",
        "point_name": "瀬底大橋",
        "remark": "車で本土から瀬底島に渡るシーンの橋。近くの高台から橋を見ているアングルです。"
      },
      "type": "Feature"
    },
    {
      "geometry": {
        "coordinates": [
          127.858714,
          26.649597
        ],
        "type": "Point"
      },
      "properties": {
        "bangumi_id": 442614,
        "bangumi_title": "电影 Love Live! 虹咲学园校园偶像同好会 完结篇 第1章",
        "ep_cut": "",
        "image_url": "https://w.junreimap.com/images/points/442614/34dadd61_1740308181342.jpg",
        "location": "瀬底島・本部周辺エリア",
        "point_id": "34dadd61",
        "point_name": "ヒルトン沖縄瀬底リゾート",
        "remark": "一行が宿泊したホテル。プールや部屋、食事会場なども再現。ぜひ泊まりたいです。"
      },
      "type": "Feature"
    },
    {
      "geometry": {
        "coordinates": [
          127.8584,
          26.649763
        ],
        "type": "Point"
      },
      "properties": {
        "bangumi_id": 442614,
        "bangumi_title": "电影 Love Live! 虹咲学园校园偶像同好会 完结篇 第1章",
        "ep_cut": "",
        "image_url": "https://w.junreimap.com/images/points/442614/5a26f9a1_1740308183486.jpg",
        "location": "瀬底島・本部周辺エリア",
        "point_id": "5a26f9a1",
        "point_name": "ヒルトンのプール",
        "remark": "しずくが先手必勝でライブをした屋内プール。訪れるのも人の少ないオープン直後がおすすめです。"
      },
      "type": "Feature"
    },
    {
      "geometry": {
        "coordinates": [
          127.858123,
          26.649967
        ],
        "type": "Point"
      },
      "properties": {
        "bangumi_id": 442614,
        "bangumi_title": "电影 Love Live! 虹咲学园校园偶像同好会 完结篇 第1章",
        "ep_cut": "",
        "image_url": "https://w.junreimap.com/images/points/442614/2da6ad56_1740308185437.jpg",
        "location": "瀬底島・本部周辺エリア",
        "point_id": "2da6ad56",
        "point_name": "ヒルトンの中庭",
        "remark": "クライマックスでランジュと歩夢がライブを披露"
      },
      "type": "Feature"
    },
    {
      "geometry": {
        "coordinates": [
          127.856509,
          26.650208
        ],
        "type": "Point"
      },
      "properties": {
        "bangumi_id": 442614,
        "bangumi_title": "电影 Love Live! 虹咲学园校园偶像同好会 完结篇 第1章",
        "ep_cut": "",
        "image_url": "https://w.junreimap.com/images/points/442614/370c9a40_1740308187266.jpg",
        "location": "瀬底島・本部周辺エリア",
        "point_id": "370c9a40",
        "point_name": "瀬底ビーチ",
        "remark": "夜に歩夢が侑と電話しながら歩いていた浜辺。ヒルトン瀬底に隣接しています。タイトルバックの砂浜もここです。"
      },
      "type": "Feature"
    },
    {
      "geometry": {
        "coordinates": [
          127.857682,
          26.650888
        ],
        "type": "Point"
      },
      "properties": {
        "bangumi_id": 442614,
        "bangumi_title": "电影 Love Live! 虹咲学园校园偶像同好会 完结篇 第1章",
        "ep_cut": "",
        "image_url": "https://w.junreimap.com/images/points/442614/e3ff1490_1740308188985.jpg",
        "location": "瀬底島・本部周辺エリア",
        "point_id": "e3ff1490",
        "point_name": "瀬底ビーチの洞窟",
        "remark": "海岸を右手に進んだところにある洞窟"
      },
      "type": "Feature"
    },
    {
      "geometry": {
        "coordinates": [
          127.895629,
          26.660411
        ],
        "type": "Point"
      },
      "properties": {
        "bangumi_id": 442614,
        "bangumi_title": "电影 Love Live! 虹咲学园校园偶像同好会 完结篇 第1章",
        "ep_cut": 1,
        "image_url": "https://w.junreimap.com/images/points/442614/74f2d07e_1740412639342.jpg",
        "location": "瀬底島・本部周辺エリア",
        "point_id": "74f2d07e",
        "point_name": "新鮮カツオベンチ",
        "remark": "エマのライブシーンでワンカット登場した大きな魚のベンチ。本部町は沖縄本島で唯一カツオ漁が行われています。"
      },
      "type": "Feature"
    },
    {
      "geometry": {
        "coordinates": [
          127.890434,
          26.662471
        ],
        "type": "Point"
      },
      "properties": {
        "bangumi_id": 442614,
        "bangumi_title": "电影 Love Live! 虹咲学园校园偶像同好会 完结篇 第1章",
        "ep_cut": 1,
        "image_url": "https://w.junreimap.com/images/points/442614/937671e8_1740490651361.jpg",
        "location": "瀬底島・本部周辺エリア",
        "point_id": "937671e8",
        "point_name": "うふた浜・恋人ビーチ",
        "remark": "終盤でエマ、天、小糸が訪れていました。"
      },
      "type": "Feature"
    },
    {
      "geometry": {
        "coordinates": [
          127.89844,
          26.662598
        ],
        "type": "Point"
      },
      "properties": {
        "bangumi_id": 442614,
        "bangumi_title": "电影 Love Live! 虹咲学园校园偶像同好会 完结篇 第1章",
        "ep_cut": "",
        "image_url": "https://w.junreimap.com/images/points/442614/0b1f44d6_1740308190855.jpg",
        "location": "瀬底島・本部周辺エリア",
        "point_id": "0b1f44d6",
        "point_name": "コテージCANAC",
        "remark": "民宿「はいさい」の内観のモデルです。※施設を利用しない場合の敷地内への立ち入りは控えましょう"
      },
      "type": "Feature"
    },
    {
      "geometry": {
        "coordinates": [
          127.875995,
          26.686395
        ],
        "type": "Point"
      },
      "properties": {
        "bangumi_id": 442614,
        "bangumi_title": "电影 Love Live! 虹咲学园校园偶像同好会 完结篇 第1章",
        "ep_cut": "",
        "image_url": "https://w.junreimap.com/images/points/442614/78c4b91a_1740308192758.jpg",
        "location": "瀬底島・本部周辺エリア",
        "point_id": "78c4b91a",
        "point_name": "熱帯ドリームセンター（ロータスポンド）",
        "remark": "歩夢とエマが天に出会うシーン。海洋博公園内の熱帯ドリームセンターのロータスポンドです。後ろに見えるのは温室。"
      },
      "type": "Feature"
    },
    {
      "geometry": {
        "coordinates": [
          127.876187,
          26.686423
        ],
        "type": "Point"
      },
      "properties": {
        "bangumi_id": 442614,
        "bangumi_title": "电影 Love Live! 虹咲学园校园偶像同好会 完结篇 第1章",
        "ep_cut": "",
        "image_url": "https://w.junreimap.com/images/points/442614/9ab5b413_1740403962858.jpg",
        "location": "瀬底島・本部周辺エリア",
        "point_id": "9ab5b413",
        "point_name": "熱帯ドリームセンター",
        "remark": "ロータスポンドの周囲のレンガ造りの道を歩く歩夢とエマ。遠見塔が映し出されていました。"
      },
      "type": "Feature"
    },
    {
      "geometry": {
        "coordinates": [
          127.876092,
          26.687296
        ],
        "type": "Point"
      },
      "properties": {
        "bangumi_id": 442614,
        "bangumi_title": "电影 Love Live! 虹咲学园校园偶像同好会 完结篇 第1章",
        "ep_cut": "",
        "image_url": "https://w.junreimap.com/images/points/442614/a01f4351_1740403948908.jpg",
        "location": "瀬底島・本部周辺エリア",
        "point_id": "a01f4351",
        "point_name": "ステンドホール",
        "remark": "売店の天井部分です"
      },
      "type": "Feature"
    },
    {
      "geometry": {
        "coordinates": [
          127.877998,
          26.694435
        ],
        "type": "Point"
      },
      "properties": {
        "bangumi_id": 442614,
        "bangumi_title": "电影 Love Live! 虹咲学园校园偶像同好会 完结篇 第1章",
        "ep_cut": "",
        "image_url": "https://w.junreimap.com/images/points/442614/88239c6f_1740308195025.jpg",
        "location": "瀬底島・本部周辺エリア",
        "point_id": "88239c6f",
        "point_name": "沖縄美ら海水族館",
        "remark": "しずくと彼方が訪れました。館内数ヶ所が登場。彼方のライブシーンはジンベエザメがいる大水槽「黒潮の海」の前ですがかなり混雑します。"
      },
      "type": "Feature"
    },
    {
      "geometry": {
        "coordinates": [
          127.877644,
          26.693964
        ],
        "type": "Point"
      },
      "properties": {
        "bangumi_id": 442614,
        "bangumi_title": "电影 Love Live! 虹咲学园校园偶像同好会 完结篇 第1章",
        "ep_cut": "",
        "image_url": "https://w.junreimap.com/images/points/442614/6943a6cb_1740308197054.jpg",
        "location": "瀬底島・本部周辺エリア",
        "point_id": "6943a6cb",
        "point_name": "美ら海水族館から見た海",
        "remark": "しずくと彼方が海を見ていたシーン。美ら海水族館に入場してすぐ左手の階段前です。"
      },
      "type": "Feature"
    },
    {
      "geometry": {
        "coordinates": [
          127.879886,
          26.701503
        ],
        "type": "Point"
      },
      "properties": {
        "bangumi_id": 442614,
        "bangumi_title": "电影 Love Live! 虹咲学园校园偶像同好会 完结篇 第1章",
        "ep_cut": "",
        "image_url": "https://w.junreimap.com/images/points/442614/e8097776_1740308198935.jpg",
        "location": "瀬底島・本部周辺エリア",
        "point_id": "e8097776",
        "point_name": "「フクギの里宣言記念碑」前の駐車場",
        "remark": "備瀬のフクギ並木駐車場にあるモニュメント。終盤、ランジュ親子をかすみが仲直りさせたシーン。"
      },
      "type": "Feature"
    },
    {
      "geometry": {
        "coordinates": [
          127.880316,
          26.704714
        ],
        "type": "Point"
      },
      "properties": {
        "bangumi_id": 442614,
        "bangumi_title": "电影 Love Live! 虹咲学园校园偶像同好会 完结篇 第1章",
        "ep_cut": 1,
        "image_url": "https://w.junreimap.com/images/points/442614/a4ea3cad_1740412782201.jpg",
        "location": "瀬底島・本部周辺エリア",
        "point_id": "a4ea3cad",
        "point_name": "備瀬崎クルーズ",
        "remark": "クライマックスで天と小糸が和解したシーン"
      },
      "type": "Feature"
    },
    {
      "geometry": {
        "coordinates": [
          127.879899,
          26.707068
        ],
        "type": "Point"
      },
      "properties": {
        "bangumi_id": 442614,
        "bangumi_title": "电影 Love Live! 虹咲学园校园偶像同好会 完结篇 第1章",
        "ep_cut": "",
        "image_url": "https://w.junreimap.com/images/points/442614/7ea53e07_1740308200719.jpg",
        "location": "瀬底島・本部周辺エリア",
        "point_id": "7ea53e07",
        "point_name": "備瀬海岸",
        "remark": "エマと天が会話していた海岸"
      },
      "type": "Feature"
    },
    {
      "geometry": {
        "coordinates": [
          127.880097,
          26.707501
        ],
        "type": "Point"
      },
      "properties": {
        "bangumi_id": 442614,
        "bangumi_title": "电影 Love Live! 虹咲学园校园偶像同好会 完结篇 第1章",
        "ep_cut": "",
        "image_url": "https://w.junreimap.com/images/points/442614/28e860b5_1740308202834.jpg",
        "location": "瀬底島・本部周辺エリア",
        "point_id": "28e860b5",
        "point_name": "キービジュアル",
        "remark": "最初に公開されたキービジュアルの海とフクギ並木。場所が分かりにくいですが、エマと天が会話していた海岸の近くです。"
      },
      "type": "Feature"
    },
    {
      "geometry": {
        "coordinates": [
          127.879878,
          26.701232
        ],
        "type": "Point"
      },
      "properties": {
        "bangumi_id": 442614,
        "bangumi_title": "电影 Love Live! 虹咲学园校园偶像同好会 完结篇 第1章",
        "ep_cut": 1,
        "image_url": "https://w.junreimap.com/images/points/442614/19e128ee_1740490686564.jpg",
        "location": "瀬底島・本部周辺エリア",
        "point_id": "19e128ee",
        "point_name": "ニルヤカナヤBISE",
        "remark": "終盤で登場する、ハイビスカスの花が描かれた建物"
      },
      "type": "Feature"
    },
    {
      "geometry": {
        "coordinates": [
          127.881551,
          26.703441
        ],
        "type": "Point"
      },
      "properties": {
        "bangumi_id": 442614,
        "bangumi_title": "电影 Love Live! 虹咲学园校园偶像同好会 完结篇 第1章",
        "ep_cut": "",
        "image_url": "https://w.junreimap.com/images/points/442614/feb14c78_1740308205222.jpg",
        "location": "瀬底島・本部周辺エリア",
        "point_id": "feb14c78",
        "point_name": "YonnaBise（よんなーびせ）",
        "remark": "エマと天がライブをした場所のモデル。劇中では民宿「はいさい」があることになっています。建物内は別の建物がモデル。"
      },
      "type": "Feature"
    },
    {
      "geometry": {
        "coordinates": [
          127.881829,
          26.700412
        ],
        "type": "Point"
      },
      "properties": {
        "bangumi_id": 442614,
        "bangumi_title": "电影 Love Live! 虹咲学园校园偶像同好会 完结篇 第1章",
        "ep_cut": "",
        "image_url": "https://w.junreimap.com/images/points/442614/487f389a_1740308207138.jpg",
        "location": "瀬底島・本部周辺エリア",
        "point_id": "487f389a",
        "point_name": "okinawasun オキナワサン",
        "remark": "かすみが犬と配信をしていたお店"
      },
      "type": "Feature"
    },
    {
      "geometry": {
        "coordinates": [
          127.928979,
          26.691286
        ],
        "type": "Point"
      },
      "properties": {
        "bangumi_id": 442614,
        "bangumi_title": "电影 Love Live! 虹咲学园校园偶像同好会 完结篇 第1章",
        "ep_cut": "",
        "image_url": "https://w.junreimap.com/images/points/442614/e0bcef60_1740308209556.jpg",
        "location": "瀬底島・本部周辺エリア",
        "point_id": "e0bcef60",
        "point_name": "今帰仁城跡",
        "remark": "歩夢が満開の桜の中にいました。ここのカンヒザクラの見頃は例年1月下旬～2月中旬です。"
      },
      "type": "Feature"
    },
    {
      "geometry": {
        "coordinates": [
          128.002408,
          26.668448
        ],
        "type": "Point"
      },
      "properties": {
        "bangumi_id": 442614,
        "bangumi_title": "电影 Love Live! 虹咲学园校园偶像同好会 完结篇 第1章",
        "ep_cut": 1,
        "image_url": "https://w.junreimap.com/images/points/442614/3f7d2d1b_1740490728378.jpg",
        "location": "瀬底島・本部周辺エリア",
        "point_id": "3f7d2d1b",
        "point_name": "カラン",
        "remark": "歩夢のライブシーンで登場した青い壁のお店"
      },
      "type": "Feature"
    },
    {
      "geometry": {
        "coordinates": [
          128.014659,
          26.713815
        ],
        "type": "Point"
      },
      "properties": {
        "bangumi_id": 442614,
        "bangumi_title": "电影 Love Live! 虹咲学园校园偶像同好会 完结篇 第1章",
        "ep_cut": "",
        "image_url": "https://w.junreimap.com/images/points/442614/d01c3420_1740404947201.jpg",
        "location": "瀬底島・本部周辺エリア",
        "point_id": "d01c3420",
        "point_name": "ハートロック",
        "remark": "ティーヌ浜にあるハート形の岩。彼方とイマジナリー遥がいました。海側からハートロック越しに陸地を見ています。数年前にJALのCMで嵐が訪れ大きな話題になりました。"
      },
      "type": "Feature"
    },
    {
      "geometry": {
        "coordinates": [
          127.749471,
          26.140297
        ],
        "type": "Point"
      },
      "properties": {
        "bangumi_id": 442614,
        "bangumi_title": "电影 Love Live! 虹咲学园校园偶像同好会 完结篇 第1章",
        "ep_cut": "",
        "image_url": "https://w.junreimap.com/images/points/442614/f11e43ef_1740308211564.jpg",
        "location": "南城・本島南部エリア",
        "point_id": "f11e43ef",
        "point_name": "玉泉洞（おきなわワールド）",
        "remark": "おきなわワールド内。ガンガラーの谷近く。後半でしずくがライブをしていた。"
      },
      "type": "Feature"
    },
    {
      "geometry": {
        "coordinates": [
          127.751172,
          26.138102
        ],
        "type": "Point"
      },
      "properties": {
        "bangumi_id": 442614,
        "bangumi_title": "电影 Love Live! 虹咲学园校园偶像同好会 完结篇 第1章",
        "ep_cut": "",
        "image_url": "https://w.junreimap.com/images/points/442614/5562c9c2_1740308213450.jpg",
        "location": "南城・本島南部エリア",
        "point_id": "5562c9c2",
        "point_name": "琉球ガラス王国工房（おきなわワールド）",
        "remark": "エマがガラス加工体験をした"
      },
      "type": "Feature"
    },
    {
      "geometry": {
        "coordinates": [
          127.747304,
          26.141295
        ],
        "type": "Point"
      },
      "properties": {
        "bangumi_id": 442614,
        "bangumi_title": "电影 Love Live! 虹咲学园校园偶像同好会 完结篇 第1章",
        "ep_cut": 1,
        "image_url": "https://w.junreimap.com/images/points/442614/bbc0123e_1740412795754.jpg",
        "location": "南城・本島南部エリア",
        "point_id": "bbc0123e",
        "point_name": "ガンガラーの谷",
        "remark": "歩夢、しずく、彼方が食事をしていた、洞窟内にあるカフェなど"
      },
      "type": "Feature"
    },
    {
      "geometry": {
        "coordinates": [
          127.816508,
          26.164912
        ],
        "type": "Point"
      },
      "properties": {
        "bangumi_id": 442614,
        "bangumi_title": "电影 Love Live! 虹咲学园校园偶像同好会 完结篇 第1章",
        "ep_cut": "",
        "image_url": "",
        "location": "南城・本島南部エリア",
        "point_id": "8de32732",
        "point_name": "ニライ・カナイ橋",
        "remark": "ランジュのライブシーン、スクーターで橋を渡っています。ちなみに最後に出た長い橋は宮古島の伊良部大橋。"
      },
      "type": "Feature"
    },
    {
      "geometry": {
        "coordinates": [
          127.829832,
          26.17881
        ],
        "type": "Point"
      },
      "properties": {
        "bangumi_id": 442614,
        "bangumi_title": "电影 Love Live! 虹咲学园校园偶像同好会 完结篇 第1章",
        "ep_cut": 1,
        "image_url": "https://w.junreimap.com/images/points/442614/a11e75e0_1740412082191.jpg",
        "location": "南城・本島南部エリア",
        "point_id": "a11e75e0",
        "point_name": "あざまサンサンビーチ",
        "remark": "「ハートの鐘」をかすみが訪れた"
      },
      "type": "Feature"
    }
  ],
  "type": "FeatureCollection"
}