{
  "features": [
    {
      "geometry": {
        "coordinates": [
          13.368874,
          52.524971
        ],
        "type": "Point"
      },
      "properties": {
        "bangumi_id": 44693,
        "bangumi_title": "剧场版 魔法少女小圆 [新篇] 叛逆的物语",
        "ep_cut": 3,
        "image_url": "https://w.junreimap.com/images/points/44693/iv7qt4w_1788082613303.webp",
        "location": "柏林中央车站",
        "point_id": "iv7qt4w",
        "point_name": "Berlin Hauptbahnhof",
        "remark": "柏林中央车站。"
      },
      "type": "Feature"
    },
    {
      "geometry": {
        "coordinates": [
          144.549911,
          43.645278
        ],
        "type": "Point"
      },
      "properties": {
        "bangumi_id": 44693,
        "bangumi_title": "剧场版 魔法少女小圆 [新篇] 叛逆的物语",
        "ep_cut": 3,
        "image_url": "https://w.junreimap.com/images/points/44693/iv9pnsc_1788083205398.webp",
        "location": "神之子池",
        "point_id": "iv9pnsc",
        "point_name": "神の子池",
        "remark": ""
      },
      "type": "Feature"
    },
    {
      "geometry": {
        "coordinates": [
          144.549935,
          43.645249
        ],
        "type": "Point"
      },
      "properties": {
        "bangumi_id": 44693,
        "bangumi_title": "剧场版 魔法少女小圆 [新篇] 叛逆的物语",
        "ep_cut": 3,
        "image_url": "https://w.junreimap.com/images/points/44693/iv9q11e_1788083216907.webp",
        "location": "神之子池",
        "point_id": "iv9q11e",
        "point_name": "神の子池",
        "remark": ""
      },
      "type": "Feature"
    },
    {
      "geometry": {
        "coordinates": [
          144.549961,
          43.645228
        ],
        "type": "Point"
      },
      "properties": {
        "bangumi_id": 44693,
        "bangumi_title": "剧场版 魔法少女小圆 [新篇] 叛逆的物语",
        "ep_cut": 3,
        "image_url": "https://w.junreimap.com/images/points/44693/iv9q9ue_1788083231553.webp",
        "location": "神之子池",
        "point_id": "iv9q9ue",
        "point_name": "神の子池",
        "remark": ""
      },
      "type": "Feature"
    },
    {
      "geometry": {
        "coordinates": [
          144.549988,
          43.64521
        ],
        "type": "Point"
      },
      "properties": {
        "bangumi_id": 44693,
        "bangumi_title": "剧场版 魔法少女小圆 [新篇] 叛逆的物语",
        "ep_cut": 3,
        "image_url": "https://w.junreimap.com/images/points/44693/iv9qmtd_1788083245206.webp",
        "location": "神之子池",
        "point_id": "iv9qmtd",
        "point_name": "神の子池",
        "remark": ""
      },
      "type": "Feature"
    },
    {
      "geometry": {
        "coordinates": [
          140.965397,
          38.630978
        ],
        "type": "Point"
      },
      "properties": {
        "bangumi_id": 44693,
        "bangumi_title": "剧场版 魔法少女小圆 [新篇] 叛逆的物语",
        "ep_cut": 3,
        "image_url": "https://w.junreimap.com/images/points/44693/iva6o34_1788084061864.webp",
        "location": "化女沼游乐园",
        "point_id": "iva6o34",
        "point_name": "化女沼レジャーランド",
        "remark": "宫城县大崎市的废弃游乐园。\nhttps://maps.app.goo.gl/NcDp3mHjg8j7Uywi7"
      },
      "type": "Feature"
    },
    {
      "geometry": {
        "coordinates": [
          9.191043,
          45.464175
        ],
        "type": "Point"
      },
      "properties": {
        "bangumi_id": 44693,
        "bangumi_title": "剧场版 魔法少女小圆 [新篇] 叛逆的物语",
        "ep_cut": 3,
        "image_url": "https://w.junreimap.com/images/points/44693/iv7wfjv_1788082969153.webp",
        "location": "米兰大教堂",
        "point_id": "iv7wfjv",
        "point_name": "Duomo di Milano",
        "remark": "这个背景中出现的塔楼与米兰大教堂的中心塔楼一致，后续出现的另一侧塔楼和现实不一致。"
      },
      "type": "Feature"
    },
    {
      "geometry": {
        "coordinates": [
          9.191247,
          45.464169
        ],
        "type": "Point"
      },
      "properties": {
        "bangumi_id": 44693,
        "bangumi_title": "剧场版 魔法少女小圆 [新篇] 叛逆的物语",
        "ep_cut": 3,
        "image_url": "https://w.junreimap.com/images/points/44693/iv9kyrb_1788082980878.webp",
        "location": "米兰大教堂",
        "point_id": "iv9kyrb",
        "point_name": "Duomo di Milano",
        "remark": ""
      },
      "type": "Feature"
    },
    {
      "geometry": {
        "coordinates": [
          9.191148,
          45.464132
        ],
        "type": "Point"
      },
      "properties": {
        "bangumi_id": 44693,
        "bangumi_title": "剧场版 魔法少女小圆 [新篇] 叛逆的物语",
        "ep_cut": 3,
        "image_url": "https://w.junreimap.com/images/points/44693/iv9l4hl_1788082987841.webp",
        "location": "米兰大教堂",
        "point_id": "iv9l4hl",
        "point_name": "Duomo di Milano",
        "remark": ""
      },
      "type": "Feature"
    },
    {
      "geometry": {
        "coordinates": [
          9.191209,
          45.464188
        ],
        "type": "Point"
      },
      "properties": {
        "bangumi_id": 44693,
        "bangumi_title": "剧场版 魔法少女小圆 [新篇] 叛逆的物语",
        "ep_cut": 3,
        "image_url": "https://w.junreimap.com/images/points/44693/iv9lye4_1788083028200.webp",
        "location": "米兰大教堂",
        "point_id": "iv9lye4",
        "point_name": "Duomo di Milano",
        "remark": ""
      },
      "type": "Feature"
    },
    {
      "geometry": {
        "coordinates": [
          9.19111,
          45.464175
        ],
        "type": "Point"
      },
      "properties": {
        "bangumi_id": 44693,
        "bangumi_title": "剧场版 魔法少女小圆 [新篇] 叛逆的物语",
        "ep_cut": 3,
        "image_url": "https://w.junreimap.com/images/points/44693/iv9lhgy_1788083062583.webp",
        "location": "米兰大教堂",
        "point_id": "iv9lhgy",
        "point_name": "Duomo di Milano",
        "remark": ""
      },
      "type": "Feature"
    },
    {
      "geometry": {
        "coordinates": [
          9.191183,
          45.464168
        ],
        "type": "Point"
      },
      "properties": {
        "bangumi_id": 44693,
        "bangumi_title": "剧场版 魔法少女小圆 [新篇] 叛逆的物语",
        "ep_cut": 3,
        "image_url": "https://w.junreimap.com/images/points/44693/iv9mhkf_1788083052016.webp",
        "location": "米兰大教堂",
        "point_id": "iv9mhkf",
        "point_name": "Duomo di Milano",
        "remark": ""
      },
      "type": "Feature"
    },
    {
      "geometry": {
        "coordinates": [
          9.191228,
          45.464185
        ],
        "type": "Point"
      },
      "properties": {
        "bangumi_id": 44693,
        "bangumi_title": "剧场版 魔法少女小圆 [新篇] 叛逆的物语",
        "ep_cut": 3,
        "image_url": "https://w.junreimap.com/images/points/44693/iv9n5qm_1788083083194.webp",
        "location": "米兰大教堂",
        "point_id": "iv9n5qm",
        "point_name": "Duomo di Milano",
        "remark": ""
      },
      "type": "Feature"
    },
    {
      "geometry": {
        "coordinates": [
          9.191151,
          45.464149
        ],
        "type": "Point"
      },
      "properties": {
        "bangumi_id": 44693,
        "bangumi_title": "剧场版 魔法少女小圆 [新篇] 叛逆的物语",
        "ep_cut": 3,
        "image_url": "https://w.junreimap.com/images/points/44693/iv9nfq1_1788083097568.webp",
        "location": "米兰大教堂",
        "point_id": "iv9nfq1",
        "point_name": "Duomo di Milano",
        "remark": ""
      },
      "type": "Feature"
    },
    {
      "geometry": {
        "coordinates": [
          121.503003,
          31.236522
        ],
        "type": "Point"
      },
      "properties": {
        "bangumi_id": 44693,
        "bangumi_title": "剧场版 魔法少女小圆 [新篇] 叛逆的物语",
        "ep_cut": 3,
        "image_url": "https://w.junreimap.com/images/points/44693/ivamo82_1788084752179.webp",
        "location": "上海环球金融中心",
        "point_id": "ivamo82",
        "point_name": "上海环球金融中心 100层观景台",
        "remark": ""
      },
      "type": "Feature"
    },
    {
      "geometry": {
        "coordinates": [
          121.502994,
          31.236544
        ],
        "type": "Point"
      },
      "properties": {
        "bangumi_id": 44693,
        "bangumi_title": "剧场版 魔法少女小圆 [新篇] 叛逆的物语",
        "ep_cut": 3,
        "image_url": "https://w.junreimap.com/images/points/44693/ivanb2t_1788084770330.webp",
        "location": "上海环球金融中心",
        "point_id": "ivanb2t",
        "point_name": "上海环球金融中心 100层观景台",
        "remark": ""
      },
      "type": "Feature"
    },
    {
      "geometry": {
        "coordinates": [
          121.503063,
          31.236594
        ],
        "type": "Point"
      },
      "properties": {
        "bangumi_id": 44693,
        "bangumi_title": "剧场版 魔法少女小圆 [新篇] 叛逆的物语",
        "ep_cut": 3,
        "image_url": "https://w.junreimap.com/images/points/44693/ivaop9s_1788084836807.webp",
        "location": "上海环球金融中心",
        "point_id": "ivaop9s",
        "point_name": "上海环球金融中心 100层观景台",
        "remark": ""
      },
      "type": "Feature"
    },
    {
      "geometry": {
        "coordinates": [
          121.503068,
          31.236602
        ],
        "type": "Point"
      },
      "properties": {
        "bangumi_id": 44693,
        "bangumi_title": "剧场版 魔法少女小圆 [新篇] 叛逆的物语",
        "ep_cut": 3,
        "image_url": "https://w.junreimap.com/images/points/44693/ivapem8_1788084868853.webp",
        "location": "上海环球金融中心",
        "point_id": "ivapem8",
        "point_name": "上海环球金融中心 100层观景台",
        "remark": ""
      },
      "type": "Feature"
    },
    {
      "geometry": {
        "coordinates": [
          121.503007,
          31.236547
        ],
        "type": "Point"
      },
      "properties": {
        "bangumi_id": 44693,
        "bangumi_title": "剧场版 魔法少女小圆 [新篇] 叛逆的物语",
        "ep_cut": 3,
        "image_url": "https://w.junreimap.com/images/points/44693/ivappdq_1788084881963.webp",
        "location": "上海环球金融中心",
        "point_id": "ivappdq",
        "point_name": "上海环球金融中心 100层观景台",
        "remark": ""
      },
      "type": "Feature"
    },
    {
      "geometry": {
        "coordinates": [
          121.503029,
          31.236547
        ],
        "type": "Point"
      },
      "properties": {
        "bangumi_id": 44693,
        "bangumi_title": "剧场版 魔法少女小圆 [新篇] 叛逆的物语",
        "ep_cut": 3,
        "image_url": "https://w.junreimap.com/images/points/44693/ivaq9zz_1788084907784.webp",
        "location": "上海环球金融中心",
        "point_id": "ivaq9zz",
        "point_name": "上海环球金融中心 100层观景台",
        "remark": ""
      },
      "type": "Feature"
    },
    {
      "geometry": {
        "coordinates": [
          121.5031,
          31.23664
        ],
        "type": "Point"
      },
      "properties": {
        "bangumi_id": 44693,
        "bangumi_title": "剧场版 魔法少女小圆 [新篇] 叛逆的物语",
        "ep_cut": 3,
        "image_url": "https://w.junreimap.com/images/points/44693/ivaqn4q_1788084930360.webp",
        "location": "上海环球金融中心",
        "point_id": "ivaqn4q",
        "point_name": "上海环球金融中心 100层观景台",
        "remark": ""
      },
      "type": "Feature"
    },
    {
      "geometry": {
        "coordinates": [
          121.503094,
          31.236629
        ],
        "type": "Point"
      },
      "properties": {
        "bangumi_id": 44693,
        "bangumi_title": "剧场版 魔法少女小圆 [新篇] 叛逆的物语",
        "ep_cut": 3,
        "image_url": "https://w.junreimap.com/images/points/44693/ivaqzs6_1788084942236.webp",
        "location": "上海环球金融中心",
        "point_id": "ivaqzs6",
        "point_name": "上海环球金融中心 100层观景台",
        "remark": ""
      },
      "type": "Feature"
    },
    {
      "geometry": {
        "coordinates": [
          121.502973,
          31.236502
        ],
        "type": "Point"
      },
      "properties": {
        "bangumi_id": 44693,
        "bangumi_title": "剧场版 魔法少女小圆 [新篇] 叛逆的物语",
        "ep_cut": 3,
        "image_url": "https://w.junreimap.com/images/points/44693/ivarr18_1788084981311.webp",
        "location": "上海环球金融中心",
        "point_id": "ivarr18",
        "point_name": "上海环球金融中心 100层观景台",
        "remark": ""
      },
      "type": "Feature"
    },
    {
      "geometry": {
        "coordinates": [
          121.503025,
          31.236518
        ],
        "type": "Point"
      },
      "properties": {
        "bangumi_id": 44693,
        "bangumi_title": "剧场版 魔法少女小圆 [新篇] 叛逆的物语",
        "ep_cut": 3,
        "image_url": "https://w.junreimap.com/images/points/44693/ivas4e2_1788084998342.webp",
        "location": "上海环球金融中心",
        "point_id": "ivas4e2",
        "point_name": "上海环球金融中心 100层观景台",
        "remark": ""
      },
      "type": "Feature"
    },
    {
      "geometry": {
        "coordinates": [
          121.503014,
          31.236532
        ],
        "type": "Point"
      },
      "properties": {
        "bangumi_id": 44693,
        "bangumi_title": "剧场版 魔法少女小圆 [新篇] 叛逆的物语",
        "ep_cut": 3,
        "image_url": "https://w.junreimap.com/images/points/44693/ivasdku_1788085007146.webp",
        "location": "上海环球金融中心",
        "point_id": "ivasdku",
        "point_name": "上海环球金融中心 100层观景台",
        "remark": ""
      },
      "type": "Feature"
    },
    {
      "geometry": {
        "coordinates": [
          121.503016,
          31.236527
        ],
        "type": "Point"
      },
      "properties": {
        "bangumi_id": 44693,
        "bangumi_title": "剧场版 魔法少女小圆 [新篇] 叛逆的物语",
        "ep_cut": 3,
        "image_url": "https://w.junreimap.com/images/points/44693/ivasjvu_1788085014432.webp",
        "location": "上海环球金融中心",
        "point_id": "ivasjvu",
        "point_name": "上海环球金融中心 100层观景台",
        "remark": ""
      },
      "type": "Feature"
    },
    {
      "geometry": {
        "coordinates": [
          121.503002,
          31.236534
        ],
        "type": "Point"
      },
      "properties": {
        "bangumi_id": 44693,
        "bangumi_title": "剧场版 魔法少女小圆 [新篇] 叛逆的物语",
        "ep_cut": 3,
        "image_url": "https://w.junreimap.com/images/points/44693/ivasom8_1788085020053.webp",
        "location": "上海环球金融中心",
        "point_id": "ivasom8",
        "point_name": "上海环球金融中心 100层观景台",
        "remark": ""
      },
      "type": "Feature"
    },
    {
      "geometry": {
        "coordinates": [
          121.503033,
          31.236561
        ],
        "type": "Point"
      },
      "properties": {
        "bangumi_id": 44693,
        "bangumi_title": "剧场版 魔法少女小圆 [新篇] 叛逆的物语",
        "ep_cut": 3,
        "image_url": "https://w.junreimap.com/images/points/44693/ivasuyi_1788085027989.webp",
        "location": "上海环球金融中心",
        "point_id": "ivasuyi",
        "point_name": "上海环球金融中心 100层观景台",
        "remark": ""
      },
      "type": "Feature"
    },
    {
      "geometry": {
        "coordinates": [
          121.503036,
          31.236564
        ],
        "type": "Point"
      },
      "properties": {
        "bangumi_id": 44693,
        "bangumi_title": "剧场版 魔法少女小圆 [新篇] 叛逆的物语",
        "ep_cut": 3,
        "image_url": "https://w.junreimap.com/images/points/44693/ivasxnw_1788085035898.webp",
        "location": "上海环球金融中心",
        "point_id": "ivasxnw",
        "point_name": "上海环球金融中心 100层观景台",
        "remark": ""
      },
      "type": "Feature"
    },
    {
      "geometry": {
        "coordinates": [
          121.503042,
          31.236571
        ],
        "type": "Point"
      },
      "properties": {
        "bangumi_id": 44693,
        "bangumi_title": "剧场版 魔法少女小圆 [新篇] 叛逆的物语",
        "ep_cut": 3,
        "image_url": "https://w.junreimap.com/images/points/44693/ivat51s_1788085041542.webp",
        "location": "上海环球金融中心",
        "point_id": "ivat51s",
        "point_name": "上海环球金融中心 100层观景台",
        "remark": ""
      },
      "type": "Feature"
    },
    {
      "geometry": {
        "coordinates": [
          121.503045,
          31.236574
        ],
        "type": "Point"
      },
      "properties": {
        "bangumi_id": 44693,
        "bangumi_title": "剧场版 魔法少女小圆 [新篇] 叛逆的物语",
        "ep_cut": 3,
        "image_url": "https://w.junreimap.com/images/points/44693/ivatt9r_1788085075606.webp",
        "location": "上海环球金融中心",
        "point_id": "ivatt9r",
        "point_name": "上海环球金融中心 100层观景台",
        "remark": ""
      },
      "type": "Feature"
    },
    {
      "geometry": {
        "coordinates": [
          121.503043,
          31.236562
        ],
        "type": "Point"
      },
      "properties": {
        "bangumi_id": 44693,
        "bangumi_title": "剧场版 魔法少女小圆 [新篇] 叛逆的物语",
        "ep_cut": 3,
        "image_url": "https://w.junreimap.com/images/points/44693/ivau4r6_1788085088143.webp",
        "location": "上海环球金融中心",
        "point_id": "ivau4r6",
        "point_name": "上海环球金融中心 100层观景台",
        "remark": ""
      },
      "type": "Feature"
    },
    {
      "geometry": {
        "coordinates": [
          121.503059,
          31.23656
        ],
        "type": "Point"
      },
      "properties": {
        "bangumi_id": 44693,
        "bangumi_title": "剧场版 魔法少女小圆 [新篇] 叛逆的物语",
        "ep_cut": 3,
        "image_url": "https://w.junreimap.com/images/points/44693/ivauau6_1788085095540.webp",
        "location": "上海环球金融中心",
        "point_id": "ivauau6",
        "point_name": "上海环球金融中心 100层观景台",
        "remark": ""
      },
      "type": "Feature"
    },
    {
      "geometry": {
        "coordinates": [
          121.50305,
          31.236571
        ],
        "type": "Point"
      },
      "properties": {
        "bangumi_id": 44693,
        "bangumi_title": "剧场版 魔法少女小圆 [新篇] 叛逆的物语",
        "ep_cut": 3,
        "image_url": "https://w.junreimap.com/images/points/44693/ivautl6_1788085119690.webp",
        "location": "上海环球金融中心",
        "point_id": "ivautl6",
        "point_name": "上海环球金融中心 100层观景台",
        "remark": ""
      },
      "type": "Feature"
    },
    {
      "geometry": {
        "coordinates": [
          121.503084,
          31.236553
        ],
        "type": "Point"
      },
      "properties": {
        "bangumi_id": 44693,
        "bangumi_title": "剧场版 魔法少女小圆 [新篇] 叛逆的物语",
        "ep_cut": 3,
        "image_url": "https://w.junreimap.com/images/points/44693/ivav0oe_1788085136339.webp",
        "location": "上海环球金融中心",
        "point_id": "ivav0oe",
        "point_name": "上海环球金融中心 100层观景台",
        "remark": ""
      },
      "type": "Feature"
    },
    {
      "geometry": {
        "coordinates": [
          121.503041,
          31.236568
        ],
        "type": "Point"
      },
      "properties": {
        "bangumi_id": 44693,
        "bangumi_title": "剧场版 魔法少女小圆 [新篇] 叛逆的物语",
        "ep_cut": 3,
        "image_url": "https://w.junreimap.com/images/points/44693/ivavrha_1788085172224.webp",
        "location": "上海环球金融中心",
        "point_id": "ivavrha",
        "point_name": "上海环球金融中心 100层观景台",
        "remark": ""
      },
      "type": "Feature"
    },
    {
      "geometry": {
        "coordinates": [
          121.503048,
          31.236577
        ],
        "type": "Point"
      },
      "properties": {
        "bangumi_id": 44693,
        "bangumi_title": "剧场版 魔法少女小圆 [新篇] 叛逆的物语",
        "ep_cut": 3,
        "image_url": "https://w.junreimap.com/images/points/44693/ivaw559_1788085182544.webp",
        "location": "上海环球金融中心",
        "point_id": "ivaw559",
        "point_name": "上海环球金融中心 100层观景台",
        "remark": ""
      },
      "type": "Feature"
    },
    {
      "geometry": {
        "coordinates": [
          9.191,
          45.464176
        ],
        "type": "Point"
      },
      "properties": {
        "bangumi_id": 44693,
        "bangumi_title": "剧场版 魔法少女小圆 [新篇] 叛逆的物语",
        "ep_cut": 3,
        "image_url": "https://w.junreimap.com/images/points/44693/ivak7ps_1788084631963.webp",
        "location": "米兰大教堂",
        "point_id": "ivak7ps",
        "point_name": "Duomo di Milano",
        "remark": ""
      },
      "type": "Feature"
    },
    {
      "geometry": {
        "coordinates": [
          9.191328,
          45.46417
        ],
        "type": "Point"
      },
      "properties": {
        "bangumi_id": 44693,
        "bangumi_title": "剧场版 魔法少女小圆 [新篇] 叛逆的物语",
        "ep_cut": 3,
        "image_url": "https://w.junreimap.com/images/points/44693/ivakiw7_1788084640210.webp",
        "location": "米兰大教堂",
        "point_id": "ivakiw7",
        "point_name": "Duomo di Milano",
        "remark": ""
      },
      "type": "Feature"
    }
  ],
  "type": "FeatureCollection"
}