{
  "features": [
    {
      "geometry": {
        "coordinates": [
          130.418759,
          33.590891
        ],
        "type": "Point"
      },
      "properties": {
        "bangumi_id": 454841,
        "bangumi_title": "制服女友",
        "ep_cut": "",
        "image_url": "https://w.junreimap.com/images/user/1088/bangumi/454841/points/kq779b57g-1716618615076.jpg",
        "location": "福冈市",
        "point_id": "kq779b57g",
        "point_name": "博多駅(バスターミナル前)",
        "remark": ""
      },
      "type": "Feature"
    },
    {
      "geometry": {
        "coordinates": [
          130.448594,
          33.597017
        ],
        "type": "Point"
      },
      "properties": {
        "bangumi_id": 454841,
        "bangumi_title": "制服女友",
        "ep_cut": "",
        "image_url": "https://w.junreimap.com/images/user/1088/bangumi/454841/points/kq7i31qg4-1716619247957.jpg",
        "location": "福冈市",
        "point_id": "kq7i31qg4",
        "point_name": "福岡空港",
        "remark": ""
      },
      "type": "Feature"
    },
    {
      "geometry": {
        "coordinates": [
          130.35469,
          33.595059
        ],
        "type": "Point"
      },
      "properties": {
        "bangumi_id": 454841,
        "bangumi_title": "制服女友",
        "ep_cut": "",
        "image_url": "https://w.junreimap.com/images/user/1088/bangumi/454841/points/kq9aq3iwr-1716623190066.jpg",
        "location": "福冈市",
        "point_id": "kq9aq3iwr",
        "point_name": "シーサイド​ももち​海浜公園",
        "remark": "位置已修正，当前为正确位置"
      },
      "type": "Feature"
    },
    {
      "geometry": {
        "coordinates": [
          130.399362,
          33.58993
        ],
        "type": "Point"
      },
      "properties": {
        "bangumi_id": 454841,
        "bangumi_title": "制服女友",
        "ep_cut": "",
        "image_url": "https://w.junreimap.com/images/user/1088/bangumi/454841/points/kq9csns1j-1716623353809.jpg",
        "location": "福冈市",
        "point_id": "kq9csns1j",
        "point_name": "天神地下街",
        "remark": ""
      },
      "type": "Feature"
    },
    {
      "geometry": {
        "coordinates": [
          130.37565,
          33.5892
        ],
        "type": "Point"
      },
      "properties": {
        "bangumi_id": 454841,
        "bangumi_title": "制服女友",
        "ep_cut": "",
        "image_url": "https://w.junreimap.com/images/user/1088/bangumi/454841/points/kqhu3e1of-1716641761433.jpg",
        "location": "福冈市",
        "point_id": "kqhu3e1of",
        "point_name": "大濠公園",
        "remark": ""
      },
      "type": "Feature"
    },
    {
      "geometry": {
        "coordinates": [
          130.964272,
          33.947163
        ],
        "type": "Point"
      },
      "properties": {
        "bangumi_id": 454841,
        "bangumi_title": "制服女友",
        "ep_cut": "制服女友1和2外出地点之一",
        "image_url": "https://w.junreimap.com/images/user/0/bangumi/454841/points/5rjhdlx-1759559607388.jpg",
        "location": "",
        "point_id": "5rjhdlx",
        "point_name": "親水広場",
        "remark": "最右边是プレミアホテル門司港，就在门司港站的对面"
      },
      "type": "Feature"
    },
    {
      "geometry": {
        "coordinates": [
          130.196835,
          33.639071
        ],
        "type": "Point"
      },
      "properties": {
        "bangumi_id": 454841,
        "bangumi_title": "制服女友",
        "ep_cut": "玉依ひまり线约会地",
        "image_url": "https://w.junreimap.com/images/user/0/bangumi/454841/points/bq2iyeu-1772531384262.jpg",
        "location": "",
        "point_id": "bq2iyeu",
        "point_name": "桜井二見ヶ浦 海中大鳥居",
        "remark": ""
      },
      "type": "Feature"
    },
    {
      "geometry": {
        "coordinates": [
          130.412509,
          33.589665
        ],
        "type": "Point"
      },
      "properties": {
        "bangumi_id": 454841,
        "bangumi_title": "制服女友",
        "ep_cut": "",
        "image_url": "https://w.junreimap.com/images/user/0/bangumi/454841/points/bq2uovo-1772531909221.jpg",
        "location": "",
        "point_id": "bq2uovo",
        "point_name": "キャナルシティ博多",
        "remark": "游戏中外观实际上对应旁边的イーストビル"
      },
      "type": "Feature"
    },
    {
      "geometry": {
        "coordinates": [
          130.410827,
          33.589673
        ],
        "type": "Point"
      },
      "properties": {
        "bangumi_id": 454841,
        "bangumi_title": "制服女友",
        "ep_cut": "",
        "image_url": "https://w.junreimap.com/images/user/0/bangumi/454841/points/bq38056-1772532514740.jpg",
        "location": "",
        "point_id": "bq38056",
        "point_name": "キャナルシティ博多 サンプラザステージ",
        "remark": "建筑内的喷泉"
      },
      "type": "Feature"
    },
    {
      "geometry": {
        "coordinates": [
          130.375679,
          33.587799
        ],
        "type": "Point"
      },
      "properties": {
        "bangumi_id": 454841,
        "bangumi_title": "制服女友",
        "ep_cut": "",
        "image_url": "https://w.junreimap.com/images/user/0/bangumi/454841/points/bq3bz3s-1772532854620.jpg",
        "location": "",
        "point_id": "bq3bz3s",
        "point_name": "大濠公園浮見堂",
        "remark": "共通线CG"
      },
      "type": "Feature"
    },
    {
      "geometry": {
        "coordinates": [
          130.426554,
          33.559377
        ],
        "type": "Point"
      },
      "properties": {
        "bangumi_id": 454841,
        "bangumi_title": "制服女友",
        "ep_cut": "",
        "image_url": "https://w.junreimap.com/images/user/0/bangumi/454841/points/bq3o0o0-1772533259912.jpg",
        "location": "",
        "point_id": "bq3o0o0",
        "point_name": "大橋駅前",
        "remark": ""
      },
      "type": "Feature"
    },
    {
      "geometry": {
        "coordinates": [
          130.380494,
          33.546784
        ],
        "type": "Point"
      },
      "properties": {
        "bangumi_id": 454841,
        "bangumi_title": "制服女友",
        "ep_cut": "",
        "image_url": "https://w.junreimap.com/images/user/0/bangumi/454841/points/bq3qo2h-1772533408599.jpg",
        "location": "",
        "point_id": "bq3qo2h",
        "point_name": "どんどん亭 城南店",
        "remark": "另有饰演玉依ひまり的声优橘杏咲的官方巡礼探店视频"
      },
      "type": "Feature"
    },
    {
      "geometry": {
        "coordinates": [
          130.351506,
          33.593232
        ],
        "type": "Point"
      },
      "properties": {
        "bangumi_id": 454841,
        "bangumi_title": "制服女友",
        "ep_cut": "",
        "image_url": "https://w.junreimap.com/images/user/0/bangumi/454841/points/bq3yjpi-1772533773835.jpg",
        "location": "",
        "point_id": "bq3yjpi",
        "point_name": "福岡タワー",
        "remark": "恋人の聖地"
      },
      "type": "Feature"
    }
  ],
  "type": "FeatureCollection"
}