{
  "features": [
    {
      "geometry": {
        "coordinates": [
          139.902182,
          35.738168
        ],
        "type": "Point"
      },
      "properties": {
        "bangumi_id": 46828,
        "bangumi_title": "悠悠式",
        "ep_cut": 1,
        "image_url": "https://w.junreimap.com/images/points/46828/kpx6op7pt_1753693197566.jpg",
        "location": "",
        "point_id": "kpx6op7pt",
        "point_name": "江戸川水門",
        "remark": ""
      },
      "type": "Feature"
    },
    {
      "geometry": {
        "coordinates": [
          139.902107,
          35.737723
        ],
        "type": "Point"
      },
      "properties": {
        "bangumi_id": 46828,
        "bangumi_title": "悠悠式",
        "ep_cut": 1,
        "image_url": "https://w.junreimap.com/images/points/46828/kpx6op7xp_1753693231158.jpg",
        "location": "",
        "point_id": "kpx6op7xp",
        "point_name": "3人が座っていた石",
        "remark": ""
      },
      "type": "Feature"
    },
    {
      "geometry": {
        "coordinates": [
          139.900753,
          35.734112
        ],
        "type": "Point"
      },
      "properties": {
        "bangumi_id": 46828,
        "bangumi_title": "悠悠式",
        "ep_cut": 1,
        "image_url": "https://w.junreimap.com/images/points/46828/kpx6op860_1753693295936.jpg",
        "location": "",
        "point_id": "kpx6op860",
        "point_name": "市川橋",
        "remark": ""
      },
      "type": "Feature"
    },
    {
      "geometry": {
        "coordinates": [
          139.637424,
          35.70012
        ],
        "type": "Point"
      },
      "properties": {
        "bangumi_id": 46828,
        "bangumi_title": "悠悠式",
        "ep_cut": 1,
        "image_url": "https://w.junreimap.com/images/points/46828/kpx6op8n7_1753693331744.jpg",
        "location": "",
        "point_id": "kpx6op8n7",
        "point_name": "福吉",
        "remark": ""
      },
      "type": "Feature"
    },
    {
      "geometry": {
        "coordinates": [
          130.330244,
          33.595676
        ],
        "type": "Point"
      },
      "properties": {
        "bangumi_id": 46828,
        "bangumi_title": "悠悠式",
        "ep_cut": 1,
        "image_url": "https://w.junreimap.com/images/points/46828/kpx6op93s_1753693366046.jpg",
        "location": "",
        "point_id": "kpx6op93s",
        "point_name": "福岡女子高校",
        "remark": ""
      },
      "type": "Feature"
    },
    {
      "geometry": {
        "coordinates": [
          130.389084,
          33.584469
        ],
        "type": "Point"
      },
      "properties": {
        "bangumi_id": 46828,
        "bangumi_title": "悠悠式",
        "ep_cut": 1,
        "image_url": "https://w.junreimap.com/images/points/46828/kpx6op93q_1753693400991.jpg",
        "location": "",
        "point_id": "kpx6op93q",
        "point_name": "ブックスキューブリックけやき通り店",
        "remark": "http://keyaki.bookskubrick.jp/"
      },
      "type": "Feature"
    },
    {
      "geometry": {
        "coordinates": [
          139.508018,
          35.70802
        ],
        "type": "Point"
      },
      "properties": {
        "bangumi_id": 46828,
        "bangumi_title": "悠悠式",
        "ep_cut": 1,
        "image_url": "https://w.junreimap.com/images/points/46828/kpx6op9wn_1753694191613.jpg",
        "location": "",
        "point_id": "kpx6op9wn",
        "point_name": "パティスリー メリクリ",
        "remark": ""
      },
      "type": "Feature"
    },
    {
      "geometry": {
        "coordinates": [
          139.507892,
          35.708969
        ],
        "type": "Point"
      },
      "properties": {
        "bangumi_id": 46828,
        "bangumi_title": "悠悠式",
        "ep_cut": 1,
        "image_url": "https://w.junreimap.com/images/points/46828/kpx6op9rm_1753694200190.jpg",
        "location": "",
        "point_id": "kpx6op9rm",
        "point_name": "樋口ビル（やさい市場）",
        "remark": ""
      },
      "type": "Feature"
    },
    {
      "geometry": {
        "coordinates": [
          139.507959,
          35.707736
        ],
        "type": "Point"
      },
      "properties": {
        "bangumi_id": 46828,
        "bangumi_title": "悠悠式",
        "ep_cut": 1,
        "image_url": "https://w.junreimap.com/images/points/46828/kpx6opat2_1753694526633.jpg",
        "location": "",
        "point_id": "kpx6opat2",
        "point_name": "武蔵小金井デュオステージ",
        "remark": ""
      },
      "type": "Feature"
    },
    {
      "geometry": {
        "coordinates": [
          139.508085,
          35.706909
        ],
        "type": "Point"
      },
      "properties": {
        "bangumi_id": 46828,
        "bangumi_title": "悠悠式",
        "ep_cut": 1,
        "image_url": "https://w.junreimap.com/images/points/46828/kpx6oparg_1753694278557.jpg",
        "location": "",
        "point_id": "kpx6oparg",
        "point_name": "フラッツ小金井",
        "remark": ""
      },
      "type": "Feature"
    },
    {
      "geometry": {
        "coordinates": [
          139.613517,
          35.704051
        ],
        "type": "Point"
      },
      "properties": {
        "bangumi_id": 46828,
        "bangumi_title": "悠悠式",
        "ep_cut": 7,
        "image_url": "https://w.junreimap.com/images/points/46828/kpx6opcrk_1753694412959.jpg",
        "location": "",
        "point_id": "kpx6opcrk",
        "point_name": "ローソン南荻窪西四丁目店",
        "remark": "07話"
      },
      "type": "Feature"
    },
    {
      "geometry": {
        "coordinates": [
          139.616958,
          35.740746
        ],
        "type": "Point"
      },
      "properties": {
        "bangumi_id": 46828,
        "bangumi_title": "悠悠式",
        "ep_cut": 7,
        "image_url": "https://w.junreimap.com/images/points/46828/kpx6opa1h_1753693629947.jpg",
        "location": "",
        "point_id": "kpx6opa1h",
        "point_name": "練馬高野台駅北口",
        "remark": ""
      },
      "type": "Feature"
    },
    {
      "geometry": {
        "coordinates": [
          139.700152,
          35.659711
        ],
        "type": "Point"
      },
      "properties": {
        "bangumi_id": 46828,
        "bangumi_title": "悠悠式",
        "ep_cut": 9,
        "image_url": "https://w.junreimap.com/images/points/46828/kpx6opd2o_1753693707230.jpg",
        "location": "",
        "point_id": "kpx6opd2o",
        "point_name": "SHIBUYA109",
        "remark": ""
      },
      "type": "Feature"
    },
    {
      "geometry": {
        "coordinates": [
          139.700603,
          35.659044
        ],
        "type": "Point"
      },
      "properties": {
        "bangumi_id": 46828,
        "bangumi_title": "悠悠式",
        "ep_cut": 9,
        "image_url": "https://w.junreimap.com/images/points/46828/kpx6opdvu_1753693765905.jpg",
        "location": "",
        "point_id": "kpx6opdvu",
        "point_name": "忠犬ハチ公前",
        "remark": ""
      },
      "type": "Feature"
    },
    {
      "geometry": {
        "coordinates": [
          139.470995,
          35.320699
        ],
        "type": "Point"
      },
      "properties": {
        "bangumi_id": 46828,
        "bangumi_title": "悠悠式",
        "ep_cut": 12,
        "image_url": "https://w.junreimap.com/images/points/46828/kpx6opbe7_1753694883750.jpg",
        "location": "",
        "point_id": "kpx6opbe7",
        "point_name": "鵠沼海岸駅",
        "remark": ""
      },
      "type": "Feature"
    },
    {
      "geometry": {
        "coordinates": [
          139.471036,
          35.320575
        ],
        "type": "Point"
      },
      "properties": {
        "bangumi_id": 46828,
        "bangumi_title": "悠悠式",
        "ep_cut": 12,
        "image_url": "https://w.junreimap.com/images/points/46828/kpx6opbho_1753694890069.jpg",
        "location": "",
        "point_id": "kpx6opbho",
        "point_name": "鵠沼海岸駅前",
        "remark": ""
      },
      "type": "Feature"
    },
    {
      "geometry": {
        "coordinates": [
          139.472387,
          35.318316
        ],
        "type": "Point"
      },
      "properties": {
        "bangumi_id": 46828,
        "bangumi_title": "悠悠式",
        "ep_cut": 12,
        "image_url": "https://w.junreimap.com/images/points/46828/kpx6opbiz_1753696285051.jpg",
        "location": "",
        "point_id": "kpx6opbiz",
        "point_name": "湘南栄養指導センター",
        "remark": ""
      },
      "type": "Feature"
    },
    {
      "geometry": {
        "coordinates": [
          139.470968,
          35.317255
        ],
        "type": "Point"
      },
      "properties": {
        "bangumi_id": 46828,
        "bangumi_title": "悠悠式",
        "ep_cut": 12,
        "image_url": "https://w.junreimap.com/images/points/46828/kpx6opbzb_1753696010035.jpg",
        "location": "",
        "point_id": "kpx6opbzb",
        "point_name": "地下道入口",
        "remark": ""
      },
      "type": "Feature"
    },
    {
      "geometry": {
        "coordinates": [
          139.47096,
          35.316911
        ],
        "type": "Point"
      },
      "properties": {
        "bangumi_id": 46828,
        "bangumi_title": "悠悠式",
        "ep_cut": 12,
        "image_url": "https://w.junreimap.com/images/points/46828/kpx6opcgd_1753696035700.jpg",
        "location": "",
        "point_id": "kpx6opcgd",
        "point_name": "地下道",
        "remark": ""
      },
      "type": "Feature"
    },
    {
      "geometry": {
        "coordinates": [
          139.470974,
          35.315688
        ],
        "type": "Point"
      },
      "properties": {
        "bangumi_id": 46828,
        "bangumi_title": "悠悠式",
        "ep_cut": 12,
        "image_url": "https://w.junreimap.com/images/points/46828/kpx6opd2y_1753696048314.jpg",
        "location": "",
        "point_id": "kpx6opd2y",
        "point_name": "海岸入口",
        "remark": ""
      },
      "type": "Feature"
    },
    {
      "geometry": {
        "coordinates": [
          139.471003,
          35.314581
        ],
        "type": "Point"
      },
      "properties": {
        "bangumi_id": 46828,
        "bangumi_title": "悠悠式",
        "ep_cut": 12,
        "image_url": "https://w.junreimap.com/images/points/46828/32kskwq_1753696592667.jpg",
        "location": "",
        "point_id": "32kskwq",
        "point_name": "海岸",
        "remark": ""
      },
      "type": "Feature"
    },
    {
      "geometry": {
        "coordinates": [
          139.470974,
          35.315134
        ],
        "type": "Point"
      },
      "properties": {
        "bangumi_id": 46828,
        "bangumi_title": "悠悠式",
        "ep_cut": 12,
        "image_url": "https://w.junreimap.com/images/points/46828/32kukqt_1753696682101.jpg",
        "location": "",
        "point_id": "32kukqt",
        "point_name": "海岸 夕",
        "remark": ""
      },
      "type": "Feature"
    }
  ],
  "type": "FeatureCollection"
}