{
  "features": [
    {
      "geometry": {
        "coordinates": [
          139.787838,
          35.8917
        ],
        "type": "Point"
      },
      "properties": {
        "bangumi_id": 46874,
        "bangumi_title": "月姬 -A piece of blue glass moon-",
        "ep_cut": "旧月姬",
        "image_url": "https://w.junreimap.com/images/points/46874/mkbia3zt6_1721800009750.jpg",
        "location": "",
        "point_id": "mkbia3zt6",
        "point_name": "越谷·横田诊所",
        "remark": ""
      },
      "type": "Feature"
    },
    {
      "geometry": {
        "coordinates": [
          139.447382,
          35.541457
        ],
        "type": "Point"
      },
      "properties": {
        "bangumi_id": 46874,
        "bangumi_title": "月姬 -A piece of blue glass moon-",
        "ep_cut": "旧月姬",
        "image_url": "https://w.junreimap.com/images/points/46874/mkbpz2tpk_1721800458048.jpg",
        "location": "",
        "point_id": "mkbpz2tpk",
        "point_name": "シャングリーラなぞというお",
        "remark": ""
      },
      "type": "Feature"
    },
    {
      "geometry": {
        "coordinates": [
          -0.120313,
          51.510085
        ],
        "type": "Point"
      },
      "properties": {
        "bangumi_id": 46874,
        "bangumi_title": "月姬 -A piece of blue glass moon-",
        "ep_cut": "旧月姬",
        "image_url": "https://w.junreimap.com/images/points/46874/minc654bm_1721707066922.jpg",
        "location": "",
        "point_id": "minc654bm",
        "point_name": 1,
        "remark": ""
      },
      "type": "Feature"
    },
    {
      "geometry": {
        "coordinates": [
          139.668319,
          35.703236
        ],
        "type": "Point"
      },
      "properties": {
        "bangumi_id": 46874,
        "bangumi_title": "月姬 -A piece of blue glass moon-",
        "ep_cut": "旧月姬",
        "image_url": "https://w.junreimap.com/images/points/46874/miniagj2z_1721669401564.jpg",
        "location": "",
        "point_id": "miniagj2z",
        "point_name": "",
        "remark": ""
      },
      "type": "Feature"
    },
    {
      "geometry": {
        "coordinates": [
          139.699506,
          35.65952
        ],
        "type": "Point"
      },
      "properties": {
        "bangumi_id": 46874,
        "bangumi_title": "月姬 -A piece of blue glass moon-",
        "ep_cut": "旧月姬",
        "image_url": "https://w.junreimap.com/images/points/46874/minmjhnii_1721669641348.jpg",
        "location": "",
        "point_id": "minmjhnii",
        "point_name": 3,
        "remark": ""
      },
      "type": "Feature"
    },
    {
      "geometry": {
        "coordinates": [
          139.700791,
          35.661106
        ],
        "type": "Point"
      },
      "properties": {
        "bangumi_id": 46874,
        "bangumi_title": "月姬 -A piece of blue glass moon-",
        "ep_cut": "旧月姬",
        "image_url": "https://w.junreimap.com/images/points/46874/minohufqe_1721669767664.jpg",
        "location": "",
        "point_id": "minohufqe",
        "point_name": 3,
        "remark": ""
      },
      "type": "Feature"
    },
    {
      "geometry": {
        "coordinates": [
          139.640877,
          35.759137
        ],
        "type": "Point"
      },
      "properties": {
        "bangumi_id": 46874,
        "bangumi_title": "月姬 -A piece of blue glass moon-",
        "ep_cut": "旧月姬",
        "image_url": "https://w.junreimap.com/images/points/46874/minzng2j2_1721670452367.jpg",
        "location": "",
        "point_id": "minzng2j2",
        "point_name": "練馬区立田柄中学校運動場",
        "remark": ""
      },
      "type": "Feature"
    },
    {
      "geometry": {
        "coordinates": [
          139.642192,
          35.759607
        ],
        "type": "Point"
      },
      "properties": {
        "bangumi_id": 46874,
        "bangumi_title": "月姬 -A piece of blue glass moon-",
        "ep_cut": "旧月姬",
        "image_url": "https://w.junreimap.com/images/points/46874/mio1g0skf_1721670555712.jpg",
        "location": "",
        "point_id": "mio1g0skf",
        "point_name": "練馬区立田柄中学校校門前",
        "remark": ""
      },
      "type": "Feature"
    },
    {
      "geometry": {
        "coordinates": [
          139.756794,
          35.673311
        ],
        "type": "Point"
      },
      "properties": {
        "bangumi_id": 46874,
        "bangumi_title": "月姬 -A piece of blue glass moon-",
        "ep_cut": "旧月姬",
        "image_url": "https://w.junreimap.com/images/points/46874/mio4o1n5i_1721670738798.jpg",
        "location": "",
        "point_id": "mio4o1n5i",
        "point_name": 7,
        "remark": ""
      },
      "type": "Feature"
    },
    {
      "geometry": {
        "coordinates": [
          139.756093,
          35.673001
        ],
        "type": "Point"
      },
      "properties": {
        "bangumi_id": 46874,
        "bangumi_title": "月姬 -A piece of blue glass moon-",
        "ep_cut": "旧月姬",
        "image_url": "https://w.junreimap.com/images/points/46874/mio6vva59_1721670870975.jpg",
        "location": "",
        "point_id": "mio6vva59",
        "point_name": "",
        "remark": ""
      },
      "type": "Feature"
    },
    {
      "geometry": {
        "coordinates": [
          139.763315,
          35.67256
        ],
        "type": "Point"
      },
      "properties": {
        "bangumi_id": 46874,
        "bangumi_title": "月姬 -A piece of blue glass moon-",
        "ep_cut": "旧月姬",
        "image_url": "https://w.junreimap.com/images/points/46874/mio9bxnc9_1721671019646.jpg",
        "location": "",
        "point_id": "mio9bxnc9",
        "point_name": "晴海通り",
        "remark": ""
      },
      "type": "Feature"
    },
    {
      "geometry": {
        "coordinates": [
          139.642136,
          35.759192
        ],
        "type": "Point"
      },
      "properties": {
        "bangumi_id": 46874,
        "bangumi_title": "月姬 -A piece of blue glass moon-",
        "ep_cut": "旧月姬",
        "image_url": "https://w.junreimap.com/images/points/46874/mioflmp0e_1721671413820.jpg",
        "location": "",
        "point_id": "mioflmp0e",
        "point_name": 10,
        "remark": ""
      },
      "type": "Feature"
    },
    {
      "geometry": {
        "coordinates": [
          139.641447,
          35.759737
        ],
        "type": "Point"
      },
      "properties": {
        "bangumi_id": 46874,
        "bangumi_title": "月姬 -A piece of blue glass moon-",
        "ep_cut": "旧月姬",
        "image_url": "https://w.junreimap.com/images/points/46874/miogezp94_1721671459199.jpg",
        "location": "",
        "point_id": "miogezp94",
        "point_name": 10,
        "remark": ""
      },
      "type": "Feature"
    },
    {
      "geometry": {
        "coordinates": [
          139.741313,
          35.628609
        ],
        "type": "Point"
      },
      "properties": {
        "bangumi_id": 46874,
        "bangumi_title": "月姬 -A piece of blue glass moon-",
        "ep_cut": "月姬Re",
        "image_url": "https://w.junreimap.com/images/points/46874/min9jqtd7_1721668854877.jpg",
        "location": "",
        "point_id": "min9jqtd7",
        "point_name": "品川駅",
        "remark": "月姫リメイク/総耶駅"
      },
      "type": "Feature"
    },
    {
      "geometry": {
        "coordinates": [
          139.753437,
          35.703585
        ],
        "type": "Point"
      },
      "properties": {
        "bangumi_id": 46874,
        "bangumi_title": "月姬 -A piece of blue glass moon-",
        "ep_cut": "",
        "image_url": "https://w.junreimap.com/images/user/0/bangumi/46874/points/tp7i98s9k-1741930879277.jpg",
        "location": "",
        "point_id": "tp7i98s9k",
        "point_name": "東京​ドーム​ホテル",
        "remark": "和爱尔奎特对战弗洛福的酒店"
      },
      "type": "Feature"
    },
    {
      "geometry": {
        "coordinates": [
          139.748181,
          35.718766
        ],
        "type": "Point"
      },
      "properties": {
        "bangumi_id": 46874,
        "bangumi_title": "月姬 -A piece of blue glass moon-",
        "ep_cut": "",
        "image_url": "https://w.junreimap.com/images/user/0/bangumi/46874/points/tp7ox2jgb-1741931282643.jpg",
        "location": "",
        "point_id": "tp7ox2jgb",
        "point_name": "通学路",
        "remark": "志贵上学的路，OP里也有相同用的场景，但是爱尔奎特在校门等志贵的地方是虚构的"
      },
      "type": "Feature"
    },
    {
      "geometry": {
        "coordinates": [
          139.756784,
          35.673498
        ],
        "type": "Point"
      },
      "properties": {
        "bangumi_id": 46874,
        "bangumi_title": "月姬 -A piece of blue glass moon-",
        "ep_cut": "",
        "image_url": "https://w.junreimap.com/images/user/0/bangumi/46874/points/tp7wpym1j-1741931770843.jpg",
        "location": "",
        "point_id": "tp7wpym1j",
        "point_name": "日比谷公園 大噴水",
        "remark": ""
      },
      "type": "Feature"
    },
    {
      "geometry": {
        "coordinates": [
          139.704612,
          35.691624
        ],
        "type": "Point"
      },
      "properties": {
        "bangumi_id": 46874,
        "bangumi_title": "月姬 -A piece of blue glass moon-",
        "ep_cut": "",
        "image_url": "https://w.junreimap.com/images/user/0/bangumi/46874/points/tpa91cqxt-1741936844801.jpg",
        "location": "",
        "point_id": "tpa91cqxt",
        "point_name": "伊勢丹本館",
        "remark": ""
      },
      "type": "Feature"
    },
    {
      "geometry": {
        "coordinates": [
          139.700515,
          35.65945
        ],
        "type": "Point"
      },
      "properties": {
        "bangumi_id": 46874,
        "bangumi_title": "月姬 -A piece of blue glass moon-",
        "ep_cut": "",
        "image_url": "https://w.junreimap.com/images/user/0/bangumi/46874/points/tpaenz3vz-1741937200640.jpg",
        "location": "",
        "point_id": "tpaenz3vz",
        "point_name": "渋谷スクランブル交差点",
        "remark": "镜像后的涩谷交叉路口，需要站在马路中间看向涩谷109的方向"
      },
      "type": "Feature"
    },
    {
      "geometry": {
        "coordinates": [
          139.735963,
          35.622929
        ],
        "type": "Point"
      },
      "properties": {
        "bangumi_id": 46874,
        "bangumi_title": "月姬 -A piece of blue glass moon-",
        "ep_cut": "",
        "image_url": "https://w.junreimap.com/images/user/0/bangumi/46874/points/tti62pyyh-1742267589843.jpg",
        "location": "",
        "point_id": "tti62pyyh",
        "point_name": "開東閣",
        "remark": "远野家大门"
      },
      "type": "Feature"
    },
    {
      "geometry": {
        "coordinates": [
          139.573875,
          35.625164
        ],
        "type": "Point"
      },
      "properties": {
        "bangumi_id": 46874,
        "bangumi_title": "月姬 -A piece of blue glass moon-",
        "ep_cut": 17,
        "image_url": "https://w.junreimap.com/images/user/0/bangumi/46874/points/al36vat-1770055440611.jpg",
        "location": "旧月姬",
        "point_id": "al36vat",
        "point_name": "パーク・​ハイム​狛江​2号棟",
        "remark": ""
      },
      "type": "Feature"
    }
  ],
  "type": "FeatureCollection"
}