{
  "features": [
    {
      "geometry": {
        "coordinates": [
          139.771687,
          35.728258
        ],
        "type": "Point"
      },
      "properties": {
        "bangumi_id": 472321,
        "bangumi_title": "事到如今，喜欢上了青梅竹马",
        "ep_cut": "",
        "image_url": "https://w.junreimap.com/images/points/472321/p2gr5vux2_1728864231677.jpg",
        "location": "",
        "point_id": "p2gr5vux2",
        "point_name": "カラオケ 歌広場",
        "remark": "初次登场：网络版22话"
      },
      "type": "Feature"
    },
    {
      "geometry": {
        "coordinates": [
          139.771885,
          35.727957
        ],
        "type": "Point"
      },
      "properties": {
        "bangumi_id": 472321,
        "bangumi_title": "事到如今，喜欢上了青梅竹马",
        "ep_cut": "",
        "image_url": "https://w.junreimap.com/images/points/472321/p2h1xo82i_1728864871567.jpg",
        "location": "",
        "point_id": "p2h1xo82i",
        "point_name": "Cafeガスト",
        "remark": "初次登场：网络版23话\n相遇后夕向小暗吐露心声的地方"
      },
      "type": "Feature"
    },
    {
      "geometry": {
        "coordinates": [
          139.726619,
          35.765464
        ],
        "type": "Point"
      },
      "properties": {
        "bangumi_id": 472321,
        "bangumi_title": "事到如今，喜欢上了青梅竹马",
        "ep_cut": "",
        "image_url": "https://w.junreimap.com/images/points/472321/p2jn4t8h2_1728870489949.jpg",
        "location": "",
        "point_id": "p2jn4t8h2",
        "point_name": "北口1",
        "remark": "初次登场：网络版13话"
      },
      "type": "Feature"
    },
    {
      "geometry": {
        "coordinates": [
          139.737172,
          35.755143
        ],
        "type": "Point"
      },
      "properties": {
        "bangumi_id": 472321,
        "bangumi_title": "事到如今，喜欢上了青梅竹马",
        "ep_cut": "",
        "image_url": "https://w.junreimap.com/images/points/472321/ppoi7qgm2_1730683454490.jpg",
        "location": "",
        "point_id": "ppoi7qgm2",
        "point_name": "快活CLUB 王子駅前店",
        "remark": "第26话漫画咖啡店\n本话小暗和第一话阳花梨阅读的漫画都是《路人女主的养成方法 恋爱节拍器 5》（学姐if），如果根据实际发售日期计算，本话时间线位于17年7月"
      },
      "type": "Feature"
    },
    {
      "geometry": {
        "coordinates": [
          139.728343,
          35.76599
        ],
        "type": "Point"
      },
      "properties": {
        "bangumi_id": 472321,
        "bangumi_title": "事到如今，喜欢上了青梅竹马",
        "ep_cut": "",
        "image_url": "https://w.junreimap.com/images/user/0/bangumi/472321/points/p5i1njpu0-1729102171214.jpg",
        "location": "",
        "point_id": "p5i1njpu0",
        "point_name": "エプロント(E PRONTO) 東十条店",
        "remark": "初次登场：网络版16话\n夕与阳花梨与国中同学聊天的咖啡厅"
      },
      "type": "Feature"
    },
    {
      "geometry": {
        "coordinates": [
          139.735548,
          35.753155
        ],
        "type": "Point"
      },
      "properties": {
        "bangumi_id": 472321,
        "bangumi_title": "事到如今，喜欢上了青梅竹马",
        "ep_cut": "",
        "image_url": "https://w.junreimap.com/images/user/0/bangumi/472321/points/p2qwox1ed-1728886409273.jpg",
        "location": "",
        "point_id": "p2qwox1ed",
        "point_name": "王子神社",
        "remark": "初次登场：网络版17话"
      },
      "type": "Feature"
    },
    {
      "geometry": {
        "coordinates": [
          139.779034,
          35.720348
        ],
        "type": "Point"
      },
      "properties": {
        "bangumi_id": 472321,
        "bangumi_title": "事到如今，喜欢上了青梅竹马",
        "ep_cut": "",
        "image_url": "https://w.junreimap.com/images/points/472321/p2g9hb34z_1728863132417.jpg",
        "location": "",
        "point_id": "p2g9hb34z",
        "point_name": "鶯谷",
        "remark": "初次登场：网络版25话\n小暗和夕初吻的车站"
      },
      "type": "Feature"
    },
    {
      "geometry": {
        "coordinates": [
          139.779005,
          35.720372
        ],
        "type": "Point"
      },
      "properties": {
        "bangumi_id": 472321,
        "bangumi_title": "事到如今，喜欢上了青梅竹马",
        "ep_cut": "",
        "image_url": "https://w.junreimap.com/images/points/472321/p2gbdfwu8_1728863243223.jpg",
        "location": "",
        "point_id": "p2gbdfwu8",
        "point_name": "鶯谷",
        "remark": ""
      },
      "type": "Feature"
    },
    {
      "geometry": {
        "coordinates": [
          139.778975,
          35.720425
        ],
        "type": "Point"
      },
      "properties": {
        "bangumi_id": 472321,
        "bangumi_title": "事到如今，喜欢上了青梅竹马",
        "ep_cut": "",
        "image_url": "https://w.junreimap.com/images/points/472321/p2gbp02qq_1728863274919.jpg",
        "location": "",
        "point_id": "p2gbp02qq",
        "point_name": "鶯谷",
        "remark": ""
      },
      "type": "Feature"
    },
    {
      "geometry": {
        "coordinates": [
          139.771027,
          35.728907
        ],
        "type": "Point"
      },
      "properties": {
        "bangumi_id": 472321,
        "bangumi_title": "事到如今，喜欢上了青梅竹马",
        "ep_cut": "",
        "image_url": "https://w.junreimap.com/images/points/472321/p2gxr7vob_1728864609366.jpg",
        "location": "",
        "point_id": "p2gxr7vob",
        "point_name": "日暮里",
        "remark": "初次登场：网络版22话\n小暗与夕初次相遇的地方"
      },
      "type": "Feature"
    },
    {
      "geometry": {
        "coordinates": [
          139.771032,
          35.728894
        ],
        "type": "Point"
      },
      "properties": {
        "bangumi_id": 472321,
        "bangumi_title": "事到如今，喜欢上了青梅竹马",
        "ep_cut": "",
        "image_url": "https://w.junreimap.com/images/points/472321/p2gymz7kz_1728864645788.jpg",
        "location": "",
        "point_id": "p2gymz7kz",
        "point_name": "日暮里",
        "remark": ""
      },
      "type": "Feature"
    },
    {
      "geometry": {
        "coordinates": [
          139.771251,
          35.728631
        ],
        "type": "Point"
      },
      "properties": {
        "bangumi_id": 472321,
        "bangumi_title": "事到如今，喜欢上了青梅竹马",
        "ep_cut": "",
        "image_url": "https://w.junreimap.com/images/points/472321/p2gs9ypz8_1728864491790.jpg",
        "location": "",
        "point_id": "p2gs9ypz8",
        "point_name": "日暮里",
        "remark": "从上到下依次是：日暮里站东口天桥南侧，日暮里站东口天桥北侧栏杆内（小暗坐着的地方），日暮里站东口内"
      },
      "type": "Feature"
    },
    {
      "geometry": {
        "coordinates": [
          139.795069,
          35.715227
        ],
        "type": "Point"
      },
      "properties": {
        "bangumi_id": 472321,
        "bangumi_title": "事到如今，喜欢上了青梅竹马",
        "ep_cut": "",
        "image_url": "https://w.junreimap.com/images/points/472321/p2jim9m4q_1728870213212.jpg",
        "location": "",
        "point_id": "p2jim9m4q",
        "point_name": "浅草花やしき",
        "remark": "初次登场：网络版13话"
      },
      "type": "Feature"
    },
    {
      "geometry": {
        "coordinates": [
          139.794998,
          35.715331
        ],
        "type": "Point"
      },
      "properties": {
        "bangumi_id": 472321,
        "bangumi_title": "事到如今，喜欢上了青梅竹马",
        "ep_cut": "",
        "image_url": "https://w.junreimap.com/images/points/472321/p2jjxrfkv_1728870301207.jpg",
        "location": "",
        "point_id": "p2jjxrfkv",
        "point_name": "浅草花やしき",
        "remark": ""
      },
      "type": "Feature"
    },
    {
      "geometry": {
        "coordinates": [
          139.795008,
          35.715302
        ],
        "type": "Point"
      },
      "properties": {
        "bangumi_id": 472321,
        "bangumi_title": "事到如今，喜欢上了青梅竹马",
        "ep_cut": "",
        "image_url": "https://w.junreimap.com/images/points/472321/p2jjg7js6_1728870259377.jpg",
        "location": "",
        "point_id": "p2jjg7js6",
        "point_name": "浅草花やしき",
        "remark": "旋转木马附近"
      },
      "type": "Feature"
    },
    {
      "geometry": {
        "coordinates": [
          139.726935,
          35.763634
        ],
        "type": "Point"
      },
      "properties": {
        "bangumi_id": 472321,
        "bangumi_title": "事到如今，喜欢上了青梅竹马",
        "ep_cut": "",
        "image_url": "https://w.junreimap.com/images/points/472321/p2jp0xazb_1728870650120.jpg",
        "location": "",
        "point_id": "p2jp0xazb",
        "point_name": "東十条",
        "remark": "初次登场：网络版2话\n夕与阳花梨通学的始发站"
      },
      "type": "Feature"
    },
    {
      "geometry": {
        "coordinates": [
          139.727009,
          35.763558
        ],
        "type": "Point"
      },
      "properties": {
        "bangumi_id": 472321,
        "bangumi_title": "事到如今，喜欢上了青梅竹马",
        "ep_cut": "",
        "image_url": "https://w.junreimap.com/images/points/472321/p2jq6wvdj_1728870666197.jpg",
        "location": "",
        "point_id": "p2jq6wvdj",
        "point_name": "東十条",
        "remark": ""
      },
      "type": "Feature"
    },
    {
      "geometry": {
        "coordinates": [
          139.776648,
          35.724089
        ],
        "type": "Point"
      },
      "properties": {
        "bangumi_id": 472321,
        "bangumi_title": "事到如今，喜欢上了青梅竹马",
        "ep_cut": "",
        "image_url": "https://w.junreimap.com/images/points/472321/p2lbis88s_1728874162188.jpg",
        "location": "",
        "point_id": "p2lbis88s",
        "point_name": "HOTEL SEEDS 鶯谷店",
        "remark": "初次登场：网络版24话\n夕和小暗打回马炮的地方"
      },
      "type": "Feature"
    },
    {
      "geometry": {
        "coordinates": [
          139.776659,
          35.724112
        ],
        "type": "Point"
      },
      "properties": {
        "bangumi_id": 472321,
        "bangumi_title": "事到如今，喜欢上了青梅竹马",
        "ep_cut": "",
        "image_url": "https://w.junreimap.com/images/points/472321/p2lcp1ij3_1728874197249.jpg",
        "location": "",
        "point_id": "p2lcp1ij3",
        "point_name": "HOTEL SEEDS 鶯谷店",
        "remark": ""
      },
      "type": "Feature"
    },
    {
      "geometry": {
        "coordinates": [
          139.777158,
          35.723952
        ],
        "type": "Point"
      },
      "properties": {
        "bangumi_id": 472321,
        "bangumi_title": "事到如今，喜欢上了青梅竹马",
        "ep_cut": "",
        "image_url": "https://w.junreimap.com/images/points/472321/pa5p9m9an_1729467043923.jpg",
        "location": "",
        "point_id": "pa5p9m9an",
        "point_name": "HOTEL SEEDS 鶯谷店",
        "remark": ""
      },
      "type": "Feature"
    },
    {
      "geometry": {
        "coordinates": [
          139.730991,
          35.747321
        ],
        "type": "Point"
      },
      "properties": {
        "bangumi_id": 472321,
        "bangumi_title": "事到如今，喜欢上了青梅竹马",
        "ep_cut": "",
        "image_url": "https://w.junreimap.com/images/user/0/bangumi/472321/points/p61celiqm-1729144152905.jpg",
        "location": "",
        "point_id": "p61celiqm",
        "point_name": "東京都立王子總合高等學校",
        "remark": "初次登场：网络版20话\n阳花梨与绚深的学校"
      },
      "type": "Feature"
    },
    {
      "geometry": {
        "coordinates": [
          139.731292,
          35.747158
        ],
        "type": "Point"
      },
      "properties": {
        "bangumi_id": 472321,
        "bangumi_title": "事到如今，喜欢上了青梅竹马",
        "ep_cut": "",
        "image_url": "https://w.junreimap.com/images/user/0/bangumi/472321/points/p61l36su4-1729144671438.jpg",
        "location": "東京都立王子總合高等學校",
        "point_id": "p61l36su4",
        "point_name": "東京都立王子總合高等學校",
        "remark": "初次登场：网络版23话\n校门，入学考试放榜时绚深与夕相遇处"
      },
      "type": "Feature"
    },
    {
      "geometry": {
        "coordinates": [
          139.734085,
          35.643687
        ],
        "type": "Point"
      },
      "properties": {
        "bangumi_id": 472321,
        "bangumi_title": "事到如今，喜欢上了青梅竹马",
        "ep_cut": "",
        "image_url": "https://w.junreimap.com/images/points/472321/prhj04z5j_1730824980801.jpg",
        "location": "",
        "point_id": "prhj04z5j",
        "point_name": "白金高輪駅 第3入口",
        "remark": "第13.5话封面"
      },
      "type": "Feature"
    },
    {
      "geometry": {
        "coordinates": [
          139.767107,
          35.681198
        ],
        "type": "Point"
      },
      "properties": {
        "bangumi_id": 472321,
        "bangumi_title": "事到如今，喜欢上了青梅竹马",
        "ep_cut": "",
        "image_url": "https://w.junreimap.com/images/points/472321/qzxnrj41u_1734308190674.jpg",
        "location": "",
        "point_id": "qzxnrj41u",
        "point_name": "",
        "remark": "初次登场：网络版29话"
      },
      "type": "Feature"
    }
  ],
  "type": "FeatureCollection"
}