{
  "features": [
    {
      "geometry": {
        "coordinates": [
          141.394707,
          42.999217
        ],
        "type": "Point"
      },
      "properties": {
        "bangumi_id": 47276,
        "bangumi_title": "乃木坂春香的秘密 Finale♪",
        "ep_cut": 1,
        "image_url": "https://w.junreimap.com/images/points/47276/5r1akbbt_1753868963591.jpg",
        "location": "",
        "point_id": "5r1akbbt",
        "point_name": "羊ケ丘展望台",
        "remark": "克拉克像"
      },
      "type": "Feature"
    },
    {
      "geometry": {
        "coordinates": [
          141.35339,
          43.062476
        ],
        "type": "Point"
      },
      "properties": {
        "bangumi_id": 47276,
        "bangumi_title": "乃木坂春香的秘密 Finale♪",
        "ep_cut": 1,
        "image_url": "https://w.junreimap.com/images/points/47276/5r1akb3p_1753869005446.jpg",
        "location": "",
        "point_id": "5r1akb3p",
        "point_name": "札幌市時計台",
        "remark": "1巻"
      },
      "type": "Feature"
    },
    {
      "geometry": {
        "coordinates": [
          141.355842,
          43.060999
        ],
        "type": "Point"
      },
      "properties": {
        "bangumi_id": 47276,
        "bangumi_title": "乃木坂春香的秘密 Finale♪",
        "ep_cut": 1,
        "image_url": "https://w.junreimap.com/images/points/47276/5r1akb9y_1753869055567.jpg",
        "location": "",
        "point_id": "5r1akb9y",
        "point_name": "さっぽろテレビ塔",
        "remark": "1巻"
      },
      "type": "Feature"
    },
    {
      "geometry": {
        "coordinates": [
          141.352323,
          43.060532
        ],
        "type": "Point"
      },
      "properties": {
        "bangumi_id": 47276,
        "bangumi_title": "乃木坂春香的秘密 Finale♪",
        "ep_cut": 1,
        "image_url": "https://w.junreimap.com/images/points/47276/5r1akbhl_1753869062197.jpg",
        "location": "",
        "point_id": "5r1akbhl",
        "point_name": "さっぽろテレビ塔",
        "remark": "喷泉前"
      },
      "type": "Feature"
    },
    {
      "geometry": {
        "coordinates": [
          141.356041,
          43.05769
        ],
        "type": "Point"
      },
      "properties": {
        "bangumi_id": 47276,
        "bangumi_title": "乃木坂春香的秘密 Finale♪",
        "ep_cut": 1,
        "image_url": "https://w.junreimap.com/images/points/47276/5r1akbi7_1753869071389.jpg",
        "location": "",
        "point_id": "5r1akbi7",
        "point_name": "狸小路2丁目",
        "remark": "1巻"
      },
      "type": "Feature"
    },
    {
      "geometry": {
        "coordinates": [
          141.271668,
          43.088706
        ],
        "type": "Point"
      },
      "properties": {
        "bangumi_id": 47276,
        "bangumi_title": "乃木坂春香的秘密 Finale♪",
        "ep_cut": 1,
        "image_url": "https://w.junreimap.com/images/points/47276/5r1akayg_1753868904605.jpg",
        "location": "",
        "point_id": "5r1akayg",
        "point_name": "白い恋人パーク",
        "remark": "1巻"
      },
      "type": "Feature"
    },
    {
      "geometry": {
        "coordinates": [
          141.270855,
          43.088327
        ],
        "type": "Point"
      },
      "properties": {
        "bangumi_id": 47276,
        "bangumi_title": "乃木坂春香的秘密 Finale♪",
        "ep_cut": 1,
        "image_url": "https://w.junreimap.com/images/points/47276/35fe0vr_1753868914324.jpg",
        "location": "",
        "point_id": "35fe0vr",
        "point_name": "チュダーハウス",
        "remark": "1巻"
      },
      "type": "Feature"
    },
    {
      "geometry": {
        "coordinates": [
          141.27112,
          43.089205
        ],
        "type": "Point"
      },
      "properties": {
        "bangumi_id": 47276,
        "bangumi_title": "乃木坂春香的秘密 Finale♪",
        "ep_cut": 1,
        "image_url": "https://w.junreimap.com/images/points/47276/35fe47m_1753868933086.jpg",
        "location": "",
        "point_id": "35fe47m",
        "point_name": "あんとるぽー館 オーロラの泉",
        "remark": "1巻"
      },
      "type": "Feature"
    },
    {
      "geometry": {
        "coordinates": [
          141.73246,
          42.972753
        ],
        "type": "Point"
      },
      "properties": {
        "bangumi_id": 47276,
        "bangumi_title": "乃木坂春香的秘密 Finale♪",
        "ep_cut": 1,
        "image_url": "https://w.junreimap.com/images/points/47276/5r1akb90_1753869177820.jpg",
        "location": "",
        "point_id": "5r1akb90",
        "point_name": "ハイジ牧場",
        "remark": "1巻"
      },
      "type": "Feature"
    },
    {
      "geometry": {
        "coordinates": [
          141.355722,
          43.064195
        ],
        "type": "Point"
      },
      "properties": {
        "bangumi_id": 47276,
        "bangumi_title": "乃木坂春香的秘密 Finale♪",
        "ep_cut": 1,
        "image_url": "https://w.junreimap.com/images/points/47276/5r1akbho_1753869154135.jpg",
        "location": "",
        "point_id": "5r1akbho",
        "point_name": "ホテルモントレエーデルホフ札幌",
        "remark": "1巻"
      },
      "type": "Feature"
    },
    {
      "geometry": {
        "coordinates": [
          141.351028,
          43.060383
        ],
        "type": "Point"
      },
      "properties": {
        "bangumi_id": 47276,
        "bangumi_title": "乃木坂春香的秘密 Finale♪",
        "ep_cut": 1,
        "image_url": "https://w.junreimap.com/images/points/47276/5r1akatk_1753869135734.jpg",
        "location": "",
        "point_id": "5r1akatk",
        "point_name": "大通公園4丁目",
        "remark": "1巻"
      },
      "type": "Feature"
    },
    {
      "geometry": {
        "coordinates": [
          141.353181,
          43.055676
        ],
        "type": "Point"
      },
      "properties": {
        "bangumi_id": 47276,
        "bangumi_title": "乃木坂春香的秘密 Finale♪",
        "ep_cut": 1,
        "image_url": "https://w.junreimap.com/images/points/47276/5r1akb15_1753869101421.jpg",
        "location": "",
        "point_id": "5r1akb15",
        "point_name": "すすきの（南4西4）",
        "remark": "1巻"
      },
      "type": "Feature"
    },
    {
      "geometry": {
        "coordinates": [
          142.475697,
          43.768564
        ],
        "type": "Point"
      },
      "properties": {
        "bangumi_id": 47276,
        "bangumi_title": "乃木坂春香的秘密 Finale♪",
        "ep_cut": 2,
        "image_url": "https://w.junreimap.com/images/points/47276/5r1akbfy_1753869259644.jpg",
        "location": "",
        "point_id": "5r1akbfy",
        "point_name": "旭山動物園正門",
        "remark": "02話"
      },
      "type": "Feature"
    },
    {
      "geometry": {
        "coordinates": [
          140.993803,
          43.197691
        ],
        "type": "Point"
      },
      "properties": {
        "bangumi_id": 47276,
        "bangumi_title": "乃木坂春香的秘密 Finale♪",
        "ep_cut": 2,
        "image_url": "https://w.junreimap.com/images/points/47276/5r1akbf0_1753869461164.jpg",
        "location": "",
        "point_id": "5r1akbf0",
        "point_name": "JR小樽駅",
        "remark": "02話"
      },
      "type": "Feature"
    },
    {
      "geometry": {
        "coordinates": [
          140.99371,
          43.197669
        ],
        "type": "Point"
      },
      "properties": {
        "bangumi_id": 47276,
        "bangumi_title": "乃木坂春香的秘密 Finale♪",
        "ep_cut": 2,
        "image_url": "https://w.junreimap.com/images/points/47276/35fmzv4_1753869472781.jpg",
        "location": "",
        "point_id": "35fmzv4",
        "point_name": "JR小樽駅内",
        "remark": "02話"
      },
      "type": "Feature"
    },
    {
      "geometry": {
        "coordinates": [
          140.994559,
          43.197949
        ],
        "type": "Point"
      },
      "properties": {
        "bangumi_id": 47276,
        "bangumi_title": "乃木坂春香的秘密 Finale♪",
        "ep_cut": 2,
        "image_url": "https://w.junreimap.com/images/points/47276/35ft6ji_1753869604924.jpg",
        "location": "",
        "point_id": "35ft6ji",
        "point_name": "羊蹄国道",
        "remark": "02話"
      },
      "type": "Feature"
    },
    {
      "geometry": {
        "coordinates": [
          140.996102,
          43.198137
        ],
        "type": "Point"
      },
      "properties": {
        "bangumi_id": 47276,
        "bangumi_title": "乃木坂春香的秘密 Finale♪",
        "ep_cut": 2,
        "image_url": "https://w.junreimap.com/images/points/47276/5r1akb7a_1753869765522.jpg",
        "location": "",
        "point_id": "5r1akb7a",
        "point_name": "アーケード街",
        "remark": "02話"
      },
      "type": "Feature"
    },
    {
      "geometry": {
        "coordinates": [
          141.003073,
          43.197988
        ],
        "type": "Point"
      },
      "properties": {
        "bangumi_id": 47276,
        "bangumi_title": "乃木坂春香的秘密 Finale♪",
        "ep_cut": 2,
        "image_url": "https://w.junreimap.com/images/points/47276/5r1akavl_1753870181968.jpg",
        "location": "",
        "point_id": "5r1akavl",
        "point_name": "小樽運河",
        "remark": "02話"
      },
      "type": "Feature"
    },
    {
      "geometry": {
        "coordinates": [
          141.00293,
          43.197987
        ],
        "type": "Point"
      },
      "properties": {
        "bangumi_id": 47276,
        "bangumi_title": "乃木坂春香的秘密 Finale♪",
        "ep_cut": 2,
        "image_url": "https://w.junreimap.com/images/points/47276/35glgew_1753870931101.jpg",
        "location": "",
        "point_id": "35glgew",
        "point_name": "小樽運河",
        "remark": "02話"
      },
      "type": "Feature"
    },
    {
      "geometry": {
        "coordinates": [
          141.003147,
          43.197964
        ],
        "type": "Point"
      },
      "properties": {
        "bangumi_id": 47276,
        "bangumi_title": "乃木坂春香的秘密 Finale♪",
        "ep_cut": 2,
        "image_url": "https://w.junreimap.com/images/points/47276/35gft62_1753870670511.jpg",
        "location": "",
        "point_id": "35gft62",
        "point_name": "小樽観光案内所",
        "remark": "02話"
      },
      "type": "Feature"
    },
    {
      "geometry": {
        "coordinates": [
          141.002692,
          43.198247
        ],
        "type": "Point"
      },
      "properties": {
        "bangumi_id": 47276,
        "bangumi_title": "乃木坂春香的秘密 Finale♪",
        "ep_cut": 2,
        "image_url": "https://w.junreimap.com/images/points/47276/5r1akb4e_1753870743575.jpg",
        "location": "",
        "point_id": "5r1akb4e",
        "point_name": "小樽運河",
        "remark": "02話"
      },
      "type": "Feature"
    },
    {
      "geometry": {
        "coordinates": [
          141.002193,
          43.198808
        ],
        "type": "Point"
      },
      "properties": {
        "bangumi_id": 47276,
        "bangumi_title": "乃木坂春香的秘密 Finale♪",
        "ep_cut": 2,
        "image_url": "https://w.junreimap.com/images/points/47276/5r1akb7t_1753870893158.jpg",
        "location": "",
        "point_id": "5r1akb7t",
        "point_name": "小樽運河",
        "remark": "02話"
      },
      "type": "Feature"
    },
    {
      "geometry": {
        "coordinates": [
          141.001619,
          43.199611
        ],
        "type": "Point"
      },
      "properties": {
        "bangumi_id": 47276,
        "bangumi_title": "乃木坂春香的秘密 Finale♪",
        "ep_cut": 2,
        "image_url": "https://w.junreimap.com/images/points/47276/5r1akbgn_1753870803935.jpg",
        "location": "",
        "point_id": "5r1akbgn",
        "point_name": "小樽運河",
        "remark": "02話"
      },
      "type": "Feature"
    }
  ],
  "type": "FeatureCollection"
}