{
  "features": [
    {
      "geometry": {
        "coordinates": [
          139.585108,
          35.662298
        ],
        "type": "Point"
      },
      "properties": {
        "bangumi_id": 48031,
        "bangumi_title": "GJ部",
        "ep_cut": "",
        "image_url": "https://w.junreimap.com/images/points/48031/kpx6opedi_1753160319832.jpg",
        "location": "",
        "point_id": "kpx6opedi",
        "point_name": "京王電鉄京王線 仙川駅",
        "remark": "#06「妹が4人いる!?」"
      },
      "type": "Feature"
    },
    {
      "geometry": {
        "coordinates": [
          139.585507,
          35.660077
        ],
        "type": "Point"
      },
      "properties": {
        "bangumi_id": 48031,
        "bangumi_title": "GJ部",
        "ep_cut": "",
        "image_url": "https://w.junreimap.com/images/points/48031/kpx6opf0a_1753160967965.jpg",
        "location": "",
        "point_id": "kpx6opf0a",
        "point_name": "HAIR MAKE Ash 仙川店",
        "remark": "#06"
      },
      "type": "Feature"
    },
    {
      "geometry": {
        "coordinates": [
          139.585539,
          35.659783
        ],
        "type": "Point"
      },
      "properties": {
        "bangumi_id": 48031,
        "bangumi_title": "GJ部",
        "ep_cut": "",
        "image_url": "https://w.junreimap.com/images/points/48031/kpx6opfe2_1753161082444.jpg",
        "location": "",
        "point_id": "kpx6opfe2",
        "point_name": "ミスタードーナツ 仙川ショップ",
        "remark": "#06"
      },
      "type": "Feature"
    },
    {
      "geometry": {
        "coordinates": [
          139.585016,
          35.660851
        ],
        "type": "Point"
      },
      "properties": {
        "bangumi_id": 48031,
        "bangumi_title": "GJ部",
        "ep_cut": "",
        "image_url": "https://w.junreimap.com/images/points/48031/kpx6opest_1753161090453.jpg",
        "location": "",
        "point_id": "kpx6opest",
        "point_name": "ドトールコーヒーショップ京王仙川店",
        "remark": "#06"
      },
      "type": "Feature"
    },
    {
      "geometry": {
        "coordinates": [
          139.584576,
          35.662071
        ],
        "type": "Point"
      },
      "properties": {
        "bangumi_id": 48031,
        "bangumi_title": "GJ部",
        "ep_cut": "",
        "image_url": "https://w.junreimap.com/images/points/48031/kpx6opg6q_1753160420037.jpg",
        "location": "",
        "point_id": "kpx6opg6q",
        "point_name": "仙川商店街ゲート",
        "remark": "#@02「絆の名はGJ部」"
      },
      "type": "Feature"
    },
    {
      "geometry": {
        "coordinates": [
          139.585572,
          35.661779
        ],
        "type": "Point"
      },
      "properties": {
        "bangumi_id": 48031,
        "bangumi_title": "GJ部",
        "ep_cut": "",
        "image_url": "https://w.junreimap.com/images/points/48031/kpx6opg60_1753160369159.jpg",
        "location": "",
        "point_id": "kpx6opg60",
        "point_name": "LUPICIA 仙川店",
        "remark": "#@02"
      },
      "type": "Feature"
    },
    {
      "geometry": {
        "coordinates": [
          139.58574,
          35.661616
        ],
        "type": "Point"
      },
      "properties": {
        "bangumi_id": 48031,
        "bangumi_title": "GJ部",
        "ep_cut": "",
        "image_url": "https://w.junreimap.com/images/points/48031/kpx6opg1c_1753160657478.jpg",
        "location": "",
        "point_id": "kpx6opg1c",
        "point_name": "仙川パティオ横 交差点",
        "remark": "#@02"
      },
      "type": "Feature"
    },
    {
      "geometry": {
        "coordinates": [
          139.584557,
          35.66189
        ],
        "type": "Point"
      },
      "properties": {
        "bangumi_id": 48031,
        "bangumi_title": "GJ部",
        "ep_cut": "",
        "image_url": "https://w.junreimap.com/images/points/48031/kpx6opgf8_1753160383606.jpg",
        "location": "",
        "point_id": "kpx6opgf8",
        "point_name": "ひとくち茶屋 仙川西友店",
        "remark": "#@02"
      },
      "type": "Feature"
    },
    {
      "geometry": {
        "coordinates": [
          139.689708,
          35.589185
        ],
        "type": "Point"
      },
      "properties": {
        "bangumi_id": 48031,
        "bangumi_title": "GJ部",
        "ep_cut": "",
        "image_url": "https://w.junreimap.com/images/points/48031/kpx6opgte_1753160699798.jpg",
        "location": "",
        "point_id": "kpx6opgte",
        "point_name": "東調布公園 入口",
        "remark": "#@02"
      },
      "type": "Feature"
    },
    {
      "geometry": {
        "coordinates": [
          139.68856,
          35.588638
        ],
        "type": "Point"
      },
      "properties": {
        "bangumi_id": 48031,
        "bangumi_title": "GJ部",
        "ep_cut": "",
        "image_url": "https://w.junreimap.com/images/points/48031/kpx6opgi6_1753160709103.jpg",
        "location": "",
        "point_id": "kpx6opgi6",
        "point_name": "東調布公園 SL前",
        "remark": "#@02 SL（D51型蒸汽机车）"
      },
      "type": "Feature"
    },
    {
      "geometry": {
        "coordinates": [
          139.688493,
          35.588737
        ],
        "type": "Point"
      },
      "properties": {
        "bangumi_id": 48031,
        "bangumi_title": "GJ部",
        "ep_cut": "",
        "image_url": "https://w.junreimap.com/images/points/48031/kpx6opgdg_1753160769653.jpg",
        "location": "",
        "point_id": "kpx6opgdg",
        "point_name": "東調布公園 石垣水場",
        "remark": "#@02"
      },
      "type": "Feature"
    }
  ],
  "type": "FeatureCollection"
}