{
  "features": [
    {
      "geometry": {
        "coordinates": [
          113.314352,
          22.825351
        ],
        "type": "Point"
      },
      "properties": {
        "bangumi_id": 481117,
        "bangumi_title": "厨出凤城",
        "ep_cut": "",
        "image_url": "https://w.junreimap.com/images/points/481117/o736wgf6h_1726405960392_c16v9.jpg",
        "location": "",
        "point_id": "o736wgf6h",
        "point_name": "顺德学院站",
        "remark": "指示牌中地标为“顺峰山公园”"
      },
      "type": "Feature"
    },
    {
      "geometry": {
        "coordinates": [
          113.31411,
          22.825038
        ],
        "type": "Point"
      },
      "properties": {
        "bangumi_id": 481117,
        "bangumi_title": "厨出凤城",
        "ep_cut": "",
        "image_url": "https://w.junreimap.com/images/points/481117/o737bkcf1_1726405942173_c16v9.jpg",
        "location": "",
        "point_id": "o737bkcf1",
        "point_name": "顺德学院站",
        "remark": ""
      },
      "type": "Feature"
    },
    {
      "geometry": {
        "coordinates": [
          113.31361,
          22.824941
        ],
        "type": "Point"
      },
      "properties": {
        "bangumi_id": 481117,
        "bangumi_title": "厨出凤城",
        "ep_cut": "",
        "image_url": "https://w.junreimap.com/images/points/481117/o737iz06x_1726405931176_c16v9.jpg",
        "location": "",
        "point_id": "o737iz06x",
        "point_name": "顺德学院站",
        "remark": ""
      },
      "type": "Feature"
    },
    {
      "geometry": {
        "coordinates": [
          113.314083,
          22.824658
        ],
        "type": "Point"
      },
      "properties": {
        "bangumi_id": 481117,
        "bangumi_title": "厨出凤城",
        "ep_cut": "",
        "image_url": "https://w.junreimap.com/images/points/481117/o738a28z2_1726405922491_c16v9.jpg",
        "location": "",
        "point_id": "o738a28z2",
        "point_name": "顺德学院站",
        "remark": ""
      },
      "type": "Feature"
    },
    {
      "geometry": {
        "coordinates": [
          113.313929,
          22.824737
        ],
        "type": "Point"
      },
      "properties": {
        "bangumi_id": 481117,
        "bangumi_title": "厨出凤城",
        "ep_cut": "",
        "image_url": "https://w.junreimap.com/images/points/481117/o738exxo1_1726405913935_c16v9.jpg",
        "location": "",
        "point_id": "o738exxo1",
        "point_name": "顺德学院站",
        "remark": ""
      },
      "type": "Feature"
    },
    {
      "geometry": {
        "coordinates": [
          113.299001,
          22.821153
        ],
        "type": "Point"
      },
      "properties": {
        "bangumi_id": 481117,
        "bangumi_title": "厨出凤城",
        "ep_cut": "",
        "image_url": "https://w.junreimap.com/images/points/481117/o73dmauo1_1726405901707_c16v9.jpg",
        "location": "",
        "point_id": "o73dmauo1",
        "point_name": "顺德华侨城欢乐海岸PLUS（顺峰街）",
        "remark": "图中出现商铺：莲姨红豆糕，九木杂物社（连锁），嫁女饼（特产），香云纱（特产）店铺实际都在此处"
      },
      "type": "Feature"
    },
    {
      "geometry": {
        "coordinates": [
          113.285539,
          22.819001
        ],
        "type": "Point"
      },
      "properties": {
        "bangumi_id": 481117,
        "bangumi_title": "厨出凤城",
        "ep_cut": "",
        "image_url": "https://w.junreimap.com/images/points/481117/o74194ib5_1726407269058_c16v9.jpg",
        "location": "",
        "point_id": "o74194ib5",
        "point_name": "桂畔湖西",
        "remark": "东眺顺德眼"
      },
      "type": "Feature"
    },
    {
      "geometry": {
        "coordinates": [
          113.299335,
          22.819007
        ],
        "type": "Point"
      },
      "properties": {
        "bangumi_id": 481117,
        "bangumi_title": "厨出凤城",
        "ep_cut": "",
        "image_url": "https://w.junreimap.com/images/points/481117/o73ptbc4t_1726406536567_c16v9.jpg",
        "location": "",
        "point_id": "o73ptbc4t",
        "point_name": "时光大道",
        "remark": ""
      },
      "type": "Feature"
    },
    {
      "geometry": {
        "coordinates": [
          113.298024,
          22.819053
        ],
        "type": "Point"
      },
      "properties": {
        "bangumi_id": 481117,
        "bangumi_title": "厨出凤城",
        "ep_cut": "",
        "image_url": "https://w.junreimap.com/images/user/2148/bangumi/481117/points/tvxsjitcz-1742458393630.jpg",
        "location": "",
        "point_id": "tvxsjitcz",
        "point_name": "顺德眼",
        "remark": ""
      },
      "type": "Feature"
    }
  ],
  "type": "FeatureCollection"
}