{
  "features": [
    {
      "geometry": {
        "coordinates": [
          139.776165,
          35.712531
        ],
        "type": "Point"
      },
      "properties": {
        "bangumi_id": 484623,
        "bangumi_title": "彻夜之歌 第二季",
        "ep_cut": "",
        "image_url": "https://w.junreimap.com/images/points/484623/24ozvsh_1751647777099.jpg",
        "location": "",
        "point_id": "24ozvsh",
        "point_name": "",
        "remark": "第一集就离开上一整季没有离开过的埼玉了"
      },
      "type": "Feature"
    },
    {
      "geometry": {
        "coordinates": [
          139.776275,
          35.712676
        ],
        "type": "Point"
      },
      "properties": {
        "bangumi_id": 484623,
        "bangumi_title": "彻夜之歌 第二季",
        "ep_cut": "",
        "image_url": "https://w.junreimap.com/images/points/484623/24p070p_1751647781018.jpg",
        "location": "",
        "point_id": "24p070p",
        "point_name": 1,
        "remark": ""
      },
      "type": "Feature"
    },
    {
      "geometry": {
        "coordinates": [
          139.775752,
          35.711665
        ],
        "type": "Point"
      },
      "properties": {
        "bangumi_id": 484623,
        "bangumi_title": "彻夜之歌 第二季",
        "ep_cut": "",
        "image_url": "https://w.junreimap.com/images/points/484623/24p0bid_1751647786562.jpg",
        "location": "",
        "point_id": "24p0bid",
        "point_name": 1,
        "remark": ""
      },
      "type": "Feature"
    },
    {
      "geometry": {
        "coordinates": [
          139.776169,
          35.712505
        ],
        "type": "Point"
      },
      "properties": {
        "bangumi_id": 484623,
        "bangumi_title": "彻夜之歌 第二季",
        "ep_cut": "",
        "image_url": "https://w.junreimap.com/images/points/484623/24p7190_1751648104768.jpg",
        "location": "",
        "point_id": "24p7190",
        "point_name": 1,
        "remark": ""
      },
      "type": "Feature"
    },
    {
      "geometry": {
        "coordinates": [
          139.77567,
          35.711625
        ],
        "type": "Point"
      },
      "properties": {
        "bangumi_id": 484623,
        "bangumi_title": "彻夜之歌 第二季",
        "ep_cut": 1,
        "image_url": "https://w.junreimap.com/images/points/484623/25r71rm_1751711926755.jpg",
        "location": "",
        "point_id": "25r71rm",
        "point_name": 1,
        "remark": ""
      },
      "type": "Feature"
    },
    {
      "geometry": {
        "coordinates": [
          139.775558,
          35.71168
        ],
        "type": "Point"
      },
      "properties": {
        "bangumi_id": 484623,
        "bangumi_title": "彻夜之歌 第二季",
        "ep_cut": "",
        "image_url": "https://w.junreimap.com/images/points/484623/24p78n1_1751648113060.jpg",
        "location": "",
        "point_id": "24p78n1",
        "point_name": 1,
        "remark": ""
      },
      "type": "Feature"
    },
    {
      "geometry": {
        "coordinates": [
          139.77048,
          35.714185
        ],
        "type": "Point"
      },
      "properties": {
        "bangumi_id": 484623,
        "bangumi_title": "彻夜之歌 第二季",
        "ep_cut": 1,
        "image_url": "https://w.junreimap.com/images/points/484623/25sjeqm_1751714182708.jpg",
        "location": "",
        "point_id": "25sjeqm",
        "point_name": "いそっぷ橋",
        "remark": "这座桥虽然叫做いそっぷ橋但是谷歌地图搜不到这个名字\n坐标35.714222, 139.770495"
      },
      "type": "Feature"
    },
    {
      "geometry": {
        "coordinates": [
          139.770522,
          35.71422
        ],
        "type": "Point"
      },
      "properties": {
        "bangumi_id": 484623,
        "bangumi_title": "彻夜之歌 第二季",
        "ep_cut": 1,
        "image_url": "https://w.junreimap.com/images/points/484623/25ski33_1751714234091.jpg",
        "location": "",
        "point_id": "25ski33",
        "point_name": "いそっぷ橋",
        "remark": ""
      },
      "type": "Feature"
    },
    {
      "geometry": {
        "coordinates": [
          139.770465,
          35.714188
        ],
        "type": "Point"
      },
      "properties": {
        "bangumi_id": 484623,
        "bangumi_title": "彻夜之歌 第二季",
        "ep_cut": 1,
        "image_url": "https://w.junreimap.com/images/points/484623/25so5jg_1751714406146.jpg",
        "location": "",
        "point_id": "25so5jg",
        "point_name": "いそっぷ橋",
        "remark": ""
      },
      "type": "Feature"
    },
    {
      "geometry": {
        "coordinates": [
          139.770474,
          35.714199
        ],
        "type": "Point"
      },
      "properties": {
        "bangumi_id": 484623,
        "bangumi_title": "彻夜之歌 第二季",
        "ep_cut": 1,
        "image_url": "https://w.junreimap.com/images/points/484623/25soa4w_1751714409794.jpg",
        "location": "",
        "point_id": "25soa4w",
        "point_name": "いそっぷ橋",
        "remark": ""
      },
      "type": "Feature"
    },
    {
      "geometry": {
        "coordinates": [
          139.770484,
          35.714203
        ],
        "type": "Point"
      },
      "properties": {
        "bangumi_id": 484623,
        "bangumi_title": "彻夜之歌 第二季",
        "ep_cut": 1,
        "image_url": "https://w.junreimap.com/images/points/484623/25soess_1751714419315.jpg",
        "location": "",
        "point_id": "25soess",
        "point_name": "いそっぷ橋",
        "remark": "特写"
      },
      "type": "Feature"
    },
    {
      "geometry": {
        "coordinates": [
          139.770492,
          35.714195
        ],
        "type": "Point"
      },
      "properties": {
        "bangumi_id": 484623,
        "bangumi_title": "彻夜之歌 第二季",
        "ep_cut": 1,
        "image_url": "https://w.junreimap.com/images/points/484623/25sok9v_1751714424950.jpg",
        "location": "",
        "point_id": "25sok9v",
        "point_name": "いそっぷ橋",
        "remark": ""
      },
      "type": "Feature"
    },
    {
      "geometry": {
        "coordinates": [
          139.7705,
          35.714202
        ],
        "type": "Point"
      },
      "properties": {
        "bangumi_id": 484623,
        "bangumi_title": "彻夜之歌 第二季",
        "ep_cut": 1,
        "image_url": "https://w.junreimap.com/images/points/484623/25sooc4_1751714428608.jpg",
        "location": "",
        "point_id": "25sooc4",
        "point_name": "いそっぷ橋",
        "remark": ""
      },
      "type": "Feature"
    },
    {
      "geometry": {
        "coordinates": [
          139.770499,
          35.71421
        ],
        "type": "Point"
      },
      "properties": {
        "bangumi_id": 484623,
        "bangumi_title": "彻夜之歌 第二季",
        "ep_cut": 1,
        "image_url": "https://w.junreimap.com/images/points/484623/25sorjr_1751714433118.jpg",
        "location": "",
        "point_id": "25sorjr",
        "point_name": "いそっぷ橋",
        "remark": ""
      },
      "type": "Feature"
    },
    {
      "geometry": {
        "coordinates": [
          139.770507,
          35.714217
        ],
        "type": "Point"
      },
      "properties": {
        "bangumi_id": 484623,
        "bangumi_title": "彻夜之歌 第二季",
        "ep_cut": 1,
        "image_url": "https://w.junreimap.com/images/points/484623/25souhs_1751714438486.jpg",
        "location": "",
        "point_id": "25souhs",
        "point_name": "いそっぷ橋",
        "remark": ""
      },
      "type": "Feature"
    },
    {
      "geometry": {
        "coordinates": [
          139.770486,
          35.714207
        ],
        "type": "Point"
      },
      "properties": {
        "bangumi_id": 484623,
        "bangumi_title": "彻夜之歌 第二季",
        "ep_cut": 1,
        "image_url": "https://w.junreimap.com/images/points/484623/25soyit_1751714442587.jpg",
        "location": "",
        "point_id": "25soyit",
        "point_name": "いそっぷ橋",
        "remark": ""
      },
      "type": "Feature"
    },
    {
      "geometry": {
        "coordinates": [
          139.772852,
          35.715974
        ],
        "type": "Point"
      },
      "properties": {
        "bangumi_id": 484623,
        "bangumi_title": "彻夜之歌 第二季",
        "ep_cut": "",
        "image_url": "https://w.junreimap.com/images/points/484623/24pedc2_1751648577889.jpg",
        "location": "",
        "point_id": "24pedc2",
        "point_name": "都立​恩賜​上野​動物園",
        "remark": ""
      },
      "type": "Feature"
    },
    {
      "geometry": {
        "coordinates": [
          139.772876,
          35.715953
        ],
        "type": "Point"
      },
      "properties": {
        "bangumi_id": 484623,
        "bangumi_title": "彻夜之歌 第二季",
        "ep_cut": 1,
        "image_url": "https://w.junreimap.com/images/points/484623/25rlvk6_1751712617871.jpg",
        "location": "",
        "point_id": "25rlvk6",
        "point_name": "都立​恩賜​上野​動物園",
        "remark": ""
      },
      "type": "Feature"
    },
    {
      "geometry": {
        "coordinates": [
          139.772454,
          35.716089
        ],
        "type": "Point"
      },
      "properties": {
        "bangumi_id": 484623,
        "bangumi_title": "彻夜之歌 第二季",
        "ep_cut": 1,
        "image_url": "https://w.junreimap.com/images/points/484623/25rmd4n_1751712640738.jpg",
        "location": "",
        "point_id": "25rmd4n",
        "point_name": "都立​恩賜​上野​動物園",
        "remark": "或许无人机能拍到差不多的镜头？"
      },
      "type": "Feature"
    },
    {
      "geometry": {
        "coordinates": [
          139.772093,
          35.716021
        ],
        "type": "Point"
      },
      "properties": {
        "bangumi_id": 484623,
        "bangumi_title": "彻夜之歌 第二季",
        "ep_cut": 1,
        "image_url": "https://w.junreimap.com/images/points/484623/25rogpr_1751712744940.jpg",
        "location": "",
        "point_id": "25rogpr",
        "point_name": "都立​恩賜​上野​動物園",
        "remark": ""
      },
      "type": "Feature"
    },
    {
      "geometry": {
        "coordinates": [
          139.771843,
          35.715882
        ],
        "type": "Point"
      },
      "properties": {
        "bangumi_id": 484623,
        "bangumi_title": "彻夜之歌 第二季",
        "ep_cut": 1,
        "image_url": "https://w.junreimap.com/images/points/484623/25rpzkd_1751712810539.jpg",
        "location": "",
        "point_id": "25rpzkd",
        "point_name": "都立​恩賜​上野​動物園",
        "remark": ""
      },
      "type": "Feature"
    },
    {
      "geometry": {
        "coordinates": [
          139.771846,
          35.715906
        ],
        "type": "Point"
      },
      "properties": {
        "bangumi_id": 484623,
        "bangumi_title": "彻夜之歌 第二季",
        "ep_cut": 1,
        "image_url": "https://w.junreimap.com/images/points/484623/25rr52d_1751712863871.jpg",
        "location": "",
        "point_id": "25rr52d",
        "point_name": "都立​恩賜​上野​動物園",
        "remark": ""
      },
      "type": "Feature"
    },
    {
      "geometry": {
        "coordinates": [
          139.772202,
          35.716331
        ],
        "type": "Point"
      },
      "properties": {
        "bangumi_id": 484623,
        "bangumi_title": "彻夜之歌 第二季",
        "ep_cut": 1,
        "image_url": "https://w.junreimap.com/images/points/484623/25ruhs2_1751713034917.jpg",
        "location": "",
        "point_id": "25ruhs2",
        "point_name": "都立​恩賜​上野​動物園",
        "remark": ""
      },
      "type": "Feature"
    },
    {
      "geometry": {
        "coordinates": [
          139.770755,
          35.716379
        ],
        "type": "Point"
      },
      "properties": {
        "bangumi_id": 484623,
        "bangumi_title": "彻夜之歌 第二季",
        "ep_cut": 1,
        "image_url": "https://w.junreimap.com/images/points/484623/25rzb84_1751713245388.jpg",
        "location": "",
        "point_id": "25rzb84",
        "point_name": "都立​恩賜​上野​動物園",
        "remark": ""
      },
      "type": "Feature"
    },
    {
      "geometry": {
        "coordinates": [
          139.770626,
          35.716151
        ],
        "type": "Point"
      },
      "properties": {
        "bangumi_id": 484623,
        "bangumi_title": "彻夜之歌 第二季",
        "ep_cut": 1,
        "image_url": "https://w.junreimap.com/images/points/484623/25s21jc_1751713372851.jpg",
        "location": "",
        "point_id": "25s21jc",
        "point_name": "都立​恩賜​上野​動物園",
        "remark": ""
      },
      "type": "Feature"
    },
    {
      "geometry": {
        "coordinates": [
          139.772879,
          35.715969
        ],
        "type": "Point"
      },
      "properties": {
        "bangumi_id": 484623,
        "bangumi_title": "彻夜之歌 第二季",
        "ep_cut": 1,
        "image_url": "https://w.junreimap.com/images/points/484623/25rl5ei_1751712584045.jpg",
        "location": "",
        "point_id": "25rl5ei",
        "point_name": "都立​恩賜​上野​動物園",
        "remark": ""
      },
      "type": "Feature"
    },
    {
      "geometry": {
        "coordinates": [
          139.776435,
          35.716808
        ],
        "type": "Point"
      },
      "properties": {
        "bangumi_id": 484623,
        "bangumi_title": "彻夜之歌 第二季",
        "ep_cut": 1,
        "image_url": "https://w.junreimap.com/images/points/484623/25r18xm_1751711657514.jpg",
        "location": "",
        "point_id": "25r18xm",
        "point_name": "国立科学博物館",
        "remark": "这雕像是1：1蓝鲸大小"
      },
      "type": "Feature"
    },
    {
      "geometry": {
        "coordinates": [
          139.772863,
          35.715966
        ],
        "type": "Point"
      },
      "properties": {
        "bangumi_id": 484623,
        "bangumi_title": "彻夜之歌 第二季",
        "ep_cut": "",
        "image_url": "https://w.junreimap.com/images/points/484623/24phdnn_1751648582852.jpg",
        "location": "",
        "point_id": "24phdnn",
        "point_name": "都立​恩賜​上野​動物園",
        "remark": ""
      },
      "type": "Feature"
    },
    {
      "geometry": {
        "coordinates": [
          139.772439,
          35.709331
        ],
        "type": "Point"
      },
      "properties": {
        "bangumi_id": 484623,
        "bangumi_title": "彻夜之歌 第二季",
        "ep_cut": 1,
        "image_url": "https://w.junreimap.com/images/points/484623/2bew3k5_1752054613463.jpg",
        "location": "",
        "point_id": "2bew3k5",
        "point_name": "仲町通",
        "remark": ""
      },
      "type": "Feature"
    },
    {
      "geometry": {
        "coordinates": [
          139.771447,
          35.709125
        ],
        "type": "Point"
      },
      "properties": {
        "bangumi_id": 484623,
        "bangumi_title": "彻夜之歌 第二季",
        "ep_cut": 1,
        "image_url": "https://w.junreimap.com/images/points/484623/2bewcap_1752054605898.jpg",
        "location": "",
        "point_id": "2bewcap",
        "point_name": "仲町通",
        "remark": ""
      },
      "type": "Feature"
    },
    {
      "geometry": {
        "coordinates": [
          139.774526,
          35.709984
        ],
        "type": "Point"
      },
      "properties": {
        "bangumi_id": 484623,
        "bangumi_title": "彻夜之歌 第二季",
        "ep_cut": "",
        "image_url": "https://w.junreimap.com/images/points/484623/24p54rx_1751648011519.jpg",
        "location": "",
        "point_id": "24p54rx",
        "point_name": 1,
        "remark": ""
      },
      "type": "Feature"
    },
    {
      "geometry": {
        "coordinates": [
          139.77454,
          35.710007
        ],
        "type": "Point"
      },
      "properties": {
        "bangumi_id": 484623,
        "bangumi_title": "彻夜之歌 第二季",
        "ep_cut": 1,
        "image_url": "https://w.junreimap.com/images/points/484623/25r8dhf_1751711988225.jpg",
        "location": "",
        "point_id": "25r8dhf",
        "point_name": 1,
        "remark": ""
      },
      "type": "Feature"
    },
    {
      "geometry": {
        "coordinates": [
          139.647206,
          35.84491
        ],
        "type": "Point"
      },
      "properties": {
        "bangumi_id": 484623,
        "bangumi_title": "彻夜之歌 第二季",
        "ep_cut": 1,
        "image_url": "https://w.junreimap.com/images/points/484623/25qorwd_1751711074976.jpg",
        "location": "",
        "point_id": "25qorwd",
        "point_name": 8,
        "remark": ""
      },
      "type": "Feature"
    },
    {
      "geometry": {
        "coordinates": [
          139.647691,
          35.846078
        ],
        "type": "Point"
      },
      "properties": {
        "bangumi_id": 484623,
        "bangumi_title": "彻夜之歌 第二季",
        "ep_cut": 1,
        "image_url": "https://w.junreimap.com/images/points/484623/25qpq7z_1751711118775.jpg",
        "location": "",
        "point_id": "25qpq7z",
        "point_name": 8,
        "remark": ""
      },
      "type": "Feature"
    },
    {
      "geometry": {
        "coordinates": [
          139.645097,
          35.84491
        ],
        "type": "Point"
      },
      "properties": {
        "bangumi_id": 484623,
        "bangumi_title": "彻夜之歌 第二季",
        "ep_cut": 1,
        "image_url": "https://w.junreimap.com/images/points/484623/25qtg76_1751711292207.jpg",
        "location": "",
        "point_id": "25qtg76",
        "point_name": 8,
        "remark": "这里的天桥也是上一部里接吻的地方"
      },
      "type": "Feature"
    },
    {
      "geometry": {
        "coordinates": [
          139.645019,
          35.845088
        ],
        "type": "Point"
      },
      "properties": {
        "bangumi_id": 484623,
        "bangumi_title": "彻夜之歌 第二季",
        "ep_cut": "",
        "image_url": "https://w.junreimap.com/images/points/484623/4qybvsq_1757347264108.jpg",
        "location": "",
        "point_id": "4qybvsq",
        "point_name": 8,
        "remark": ""
      },
      "type": "Feature"
    },
    {
      "geometry": {
        "coordinates": [
          139.616652,
          35.907411
        ],
        "type": "Point"
      },
      "properties": {
        "bangumi_id": 484623,
        "bangumi_title": "彻夜之歌 第二季",
        "ep_cut": "",
        "image_url": "https://w.junreimap.com/images/points/484623/4qykxrf_1757347694772.jpg",
        "location": "",
        "point_id": "4qykxrf",
        "point_name": "日進湯",
        "remark": "在谷歌地图上建议搜索“どでん 大宮店”来找。直接搜日進湯搜不到"
      },
      "type": "Feature"
    },
    {
      "geometry": {
        "coordinates": [
          139.616852,
          35.907417
        ],
        "type": "Point"
      },
      "properties": {
        "bangumi_id": 484623,
        "bangumi_title": "彻夜之歌 第二季",
        "ep_cut": 3,
        "image_url": "https://w.junreimap.com/images/points/484623/56hhqf5_1758286450148.jpg",
        "location": "",
        "point_id": "56hhqf5",
        "point_name": "中山道",
        "remark": ""
      },
      "type": "Feature"
    },
    {
      "geometry": {
        "coordinates": [
          139.616854,
          35.90742
        ],
        "type": "Point"
      },
      "properties": {
        "bangumi_id": 484623,
        "bangumi_title": "彻夜之歌 第二季",
        "ep_cut": 3,
        "image_url": "https://w.junreimap.com/images/points/484623/56hi1bk_1758286458447.jpg",
        "location": "",
        "point_id": "56hi1bk",
        "point_name": "中山道",
        "remark": ""
      },
      "type": "Feature"
    },
    {
      "geometry": {
        "coordinates": [
          139.616854,
          35.90742
        ],
        "type": "Point"
      },
      "properties": {
        "bangumi_id": 484623,
        "bangumi_title": "彻夜之歌 第二季",
        "ep_cut": 3,
        "image_url": "https://w.junreimap.com/images/points/484623/56hjjzy_1758286541608.jpg",
        "location": "",
        "point_id": "56hjjzy",
        "point_name": "中山道",
        "remark": ""
      },
      "type": "Feature"
    },
    {
      "geometry": {
        "coordinates": [
          139.616856,
          35.907419
        ],
        "type": "Point"
      },
      "properties": {
        "bangumi_id": 484623,
        "bangumi_title": "彻夜之歌 第二季",
        "ep_cut": 3,
        "image_url": "https://w.junreimap.com/images/points/484623/56hi5ug_1758286464120.jpg",
        "location": "",
        "point_id": "56hi5ug",
        "point_name": "中山道",
        "remark": ""
      },
      "type": "Feature"
    },
    {
      "geometry": {
        "coordinates": [
          139.616856,
          35.907419
        ],
        "type": "Point"
      },
      "properties": {
        "bangumi_id": 484623,
        "bangumi_title": "彻夜之歌 第二季",
        "ep_cut": 3,
        "image_url": "https://w.junreimap.com/images/points/484623/56hjj2v_1758286545848.jpg",
        "location": "",
        "point_id": "56hjj2v",
        "point_name": "中山道",
        "remark": ""
      },
      "type": "Feature"
    },
    {
      "geometry": {
        "coordinates": [
          139.616855,
          35.907422
        ],
        "type": "Point"
      },
      "properties": {
        "bangumi_id": 484623,
        "bangumi_title": "彻夜之歌 第二季",
        "ep_cut": 3,
        "image_url": "https://w.junreimap.com/images/points/484623/56hia35_1758286473027.jpg",
        "location": "",
        "point_id": "56hia35",
        "point_name": "中山道",
        "remark": ""
      },
      "type": "Feature"
    },
    {
      "geometry": {
        "coordinates": [
          139.616851,
          35.907421
        ],
        "type": "Point"
      },
      "properties": {
        "bangumi_id": 484623,
        "bangumi_title": "彻夜之歌 第二季",
        "ep_cut": 3,
        "image_url": "https://w.junreimap.com/images/points/484623/56higwe_1758286483579.jpg",
        "location": "",
        "point_id": "56higwe",
        "point_name": "中山道",
        "remark": ""
      },
      "type": "Feature"
    },
    {
      "geometry": {
        "coordinates": [
          139.61686,
          35.907422
        ],
        "type": "Point"
      },
      "properties": {
        "bangumi_id": 484623,
        "bangumi_title": "彻夜之歌 第二季",
        "ep_cut": 3,
        "image_url": "https://w.junreimap.com/images/points/484623/56hipqq_1758286489325.jpg",
        "location": "",
        "point_id": "56hipqq",
        "point_name": "中山道",
        "remark": ""
      },
      "type": "Feature"
    },
    {
      "geometry": {
        "coordinates": [
          139.61686,
          35.907422
        ],
        "type": "Point"
      },
      "properties": {
        "bangumi_id": 484623,
        "bangumi_title": "彻夜之歌 第二季",
        "ep_cut": 3,
        "image_url": "https://w.junreimap.com/images/points/484623/56hjgza_1758286552344.jpg",
        "location": "",
        "point_id": "56hjgza",
        "point_name": "中山道",
        "remark": ""
      },
      "type": "Feature"
    },
    {
      "geometry": {
        "coordinates": [
          139.61686,
          35.907419
        ],
        "type": "Point"
      },
      "properties": {
        "bangumi_id": 484623,
        "bangumi_title": "彻夜之歌 第二季",
        "ep_cut": 3,
        "image_url": "https://w.junreimap.com/images/points/484623/56hiu6h_1758286496571.jpg",
        "location": "",
        "point_id": "56hiu6h",
        "point_name": "中山道",
        "remark": ""
      },
      "type": "Feature"
    },
    {
      "geometry": {
        "coordinates": [
          139.616859,
          35.907419
        ],
        "type": "Point"
      },
      "properties": {
        "bangumi_id": 484623,
        "bangumi_title": "彻夜之歌 第二季",
        "ep_cut": 3,
        "image_url": "https://w.junreimap.com/images/points/484623/56hji0y_1758286587078.jpg",
        "location": "",
        "point_id": "56hji0y",
        "point_name": "中山道",
        "remark": ""
      },
      "type": "Feature"
    },
    {
      "geometry": {
        "coordinates": [
          139.616862,
          35.907417
        ],
        "type": "Point"
      },
      "properties": {
        "bangumi_id": 484623,
        "bangumi_title": "彻夜之歌 第二季",
        "ep_cut": 3,
        "image_url": "https://w.junreimap.com/images/points/484623/56hiz9m_1758286503154.jpg",
        "location": "",
        "point_id": "56hiz9m",
        "point_name": "中山道",
        "remark": ""
      },
      "type": "Feature"
    },
    {
      "geometry": {
        "coordinates": [
          139.616862,
          35.907416
        ],
        "type": "Point"
      },
      "properties": {
        "bangumi_id": 484623,
        "bangumi_title": "彻夜之歌 第二季",
        "ep_cut": 3,
        "image_url": "https://w.junreimap.com/images/points/484623/56hjnn7_1758286597940.jpg",
        "location": "",
        "point_id": "56hjnn7",
        "point_name": "中山道",
        "remark": ""
      },
      "type": "Feature"
    },
    {
      "geometry": {
        "coordinates": [
          139.616855,
          35.907417
        ],
        "type": "Point"
      },
      "properties": {
        "bangumi_id": 484623,
        "bangumi_title": "彻夜之歌 第二季",
        "ep_cut": 3,
        "image_url": "https://w.junreimap.com/images/points/484623/56hj4uo_1758286509553.jpg",
        "location": "",
        "point_id": "56hj4uo",
        "point_name": "中山道",
        "remark": ""
      },
      "type": "Feature"
    },
    {
      "geometry": {
        "coordinates": [
          139.616855,
          35.907416
        ],
        "type": "Point"
      },
      "properties": {
        "bangumi_id": 484623,
        "bangumi_title": "彻夜之歌 第二季",
        "ep_cut": 3,
        "image_url": "https://w.junreimap.com/images/points/484623/56hjmoh_1758286607655.jpg",
        "location": "",
        "point_id": "56hjmoh",
        "point_name": "中山道",
        "remark": ""
      },
      "type": "Feature"
    },
    {
      "geometry": {
        "coordinates": [
          139.616857,
          35.907424
        ],
        "type": "Point"
      },
      "properties": {
        "bangumi_id": 484623,
        "bangumi_title": "彻夜之歌 第二季",
        "ep_cut": 3,
        "image_url": "https://w.junreimap.com/images/points/484623/56hldl6_1758286613333.jpg",
        "location": "",
        "point_id": "56hldl6",
        "point_name": "中山道",
        "remark": ""
      },
      "type": "Feature"
    },
    {
      "geometry": {
        "coordinates": [
          139.616856,
          35.907425
        ],
        "type": "Point"
      },
      "properties": {
        "bangumi_id": 484623,
        "bangumi_title": "彻夜之歌 第二季",
        "ep_cut": 3,
        "image_url": "https://w.junreimap.com/images/points/484623/56hlh7n_1758286616903.jpg",
        "location": "",
        "point_id": "56hlh7n",
        "point_name": "中山道",
        "remark": ""
      },
      "type": "Feature"
    },
    {
      "geometry": {
        "coordinates": [
          139.616854,
          35.907424
        ],
        "type": "Point"
      },
      "properties": {
        "bangumi_id": 484623,
        "bangumi_title": "彻夜之歌 第二季",
        "ep_cut": 3,
        "image_url": "https://w.junreimap.com/images/points/484623/56hlkg2_1758286624918.jpg",
        "location": "",
        "point_id": "56hlkg2",
        "point_name": "中山道",
        "remark": ""
      },
      "type": "Feature"
    },
    {
      "geometry": {
        "coordinates": [
          139.616855,
          35.907426
        ],
        "type": "Point"
      },
      "properties": {
        "bangumi_id": 484623,
        "bangumi_title": "彻夜之歌 第二季",
        "ep_cut": 3,
        "image_url": "https://w.junreimap.com/images/points/484623/56hlqtn_1758286629116.jpg",
        "location": "",
        "point_id": "56hlqtn",
        "point_name": "中山道",
        "remark": ""
      },
      "type": "Feature"
    },
    {
      "geometry": {
        "coordinates": [
          139.616858,
          35.907426
        ],
        "type": "Point"
      },
      "properties": {
        "bangumi_id": 484623,
        "bangumi_title": "彻夜之歌 第二季",
        "ep_cut": 3,
        "image_url": "https://w.junreimap.com/images/points/484623/56hltq8_1758286633568.jpg",
        "location": "",
        "point_id": "56hltq8",
        "point_name": "中山道",
        "remark": ""
      },
      "type": "Feature"
    },
    {
      "geometry": {
        "coordinates": [
          139.616859,
          35.907425
        ],
        "type": "Point"
      },
      "properties": {
        "bangumi_id": 484623,
        "bangumi_title": "彻夜之歌 第二季",
        "ep_cut": 3,
        "image_url": "https://w.junreimap.com/images/points/484623/56hlwn1_1758286636445.jpg",
        "location": "",
        "point_id": "56hlwn1",
        "point_name": "中山道",
        "remark": ""
      },
      "type": "Feature"
    },
    {
      "geometry": {
        "coordinates": [
          139.616857,
          35.907427
        ],
        "type": "Point"
      },
      "properties": {
        "bangumi_id": 484623,
        "bangumi_title": "彻夜之歌 第二季",
        "ep_cut": 3,
        "image_url": "https://w.junreimap.com/images/points/484623/56hlyxx_1758286640239.jpg",
        "location": "",
        "point_id": "56hlyxx",
        "point_name": "中山道",
        "remark": ""
      },
      "type": "Feature"
    },
    {
      "geometry": {
        "coordinates": [
          139.616855,
          35.907427
        ],
        "type": "Point"
      },
      "properties": {
        "bangumi_id": 484623,
        "bangumi_title": "彻夜之歌 第二季",
        "ep_cut": 3,
        "image_url": "https://w.junreimap.com/images/points/484623/56hm2ud_1758286644772.jpg",
        "location": "",
        "point_id": "56hm2ud",
        "point_name": "中山道",
        "remark": ""
      },
      "type": "Feature"
    },
    {
      "geometry": {
        "coordinates": [
          139.616853,
          35.907426
        ],
        "type": "Point"
      },
      "properties": {
        "bangumi_id": 484623,
        "bangumi_title": "彻夜之歌 第二季",
        "ep_cut": 3,
        "image_url": "https://w.junreimap.com/images/points/484623/56hm5fa_1758286648033.jpg",
        "location": "",
        "point_id": "56hm5fa",
        "point_name": "中山道",
        "remark": ""
      },
      "type": "Feature"
    },
    {
      "geometry": {
        "coordinates": [
          139.645061,
          35.845095
        ],
        "type": "Point"
      },
      "properties": {
        "bangumi_id": 484623,
        "bangumi_title": "彻夜之歌 第二季",
        "ep_cut": "",
        "image_url": "https://w.junreimap.com/images/points/484623/4qy8r9u_1757347118291.jpg",
        "location": "",
        "point_id": "4qy8r9u",
        "point_name": 8,
        "remark": ""
      },
      "type": "Feature"
    },
    {
      "geometry": {
        "coordinates": [
          139.645064,
          35.845109
        ],
        "type": "Point"
      },
      "properties": {
        "bangumi_id": 484623,
        "bangumi_title": "彻夜之歌 第二季",
        "ep_cut": "",
        "image_url": "https://w.junreimap.com/images/points/484623/4qy8v96_1757347122733.jpg",
        "location": "",
        "point_id": "4qy8v96",
        "point_name": 8,
        "remark": ""
      },
      "type": "Feature"
    },
    {
      "geometry": {
        "coordinates": [
          139.64504,
          35.845074
        ],
        "type": "Point"
      },
      "properties": {
        "bangumi_id": 484623,
        "bangumi_title": "彻夜之歌 第二季",
        "ep_cut": "",
        "image_url": "https://w.junreimap.com/images/points/484623/4qy8xu3_1757347125678.jpg",
        "location": "",
        "point_id": "4qy8xu3",
        "point_name": 8,
        "remark": ""
      },
      "type": "Feature"
    },
    {
      "geometry": {
        "coordinates": [
          139.645035,
          35.845081
        ],
        "type": "Point"
      },
      "properties": {
        "bangumi_id": 484623,
        "bangumi_title": "彻夜之歌 第二季",
        "ep_cut": "",
        "image_url": "https://w.junreimap.com/images/points/484623/4qya79b_1757347186681.jpg",
        "location": "",
        "point_id": "4qya79b",
        "point_name": 8,
        "remark": ""
      },
      "type": "Feature"
    },
    {
      "geometry": {
        "coordinates": [
          139.64503,
          35.845093
        ],
        "type": "Point"
      },
      "properties": {
        "bangumi_id": 484623,
        "bangumi_title": "彻夜之歌 第二季",
        "ep_cut": "",
        "image_url": "https://w.junreimap.com/images/points/484623/4qyacb7_1757347191369.jpg",
        "location": "",
        "point_id": "4qyacb7",
        "point_name": 8,
        "remark": ""
      },
      "type": "Feature"
    },
    {
      "geometry": {
        "coordinates": [
          139.628222,
          35.838844
        ],
        "type": "Point"
      },
      "properties": {
        "bangumi_id": 484623,
        "bangumi_title": "彻夜之歌 第二季",
        "ep_cut": "",
        "image_url": "https://w.junreimap.com/images/points/484623/2ber5vs_1752053921501.jpg",
        "location": "",
        "point_id": "2ber5vs",
        "point_name": "ファミリー​マート\nさいたま​松本​店",
        "remark": ""
      },
      "type": "Feature"
    },
    {
      "geometry": {
        "coordinates": [
          139.645577,
          35.844015
        ],
        "type": "Point"
      },
      "properties": {
        "bangumi_id": 484623,
        "bangumi_title": "彻夜之歌 第二季",
        "ep_cut": 3,
        "image_url": "https://w.junreimap.com/images/points/484623/56i1c7i_1758287359053.jpg",
        "location": "",
        "point_id": "56i1c7i",
        "point_name": "おくどさん",
        "remark": "实际不算特别像（没有那个显眼的门），但圆柱，地板砖和身后的天桥一致。"
      },
      "type": "Feature"
    },
    {
      "geometry": {
        "coordinates": [
          139.665769,
          35.850829
        ],
        "type": "Point"
      },
      "properties": {
        "bangumi_id": 484623,
        "bangumi_title": "彻夜之歌 第二季",
        "ep_cut": 3,
        "image_url": "https://w.junreimap.com/images/points/484623/56i4m3u_1758287568448.jpg",
        "location": "",
        "point_id": "56i4m3u",
        "point_name": "",
        "remark": ""
      },
      "type": "Feature"
    },
    {
      "geometry": {
        "coordinates": [
          139.665827,
          35.850868
        ],
        "type": "Point"
      },
      "properties": {
        "bangumi_id": 484623,
        "bangumi_title": "彻夜之歌 第二季",
        "ep_cut": 3,
        "image_url": "https://w.junreimap.com/images/points/484623/56i5z6k_1758287572779.jpg",
        "location": "",
        "point_id": "56i5z6k",
        "point_name": "",
        "remark": ""
      },
      "type": "Feature"
    },
    {
      "geometry": {
        "coordinates": [
          139.665735,
          35.850812
        ],
        "type": "Point"
      },
      "properties": {
        "bangumi_id": 484623,
        "bangumi_title": "彻夜之歌 第二季",
        "ep_cut": 3,
        "image_url": "https://w.junreimap.com/images/points/484623/56i62gi_1758287577085.jpg",
        "location": "",
        "point_id": "56i62gi",
        "point_name": "",
        "remark": ""
      },
      "type": "Feature"
    },
    {
      "geometry": {
        "coordinates": [
          139.665799,
          35.850844
        ],
        "type": "Point"
      },
      "properties": {
        "bangumi_id": 484623,
        "bangumi_title": "彻夜之歌 第二季",
        "ep_cut": 3,
        "image_url": "https://w.junreimap.com/images/points/484623/56i4ms7_1758287563586.jpg",
        "location": "",
        "point_id": "56i4ms7",
        "point_name": "",
        "remark": ""
      },
      "type": "Feature"
    },
    {
      "geometry": {
        "coordinates": [
          139.629163,
          35.841972
        ],
        "type": "Point"
      },
      "properties": {
        "bangumi_id": 484623,
        "bangumi_title": "彻夜之歌 第二季",
        "ep_cut": "",
        "image_url": "https://w.junreimap.com/images/points/484623/4qwmkqe_1757344403248.jpg",
        "location": "",
        "point_id": "4qwmkqe",
        "point_name": "田島団地内公園",
        "remark": ""
      },
      "type": "Feature"
    },
    {
      "geometry": {
        "coordinates": [
          139.629158,
          35.841966
        ],
        "type": "Point"
      },
      "properties": {
        "bangumi_id": 484623,
        "bangumi_title": "彻夜之歌 第二季",
        "ep_cut": "",
        "image_url": "https://w.junreimap.com/images/points/484623/4qwog5y_1757344490294.jpg",
        "location": "",
        "point_id": "4qwog5y",
        "point_name": "田島団地内公園",
        "remark": ""
      },
      "type": "Feature"
    },
    {
      "geometry": {
        "coordinates": [
          139.629185,
          35.841981
        ],
        "type": "Point"
      },
      "properties": {
        "bangumi_id": 484623,
        "bangumi_title": "彻夜之歌 第二季",
        "ep_cut": "",
        "image_url": "https://w.junreimap.com/images/points/484623/4qwpb82_1757344531121.jpg",
        "location": "",
        "point_id": "4qwpb82",
        "point_name": "田島団地内公園",
        "remark": ""
      },
      "type": "Feature"
    },
    {
      "geometry": {
        "coordinates": [
          139.629176,
          35.841989
        ],
        "type": "Point"
      },
      "properties": {
        "bangumi_id": 484623,
        "bangumi_title": "彻夜之歌 第二季",
        "ep_cut": "",
        "image_url": "https://w.junreimap.com/images/points/484623/4qwq4do_1757344569435.jpg",
        "location": "",
        "point_id": "4qwq4do",
        "point_name": "田島団地内公園",
        "remark": ""
      },
      "type": "Feature"
    },
    {
      "geometry": {
        "coordinates": [
          139.629164,
          35.841966
        ],
        "type": "Point"
      },
      "properties": {
        "bangumi_id": 484623,
        "bangumi_title": "彻夜之歌 第二季",
        "ep_cut": "",
        "image_url": "https://w.junreimap.com/images/points/484623/4qwo18v_1757344471101.jpg",
        "location": "",
        "point_id": "4qwo18v",
        "point_name": "田島団地内公園",
        "remark": ""
      },
      "type": "Feature"
    },
    {
      "geometry": {
        "coordinates": [
          139.62916,
          35.841972
        ],
        "type": "Point"
      },
      "properties": {
        "bangumi_id": 484623,
        "bangumi_title": "彻夜之歌 第二季",
        "ep_cut": "",
        "image_url": "https://w.junreimap.com/images/points/484623/4qw6wr8_1757344128764.jpg",
        "location": "",
        "point_id": "4qw6wr8",
        "point_name": "田島団地内公園",
        "remark": ""
      },
      "type": "Feature"
    },
    {
      "geometry": {
        "coordinates": [
          139.629162,
          35.841966
        ],
        "type": "Point"
      },
      "properties": {
        "bangumi_id": 484623,
        "bangumi_title": "彻夜之歌 第二季",
        "ep_cut": "",
        "image_url": "https://w.junreimap.com/images/points/484623/4qwgx5l_1757344139487.jpg",
        "location": "",
        "point_id": "4qwgx5l",
        "point_name": "田島団地内公園",
        "remark": ""
      },
      "type": "Feature"
    },
    {
      "geometry": {
        "coordinates": [
          139.629165,
          35.841969
        ],
        "type": "Point"
      },
      "properties": {
        "bangumi_id": 484623,
        "bangumi_title": "彻夜之歌 第二季",
        "ep_cut": "",
        "image_url": "https://w.junreimap.com/images/points/484623/4qwj4sh_1757344242826.jpg",
        "location": "",
        "point_id": "4qwj4sh",
        "point_name": "田島団地内公園",
        "remark": ""
      },
      "type": "Feature"
    },
    {
      "geometry": {
        "coordinates": [
          139.62916,
          35.841968
        ],
        "type": "Point"
      },
      "properties": {
        "bangumi_id": 484623,
        "bangumi_title": "彻夜之歌 第二季",
        "ep_cut": "",
        "image_url": "https://w.junreimap.com/images/points/484623/4qwl5qj_1757344351113.jpg",
        "location": "",
        "point_id": "4qwl5qj",
        "point_name": "田島団地内公園",
        "remark": ""
      },
      "type": "Feature"
    },
    {
      "geometry": {
        "coordinates": [
          139.629157,
          35.84197
        ],
        "type": "Point"
      },
      "properties": {
        "bangumi_id": 484623,
        "bangumi_title": "彻夜之歌 第二季",
        "ep_cut": "",
        "image_url": "https://w.junreimap.com/images/points/484623/4qwlr6f_1757344364810.jpg",
        "location": "",
        "point_id": "4qwlr6f",
        "point_name": "田島団地内公園",
        "remark": ""
      },
      "type": "Feature"
    },
    {
      "geometry": {
        "coordinates": [
          139.629171,
          35.841976
        ],
        "type": "Point"
      },
      "properties": {
        "bangumi_id": 484623,
        "bangumi_title": "彻夜之歌 第二季",
        "ep_cut": "",
        "image_url": "https://w.junreimap.com/images/points/484623/4qwthoe_1757344728219.jpg",
        "location": "",
        "point_id": "4qwthoe",
        "point_name": "田島団地内公園",
        "remark": ""
      },
      "type": "Feature"
    },
    {
      "geometry": {
        "coordinates": [
          139.629173,
          35.841969
        ],
        "type": "Point"
      },
      "properties": {
        "bangumi_id": 484623,
        "bangumi_title": "彻夜之歌 第二季",
        "ep_cut": "",
        "image_url": "https://w.junreimap.com/images/points/484623/4qwtp5t_1757344735388.jpg",
        "location": "",
        "point_id": "4qwtp5t",
        "point_name": "田島団地内公園",
        "remark": ""
      },
      "type": "Feature"
    },
    {
      "geometry": {
        "coordinates": [
          139.62917,
          35.841972
        ],
        "type": "Point"
      },
      "properties": {
        "bangumi_id": 484623,
        "bangumi_title": "彻夜之歌 第二季",
        "ep_cut": "",
        "image_url": "https://w.junreimap.com/images/points/484623/4qwts4g_1757344739315.jpg",
        "location": "",
        "point_id": "4qwts4g",
        "point_name": "田島団地内公園",
        "remark": ""
      },
      "type": "Feature"
    },
    {
      "geometry": {
        "coordinates": [
          139.629166,
          35.841975
        ],
        "type": "Point"
      },
      "properties": {
        "bangumi_id": 484623,
        "bangumi_title": "彻夜之歌 第二季",
        "ep_cut": "",
        "image_url": "https://w.junreimap.com/images/points/484623/4qwuzmy_1757344796281.jpg",
        "location": "",
        "point_id": "4qwuzmy",
        "point_name": "田島団地内公園",
        "remark": ""
      },
      "type": "Feature"
    },
    {
      "geometry": {
        "coordinates": [
          139.62917,
          35.841979
        ],
        "type": "Point"
      },
      "properties": {
        "bangumi_id": 484623,
        "bangumi_title": "彻夜之歌 第二季",
        "ep_cut": "",
        "image_url": "https://w.junreimap.com/images/points/484623/4qwvsfe_1757344833001.jpg",
        "location": "",
        "point_id": "4qwvsfe",
        "point_name": "田島団地内公園",
        "remark": ""
      },
      "type": "Feature"
    },
    {
      "geometry": {
        "coordinates": [
          139.629174,
          35.841973
        ],
        "type": "Point"
      },
      "properties": {
        "bangumi_id": 484623,
        "bangumi_title": "彻夜之歌 第二季",
        "ep_cut": "",
        "image_url": "https://w.junreimap.com/images/points/484623/4qww73q_1757344852019.jpg",
        "location": "",
        "point_id": "4qww73q",
        "point_name": "田島団地内公園",
        "remark": ""
      },
      "type": "Feature"
    },
    {
      "geometry": {
        "coordinates": [
          139.629179,
          35.841971
        ],
        "type": "Point"
      },
      "properties": {
        "bangumi_id": 484623,
        "bangumi_title": "彻夜之歌 第二季",
        "ep_cut": "",
        "image_url": "https://w.junreimap.com/images/points/484623/4qwwoa3_1757344874086.jpg",
        "location": "",
        "point_id": "4qwwoa3",
        "point_name": "田島団地内公園",
        "remark": ""
      },
      "type": "Feature"
    },
    {
      "geometry": {
        "coordinates": [
          139.631817,
          35.842456
        ],
        "type": "Point"
      },
      "properties": {
        "bangumi_id": 484623,
        "bangumi_title": "彻夜之歌 第二季",
        "ep_cut": "",
        "image_url": "https://w.junreimap.com/images/points/484623/4qwzv9r_1757345042565.jpg",
        "location": "",
        "point_id": "4qwzv9r",
        "point_name": "セブン-イレブン さいたま田島１丁目店",
        "remark": ""
      },
      "type": "Feature"
    },
    {
      "geometry": {
        "coordinates": [
          139.645535,
          35.847158
        ],
        "type": "Point"
      },
      "properties": {
        "bangumi_id": 484623,
        "bangumi_title": "彻夜之歌 第二季",
        "ep_cut": "",
        "image_url": "https://w.junreimap.com/images/points/484623/4qx6wxy_1757345354206.jpg",
        "location": "",
        "point_id": "4qx6wxy",
        "point_name": "三井のリパーク 武蔵浦和駅前第３ 駐車場",
        "remark": ""
      },
      "type": "Feature"
    },
    {
      "geometry": {
        "coordinates": [
          139.645582,
          35.847147
        ],
        "type": "Point"
      },
      "properties": {
        "bangumi_id": 484623,
        "bangumi_title": "彻夜之歌 第二季",
        "ep_cut": "",
        "image_url": "https://w.junreimap.com/images/points/484623/4qx4avb_1757345230963.jpg",
        "location": "",
        "point_id": "4qx4avb",
        "point_name": "三井のリパーク 武蔵浦和駅前第３ 駐車場",
        "remark": ""
      },
      "type": "Feature"
    },
    {
      "geometry": {
        "coordinates": [
          139.645559,
          35.847147
        ],
        "type": "Point"
      },
      "properties": {
        "bangumi_id": 484623,
        "bangumi_title": "彻夜之歌 第二季",
        "ep_cut": "",
        "image_url": "https://w.junreimap.com/images/points/484623/4qx7ho8_1757345400180.jpg",
        "location": "",
        "point_id": "4qx7ho8",
        "point_name": "三井のリパーク 武蔵浦和駅前第３ 駐車場",
        "remark": ""
      },
      "type": "Feature"
    },
    {
      "geometry": {
        "coordinates": [
          139.645567,
          35.84715
        ],
        "type": "Point"
      },
      "properties": {
        "bangumi_id": 484623,
        "bangumi_title": "彻夜之歌 第二季",
        "ep_cut": "",
        "image_url": "https://w.junreimap.com/images/points/484623/4qx9b7u_1757345463878.jpg",
        "location": "",
        "point_id": "4qx9b7u",
        "point_name": "三井のリパーク 武蔵浦和駅前第３ 駐車場",
        "remark": ""
      },
      "type": "Feature"
    },
    {
      "geometry": {
        "coordinates": [
          139.645549,
          35.847157
        ],
        "type": "Point"
      },
      "properties": {
        "bangumi_id": 484623,
        "bangumi_title": "彻夜之歌 第二季",
        "ep_cut": "",
        "image_url": "https://w.junreimap.com/images/points/484623/4qxbryf_1757345579088.jpg",
        "location": "",
        "point_id": "4qxbryf",
        "point_name": "三井のリパーク 武蔵浦和駅前第３ 駐車場",
        "remark": ""
      },
      "type": "Feature"
    },
    {
      "geometry": {
        "coordinates": [
          139.645543,
          35.847147
        ],
        "type": "Point"
      },
      "properties": {
        "bangumi_id": 484623,
        "bangumi_title": "彻夜之歌 第二季",
        "ep_cut": "",
        "image_url": "https://w.junreimap.com/images/points/484623/4qxcfid_1757345609497.jpg",
        "location": "",
        "point_id": "4qxcfid",
        "point_name": "三井のリパーク 武蔵浦和駅前第３ 駐車場",
        "remark": "哈人"
      },
      "type": "Feature"
    },
    {
      "geometry": {
        "coordinates": [
          139.645488,
          35.847136
        ],
        "type": "Point"
      },
      "properties": {
        "bangumi_id": 484623,
        "bangumi_title": "彻夜之歌 第二季",
        "ep_cut": "",
        "image_url": "https://w.junreimap.com/images/points/484623/4qxfwr1_1757345772389.jpg",
        "location": "",
        "point_id": "4qxfwr1",
        "point_name": "三井のリパーク 武蔵浦和駅前第３ 駐車場",
        "remark": ""
      },
      "type": "Feature"
    },
    {
      "geometry": {
        "coordinates": [
          139.645481,
          35.847136
        ],
        "type": "Point"
      },
      "properties": {
        "bangumi_id": 484623,
        "bangumi_title": "彻夜之歌 第二季",
        "ep_cut": "",
        "image_url": "https://w.junreimap.com/images/points/484623/4qxg0ap_1757345776640.jpg",
        "location": "",
        "point_id": "4qxg0ap",
        "point_name": "三井のリパーク 武蔵浦和駅前第３ 駐車場",
        "remark": ""
      },
      "type": "Feature"
    },
    {
      "geometry": {
        "coordinates": [
          139.645555,
          35.847161
        ],
        "type": "Point"
      },
      "properties": {
        "bangumi_id": 484623,
        "bangumi_title": "彻夜之歌 第二季",
        "ep_cut": "",
        "image_url": "https://w.junreimap.com/images/points/484623/4qxd515_1757345642579.jpg",
        "location": "",
        "point_id": "4qxd515",
        "point_name": "三井のリパーク 武蔵浦和駅前第３ 駐車場",
        "remark": ""
      },
      "type": "Feature"
    },
    {
      "geometry": {
        "coordinates": [
          139.645534,
          35.847141
        ],
        "type": "Point"
      },
      "properties": {
        "bangumi_id": 484623,
        "bangumi_title": "彻夜之歌 第二季",
        "ep_cut": "",
        "image_url": "https://w.junreimap.com/images/points/484623/4qxe7av_1757345693920.jpg",
        "location": "",
        "point_id": "4qxe7av",
        "point_name": "三井のリパーク 武蔵浦和駅前第３ 駐車場",
        "remark": ""
      },
      "type": "Feature"
    },
    {
      "geometry": {
        "coordinates": [
          139.645526,
          35.847147
        ],
        "type": "Point"
      },
      "properties": {
        "bangumi_id": 484623,
        "bangumi_title": "彻夜之歌 第二季",
        "ep_cut": "",
        "image_url": "https://w.junreimap.com/images/points/484623/4qxec63_1757345698590.jpg",
        "location": "",
        "point_id": "4qxec63",
        "point_name": "三井のリパーク 武蔵浦和駅前第３ 駐車場",
        "remark": ""
      },
      "type": "Feature"
    },
    {
      "geometry": {
        "coordinates": [
          139.645557,
          35.84714
        ],
        "type": "Point"
      },
      "properties": {
        "bangumi_id": 484623,
        "bangumi_title": "彻夜之歌 第二季",
        "ep_cut": "",
        "image_url": "https://w.junreimap.com/images/points/484623/4qx8rmt_1757345438607.jpg",
        "location": "",
        "point_id": "4qx8rmt",
        "point_name": "三井のリパーク 武蔵浦和駅前第３ 駐車場",
        "remark": ""
      },
      "type": "Feature"
    },
    {
      "geometry": {
        "coordinates": [
          139.645568,
          35.847143
        ],
        "type": "Point"
      },
      "properties": {
        "bangumi_id": 484623,
        "bangumi_title": "彻夜之歌 第二季",
        "ep_cut": "",
        "image_url": "https://w.junreimap.com/images/points/484623/4qx724m_1757345360373.jpg",
        "location": "",
        "point_id": "4qx724m",
        "point_name": "三井のリパーク 武蔵浦和駅前第３ 駐車場",
        "remark": ""
      },
      "type": "Feature"
    },
    {
      "geometry": {
        "coordinates": [
          139.645598,
          35.847148
        ],
        "type": "Point"
      },
      "properties": {
        "bangumi_id": 484623,
        "bangumi_title": "彻夜之歌 第二季",
        "ep_cut": "",
        "image_url": "https://w.junreimap.com/images/points/484623/4qx2o20_1757345171530.jpg",
        "location": "",
        "point_id": "4qx2o20",
        "point_name": "三井のリパーク 武蔵浦和駅前第３ 駐車場",
        "remark": ""
      },
      "type": "Feature"
    },
    {
      "geometry": {
        "coordinates": [
          139.645574,
          35.847146
        ],
        "type": "Point"
      },
      "properties": {
        "bangumi_id": 484623,
        "bangumi_title": "彻夜之歌 第二季",
        "ep_cut": "",
        "image_url": "https://w.junreimap.com/images/points/484623/4qx4igz_1757345240218.jpg",
        "location": "",
        "point_id": "4qx4igz",
        "point_name": "三井のリパーク 武蔵浦和駅前第３ 駐車場",
        "remark": ""
      },
      "type": "Feature"
    },
    {
      "geometry": {
        "coordinates": [
          139.630857,
          35.893411
        ],
        "type": "Point"
      },
      "properties": {
        "bangumi_id": 484623,
        "bangumi_title": "彻夜之歌 第二季",
        "ep_cut": 1,
        "image_url": "https://w.junreimap.com/images/points/484623/2bf91tl_1752054661168.jpg",
        "location": "",
        "point_id": "2bf91tl",
        "point_name": "森のパビリオン",
        "remark": ""
      },
      "type": "Feature"
    },
    {
      "geometry": {
        "coordinates": [
          139.630869,
          35.893363
        ],
        "type": "Point"
      },
      "properties": {
        "bangumi_id": 484623,
        "bangumi_title": "彻夜之歌 第二季",
        "ep_cut": 1,
        "image_url": "https://w.junreimap.com/images/points/484623/2beumwa_1752054738177.jpg",
        "location": "",
        "point_id": "2beumwa",
        "point_name": "森のパビリオン",
        "remark": ""
      },
      "type": "Feature"
    },
    {
      "geometry": {
        "coordinates": [
          139.630855,
          35.89338
        ],
        "type": "Point"
      },
      "properties": {
        "bangumi_id": 484623,
        "bangumi_title": "彻夜之歌 第二季",
        "ep_cut": 1,
        "image_url": "https://w.junreimap.com/images/points/484623/2bf8r6w_1752054647666.jpg",
        "location": "",
        "point_id": "2bf8r6w",
        "point_name": "森のパビリオン",
        "remark": ""
      },
      "type": "Feature"
    },
    {
      "geometry": {
        "coordinates": [
          139.630837,
          35.893391
        ],
        "type": "Point"
      },
      "properties": {
        "bangumi_id": 484623,
        "bangumi_title": "彻夜之歌 第二季",
        "ep_cut": 1,
        "image_url": "https://w.junreimap.com/images/points/484623/2bf8u8z_1752054651591.jpg",
        "location": "",
        "point_id": "2bf8u8z",
        "point_name": "森のパビリオン",
        "remark": ""
      },
      "type": "Feature"
    },
    {
      "geometry": {
        "coordinates": [
          139.630833,
          35.893402
        ],
        "type": "Point"
      },
      "properties": {
        "bangumi_id": 484623,
        "bangumi_title": "彻夜之歌 第二季",
        "ep_cut": 1,
        "image_url": "https://w.junreimap.com/images/points/484623/2bf8wtt_1752054654815.jpg",
        "location": "",
        "point_id": "2bf8wtt",
        "point_name": "森のパビリオン",
        "remark": ""
      },
      "type": "Feature"
    },
    {
      "geometry": {
        "coordinates": [
          139.630844,
          35.893414
        ],
        "type": "Point"
      },
      "properties": {
        "bangumi_id": 484623,
        "bangumi_title": "彻夜之歌 第二季",
        "ep_cut": 1,
        "image_url": "https://w.junreimap.com/images/points/484623/2bf8z77_1752054658066.jpg",
        "location": "",
        "point_id": "2bf8z77",
        "point_name": "森のパビリオン",
        "remark": ""
      },
      "type": "Feature"
    },
    {
      "geometry": {
        "coordinates": [
          139.630873,
          35.893404
        ],
        "type": "Point"
      },
      "properties": {
        "bangumi_id": 484623,
        "bangumi_title": "彻夜之歌 第二季",
        "ep_cut": 1,
        "image_url": "https://w.junreimap.com/images/points/484623/2bf9e43_1752054678440.jpg",
        "location": "",
        "point_id": "2bf9e43",
        "point_name": "森のパビリオン",
        "remark": ""
      },
      "type": "Feature"
    },
    {
      "geometry": {
        "coordinates": [
          139.630886,
          35.893405
        ],
        "type": "Point"
      },
      "properties": {
        "bangumi_id": 484623,
        "bangumi_title": "彻夜之歌 第二季",
        "ep_cut": 1,
        "image_url": "https://w.junreimap.com/images/points/484623/2bf9hph_1752054682178.jpg",
        "location": "",
        "point_id": "2bf9hph",
        "point_name": "森のパビリオン",
        "remark": ""
      },
      "type": "Feature"
    },
    {
      "geometry": {
        "coordinates": [
          139.63089,
          35.893414
        ],
        "type": "Point"
      },
      "properties": {
        "bangumi_id": 484623,
        "bangumi_title": "彻夜之歌 第二季",
        "ep_cut": 1,
        "image_url": "https://w.junreimap.com/images/points/484623/2bf9l09_1752054686756.jpg",
        "location": "",
        "point_id": "2bf9l09",
        "point_name": "森のパビリオン",
        "remark": ""
      },
      "type": "Feature"
    },
    {
      "geometry": {
        "coordinates": [
          139.630905,
          35.893416
        ],
        "type": "Point"
      },
      "properties": {
        "bangumi_id": 484623,
        "bangumi_title": "彻夜之歌 第二季",
        "ep_cut": 1,
        "image_url": "https://w.junreimap.com/images/points/484623/2bf9op5_1752054691852.jpg",
        "location": "",
        "point_id": "2bf9op5",
        "point_name": "森のパビリオン",
        "remark": ""
      },
      "type": "Feature"
    },
    {
      "geometry": {
        "coordinates": [
          139.633132,
          35.893001
        ],
        "type": "Point"
      },
      "properties": {
        "bangumi_id": 484623,
        "bangumi_title": "彻夜之歌 第二季",
        "ep_cut": "",
        "image_url": "https://w.junreimap.com/images/points/484623/4qvzixu_1757343377999.jpg",
        "location": "",
        "point_id": "4qvzixu",
        "point_name": "さいたま新都心駅",
        "remark": ""
      },
      "type": "Feature"
    },
    {
      "geometry": {
        "coordinates": [
          139.63795,
          35.853822
        ],
        "type": "Point"
      },
      "properties": {
        "bangumi_id": 484623,
        "bangumi_title": "彻夜之歌 第二季",
        "ep_cut": "",
        "image_url": "https://w.junreimap.com/images/points/484623/4qxzif4_1757346686657.jpg",
        "location": "",
        "point_id": "4qxzif4",
        "point_name": "ヘアー​サロン​リラックス",
        "remark": ""
      },
      "type": "Feature"
    },
    {
      "geometry": {
        "coordinates": [
          139.637959,
          35.853855
        ],
        "type": "Point"
      },
      "properties": {
        "bangumi_id": 484623,
        "bangumi_title": "彻夜之歌 第二季",
        "ep_cut": "",
        "image_url": "https://w.junreimap.com/images/points/484623/4qxxcg9_1757346592008.jpg",
        "location": "",
        "point_id": "4qxxcg9",
        "point_name": "ヘアー​サロン​リラックス",
        "remark": ""
      },
      "type": "Feature"
    },
    {
      "geometry": {
        "coordinates": [
          139.637938,
          35.853815
        ],
        "type": "Point"
      },
      "properties": {
        "bangumi_id": 484623,
        "bangumi_title": "彻夜之歌 第二季",
        "ep_cut": "",
        "image_url": "https://w.junreimap.com/images/points/484623/4qxxmbt_1757346597654.jpg",
        "location": "",
        "point_id": "4qxxmbt",
        "point_name": "ヘアー​サロン​リラックス",
        "remark": ""
      },
      "type": "Feature"
    },
    {
      "geometry": {
        "coordinates": [
          139.637929,
          35.85384
        ],
        "type": "Point"
      },
      "properties": {
        "bangumi_id": 484623,
        "bangumi_title": "彻夜之歌 第二季",
        "ep_cut": "",
        "image_url": "https://w.junreimap.com/images/points/484623/4qxxpr5_1757346601975.jpg",
        "location": "",
        "point_id": "4qxxpr5",
        "point_name": "ヘアー​サロン​リラックス",
        "remark": ""
      },
      "type": "Feature"
    },
    {
      "geometry": {
        "coordinates": [
          139.637913,
          35.853824
        ],
        "type": "Point"
      },
      "properties": {
        "bangumi_id": 484623,
        "bangumi_title": "彻夜之歌 第二季",
        "ep_cut": "",
        "image_url": "https://w.junreimap.com/images/points/484623/4qxzmav_1757346691351.jpg",
        "location": "",
        "point_id": "4qxzmav",
        "point_name": "ヘアー​サロン​リラックス",
        "remark": ""
      },
      "type": "Feature"
    },
    {
      "geometry": {
        "coordinates": [
          139.637974,
          35.853825
        ],
        "type": "Point"
      },
      "properties": {
        "bangumi_id": 484623,
        "bangumi_title": "彻夜之歌 第二季",
        "ep_cut": "",
        "image_url": "https://w.junreimap.com/images/points/484623/4qy10e2_1757346756848.jpg",
        "location": "",
        "point_id": "4qy10e2",
        "point_name": "ヘアー​サロン​リラックス",
        "remark": ""
      },
      "type": "Feature"
    },
    {
      "geometry": {
        "coordinates": [
          139.637957,
          35.853808
        ],
        "type": "Point"
      },
      "properties": {
        "bangumi_id": 484623,
        "bangumi_title": "彻夜之歌 第二季",
        "ep_cut": "",
        "image_url": "https://w.junreimap.com/images/points/484623/4qy157z_1757346763320.jpg",
        "location": "",
        "point_id": "4qy157z",
        "point_name": "ヘアー​サロン​リラックス",
        "remark": ""
      },
      "type": "Feature"
    },
    {
      "geometry": {
        "coordinates": [
          139.637913,
          35.853802
        ],
        "type": "Point"
      },
      "properties": {
        "bangumi_id": 484623,
        "bangumi_title": "彻夜之歌 第二季",
        "ep_cut": "",
        "image_url": "https://w.junreimap.com/images/points/484623/4qy1gkj_1757346780451.jpg",
        "location": "",
        "point_id": "4qy1gkj",
        "point_name": "ヘアー​サロン​リラックス",
        "remark": ""
      },
      "type": "Feature"
    },
    {
      "geometry": {
        "coordinates": [
          139.637937,
          35.853798
        ],
        "type": "Point"
      },
      "properties": {
        "bangumi_id": 484623,
        "bangumi_title": "彻夜之歌 第二季",
        "ep_cut": "",
        "image_url": "https://w.junreimap.com/images/points/484623/4qy1ngg_1757346787973.jpg",
        "location": "",
        "point_id": "4qy1ngg",
        "point_name": "ヘアー​サロン​リラックス",
        "remark": ""
      },
      "type": "Feature"
    },
    {
      "geometry": {
        "coordinates": [
          139.059961,
          36.003136
        ],
        "type": "Point"
      },
      "properties": {
        "bangumi_id": 484623,
        "bangumi_title": "彻夜之歌 第二季",
        "ep_cut": 6,
        "image_url": "https://w.junreimap.com/images/user/0/bangumi/484623/points/3jdwjy5-1754712948433.jpg",
        "location": "",
        "point_id": "3jdwjy5",
        "point_name": "ミューズアロー",
        "remark": ""
      },
      "type": "Feature"
    },
    {
      "geometry": {
        "coordinates": [
          139.060234,
          36.003443
        ],
        "type": "Point"
      },
      "properties": {
        "bangumi_id": 484623,
        "bangumi_title": "彻夜之歌 第二季",
        "ep_cut": 6,
        "image_url": "https://w.junreimap.com/images/user/0/bangumi/484623/points/3jdz1ei-1754713074561.jpg",
        "location": "",
        "point_id": "3jdz1ei",
        "point_name": "旅立ちの丘",
        "remark": ""
      },
      "type": "Feature"
    },
    {
      "geometry": {
        "coordinates": [
          139.060235,
          36.003444
        ],
        "type": "Point"
      },
      "properties": {
        "bangumi_id": 484623,
        "bangumi_title": "彻夜之歌 第二季",
        "ep_cut": 6,
        "image_url": "https://w.junreimap.com/images/user/0/bangumi/484623/points/3je37v0-1754713291800.jpg",
        "location": "",
        "point_id": "3je37v0",
        "point_name": "秩父ミューズパーク展望台",
        "remark": "从展望台俯瞰城市的视角。"
      },
      "type": "Feature"
    },
    {
      "geometry": {
        "coordinates": [
          139.075294,
          36.0018
        ],
        "type": "Point"
      },
      "properties": {
        "bangumi_id": 484623,
        "bangumi_title": "彻夜之歌 第二季",
        "ep_cut": 6,
        "image_url": "https://w.junreimap.com/images/user/0/bangumi/484623/points/3je7lug-1754713551617.jpg",
        "location": "",
        "point_id": "3je7lug",
        "point_name": "秩父公園橋",
        "remark": ""
      },
      "type": "Feature"
    },
    {
      "geometry": {
        "coordinates": [
          139.059646,
          36.002195
        ],
        "type": "Point"
      },
      "properties": {
        "bangumi_id": 484623,
        "bangumi_title": "彻夜之歌 第二季",
        "ep_cut": 6,
        "image_url": "https://w.junreimap.com/images/user/0/bangumi/484623/points/3jeopfd-1754714290694.jpg",
        "location": "",
        "point_id": "3jeopfd",
        "point_name": "秩父ミューズパーク展望台",
        "remark": "这条人行道都是这样铺装，无法确定是这段路上的那个位置。"
      },
      "type": "Feature"
    },
    {
      "geometry": {
        "coordinates": [
          139.756436,
          35.667184
        ],
        "type": "Point"
      },
      "properties": {
        "bangumi_id": 484623,
        "bangumi_title": "彻夜之歌 第二季",
        "ep_cut": 5,
        "image_url": "https://w.junreimap.com/images/points/484623/5kj5h53_1759135787724.jpg",
        "location": "",
        "point_id": "5kj5h53",
        "point_name": "IRISH PUB CELTS 新橋日比谷口店",
        "remark": ""
      },
      "type": "Feature"
    },
    {
      "geometry": {
        "coordinates": [
          139.756131,
          35.667278
        ],
        "type": "Point"
      },
      "properties": {
        "bangumi_id": 484623,
        "bangumi_title": "彻夜之歌 第二季",
        "ep_cut": 5,
        "image_url": "https://w.junreimap.com/images/points/484623/5kkym5s_1759138973329.jpg",
        "location": "",
        "point_id": "5kkym5s",
        "point_name": "博多天神 新橋1号店",
        "remark": ""
      },
      "type": "Feature"
    },
    {
      "geometry": {
        "coordinates": [
          139.756122,
          35.667281
        ],
        "type": "Point"
      },
      "properties": {
        "bangumi_id": 484623,
        "bangumi_title": "彻夜之歌 第二季",
        "ep_cut": 5,
        "image_url": "https://w.junreimap.com/images/points/484623/5kl8pes_1759139266886.jpg",
        "location": "",
        "point_id": "5kl8pes",
        "point_name": "博多天神 新橋1号店",
        "remark": ""
      },
      "type": "Feature"
    },
    {
      "geometry": {
        "coordinates": [
          139.756136,
          35.667277
        ],
        "type": "Point"
      },
      "properties": {
        "bangumi_id": 484623,
        "bangumi_title": "彻夜之歌 第二季",
        "ep_cut": 5,
        "image_url": "https://w.junreimap.com/images/points/484623/5kl8y81_1759139277541.jpg",
        "location": "",
        "point_id": "5kl8y81",
        "point_name": "博多天神 新橋1号店",
        "remark": ""
      },
      "type": "Feature"
    }
  ],
  "type": "FeatureCollection"
}