{
  "features": [
    {
      "geometry": {
        "coordinates": [
          139.506188,
          35.767612
        ],
        "type": "Point"
      },
      "properties": {
        "bangumi_id": 488177,
        "bangumi_title": "天久鹰央的推理病历表",
        "ep_cut": 1,
        "image_url": "https://w.junreimap.com/images/user/1073/bangumi/488177/points/rj0ean0t2-1735803006789.jpg",
        "location": "",
        "point_id": "rj0ean0t2",
        "point_name": "東京病院",
        "remark": "天医会综合医院的建筑原型"
      },
      "type": "Feature"
    },
    {
      "geometry": {
        "coordinates": [
          139.512062,
          35.712911
        ],
        "type": "Point"
      },
      "properties": {
        "bangumi_id": 488177,
        "bangumi_title": "天久鹰央的推理病历表",
        "ep_cut": 1,
        "image_url": "https://w.junreimap.com/images/points/488177/8gk0n46_1765425723100.jpg",
        "location": "",
        "point_id": "8gk0n46",
        "point_name": "ファミリー​マート\n小金井​桜町​三丁目​店",
        "remark": ""
      },
      "type": "Feature"
    },
    {
      "geometry": {
        "coordinates": [
          139.51254,
          35.71431
        ],
        "type": "Point"
      },
      "properties": {
        "bangumi_id": 488177,
        "bangumi_title": "天久鹰央的推理病历表",
        "ep_cut": 2,
        "image_url": "https://w.junreimap.com/images/user/1073/bangumi/488177/points/rjka4td2k-1735846361910.jpg",
        "location": "",
        "point_id": "rjka4td2k",
        "point_name": "小金井公園 道標",
        "remark": ""
      },
      "type": "Feature"
    },
    {
      "geometry": {
        "coordinates": [
          139.518044,
          35.712941
        ],
        "type": "Point"
      },
      "properties": {
        "bangumi_id": 488177,
        "bangumi_title": "天久鹰央的推理病历表",
        "ep_cut": 2,
        "image_url": "https://w.junreimap.com/images/user/1073/bangumi/488177/points/rjkist7w4-1735846834019.jpg",
        "location": "",
        "point_id": "rjkist7w4",
        "point_name": "小金井公園 ",
        "remark": "久留米池公园原型"
      },
      "type": "Feature"
    },
    {
      "geometry": {
        "coordinates": [
          139.518343,
          35.714529
        ],
        "type": "Point"
      },
      "properties": {
        "bangumi_id": 488177,
        "bangumi_title": "天久鹰央的推理病历表",
        "ep_cut": 2,
        "image_url": "https://w.junreimap.com/images/points/488177/8gk31f7_1765425815933.jpg",
        "location": "",
        "point_id": "8gk31f7",
        "point_name": "小金井公園内",
        "remark": ""
      },
      "type": "Feature"
    },
    {
      "geometry": {
        "coordinates": [
          139.647236,
          35.737171
        ],
        "type": "Point"
      },
      "properties": {
        "bangumi_id": 488177,
        "bangumi_title": "天久鹰央的推理病历表",
        "ep_cut": 2,
        "image_url": "https://w.junreimap.com/images/points/488177/8gk9umk_1765426136520.jpg",
        "location": "",
        "point_id": "8gk9umk",
        "point_name": "デニーズ\n中村橋​店",
        "remark": ""
      },
      "type": "Feature"
    },
    {
      "geometry": {
        "coordinates": [
          139.328909,
          35.547436
        ],
        "type": "Point"
      },
      "properties": {
        "bangumi_id": 488177,
        "bangumi_title": "天久鹰央的推理病历表",
        "ep_cut": 2,
        "image_url": "https://w.junreimap.com/images/points/488177/8gkbwx0_1765426227041.jpg",
        "location": "",
        "point_id": "8gkbwx0",
        "point_name": "相模川​ふれあい​科学館 アクアリウム",
        "remark": ""
      },
      "type": "Feature"
    },
    {
      "geometry": {
        "coordinates": [
          139.496228,
          35.778591
        ],
        "type": "Point"
      },
      "properties": {
        "bangumi_id": 488177,
        "bangumi_title": "天久鹰央的推理病历表",
        "ep_cut": 2,
        "image_url": "https://w.junreimap.com/images/user/1073/bangumi/488177/points/rjkz69bc0-1735847813344.jpg",
        "location": "",
        "point_id": "rjkz69bc0",
        "point_name": "秋津駅",
        "remark": "对第3话的前情提要"
      },
      "type": "Feature"
    },
    {
      "geometry": {
        "coordinates": [
          139.505838,
          35.767815
        ],
        "type": "Point"
      },
      "properties": {
        "bangumi_id": 488177,
        "bangumi_title": "天久鹰央的推理病历表",
        "ep_cut": 3,
        "image_url": "https://w.junreimap.com/images/user/0/bangumi/488177/points/v6s00m9er-1746129329530.jpg",
        "location": "",
        "point_id": "v6s00m9er",
        "point_name": "独立行政法人 国立病院機構 東京病院",
        "remark": ""
      },
      "type": "Feature"
    },
    {
      "geometry": {
        "coordinates": [
          139.506798,
          35.769089
        ],
        "type": "Point"
      },
      "properties": {
        "bangumi_id": 488177,
        "bangumi_title": "天久鹰央的推理病历表",
        "ep_cut": 4,
        "image_url": "https://w.junreimap.com/images/points/488177/8gkf5v7_1765426391480.jpg",
        "location": "",
        "point_id": "8gkf5v7",
        "point_name": "アイン薬局 清瀬店",
        "remark": ""
      },
      "type": "Feature"
    },
    {
      "geometry": {
        "coordinates": [
          139.593782,
          35.33254
        ],
        "type": "Point"
      },
      "properties": {
        "bangumi_id": 488177,
        "bangumi_title": "天久鹰央的推理病历表",
        "ep_cut": 4,
        "image_url": "https://w.junreimap.com/images/user/1073/bangumi/488177/points/s7qhbrvt0-1737740584098.jpg",
        "location": "",
        "point_id": "s7qhbrvt0",
        "point_name": "朝比奈料金所出口",
        "remark": "横浜横須賀道路"
      },
      "type": "Feature"
    },
    {
      "geometry": {
        "coordinates": [
          139.538428,
          35.729944
        ],
        "type": "Point"
      },
      "properties": {
        "bangumi_id": 488177,
        "bangumi_title": "天久鹰央的推理病历表",
        "ep_cut": 6,
        "image_url": "https://w.junreimap.com/images/user/1073/bangumi/488177/points/sllh3o8fq-1738826726085.jpg",
        "location": "",
        "point_id": "sllh3o8fq",
        "point_name": "田無警察署前",
        "remark": ""
      },
      "type": "Feature"
    },
    {
      "geometry": {
        "coordinates": [
          139.745863,
          35.743051
        ],
        "type": "Point"
      },
      "properties": {
        "bangumi_id": 488177,
        "bangumi_title": "天久鹰央的推理病历表",
        "ep_cut": 10,
        "image_url": "https://w.junreimap.com/images/points/488177/8gkhkto_1765426497861.jpg",
        "location": "",
        "point_id": "8gkhkto",
        "point_name": "旧古河庭園 大谷美術館",
        "remark": "建筑外观原型"
      },
      "type": "Feature"
    }
  ],
  "type": "FeatureCollection"
}