{
  "features": [
    {
      "geometry": {
        "coordinates": [
          140.882063,
          38.260306
        ],
        "type": "Point"
      },
      "properties": {
        "bangumi_id": 48880,
        "bangumi_title": "Wake Up, Girls!",
        "ep_cut": "",
        "image_url": "https://w.junreimap.com/images/points/48880/4uiarivtp.jpg",
        "location": "",
        "point_id": "4uiarivtp",
        "point_name": "仙台駅",
        "remark": ""
      },
      "type": "Feature"
    },
    {
      "geometry": {
        "coordinates": [
          140.880665,
          38.260194
        ],
        "type": "Point"
      },
      "properties": {
        "bangumi_id": 48880,
        "bangumi_title": "Wake Up, Girls!",
        "ep_cut": "",
        "image_url": "https://w.junreimap.com/images/points/48880/4uiarivx8.jpg",
        "location": "",
        "point_id": "4uiarivx8",
        "point_name": "仙台ロフト",
        "remark": ""
      },
      "type": "Feature"
    },
    {
      "geometry": {
        "coordinates": [
          140.815002,
          38.221305
        ],
        "type": "Point"
      },
      "properties": {
        "bangumi_id": 48880,
        "bangumi_title": "Wake Up, Girls!",
        "ep_cut": "",
        "image_url": "https://w.junreimap.com/images/points/48880/4uiariw66.jpg",
        "location": "",
        "point_id": "4uiariw66",
        "point_name": "望洋台公園",
        "remark": ""
      },
      "type": "Feature"
    },
    {
      "geometry": {
        "coordinates": [
          140.866493,
          38.272562
        ],
        "type": "Point"
      },
      "properties": {
        "bangumi_id": 48880,
        "bangumi_title": "Wake Up, Girls!",
        "ep_cut": 4,
        "image_url": "https://w.junreimap.com/images/points/48880/4uiarivqt.jpg",
        "location": "",
        "point_id": "4uiarivqt",
        "point_name": "未来塾進学会木町通教室",
        "remark": ""
      },
      "type": "Feature"
    },
    {
      "geometry": {
        "coordinates": [
          140.881666,
          38.261018
        ],
        "type": "Point"
      },
      "properties": {
        "bangumi_id": 48880,
        "bangumi_title": "Wake Up, Girls!",
        "ep_cut": "",
        "image_url": "https://w.junreimap.com/images/points/48880/4uiariwfh.jpg",
        "location": "",
        "point_id": "4uiariwfh",
        "point_name": "仙台駅西口",
        "remark": ""
      },
      "type": "Feature"
    },
    {
      "geometry": {
        "coordinates": [
          140.877525,
          38.260584
        ],
        "type": "Point"
      },
      "properties": {
        "bangumi_id": 48880,
        "bangumi_title": "Wake Up, Girls!",
        "ep_cut": "",
        "image_url": "https://w.junreimap.com/images/points/48880/4uiarivqp.jpg",
        "location": "",
        "point_id": "4uiarivqp",
        "point_name": "青葉通プラザ前",
        "remark": ""
      },
      "type": "Feature"
    },
    {
      "geometry": {
        "coordinates": [
          140.863993,
          38.267742
        ],
        "type": "Point"
      },
      "properties": {
        "bangumi_id": 48880,
        "bangumi_title": "Wake Up, Girls!",
        "ep_cut": "",
        "image_url": "https://w.junreimap.com/images/points/48880/4uiariw4e.jpg",
        "location": "",
        "point_id": "4uiariw4e",
        "point_name": "餃子の天ぱり",
        "remark": ""
      },
      "type": "Feature"
    },
    {
      "geometry": {
        "coordinates": [
          140.877154,
          38.261308
        ],
        "type": "Point"
      },
      "properties": {
        "bangumi_id": 48880,
        "bangumi_title": "Wake Up, Girls!",
        "ep_cut": "",
        "image_url": "https://w.junreimap.com/images/points/48880/4uiarivyc.jpg",
        "location": "",
        "point_id": "4uiarivyc",
        "point_name": "マクドナルド仙台中央通店",
        "remark": ""
      },
      "type": "Feature"
    },
    {
      "geometry": {
        "coordinates": [
          140.869972,
          38.262827
        ],
        "type": "Point"
      },
      "properties": {
        "bangumi_id": 48880,
        "bangumi_title": "Wake Up, Girls!",
        "ep_cut": "",
        "image_url": "https://w.junreimap.com/images/points/48880/4uiariw2w.jpg",
        "location": "",
        "point_id": "4uiariw2w",
        "point_name": "LUVYA",
        "remark": ""
      },
      "type": "Feature"
    },
    {
      "geometry": {
        "coordinates": [
          140.869671,
          38.263339
        ],
        "type": "Point"
      },
      "properties": {
        "bangumi_id": 48880,
        "bangumi_title": "Wake Up, Girls!",
        "ep_cut": "",
        "image_url": "https://w.junreimap.com/images/points/48880/4uiarivqy.jpg",
        "location": "",
        "point_id": "4uiarivqy",
        "point_name": "国分町",
        "remark": ""
      },
      "type": "Feature"
    },
    {
      "geometry": {
        "coordinates": [
          140.869102,
          38.26504
        ],
        "type": "Point"
      },
      "properties": {
        "bangumi_id": 48880,
        "bangumi_title": "Wake Up, Girls!",
        "ep_cut": "",
        "image_url": "https://w.junreimap.com/images/points/48880/4uiariw82.jpg",
        "location": "",
        "point_id": "4uiariw82",
        "point_name": "国分町（スカウト場所）",
        "remark": ""
      },
      "type": "Feature"
    },
    {
      "geometry": {
        "coordinates": [
          140.852934,
          38.308056
        ],
        "type": "Point"
      },
      "properties": {
        "bangumi_id": 48880,
        "bangumi_title": "Wake Up, Girls!",
        "ep_cut": "",
        "image_url": "https://w.junreimap.com/images/points/48880/4uiarivsx.jpg",
        "location": "",
        "point_id": "4uiarivsx",
        "point_name": "宮城学院高等学校",
        "remark": ""
      },
      "type": "Feature"
    },
    {
      "geometry": {
        "coordinates": [
          140.866554,
          38.272251
        ],
        "type": "Point"
      },
      "properties": {
        "bangumi_id": 48880,
        "bangumi_title": "Wake Up, Girls!",
        "ep_cut": "",
        "image_url": "https://w.junreimap.com/images/points/48880/4uiarivr5.jpg",
        "location": "",
        "point_id": "4uiarivr5",
        "point_name": "熊谷屋",
        "remark": ""
      },
      "type": "Feature"
    },
    {
      "geometry": {
        "coordinates": [
          140.886051,
          38.257075
        ],
        "type": "Point"
      },
      "properties": {
        "bangumi_id": 48880,
        "bangumi_title": "Wake Up, Girls!",
        "ep_cut": "",
        "image_url": "https://w.junreimap.com/images/points/48880/4uiarivwc.jpg",
        "location": "",
        "point_id": "4uiarivwc",
        "point_name": "コスモ石油東八番丁SS",
        "remark": ""
      },
      "type": "Feature"
    },
    {
      "geometry": {
        "coordinates": [
          140.876825,
          38.261403
        ],
        "type": "Point"
      },
      "properties": {
        "bangumi_id": 48880,
        "bangumi_title": "Wake Up, Girls!",
        "ep_cut": "",
        "image_url": "https://w.junreimap.com/images/points/48880/4uiariwbz.jpg",
        "location": "",
        "point_id": "4uiariwbz",
        "point_name": "東二番丁付近アーケード街",
        "remark": ""
      },
      "type": "Feature"
    },
    {
      "geometry": {
        "coordinates": [
          140.864704,
          38.271071
        ],
        "type": "Point"
      },
      "properties": {
        "bangumi_id": 48880,
        "bangumi_title": "Wake Up, Girls!",
        "ep_cut": "",
        "image_url": "https://w.junreimap.com/images/points/48880/4uiarivro.jpg",
        "location": "",
        "point_id": "4uiarivro",
        "point_name": "木町通市民センター",
        "remark": ""
      },
      "type": "Feature"
    },
    {
      "geometry": {
        "coordinates": [
          140.864894,
          38.27068
        ],
        "type": "Point"
      },
      "properties": {
        "bangumi_id": 48880,
        "bangumi_title": "Wake Up, Girls!",
        "ep_cut": "",
        "image_url": "https://w.junreimap.com/images/points/48880/4uiarivrh.jpg",
        "location": "",
        "point_id": "4uiarivrh",
        "point_name": "木町通小学校前バス停",
        "remark": ""
      },
      "type": "Feature"
    },
    {
      "geometry": {
        "coordinates": [
          140.866251,
          38.273975
        ],
        "type": "Point"
      },
      "properties": {
        "bangumi_id": 48880,
        "bangumi_title": "Wake Up, Girls!",
        "ep_cut": "",
        "image_url": "https://w.junreimap.com/images/points/48880/4uiarivqj.jpg",
        "location": "",
        "point_id": "4uiarivqj",
        "point_name": "HOTEL Wake Up,Girls!モデル",
        "remark": ""
      },
      "type": "Feature"
    },
    {
      "geometry": {
        "coordinates": [
          140.875116,
          38.255417
        ],
        "type": "Point"
      },
      "properties": {
        "bangumi_id": 48880,
        "bangumi_title": "Wake Up, Girls!",
        "ep_cut": "",
        "image_url": "https://w.junreimap.com/images/points/48880/4uiarivof.jpg",
        "location": "",
        "point_id": "4uiarivof",
        "point_name": "J&B木目街店",
        "remark": ""
      },
      "type": "Feature"
    },
    {
      "geometry": {
        "coordinates": [
          140.880816,
          38.250434
        ],
        "type": "Point"
      },
      "properties": {
        "bangumi_id": 48880,
        "bangumi_title": "Wake Up, Girls!",
        "ep_cut": "",
        "image_url": "https://w.junreimap.com/images/points/48880/4uiarivwi.jpg",
        "location": "",
        "point_id": "4uiarivwi",
        "point_name": "奥州街道",
        "remark": ""
      },
      "type": "Feature"
    },
    {
      "geometry": {
        "coordinates": [
          140.856818,
          38.253221
        ],
        "type": "Point"
      },
      "properties": {
        "bangumi_id": 48880,
        "bangumi_title": "Wake Up, Girls!",
        "ep_cut": "",
        "image_url": "https://w.junreimap.com/images/points/48880/4uiariwla.jpg",
        "location": "",
        "point_id": "4uiariwla",
        "point_name": "青葉城趾",
        "remark": ""
      },
      "type": "Feature"
    },
    {
      "geometry": {
        "coordinates": [
          140.935299,
          38.288892
        ],
        "type": "Point"
      },
      "properties": {
        "bangumi_id": 48880,
        "bangumi_title": "Wake Up, Girls!",
        "ep_cut": "",
        "image_url": "https://w.junreimap.com/images/points/48880/4uiarix1c.jpg",
        "location": "",
        "point_id": "4uiarix1c",
        "point_name": "つかさ屋東仙台店",
        "remark": ""
      },
      "type": "Feature"
    },
    {
      "geometry": {
        "coordinates": [
          140.883898,
          38.260605
        ],
        "type": "Point"
      },
      "properties": {
        "bangumi_id": 48880,
        "bangumi_title": "Wake Up, Girls!",
        "ep_cut": "",
        "image_url": "https://w.junreimap.com/images/points/48880/4uiarix4d.jpg",
        "location": "",
        "point_id": "4uiarix4d",
        "point_name": "仙台駅東口",
        "remark": ""
      },
      "type": "Feature"
    },
    {
      "geometry": {
        "coordinates": [
          140.859854,
          38.261367
        ],
        "type": "Point"
      },
      "properties": {
        "bangumi_id": 48880,
        "bangumi_title": "Wake Up, Girls!",
        "ep_cut": "",
        "image_url": "https://w.junreimap.com/images/points/48880/4uiariwqd.jpg",
        "location": "",
        "point_id": "4uiariwqd",
        "point_name": "霊屋橋",
        "remark": ""
      },
      "type": "Feature"
    },
    {
      "geometry": {
        "coordinates": [
          140.867182,
          38.26587
        ],
        "type": "Point"
      },
      "properties": {
        "bangumi_id": 48880,
        "bangumi_title": "Wake Up, Girls!",
        "ep_cut": "",
        "image_url": "https://w.junreimap.com/images/points/48880/4uiariwth.jpg",
        "location": "",
        "point_id": "4uiariwth",
        "point_name": "仙台定禅寺ビル",
        "remark": ""
      },
      "type": "Feature"
    },
    {
      "geometry": {
        "coordinates": [
          140.884466,
          38.296488
        ],
        "type": "Point"
      },
      "properties": {
        "bangumi_id": 48880,
        "bangumi_title": "Wake Up, Girls!",
        "ep_cut": "",
        "image_url": "https://w.junreimap.com/images/points/48880/4uiarix08.jpg",
        "location": "",
        "point_id": "4uiarix08",
        "point_name": "日立システムズホール仙台（仙台市青年文化センター）",
        "remark": ""
      },
      "type": "Feature"
    },
    {
      "geometry": {
        "coordinates": [
          140.871983,
          38.267508
        ],
        "type": "Point"
      },
      "properties": {
        "bangumi_id": 48880,
        "bangumi_title": "Wake Up, Girls!",
        "ep_cut": "",
        "image_url": "https://w.junreimap.com/images/points/48880/4uiariww9.jpg",
        "location": "",
        "point_id": "4uiariww9",
        "point_name": "勾当台公園野外ステージ",
        "remark": ""
      },
      "type": "Feature"
    },
    {
      "geometry": {
        "coordinates": [
          140.857033,
          38.253237
        ],
        "type": "Point"
      },
      "properties": {
        "bangumi_id": 48880,
        "bangumi_title": "Wake Up, Girls!",
        "ep_cut": "",
        "image_url": "https://w.junreimap.com/images/points/48880/4uiariwyt.jpg",
        "location": "",
        "point_id": "4uiariwyt",
        "point_name": "青葉城趾展望台",
        "remark": ""
      },
      "type": "Feature"
    },
    {
      "geometry": {
        "coordinates": [
          140.872133,
          38.267154
        ],
        "type": "Point"
      },
      "properties": {
        "bangumi_id": 48880,
        "bangumi_title": "Wake Up, Girls!",
        "ep_cut": 1,
        "image_url": "https://w.junreimap.com/images/points/48880/4uiarix5f.jpg",
        "location": "",
        "point_id": "4uiarix5f",
        "point_name": "勾当台公園",
        "remark": ""
      },
      "type": "Feature"
    },
    {
      "geometry": {
        "coordinates": [
          140.862917,
          38.282898
        ],
        "type": "Point"
      },
      "properties": {
        "bangumi_id": 48880,
        "bangumi_title": "Wake Up, Girls!",
        "ep_cut": 1,
        "image_url": "https://w.junreimap.com/images/points/48880/4uiariwpo.jpg",
        "location": "",
        "point_id": "4uiariwpo",
        "point_name": "青葉神社",
        "remark": ""
      },
      "type": "Feature"
    },
    {
      "geometry": {
        "coordinates": [
          140.86906,
          38.271981
        ],
        "type": "Point"
      },
      "properties": {
        "bangumi_id": 48880,
        "bangumi_title": "Wake Up, Girls!",
        "ep_cut": 1,
        "image_url": "https://w.junreimap.com/images/points/48880/4uiariwn0.jpg",
        "location": "",
        "point_id": "4uiariwn0",
        "point_name": "北四番町駅",
        "remark": ""
      },
      "type": "Feature"
    },
    {
      "geometry": {
        "coordinates": [
          140.866646,
          38.272743
        ],
        "type": "Point"
      },
      "properties": {
        "bangumi_id": 48880,
        "bangumi_title": "Wake Up, Girls!",
        "ep_cut": 1,
        "image_url": "https://w.junreimap.com/images/points/48880/4uiariwhi.jpg",
        "location": "",
        "point_id": "4uiariwhi",
        "point_name": "フォーラム仙台",
        "remark": ""
      },
      "type": "Feature"
    },
    {
      "geometry": {
        "coordinates": [
          140.866581,
          38.272958
        ],
        "type": "Point"
      },
      "properties": {
        "bangumi_id": 48880,
        "bangumi_title": "Wake Up, Girls!",
        "ep_cut": 1,
        "image_url": "https://w.junreimap.com/images/points/48880/4uiariwk0.jpg",
        "location": "",
        "point_id": "4uiariwk0",
        "point_name": "喫茶ビジュゥ",
        "remark": ""
      },
      "type": "Feature"
    },
    {
      "geometry": {
        "coordinates": [
          140.879703,
          38.246977
        ],
        "type": "Point"
      },
      "properties": {
        "bangumi_id": 48880,
        "bangumi_title": "Wake Up, Girls!",
        "ep_cut": 1,
        "image_url": "https://w.junreimap.com/images/points/48880/4uiariwh5.jpg",
        "location": "",
        "point_id": "4uiariwh5",
        "point_name": "愛宕橋より望む大年寺",
        "remark": ""
      },
      "type": "Feature"
    },
    {
      "geometry": {
        "coordinates": [
          140.87672,
          38.353108
        ],
        "type": "Point"
      },
      "properties": {
        "bangumi_id": 48880,
        "bangumi_title": "Wake Up, Girls!",
        "ep_cut": 2,
        "image_url": "https://w.junreimap.com/images/points/48880/4uiariwiv.jpg",
        "location": "",
        "point_id": "4uiariwiv",
        "point_name": "竜泉寺の湯・仙台泉店",
        "remark": ""
      },
      "type": "Feature"
    },
    {
      "geometry": {
        "coordinates": [
          140.874124,
          38.274474
        ],
        "type": "Point"
      },
      "properties": {
        "bangumi_id": 48880,
        "bangumi_title": "Wake Up, Girls!",
        "ep_cut": 3,
        "image_url": "https://w.junreimap.com/images/points/48880/4uiarix64.jpg",
        "location": "",
        "point_id": "4uiarix64",
        "point_name": "仙台放送",
        "remark": ""
      },
      "type": "Feature"
    },
    {
      "geometry": {
        "coordinates": [
          141.029885,
          38.319408
        ],
        "type": "Point"
      },
      "properties": {
        "bangumi_id": 48880,
        "bangumi_title": "Wake Up, Girls!",
        "ep_cut": 3,
        "image_url": "https://w.junreimap.com/images/points/48880/4uiariwwr.jpg",
        "location": "",
        "point_id": "4uiariwwr",
        "point_name": "マリンゲート塩竈",
        "remark": ""
      },
      "type": "Feature"
    },
    {
      "geometry": {
        "coordinates": [
          141.027685,
          38.319576
        ],
        "type": "Point"
      },
      "properties": {
        "bangumi_id": 48880,
        "bangumi_title": "Wake Up, Girls!",
        "ep_cut": 3,
        "image_url": "https://w.junreimap.com/images/points/48880/4uiariwpu.jpg",
        "location": "",
        "point_id": "4uiariwpu",
        "point_name": "しおがま・みなと復興市場",
        "remark": ""
      },
      "type": "Feature"
    },
    {
      "geometry": {
        "coordinates": [
          140.878592,
          38.261458
        ],
        "type": "Point"
      },
      "properties": {
        "bangumi_id": 48880,
        "bangumi_title": "Wake Up, Girls!",
        "ep_cut": 3,
        "image_url": "https://w.junreimap.com/images/points/48880/4uiariwz7.jpg",
        "location": "",
        "point_id": "4uiariwz7",
        "point_name": "喜助駅前中央店",
        "remark": ""
      },
      "type": "Feature"
    },
    {
      "geometry": {
        "coordinates": [
          140.875081,
          38.260872
        ],
        "type": "Point"
      },
      "properties": {
        "bangumi_id": 48880,
        "bangumi_title": "Wake Up, Girls!",
        "ep_cut": 3,
        "image_url": "https://w.junreimap.com/images/points/48880/4uiariwk6.jpg",
        "location": "",
        "point_id": "4uiariwk6",
        "point_name": "阿部蒲鉾店本店",
        "remark": ""
      },
      "type": "Feature"
    },
    {
      "geometry": {
        "coordinates": [
          140.878646,
          38.261534
        ],
        "type": "Point"
      },
      "properties": {
        "bangumi_id": 48880,
        "bangumi_title": "Wake Up, Girls!",
        "ep_cut": 3,
        "image_url": "https://w.junreimap.com/images/points/48880/4uiariwjn.jpg",
        "location": "",
        "point_id": "4uiariwjn",
        "point_name": "鯛きち名掛丁店",
        "remark": ""
      },
      "type": "Feature"
    },
    {
      "geometry": {
        "coordinates": [
          140.873517,
          38.258648
        ],
        "type": "Point"
      },
      "properties": {
        "bangumi_id": 48880,
        "bangumi_title": "Wake Up, Girls!",
        "ep_cut": 3,
        "image_url": "https://w.junreimap.com/images/points/48880/4uiariws0.jpg",
        "location": "",
        "point_id": "4uiariws0",
        "point_name": "やきとり仙壱屋",
        "remark": ""
      },
      "type": "Feature"
    },
    {
      "geometry": {
        "coordinates": [
          140.869035,
          38.270968
        ],
        "type": "Point"
      },
      "properties": {
        "bangumi_id": 48880,
        "bangumi_title": "Wake Up, Girls!",
        "ep_cut": 3,
        "image_url": "https://w.junreimap.com/images/points/48880/4uiariwgk.jpg",
        "location": "",
        "point_id": "4uiariwgk",
        "point_name": "３８mitsubachi",
        "remark": ""
      },
      "type": "Feature"
    },
    {
      "geometry": {
        "coordinates": [
          141.279674,
          38.459151
        ],
        "type": "Point"
      },
      "properties": {
        "bangumi_id": 48880,
        "bangumi_title": "Wake Up, Girls!",
        "ep_cut": 3,
        "image_url": "https://w.junreimap.com/images/points/48880/4uiarix67.jpg",
        "location": "",
        "point_id": "4uiarix67",
        "point_name": "石巻赤十字病院",
        "remark": ""
      },
      "type": "Feature"
    },
    {
      "geometry": {
        "coordinates": [
          140.888908,
          38.235753
        ],
        "type": "Point"
      },
      "properties": {
        "bangumi_id": 48880,
        "bangumi_title": "Wake Up, Girls!",
        "ep_cut": 4,
        "image_url": "https://w.junreimap.com/images/points/48880/4uiariwzx.jpg",
        "location": "",
        "point_id": "4uiariwzx",
        "point_name": "広瀬橋",
        "remark": ""
      },
      "type": "Feature"
    },
    {
      "geometry": {
        "coordinates": [
          139.751893,
          35.705676
        ],
        "type": "Point"
      },
      "properties": {
        "bangumi_id": 48880,
        "bangumi_title": "Wake Up, Girls!",
        "ep_cut": "",
        "image_url": "https://w.junreimap.com/images/points/48880/4uiarixop.jpg",
        "location": "",
        "point_id": "4uiarixop",
        "point_name": "東京ドーム",
        "remark": ""
      },
      "type": "Feature"
    },
    {
      "geometry": {
        "coordinates": [
          139.796315,
          35.710899
        ],
        "type": "Point"
      },
      "properties": {
        "bangumi_id": 48880,
        "bangumi_title": "Wake Up, Girls!",
        "ep_cut": 8,
        "image_url": "",
        "location": "",
        "point_id": "4uiarixt7",
        "point_name": "浅草・雷門",
        "remark": ""
      },
      "type": "Feature"
    },
    {
      "geometry": {
        "coordinates": [
          139.798912,
          35.710123
        ],
        "type": "Point"
      },
      "properties": {
        "bangumi_id": 48880,
        "bangumi_title": "Wake Up, Girls!",
        "ep_cut": 9,
        "image_url": "https://w.junreimap.com/images/points/48880/4uiarixhx.jpg",
        "location": "",
        "point_id": "4uiarixhx",
        "point_name": "吾妻橋",
        "remark": ""
      },
      "type": "Feature"
    },
    {
      "geometry": {
        "coordinates": [
          139.810799,
          35.709993
        ],
        "type": "Point"
      },
      "properties": {
        "bangumi_id": 48880,
        "bangumi_title": "Wake Up, Girls!",
        "ep_cut": 5,
        "image_url": "https://w.junreimap.com/images/points/48880/4uiarixro.jpg",
        "location": "",
        "point_id": "4uiarixro",
        "point_name": "東京スカイツリー",
        "remark": ""
      },
      "type": "Feature"
    },
    {
      "geometry": {
        "coordinates": [
          140.891719,
          38.193706
        ],
        "type": "Point"
      },
      "properties": {
        "bangumi_id": 48880,
        "bangumi_title": "Wake Up, Girls!",
        "ep_cut": 5,
        "image_url": "https://w.junreimap.com/images/points/48880/4uiarixkr.jpg",
        "location": "",
        "point_id": "4uiarixkr",
        "point_name": "佐々直・中田バイパス店",
        "remark": ""
      },
      "type": "Feature"
    },
    {
      "geometry": {
        "coordinates": [
          140.867998,
          38.265535
        ],
        "type": "Point"
      },
      "properties": {
        "bangumi_id": 48880,
        "bangumi_title": "Wake Up, Girls!",
        "ep_cut": 5,
        "image_url": "https://w.junreimap.com/images/points/48880/4uiarixyn.jpg",
        "location": "",
        "point_id": "4uiarixyn",
        "point_name": "定禅寺通り",
        "remark": ""
      },
      "type": "Feature"
    },
    {
      "geometry": {
        "coordinates": [
          140.871656,
          38.266506
        ],
        "type": "Point"
      },
      "properties": {
        "bangumi_id": 48880,
        "bangumi_title": "Wake Up, Girls!",
        "ep_cut": 5,
        "image_url": "https://w.junreimap.com/images/points/48880/4uiarixky.jpg",
        "location": "",
        "point_id": "4uiarixky",
        "point_name": "勾当台駅付近",
        "remark": ""
      },
      "type": "Feature"
    },
    {
      "geometry": {
        "coordinates": [
          140.872182,
          38.259337
        ],
        "type": "Point"
      },
      "properties": {
        "bangumi_id": 48880,
        "bangumi_title": "Wake Up, Girls!",
        "ep_cut": 5,
        "image_url": "https://w.junreimap.com/images/points/48880/4uiarixkv.jpg",
        "location": "",
        "point_id": "4uiarixkv",
        "point_name": "MACANA",
        "remark": ""
      },
      "type": "Feature"
    },
    {
      "geometry": {
        "coordinates": [
          140.855665,
          38.257121
        ],
        "type": "Point"
      },
      "properties": {
        "bangumi_id": 48880,
        "bangumi_title": "Wake Up, Girls!",
        "ep_cut": 5,
        "image_url": "https://w.junreimap.com/images/points/48880/4uiarixjq.jpg",
        "location": "",
        "point_id": "4uiarixjq",
        "point_name": "仙台城大手門跡隅櫓",
        "remark": ""
      },
      "type": "Feature"
    },
    {
      "geometry": {
        "coordinates": [
          140.870926,
          38.263018
        ],
        "type": "Point"
      },
      "properties": {
        "bangumi_id": 48880,
        "bangumi_title": "Wake Up, Girls!",
        "ep_cut": 7,
        "image_url": "https://w.junreimap.com/images/points/48880/4uiarixex.jpg",
        "location": "",
        "point_id": "4uiarixex",
        "point_name": "仙台レジャーランド・一番町店",
        "remark": ""
      },
      "type": "Feature"
    },
    {
      "geometry": {
        "coordinates": [
          140.866833,
          38.271863
        ],
        "type": "Point"
      },
      "properties": {
        "bangumi_id": 48880,
        "bangumi_title": "Wake Up, Girls!",
        "ep_cut": 8,
        "image_url": "https://w.junreimap.com/images/points/48880/4uiarixqc.jpg",
        "location": "",
        "point_id": "4uiarixqc",
        "point_name": "北四番丁駅付近交差点",
        "remark": ""
      },
      "type": "Feature"
    },
    {
      "geometry": {
        "coordinates": [
          140.883206,
          38.257593
        ],
        "type": "Point"
      },
      "properties": {
        "bangumi_id": 48880,
        "bangumi_title": "Wake Up, Girls!",
        "ep_cut": 9,
        "image_url": "https://w.junreimap.com/images/points/48880/4uiarixof.jpg",
        "location": "",
        "point_id": "4uiarixof",
        "point_name": "NTTドコモ仙台",
        "remark": ""
      },
      "type": "Feature"
    },
    {
      "geometry": {
        "coordinates": [
          141.569792,
          38.907252
        ],
        "type": "Point"
      },
      "properties": {
        "bangumi_id": 48880,
        "bangumi_title": "Wake Up, Girls!",
        "ep_cut": 9,
        "image_url": "https://w.junreimap.com/images/points/48880/4uiarix8a.jpg",
        "location": "",
        "point_id": "4uiarix8a",
        "point_name": "市役所前バス停",
        "remark": ""
      },
      "type": "Feature"
    },
    {
      "geometry": {
        "coordinates": [
          141.573225,
          38.905829
        ],
        "type": "Point"
      },
      "properties": {
        "bangumi_id": 48880,
        "bangumi_title": "Wake Up, Girls!",
        "ep_cut": 9,
        "image_url": "https://w.junreimap.com/images/points/48880/4uiarixvt.jpg",
        "location": "",
        "point_id": "4uiarixvt",
        "point_name": "七十七銀行跡付近",
        "remark": ""
      },
      "type": "Feature"
    },
    {
      "geometry": {
        "coordinates": [
          141.575741,
          38.906699
        ],
        "type": "Point"
      },
      "properties": {
        "bangumi_id": 48880,
        "bangumi_title": "Wake Up, Girls!",
        "ep_cut": 9,
        "image_url": "https://w.junreimap.com/images/points/48880/4uiarixyu.jpg",
        "location": "",
        "point_id": "4uiarixyu",
        "point_name": "倉元前",
        "remark": ""
      },
      "type": "Feature"
    },
    {
      "geometry": {
        "coordinates": [
          141.574835,
          38.907219
        ],
        "type": "Point"
      },
      "properties": {
        "bangumi_id": 48880,
        "bangumi_title": "Wake Up, Girls!",
        "ep_cut": 9,
        "image_url": "https://w.junreimap.com/images/points/48880/4uiarixli.jpg",
        "location": "",
        "point_id": "4uiarixli",
        "point_name": "大鍋屋",
        "remark": ""
      },
      "type": "Feature"
    },
    {
      "geometry": {
        "coordinates": [
          141.579239,
          38.907415
        ],
        "type": "Point"
      },
      "properties": {
        "bangumi_id": 48880,
        "bangumi_title": "Wake Up, Girls!",
        "ep_cut": 9,
        "image_url": "https://w.junreimap.com/images/points/48880/4uiarixk4.jpg",
        "location": "",
        "point_id": "4uiarixk4",
        "point_name": "猪狩神社前",
        "remark": ""
      },
      "type": "Feature"
    },
    {
      "geometry": {
        "coordinates": [
          141.578971,
          38.906497
        ],
        "type": "Point"
      },
      "properties": {
        "bangumi_id": 48880,
        "bangumi_title": "Wake Up, Girls!",
        "ep_cut": 9,
        "image_url": "https://w.junreimap.com/images/points/48880/4uiarixjv.jpg",
        "location": "",
        "point_id": "4uiarixjv",
        "point_name": "猪狩神社",
        "remark": ""
      },
      "type": "Feature"
    },
    {
      "geometry": {
        "coordinates": [
          141.575704,
          38.904437
        ],
        "type": "Point"
      },
      "properties": {
        "bangumi_id": 48880,
        "bangumi_title": "Wake Up, Girls!",
        "ep_cut": 9,
        "image_url": "https://w.junreimap.com/images/points/48880/4uiarixad.jpg",
        "location": "",
        "point_id": "4uiarixad",
        "point_name": "復興屋台村気仙沼横丁",
        "remark": ""
      },
      "type": "Feature"
    },
    {
      "geometry": {
        "coordinates": [
          141.575937,
          38.904374
        ],
        "type": "Point"
      },
      "properties": {
        "bangumi_id": 48880,
        "bangumi_title": "Wake Up, Girls!",
        "ep_cut": 9,
        "image_url": "https://w.junreimap.com/images/points/48880/4uiarixle.jpg",
        "location": "",
        "point_id": "4uiarixle",
        "point_name": "男子厨房海の家",
        "remark": ""
      },
      "type": "Feature"
    },
    {
      "geometry": {
        "coordinates": [
          141.575323,
          38.905726
        ],
        "type": "Point"
      },
      "properties": {
        "bangumi_id": 48880,
        "bangumi_title": "Wake Up, Girls!",
        "ep_cut": 9,
        "image_url": "https://w.junreimap.com/images/points/48880/4uiarixxr.jpg",
        "location": "",
        "point_id": "4uiarixxr",
        "point_name": "港ふれあい公園",
        "remark": ""
      },
      "type": "Feature"
    },
    {
      "geometry": {
        "coordinates": [
          141.574084,
          38.905148
        ],
        "type": "Point"
      },
      "properties": {
        "bangumi_id": 48880,
        "bangumi_title": "Wake Up, Girls!",
        "ep_cut": 9,
        "image_url": "https://w.junreimap.com/images/points/48880/4uiarixsa.jpg",
        "location": "",
        "point_id": "4uiarixsa",
        "point_name": "七十七銀行跡付近GROUND ZERO",
        "remark": ""
      },
      "type": "Feature"
    },
    {
      "geometry": {
        "coordinates": [
          141.574092,
          38.904831
        ],
        "type": "Point"
      },
      "properties": {
        "bangumi_id": 48880,
        "bangumi_title": "Wake Up, Girls!",
        "ep_cut": 9,
        "image_url": "https://w.junreimap.com/images/points/48880/4uiarixji.jpg",
        "location": "",
        "point_id": "4uiarixji",
        "point_name": "サイトウ",
        "remark": ""
      },
      "type": "Feature"
    },
    {
      "geometry": {
        "coordinates": [
          141.574899,
          38.906227
        ],
        "type": "Point"
      },
      "properties": {
        "bangumi_id": 48880,
        "bangumi_title": "Wake Up, Girls!",
        "ep_cut": 9,
        "image_url": "https://w.junreimap.com/images/points/48880/4uiarixuq.jpg",
        "location": "",
        "point_id": "4uiarixuq",
        "point_name": "港ふれあい公園・港町ブルース石碑",
        "remark": ""
      },
      "type": "Feature"
    },
    {
      "geometry": {
        "coordinates": [
          141.580296,
          38.907332
        ],
        "type": "Point"
      },
      "properties": {
        "bangumi_id": 48880,
        "bangumi_title": "Wake Up, Girls!",
        "ep_cut": 9,
        "image_url": "https://w.junreimap.com/images/points/48880/4uiariykj.jpg",
        "location": "",
        "point_id": "4uiariykj",
        "point_name": "村田漁業製氷冷蔵工場",
        "remark": ""
      },
      "type": "Feature"
    },
    {
      "geometry": {
        "coordinates": [
          141.578375,
          38.903913
        ],
        "type": "Point"
      },
      "properties": {
        "bangumi_id": 48880,
        "bangumi_title": "Wake Up, Girls!",
        "ep_cut": 9,
        "image_url": "https://w.junreimap.com/images/points/48880/4uiariybj.jpg",
        "location": "",
        "point_id": "4uiariybj",
        "point_name": "気仙沼湾・気仙沼プラザホテルより",
        "remark": ""
      },
      "type": "Feature"
    },
    {
      "geometry": {
        "coordinates": [
          141.574448,
          38.905248
        ],
        "type": "Point"
      },
      "properties": {
        "bangumi_id": 48880,
        "bangumi_title": "Wake Up, Girls!",
        "ep_cut": 9,
        "image_url": "https://w.junreimap.com/images/points/48880/4uiariyd1.jpg",
        "location": "",
        "point_id": "4uiariyd1",
        "point_name": "港ふれあい公園付近",
        "remark": ""
      },
      "type": "Feature"
    },
    {
      "geometry": {
        "coordinates": [
          140.852644,
          38.305345
        ],
        "type": "Point"
      },
      "properties": {
        "bangumi_id": 48880,
        "bangumi_title": "Wake Up, Girls!",
        "ep_cut": 10,
        "image_url": "https://w.junreimap.com/images/points/48880/4uiariyfz.jpg",
        "location": "",
        "point_id": "4uiariyfz",
        "point_name": "宮城学院前バス停",
        "remark": ""
      },
      "type": "Feature"
    },
    {
      "geometry": {
        "coordinates": [
          140.86642,
          38.27303
        ],
        "type": "Point"
      },
      "properties": {
        "bangumi_id": 48880,
        "bangumi_title": "Wake Up, Girls!",
        "ep_cut": 10,
        "image_url": "https://w.junreimap.com/images/points/48880/4uiariymh.jpg",
        "location": "",
        "point_id": "4uiariymh",
        "point_name": "仙台フォーラム前交差点",
        "remark": ""
      },
      "type": "Feature"
    },
    {
      "geometry": {
        "coordinates": [
          140.865632,
          38.271909
        ],
        "type": "Point"
      },
      "properties": {
        "bangumi_id": 48880,
        "bangumi_title": "Wake Up, Girls!",
        "ep_cut": 10,
        "image_url": "https://w.junreimap.com/images/points/48880/4uiariym8.jpg",
        "location": "",
        "point_id": "4uiariym8",
        "point_name": "ガスト仙台木町通店",
        "remark": ""
      },
      "type": "Feature"
    },
    {
      "geometry": {
        "coordinates": [
          140.88541,
          38.238214
        ],
        "type": "Point"
      },
      "properties": {
        "bangumi_id": 48880,
        "bangumi_title": "Wake Up, Girls!",
        "ep_cut": 11,
        "image_url": "https://w.junreimap.com/images/points/48880/4uiariy32.jpg",
        "location": "",
        "point_id": "4uiariy32",
        "point_name": "宮城県第二総合運動場",
        "remark": ""
      },
      "type": "Feature"
    },
    {
      "geometry": {
        "coordinates": [
          139.76738,
          35.681004
        ],
        "type": "Point"
      },
      "properties": {
        "bangumi_id": 48880,
        "bangumi_title": "Wake Up, Girls!",
        "ep_cut": 11,
        "image_url": "https://w.junreimap.com/images/points/48880/4uiariy8f_1728649562139_c16v9.jpg",
        "location": "",
        "point_id": "4uiariy8f",
        "point_name": "東京駅",
        "remark": ""
      },
      "type": "Feature"
    },
    {
      "geometry": {
        "coordinates": [
          139.630877,
          35.894787
        ],
        "type": "Point"
      },
      "properties": {
        "bangumi_id": 48880,
        "bangumi_title": "Wake Up, Girls!",
        "ep_cut": 11,
        "image_url": "https://w.junreimap.com/images/points/48880/4uiariymd.jpg",
        "location": "",
        "point_id": "4uiariymd",
        "point_name": "さいたまスーパーアリーナ",
        "remark": ""
      },
      "type": "Feature"
    },
    {
      "geometry": {
        "coordinates": [
          139.631306,
          35.893761
        ],
        "type": "Point"
      },
      "properties": {
        "bangumi_id": 48880,
        "bangumi_title": "Wake Up, Girls!",
        "ep_cut": 12,
        "image_url": "https://w.junreimap.com/images/points/48880/4uiariy5x.jpg",
        "location": "",
        "point_id": "4uiariy5x",
        "point_name": "さいたまスーパーアリーナ・けやきひろば",
        "remark": ""
      },
      "type": "Feature"
    },
    {
      "geometry": {
        "coordinates": [
          140.87274,
          38.263402
        ],
        "type": "Point"
      },
      "properties": {
        "bangumi_id": 48880,
        "bangumi_title": "Wake Up, Girls!",
        "ep_cut": 15,
        "image_url": "https://w.junreimap.com/images/points/48880/4uiariy04.jpg",
        "location": "",
        "point_id": "4uiariy04",
        "point_name": "勾当台通り・JTB前",
        "remark": ""
      },
      "type": "Feature"
    },
    {
      "geometry": {
        "coordinates": [
          140.87841,
          38.261708
        ],
        "type": "Point"
      },
      "properties": {
        "bangumi_id": 48880,
        "bangumi_title": "Wake Up, Girls!",
        "ep_cut": 1,
        "image_url": "https://w.junreimap.com/images/points/48880/4uiariyfu.jpg",
        "location": "",
        "point_id": "4uiariyfu",
        "point_name": "GAME epris前",
        "remark": ""
      },
      "type": "Feature"
    },
    {
      "geometry": {
        "coordinates": [
          140.873641,
          38.320473
        ],
        "type": "Point"
      },
      "properties": {
        "bangumi_id": 48880,
        "bangumi_title": "Wake Up, Girls!",
        "ep_cut": 1,
        "image_url": "https://w.junreimap.com/images/points/48880/4uiariy22.jpg",
        "location": "",
        "point_id": "4uiariy22",
        "point_name": "赤生津大橋",
        "remark": ""
      },
      "type": "Feature"
    },
    {
      "geometry": {
        "coordinates": [
          140.84573,
          38.292591
        ],
        "type": "Point"
      },
      "properties": {
        "bangumi_id": 48880,
        "bangumi_title": "Wake Up, Girls!",
        "ep_cut": 1,
        "image_url": "https://w.junreimap.com/images/points/48880/4uiariygu.jpg",
        "location": "",
        "point_id": "4uiariygu",
        "point_name": "中山モダンハウス",
        "remark": ""
      },
      "type": "Feature"
    },
    {
      "geometry": {
        "coordinates": [
          140.843943,
          38.291021
        ],
        "type": "Point"
      },
      "properties": {
        "bangumi_id": 48880,
        "bangumi_title": "Wake Up, Girls!",
        "ep_cut": 1,
        "image_url": "https://w.junreimap.com/images/points/48880/4uiariyh6.jpg",
        "location": "",
        "point_id": "4uiariyh6",
        "point_name": "オカザキスーパー前",
        "remark": ""
      },
      "type": "Feature"
    },
    {
      "geometry": {
        "coordinates": [
          140.965909,
          38.569827
        ],
        "type": "Point"
      },
      "properties": {
        "bangumi_id": 48880,
        "bangumi_title": "Wake Up, Girls!",
        "ep_cut": 1,
        "image_url": "https://w.junreimap.com/images/points/48880/4uiariy3g.jpg",
        "location": "",
        "point_id": "4uiariy3g",
        "point_name": "古川学園中学校・高等学校",
        "remark": ""
      },
      "type": "Feature"
    },
    {
      "geometry": {
        "coordinates": [
          140.846819,
          38.245604
        ],
        "type": "Point"
      },
      "properties": {
        "bangumi_id": 48880,
        "bangumi_title": "Wake Up, Girls!",
        "ep_cut": 9,
        "image_url": "https://w.junreimap.com/images/points/48880/4uiariy84.jpg",
        "location": "",
        "point_id": "4uiariy84",
        "point_name": "八木山動物公園",
        "remark": ""
      },
      "type": "Feature"
    },
    {
      "geometry": {
        "coordinates": [
          140.866646,
          38.250474
        ],
        "type": "Point"
      },
      "properties": {
        "bangumi_id": 48880,
        "bangumi_title": "Wake Up, Girls!",
        "ep_cut": 6,
        "image_url": "https://w.junreimap.com/images/points/48880/4uiariy57.jpg",
        "location": "",
        "point_id": "4uiariy57",
        "point_name": "瑞鳳殿",
        "remark": ""
      },
      "type": "Feature"
    },
    {
      "geometry": {
        "coordinates": [
          140.845032,
          38.272529
        ],
        "type": "Point"
      },
      "properties": {
        "bangumi_id": 48880,
        "bangumi_title": "Wake Up, Girls!",
        "ep_cut": 8,
        "image_url": "https://w.junreimap.com/images/points/48880/4uiariy37.jpg",
        "location": "",
        "point_id": "4uiariy37",
        "point_name": "大崎八幡宮",
        "remark": ""
      },
      "type": "Feature"
    },
    {
      "geometry": {
        "coordinates": [
          140.603886,
          38.274937
        ],
        "type": "Point"
      },
      "properties": {
        "bangumi_id": 48880,
        "bangumi_title": "Wake Up, Girls!",
        "ep_cut": 8,
        "image_url": "https://w.junreimap.com/images/points/48880/4uiariykv.jpg",
        "location": "",
        "point_id": "4uiariykv",
        "point_name": "秋保大滝",
        "remark": ""
      },
      "type": "Feature"
    },
    {
      "geometry": {
        "coordinates": [
          141.053719,
          38.367124
        ],
        "type": "Point"
      },
      "properties": {
        "bangumi_id": 48880,
        "bangumi_title": "Wake Up, Girls!",
        "ep_cut": 6,
        "image_url": "https://w.junreimap.com/images/points/48880/4uiariyl6.jpg",
        "location": "",
        "point_id": "4uiariyl6",
        "point_name": "松島西戻し松公園",
        "remark": ""
      },
      "type": "Feature"
    },
    {
      "geometry": {
        "coordinates": [
          140.849361,
          38.306701
        ],
        "type": "Point"
      },
      "properties": {
        "bangumi_id": 48880,
        "bangumi_title": "Wake Up, Girls!",
        "ep_cut": 3,
        "image_url": "https://w.junreimap.com/images/points/48880/4uiariybx.jpg",
        "location": "",
        "point_id": "4uiariybx",
        "point_name": "桜ヶ丘公園",
        "remark": ""
      },
      "type": "Feature"
    },
    {
      "geometry": {
        "coordinates": [
          140.883517,
          38.258945
        ],
        "type": "Point"
      },
      "properties": {
        "bangumi_id": 48880,
        "bangumi_title": "Wake Up, Girls!",
        "ep_cut": 5,
        "image_url": "https://w.junreimap.com/images/points/48880/4uiariyjd.jpg",
        "location": "",
        "point_id": "4uiariyjd",
        "point_name": "仙台駅東口駐車場",
        "remark": ""
      },
      "type": "Feature"
    },
    {
      "geometry": {
        "coordinates": [
          140.667744,
          38.364945
        ],
        "type": "Point"
      },
      "properties": {
        "bangumi_id": 48880,
        "bangumi_title": "Wake Up, Girls!",
        "ep_cut": 6,
        "image_url": "https://w.junreimap.com/images/points/48880/4uiariyrf.jpg",
        "location": "",
        "point_id": "4uiariyrf",
        "point_name": "定義如来西方寺",
        "remark": ""
      },
      "type": "Feature"
    },
    {
      "geometry": {
        "coordinates": [
          140.72892,
          38.224473
        ],
        "type": "Point"
      },
      "properties": {
        "bangumi_id": 48880,
        "bangumi_title": "Wake Up, Girls!",
        "ep_cut": 6,
        "image_url": "https://w.junreimap.com/images/points/48880/4uiariytg.jpg",
        "location": "",
        "point_id": "4uiariytg",
        "point_name": "秋保温泉磊々峡",
        "remark": ""
      },
      "type": "Feature"
    },
    {
      "geometry": {
        "coordinates": [
          140.730717,
          38.223326
        ],
        "type": "Point"
      },
      "properties": {
        "bangumi_id": 48880,
        "bangumi_title": "Wake Up, Girls!",
        "ep_cut": 6,
        "image_url": "https://w.junreimap.com/images/points/48880/4uiariz98.jpg",
        "location": "",
        "point_id": "4uiariz98",
        "point_name": "秋保グランドホテル",
        "remark": ""
      },
      "type": "Feature"
    }
  ],
  "type": "FeatureCollection"
}