{
  "features": [
    {
      "geometry": {
        "coordinates": [
          15.267614,
          49.94835
        ],
        "type": "Point"
      },
      "properties": {
        "bangumi_id": 490427,
        "bangumi_title": "天国：拯救2",
        "ep_cut": "",
        "image_url": "https://w.junreimap.com/images/points/490427/42mxlns_1755876984756.jpg",
        "location": "",
        "point_id": "42mxlns",
        "point_name": "svatý Jakub (Church of Saint James)",
        "remark": ""
      },
      "type": "Feature"
    },
    {
      "geometry": {
        "coordinates": [
          15.268569,
          49.94824
        ],
        "type": "Point"
      },
      "properties": {
        "bangumi_id": 490427,
        "bangumi_title": "天国：拯救2",
        "ep_cut": "",
        "image_url": "https://w.junreimap.com/images/points/490427/42nwj4y_1755878604439.jpg",
        "location": "",
        "point_id": "42nwj4y",
        "point_name": "Italian Court",
        "remark": ""
      },
      "type": "Feature"
    },
    {
      "geometry": {
        "coordinates": [
          15.265236,
          49.949981
        ],
        "type": "Point"
      },
      "properties": {
        "bangumi_id": 490427,
        "bangumi_title": "天国：拯救2",
        "ep_cut": "",
        "image_url": "https://w.junreimap.com/images/points/490427/42n5scx_1755877403103.jpg",
        "location": "",
        "point_id": "42n5scx",
        "point_name": "Kamenný dům (Stone House)",
        "remark": "现实中装饰更为精致"
      },
      "type": "Feature"
    },
    {
      "geometry": {
        "coordinates": [
          15.263869,
          49.94885
        ],
        "type": "Point"
      },
      "properties": {
        "bangumi_id": 490427,
        "bangumi_title": "天国：拯救2",
        "ep_cut": "",
        "image_url": "https://w.junreimap.com/images/points/490427/42nht0q_1755877942092.jpg",
        "location": "",
        "point_id": "42nht0q",
        "point_name": "Kamenná kašna (Gothic Stone Fountain)",
        "remark": "现实中是环形高围墙，建于1493"
      },
      "type": "Feature"
    },
    {
      "geometry": {
        "coordinates": [
          15.262219,
          49.948591
        ],
        "type": "Point"
      },
      "properties": {
        "bangumi_id": 490427,
        "bangumi_title": "天国：拯救2",
        "ep_cut": "",
        "image_url": "https://w.junreimap.com/images/points/490427/42o37ji_1755878893431.jpg",
        "location": "",
        "point_id": "42o37ji",
        "point_name": "Husova street",
        "remark": ""
      },
      "type": "Feature"
    },
    {
      "geometry": {
        "coordinates": [
          15.266843,
          49.94943
        ],
        "type": "Point"
      },
      "properties": {
        "bangumi_id": 490427,
        "bangumi_title": "天国：拯救2",
        "ep_cut": "",
        "image_url": "https://w.junreimap.com/images/points/490427/42o89gu_1755879283479.jpg",
        "location": "",
        "point_id": "42o89gu",
        "point_name": "Morový sloup Panny Marie Neposkvrněné (Plague column)",
        "remark": "建于1713（游戏时间线显然没有）"
      },
      "type": "Feature"
    },
    {
      "geometry": {
        "coordinates": [
          15.263621,
          49.944942
        ],
        "type": "Point"
      },
      "properties": {
        "bangumi_id": 490427,
        "bangumi_title": "天国：拯救2",
        "ep_cut": "",
        "image_url": "https://w.junreimap.com/images/points/490427/42ntrfy_1755878445449.jpg",
        "location": "",
        "point_id": "42ntrfy",
        "point_name": "Chrám svaté Barbory",
        "remark": "游戏中未建成"
      },
      "type": "Feature"
    },
    {
      "geometry": {
        "coordinates": [
          15.287802,
          49.961745
        ],
        "type": "Point"
      },
      "properties": {
        "bangumi_id": 490427,
        "bangumi_title": "天国：拯救2",
        "ep_cut": "",
        "image_url": "https://w.junreimap.com/images/points/490427/42nd3hs_1755877723782.jpg",
        "location": "",
        "point_id": "42nd3hs",
        "point_name": "Kostnice Sedlec",
        "remark": ""
      },
      "type": "Feature"
    },
    {
      "geometry": {
        "coordinates": [
          15.290133,
          49.959818
        ],
        "type": "Point"
      },
      "properties": {
        "bangumi_id": 490427,
        "bangumi_title": "天国：拯救2",
        "ep_cut": "",
        "image_url": "https://w.junreimap.com/images/points/490427/42o1j0v_1755878809463.jpg",
        "location": "",
        "point_id": "42o1j0v",
        "point_name": "Kostel Nanebevzetí P. Marie",
        "remark": ""
      },
      "type": "Feature"
    },
    {
      "geometry": {
        "coordinates": [
          15.221317,
          49.911048
        ],
        "type": "Point"
      },
      "properties": {
        "bangumi_id": 490427,
        "bangumi_title": "天国：拯救2",
        "ep_cut": "",
        "image_url": "https://w.junreimap.com/images/points/490427/42n1xky_1755877201320.jpg",
        "location": "",
        "point_id": "42n1xky",
        "point_name": "Tvrz Malešov (The Fortress Malešov)",
        "remark": ""
      },
      "type": "Feature"
    },
    {
      "geometry": {
        "coordinates": [
          15.230235,
          50.516416
        ],
        "type": "Point"
      },
      "properties": {
        "bangumi_id": 490427,
        "bangumi_title": "天国：拯救2",
        "ep_cut": "",
        "image_url": "https://w.junreimap.com/images/points/490427/42nlz8z_1755878141063.jpg",
        "location": "",
        "point_id": "42nlz8z",
        "point_name": "hrad Trosky (Trosky Castle)",
        "remark": "现实中仅为石头遗迹"
      },
      "type": "Feature"
    }
  ],
  "type": "FeatureCollection"
}