{
  "features": [
    {
      "geometry": {
        "coordinates": [
          139.445969,
          35.54255
        ],
        "type": "Point"
      },
      "properties": {
        "bangumi_id": 49131,
        "bangumi_title": "约会大作战",
        "ep_cut": 8,
        "image_url": "https://w.junreimap.com/images/user/1042/bangumi/49131/points/kii6ddmzs-1716015668121.jpg",
        "location": "",
        "point_id": "kii6ddmzs",
        "point_name": "町田駅北口",
        "remark": ""
      },
      "type": "Feature"
    },
    {
      "geometry": {
        "coordinates": [
          139.444987,
          35.541802
        ],
        "type": "Point"
      },
      "properties": {
        "bangumi_id": 49131,
        "bangumi_title": "约会大作战",
        "ep_cut": 1,
        "image_url": "https://w.junreimap.com/images/user/1042/bangumi/49131/points/kiii2xfmb-1716016308703.jpg",
        "location": "",
        "point_id": "kiii2xfmb",
        "point_name": "デニーズ 町田南口店",
        "remark": "士道和琴里一起吃过饭的家庭餐厅"
      },
      "type": "Feature"
    },
    {
      "geometry": {
        "coordinates": [
          139.445062,
          35.541459
        ],
        "type": "Point"
      },
      "properties": {
        "bangumi_id": 49131,
        "bangumi_title": "约会大作战",
        "ep_cut": 3,
        "image_url": "https://w.junreimap.com/images/user/1348/bangumi/49131/points/ow5ft523x-1749268107820.jpg",
        "location": "",
        "point_id": "ow5ft523x",
        "point_name": "ホテル​アイリーン・​ドナン​町田​店",
        "remark": "士道和十香约会路过的dream park"
      },
      "type": "Feature"
    },
    {
      "geometry": {
        "coordinates": [
          139.451423,
          35.538488
        ],
        "type": "Point"
      },
      "properties": {
        "bangumi_id": 49131,
        "bangumi_title": "约会大作战",
        "ep_cut": 4,
        "image_url": "https://w.junreimap.com/images/user/1042/bangumi/49131/points/kiip627sn-1716017337740.jpg",
        "location": "",
        "point_id": "kiip627sn",
        "point_name": "町田天満宮",
        "remark": "士道和四糸乃初次相遇的地方"
      },
      "type": "Feature"
    },
    {
      "geometry": {
        "coordinates": [
          139.44835,
          35.541333
        ],
        "type": "Point"
      },
      "properties": {
        "bangumi_id": 49131,
        "bangumi_title": "约会大作战",
        "ep_cut": "M1",
        "image_url": "https://w.junreimap.com/images/user/1348/bangumi/49131/points/ow4zzetsf-1749268192330.jpg",
        "location": "",
        "point_id": "ow4zzetsf",
        "point_name": "小陽生煎饅頭屋",
        "remark": "剧场版万由里裁决，十香和士道约会开始的地方"
      },
      "type": "Feature"
    },
    {
      "geometry": {
        "coordinates": [
          139.445042,
          35.54118
        ],
        "type": "Point"
      },
      "properties": {
        "bangumi_id": 49131,
        "bangumi_title": "约会大作战",
        "ep_cut": 3,
        "image_url": "https://w.junreimap.com/images/user/1348/bangumi/49131/points/ow5xnb314-1749267958084.jpg",
        "location": "",
        "point_id": "ow5xnb314",
        "point_name": "鹿島橋",
        "remark": "拉塔托斯克改造成小吃街前面的橋"
      },
      "type": "Feature"
    },
    {
      "geometry": {
        "coordinates": [
          139.445924,
          35.545077
        ],
        "type": "Point"
      },
      "properties": {
        "bangumi_id": 49131,
        "bangumi_title": "约会大作战",
        "ep_cut": "OP",
        "image_url": "https://w.junreimap.com/images/user/1348/bangumi/49131/points/ow6lw151d-1749267979652.jpg",
        "location": "",
        "point_id": "ow6lw151d",
        "point_name": "町田站（小田急小原线）路口",
        "remark": "第三季op镜头"
      },
      "type": "Feature"
    },
    {
      "geometry": {
        "coordinates": [
          139.4445,
          35.541607
        ],
        "type": "Point"
      },
      "properties": {
        "bangumi_id": 49131,
        "bangumi_title": "约会大作战",
        "ep_cut": 3,
        "image_url": "https://w.junreimap.com/images/user/1348/bangumi/49131/points/ow5zt62wd-1749268010175.jpg",
        "location": "",
        "point_id": "ow5zt62wd",
        "point_name": "谷口橋",
        "remark": "和十香约会时的远镜头"
      },
      "type": "Feature"
    },
    {
      "geometry": {
        "coordinates": [
          139.580912,
          35.702867
        ],
        "type": "Point"
      },
      "properties": {
        "bangumi_id": 49131,
        "bangumi_title": "约会大作战",
        "ep_cut": 3,
        "image_url": "https://w.junreimap.com/images/user/1348/bangumi/49131/points/ow7h8c5by-1749268413442.jpg",
        "location": "",
        "point_id": "ow7h8c5by",
        "point_name": "吉祥寺オデヲン",
        "remark": "约战第三季，折纸大师和士道约会的地方"
      },
      "type": "Feature"
    },
    {
      "geometry": {
        "coordinates": [
          139.447916,
          35.542579
        ],
        "type": "Point"
      },
      "properties": {
        "bangumi_id": 49131,
        "bangumi_title": "约会大作战",
        "ep_cut": "M1",
        "image_url": "https://w.junreimap.com/images/user/1348/bangumi/49131/points/pj1hn9jrn-1749268260681.jpg",
        "location": "",
        "point_id": "pj1hn9jrn",
        "point_name": "bic camera 别馆",
        "remark": ""
      },
      "type": "Feature"
    },
    {
      "geometry": {
        "coordinates": [
          139.450257,
          35.539557
        ],
        "type": "Point"
      },
      "properties": {
        "bangumi_id": 49131,
        "bangumi_title": "约会大作战",
        "ep_cut": "第3季第2话",
        "image_url": "https://w.junreimap.com/images/user/0/bangumi/49131/points/cpsm62a-1774692016859.jpg",
        "location": "",
        "point_id": "cpsm62a",
        "point_name": "原町田桥",
        "remark": ""
      },
      "type": "Feature"
    },
    {
      "geometry": {
        "coordinates": [
          139.444932,
          35.541774
        ],
        "type": "Point"
      },
      "properties": {
        "bangumi_id": 49131,
        "bangumi_title": "约会大作战",
        "ep_cut": "",
        "image_url": "https://w.junreimap.com/images/user/0/bangumi/49131/points/hfx1gts-1784978147047.webp",
        "location": "",
        "point_id": "hfx1gts",
        "point_name": "デニーズ\n町田​南口​店",
        "remark": ""
      },
      "type": "Feature"
    }
  ],
  "type": "FeatureCollection"
}