{
  "features": [
    {
      "geometry": {
        "coordinates": [
          140.38388,
          35.763652
        ],
        "type": "Point"
      },
      "properties": {
        "bangumi_id": 492881,
        "bangumi_title": "真･武士传 剑勇传说",
        "ep_cut": "",
        "image_url": "https://w.junreimap.com/images/points/492881/uhxjdeb5s_1744181745375_c16v9.jpg",
        "location": "",
        "point_id": "uhxjdeb5s",
        "point_name": "成田空港",
        "remark": ""
      },
      "type": "Feature"
    },
    {
      "geometry": {
        "coordinates": [
          140.383946,
          35.763682
        ],
        "type": "Point"
      },
      "properties": {
        "bangumi_id": 492881,
        "bangumi_title": "真･武士传 剑勇传说",
        "ep_cut": "",
        "image_url": "https://w.junreimap.com/images/points/492881/uhxj5040g_1744181747392_c16v9.jpg",
        "location": "",
        "point_id": "uhxj5040g",
        "point_name": "成田空港",
        "remark": ""
      },
      "type": "Feature"
    },
    {
      "geometry": {
        "coordinates": [
          139.761921,
          35.636185
        ],
        "type": "Point"
      },
      "properties": {
        "bangumi_id": 492881,
        "bangumi_title": "真･武士传 剑勇传说",
        "ep_cut": "",
        "image_url": "https://w.junreimap.com/images/points/492881/uhxjzridk_1744181782218_c16v9.jpg",
        "location": "",
        "point_id": "uhxjzridk",
        "point_name": "レインボー​ブリッジ",
        "remark": ""
      },
      "type": "Feature"
    },
    {
      "geometry": {
        "coordinates": [
          140.38487,
          35.764231
        ],
        "type": "Point"
      },
      "properties": {
        "bangumi_id": 492881,
        "bangumi_title": "真･武士传 剑勇传说",
        "ep_cut": "",
        "image_url": "https://w.junreimap.com/images/points/492881/uhx64lrbt_1744180974405_c16v9.jpg",
        "location": "",
        "point_id": "uhx64lrbt",
        "point_name": "成田空港",
        "remark": ""
      },
      "type": "Feature"
    },
    {
      "geometry": {
        "coordinates": [
          140.384728,
          35.764146
        ],
        "type": "Point"
      },
      "properties": {
        "bangumi_id": 492881,
        "bangumi_title": "真･武士传 剑勇传说",
        "ep_cut": "",
        "image_url": "https://w.junreimap.com/images/points/492881/uhxhnshm0_1744181664165_c16v9.jpg",
        "location": "",
        "point_id": "uhxhnshm0",
        "point_name": "成田空港",
        "remark": ""
      },
      "type": "Feature"
    },
    {
      "geometry": {
        "coordinates": [
          140.384757,
          35.764123
        ],
        "type": "Point"
      },
      "properties": {
        "bangumi_id": 492881,
        "bangumi_title": "真･武士传 剑勇传说",
        "ep_cut": "",
        "image_url": "https://w.junreimap.com/images/points/492881/uhx97pvkm_1744181670325_c16v9.jpg",
        "location": "",
        "point_id": "uhx97pvkm",
        "point_name": "成田空港",
        "remark": ""
      },
      "type": "Feature"
    },
    {
      "geometry": {
        "coordinates": [
          140.384749,
          35.76414
        ],
        "type": "Point"
      },
      "properties": {
        "bangumi_id": 492881,
        "bangumi_title": "真･武士传 剑勇传说",
        "ep_cut": "",
        "image_url": "https://w.junreimap.com/images/points/492881/uhx98xcr0_1744181671637_c16v9.jpg",
        "location": "",
        "point_id": "uhx98xcr0",
        "point_name": "成田空港",
        "remark": ""
      },
      "type": "Feature"
    },
    {
      "geometry": {
        "coordinates": [
          140.384731,
          35.764123
        ],
        "type": "Point"
      },
      "properties": {
        "bangumi_id": 492881,
        "bangumi_title": "真･武士传 剑勇传说",
        "ep_cut": "",
        "image_url": "https://w.junreimap.com/images/points/492881/uhxblm5eo_1744181673815_c16v9.jpg",
        "location": "",
        "point_id": "uhxblm5eo",
        "point_name": "成田空港",
        "remark": ""
      },
      "type": "Feature"
    },
    {
      "geometry": {
        "coordinates": [
          140.38478,
          35.764137
        ],
        "type": "Point"
      },
      "properties": {
        "bangumi_id": 492881,
        "bangumi_title": "真･武士传 剑勇传说",
        "ep_cut": "",
        "image_url": "https://w.junreimap.com/images/points/492881/uhx8sbs0a_1744181684527_c16v9.jpg",
        "location": "",
        "point_id": "uhx8sbs0a",
        "point_name": "成田空港",
        "remark": ""
      },
      "type": "Feature"
    },
    {
      "geometry": {
        "coordinates": [
          140.384725,
          35.764166
        ],
        "type": "Point"
      },
      "properties": {
        "bangumi_id": 492881,
        "bangumi_title": "真･武士传 剑勇传说",
        "ep_cut": "",
        "image_url": "https://w.junreimap.com/images/points/492881/uhx999no0_1744181678585_c16v9.jpg",
        "location": "",
        "point_id": "uhx999no0",
        "point_name": "成田空港",
        "remark": ""
      },
      "type": "Feature"
    },
    {
      "geometry": {
        "coordinates": [
          140.384766,
          35.764159
        ],
        "type": "Point"
      },
      "properties": {
        "bangumi_id": 492881,
        "bangumi_title": "真･武士传 剑勇传说",
        "ep_cut": "",
        "image_url": "https://w.junreimap.com/images/points/492881/uhx99o5nk_1744181680820_c16v9.jpg",
        "location": "",
        "point_id": "uhx99o5nk",
        "point_name": "成田空港",
        "remark": ""
      },
      "type": "Feature"
    },
    {
      "geometry": {
        "coordinates": [
          140.384735,
          35.76418
        ],
        "type": "Point"
      },
      "properties": {
        "bangumi_id": 492881,
        "bangumi_title": "真･武士传 剑勇传说",
        "ep_cut": "",
        "image_url": "https://w.junreimap.com/images/points/492881/uhx9a1cu9_1744181685667_c16v9.jpg",
        "location": "",
        "point_id": "uhx9a1cu9",
        "point_name": "成田空港",
        "remark": ""
      },
      "type": "Feature"
    },
    {
      "geometry": {
        "coordinates": [
          139.745286,
          35.654869
        ],
        "type": "Point"
      },
      "properties": {
        "bangumi_id": 492881,
        "bangumi_title": "真･武士传 剑勇传说",
        "ep_cut": "",
        "image_url": "https://w.junreimap.com/images/points/492881/uhxl3g8qd_1744181849488_c16v9.jpg",
        "location": "",
        "point_id": "uhxl3g8qd",
        "point_name": "赤羽橋",
        "remark": ""
      },
      "type": "Feature"
    },
    {
      "geometry": {
        "coordinates": [
          139.765675,
          35.681488
        ],
        "type": "Point"
      },
      "properties": {
        "bangumi_id": 492881,
        "bangumi_title": "真･武士传 剑勇传说",
        "ep_cut": "",
        "image_url": "https://w.junreimap.com/images/points/492881/uhxmhhv4n_1744181937756_c16v9.jpg",
        "location": "",
        "point_id": "uhxmhhv4n",
        "point_name": "東京駅",
        "remark": ""
      },
      "type": "Feature"
    },
    {
      "geometry": {
        "coordinates": [
          139.796396,
          35.711476
        ],
        "type": "Point"
      },
      "properties": {
        "bangumi_id": 492881,
        "bangumi_title": "真･武士传 剑勇传说",
        "ep_cut": "",
        "image_url": "https://w.junreimap.com/images/points/492881/umq5kcd1i_1744557548214_c16v9.jpg",
        "location": "",
        "point_id": "umq5kcd1i",
        "point_name": "仲見世商店街",
        "remark": ""
      },
      "type": "Feature"
    },
    {
      "geometry": {
        "coordinates": [
          139.796353,
          35.711447
        ],
        "type": "Point"
      },
      "properties": {
        "bangumi_id": 492881,
        "bangumi_title": "真･武士传 剑勇传说",
        "ep_cut": "",
        "image_url": "https://w.junreimap.com/images/points/492881/umq1g9d24_1744557231727.jpg",
        "location": "",
        "point_id": "umq1g9d24",
        "point_name": "仲見世商店街",
        "remark": ""
      },
      "type": "Feature"
    },
    {
      "geometry": {
        "coordinates": [
          139.796407,
          35.711556
        ],
        "type": "Point"
      },
      "properties": {
        "bangumi_id": 492881,
        "bangumi_title": "真･武士传 剑勇传说",
        "ep_cut": "",
        "image_url": "https://w.junreimap.com/images/points/492881/umq5kpqzh_1744557525639_c16v9.jpg",
        "location": "",
        "point_id": "umq5kpqzh",
        "point_name": "仲見世商店街",
        "remark": ""
      },
      "type": "Feature"
    },
    {
      "geometry": {
        "coordinates": [
          139.796369,
          35.711089
        ],
        "type": "Point"
      },
      "properties": {
        "bangumi_id": 492881,
        "bangumi_title": "真･武士传 剑勇传说",
        "ep_cut": "",
        "image_url": "https://w.junreimap.com/images/points/492881/uhxn9oop7_1744182087882_c16v9.jpg",
        "location": "",
        "point_id": "uhxn9oop7",
        "point_name": "雷門",
        "remark": ""
      },
      "type": "Feature"
    },
    {
      "geometry": {
        "coordinates": [
          139.796369,
          35.710932
        ],
        "type": "Point"
      },
      "properties": {
        "bangumi_id": 492881,
        "bangumi_title": "真･武士传 剑勇传说",
        "ep_cut": "",
        "image_url": "https://w.junreimap.com/images/points/492881/umq8nee0x_1744557677075_c16v9.jpg",
        "location": "",
        "point_id": "umq8nee0x",
        "point_name": "雷門",
        "remark": ""
      },
      "type": "Feature"
    },
    {
      "geometry": {
        "coordinates": [
          139.796373,
          35.711063
        ],
        "type": "Point"
      },
      "properties": {
        "bangumi_id": 492881,
        "bangumi_title": "真･武士传 剑勇传说",
        "ep_cut": "",
        "image_url": "https://w.junreimap.com/images/points/492881/umq607gkh_1744557520057_c16v9.jpg",
        "location": "",
        "point_id": "umq607gkh",
        "point_name": "雷門",
        "remark": ""
      },
      "type": "Feature"
    },
    {
      "geometry": {
        "coordinates": [
          139.796356,
          35.710904
        ],
        "type": "Point"
      },
      "properties": {
        "bangumi_id": 492881,
        "bangumi_title": "真･武士传 剑勇传说",
        "ep_cut": 2,
        "image_url": "https://w.junreimap.com/images/points/492881/umq1l5bqp_1744557243123.jpg",
        "location": "",
        "point_id": "umq1l5bqp",
        "point_name": "雷門通り",
        "remark": ""
      },
      "type": "Feature"
    },
    {
      "geometry": {
        "coordinates": [
          139.796334,
          35.710906
        ],
        "type": "Point"
      },
      "properties": {
        "bangumi_id": 492881,
        "bangumi_title": "真･武士传 剑勇传说",
        "ep_cut": "",
        "image_url": "https://w.junreimap.com/images/points/492881/umq1lojay_1744557247018.jpg",
        "location": "",
        "point_id": "umq1lojay",
        "point_name": "雷門通り",
        "remark": ""
      },
      "type": "Feature"
    },
    {
      "geometry": {
        "coordinates": [
          139.809214,
          35.710208
        ],
        "type": "Point"
      },
      "properties": {
        "bangumi_id": 492881,
        "bangumi_title": "真･武士传 剑勇传说",
        "ep_cut": "",
        "image_url": "https://w.junreimap.com/images/points/492881/uhxnggj5a_1744182087081_c16v9.jpg",
        "location": "",
        "point_id": "uhxnggj5a",
        "point_name": "とうきょう​スカイツリー",
        "remark": ""
      },
      "type": "Feature"
    },
    {
      "geometry": {
        "coordinates": [
          139.809046,
          35.710274
        ],
        "type": "Point"
      },
      "properties": {
        "bangumi_id": 492881,
        "bangumi_title": "真･武士传 剑勇传说",
        "ep_cut": "",
        "image_url": "https://w.junreimap.com/images/points/492881/uhxt5g170_1744182326736.jpg",
        "location": "",
        "point_id": "uhxt5g170",
        "point_name": "とうきょう​スカイツリー",
        "remark": ""
      },
      "type": "Feature"
    },
    {
      "geometry": {
        "coordinates": [
          139.798091,
          35.73296
        ],
        "type": "Point"
      },
      "properties": {
        "bangumi_id": 492881,
        "bangumi_title": "真･武士传 剑勇传说",
        "ep_cut": "",
        "image_url": "https://w.junreimap.com/images/points/492881/uhy04zdpe_1744182799076_c16v9.jpg",
        "location": "",
        "point_id": "uhy04zdpe",
        "point_name": "アクレスティ南千住",
        "remark": "从南千住眺望晴空塔的视角"
      },
      "type": "Feature"
    },
    {
      "geometry": {
        "coordinates": [
          139.792006,
          35.711447
        ],
        "type": "Point"
      },
      "properties": {
        "bangumi_id": 492881,
        "bangumi_title": "真･武士传 剑勇传说",
        "ep_cut": "",
        "image_url": "https://w.junreimap.com/images/points/492881/umqd0r5rx_1744557941962_c16v9.jpg",
        "location": "",
        "point_id": "umqd0r5rx",
        "point_name": "雷門一丁目",
        "remark": ""
      },
      "type": "Feature"
    },
    {
      "geometry": {
        "coordinates": [
          139.792427,
          35.713795
        ],
        "type": "Point"
      },
      "properties": {
        "bangumi_id": 492881,
        "bangumi_title": "真･武士传 剑勇传说",
        "ep_cut": "",
        "image_url": "https://w.junreimap.com/images/points/492881/umql2rmys_1744558489262_c16v9.jpg",
        "location": "",
        "point_id": "umql2rmys",
        "point_name": "公園六区入口",
        "remark": ""
      },
      "type": "Feature"
    },
    {
      "geometry": {
        "coordinates": [
          139.792365,
          35.713793
        ],
        "type": "Point"
      },
      "properties": {
        "bangumi_id": 492881,
        "bangumi_title": "真･武士传 剑勇传说",
        "ep_cut": "",
        "image_url": "https://w.junreimap.com/images/points/492881/umql9953w_1744558490924_c16v9.jpg",
        "location": "",
        "point_id": "umql9953w",
        "point_name": "公園六区入口",
        "remark": ""
      },
      "type": "Feature"
    },
    {
      "geometry": {
        "coordinates": [
          139.792359,
          35.713823
        ],
        "type": "Point"
      },
      "properties": {
        "bangumi_id": 492881,
        "bangumi_title": "真･武士传 剑勇传说",
        "ep_cut": "",
        "image_url": "https://w.junreimap.com/images/points/492881/umqlebyel_1744558493461_c16v9.jpg",
        "location": "",
        "point_id": "umqlebyel",
        "point_name": "公園六区入口",
        "remark": ""
      },
      "type": "Feature"
    },
    {
      "geometry": {
        "coordinates": [
          139.795004,
          35.712842
        ],
        "type": "Point"
      },
      "properties": {
        "bangumi_id": 492881,
        "bangumi_title": "真･武士传 剑勇传说",
        "ep_cut": "",
        "image_url": "https://w.junreimap.com/images/points/492881/umqqx8ruw_1744558804627_c16v9.jpg",
        "location": "",
        "point_id": "umqqx8ruw",
        "point_name": "伝法院通",
        "remark": ""
      },
      "type": "Feature"
    },
    {
      "geometry": {
        "coordinates": [
          139.796648,
          35.710821
        ],
        "type": "Point"
      },
      "properties": {
        "bangumi_id": 492881,
        "bangumi_title": "真･武士传 剑勇传说",
        "ep_cut": 2,
        "image_url": "https://w.junreimap.com/images/points/492881/uod3tr1ac_1744685874160_c16v9.jpg",
        "location": "",
        "point_id": "uod3tr1ac",
        "point_name": "雷門通り",
        "remark": ""
      },
      "type": "Feature"
    },
    {
      "geometry": {
        "coordinates": [
          139.796679,
          35.710825
        ],
        "type": "Point"
      },
      "properties": {
        "bangumi_id": 492881,
        "bangumi_title": "真･武士传 剑勇传说",
        "ep_cut": 2,
        "image_url": "https://w.junreimap.com/images/points/492881/uod3taztx_1744685876546_c16v9.jpg",
        "location": "",
        "point_id": "uod3taztx",
        "point_name": "雷門通り",
        "remark": ""
      },
      "type": "Feature"
    }
  ],
  "type": "FeatureCollection"
}