{
  "features": [
    {
      "geometry": {
        "coordinates": [
          139.768775,
          35.698458
        ],
        "type": "Point"
      },
      "properties": {
        "bangumi_id": 49294,
        "bangumi_title": "LoveLive!",
        "ep_cut": "",
        "image_url": "https://w.junreimap.com/images/user/0/bangumi/49294/points/kpx6opjuj-1720918436473.jpg",
        "location": "",
        "point_id": "kpx6opjuj",
        "point_name": "昌平橋",
        "remark": "1話"
      },
      "type": "Feature"
    },
    {
      "geometry": {
        "coordinates": [
          139.756589,
          35.709011
        ],
        "type": "Point"
      },
      "properties": {
        "bangumi_id": 49294,
        "bangumi_title": "LoveLive!",
        "ep_cut": "",
        "image_url": "",
        "location": "",
        "point_id": "kpx6opkrw",
        "point_name": "階段",
        "remark": "1話"
      },
      "type": "Feature"
    },
    {
      "geometry": {
        "coordinates": [
          139.769097,
          35.696634
        ],
        "type": "Point"
      },
      "properties": {
        "bangumi_id": 49294,
        "bangumi_title": "LoveLive!",
        "ep_cut": "",
        "image_url": "https://w.junreimap.com/images/user/0/bangumi/49294/points/kpx6opkcp-1720918580837.jpg",
        "location": "",
        "point_id": "kpx6opkcp",
        "point_name": "竹むら",
        "remark": "果皇家"
      },
      "type": "Feature"
    },
    {
      "geometry": {
        "coordinates": [
          139.769933,
          35.701943
        ],
        "type": "Point"
      },
      "properties": {
        "bangumi_id": 49294,
        "bangumi_title": "LoveLive!",
        "ep_cut": "",
        "image_url": "",
        "location": "",
        "point_id": "kpx6opldn",
        "point_name": "芳林公園",
        "remark": "改装工事でアニメ放送前に消滅です。"
      },
      "type": "Feature"
    },
    {
      "geometry": {
        "coordinates": [
          139.771194,
          35.70024
        ],
        "type": "Point"
      },
      "properties": {
        "bangumi_id": 49294,
        "bangumi_title": "LoveLive!",
        "ep_cut": "",
        "image_url": "",
        "location": "",
        "point_id": "kpx6opluc",
        "point_name": "ソフマップ",
        "remark": "9話"
      },
      "type": "Feature"
    },
    {
      "geometry": {
        "coordinates": [
          139.770657,
          35.700279
        ],
        "type": "Point"
      },
      "properties": {
        "bangumi_id": 49294,
        "bangumi_title": "LoveLive!",
        "ep_cut": 9,
        "image_url": "https://w.junreimap.com/images/user/0/bangumi/49294/points/kpx6opmcj-1724943721691.jpg",
        "location": "",
        "point_id": "kpx6opmcj",
        "point_name": "とんかつ屋さん",
        "remark": "9話"
      },
      "type": "Feature"
    },
    {
      "geometry": {
        "coordinates": [
          139.769515,
          35.701102
        ],
        "type": "Point"
      },
      "properties": {
        "bangumi_id": 49294,
        "bangumi_title": "LoveLive!",
        "ep_cut": "",
        "image_url": "",
        "location": "",
        "point_id": "kpx6opn6b",
        "point_name": "路地",
        "remark": "9話"
      },
      "type": "Feature"
    },
    {
      "geometry": {
        "coordinates": [
          139.738385,
          35.628253
        ],
        "type": "Point"
      },
      "properties": {
        "bangumi_id": 49294,
        "bangumi_title": "LoveLive!",
        "ep_cut": "第二季11话",
        "image_url": "https://w.junreimap.com/images/user/0/bangumi/49294/points/kpx6opmix-1726638780054.jpg",
        "location": "",
        "point_id": "kpx6opmix",
        "point_name": "品川駅 京急連絡改札",
        "remark": "13話"
      },
      "type": "Feature"
    },
    {
      "geometry": {
        "coordinates": [
          139.768876,
          35.544287
        ],
        "type": "Point"
      },
      "properties": {
        "bangumi_id": 49294,
        "bangumi_title": "LoveLive!",
        "ep_cut": "",
        "image_url": "",
        "location": "",
        "point_id": "kpx6opmmo",
        "point_name": "ことりベンチ",
        "remark": "3F、出発ロビー13話"
      },
      "type": "Feature"
    },
    {
      "geometry": {
        "coordinates": [
          139.788012,
          35.552695
        ],
        "type": "Point"
      },
      "properties": {
        "bangumi_id": 49294,
        "bangumi_title": "LoveLive!",
        "ep_cut": "",
        "image_url": "",
        "location": "",
        "point_id": "kpx6opmsi",
        "point_name": "展望デッキ",
        "remark": "13話"
      },
      "type": "Feature"
    },
    {
      "geometry": {
        "coordinates": [
          139.768603,
          35.698162
        ],
        "type": "Point"
      },
      "properties": {
        "bangumi_id": 49294,
        "bangumi_title": "LoveLive!",
        "ep_cut": 9,
        "image_url": "https://w.junreimap.com/images/user/0/bangumi/49294/points/kpx6opnx7-1724944108154.jpg",
        "location": "",
        "point_id": "kpx6opnx7",
        "point_name": "神田郵便局前交差点",
        "remark": "9話"
      },
      "type": "Feature"
    },
    {
      "geometry": {
        "coordinates": [
          139.771229,
          35.70188
        ],
        "type": "Point"
      },
      "properties": {
        "bangumi_id": 49294,
        "bangumi_title": "LoveLive!",
        "ep_cut": "",
        "image_url": "",
        "location": "",
        "point_id": "kpx6opnwf",
        "point_name": "キュアメイドカフェ",
        "remark": "9話"
      },
      "type": "Feature"
    },
    {
      "geometry": {
        "coordinates": [
          139.769129,
          35.698406
        ],
        "type": "Point"
      },
      "properties": {
        "bangumi_id": 49294,
        "bangumi_title": "LoveLive!",
        "ep_cut": "",
        "image_url": "https://w.junreimap.com/images/user/0/bangumi/49294/points/kpx6opngh-1721307913435.jpg",
        "location": "",
        "point_id": "kpx6opngh",
        "point_name": "【昌平橋東橋詰広：4話】",
        "remark": ""
      },
      "type": "Feature"
    },
    {
      "geometry": {
        "coordinates": [
          139.764333,
          35.709758
        ],
        "type": "Point"
      },
      "properties": {
        "bangumi_id": 49294,
        "bangumi_title": "LoveLive!",
        "ep_cut": 5,
        "image_url": "https://w.junreimap.com/images/user/0/bangumi/49294/points/kpx6opoiw-1721732495866.jpg",
        "location": "",
        "point_id": "kpx6opoiw",
        "point_name": "一年级放学地",
        "remark": ""
      },
      "type": "Feature"
    },
    {
      "geometry": {
        "coordinates": [
          139.76488,
          35.698893
        ],
        "type": "Point"
      },
      "properties": {
        "bangumi_id": 49294,
        "bangumi_title": "LoveLive!",
        "ep_cut": "",
        "image_url": "https://w.junreimap.com/images/points/49294/kpx6opo9a_1746372795658.jpg",
        "location": "",
        "point_id": "kpx6opo9a",
        "point_name": "お茶の水サンクレール",
        "remark": "2期8話"
      },
      "type": "Feature"
    },
    {
      "geometry": {
        "coordinates": [
          139.768463,
          35.698009
        ],
        "type": "Point"
      },
      "properties": {
        "bangumi_id": 49294,
        "bangumi_title": "LoveLive!",
        "ep_cut": "",
        "image_url": "",
        "location": "",
        "point_id": "kpx6opor3",
        "point_name": "損保会館前",
        "remark": "2期8話"
      },
      "type": "Feature"
    },
    {
      "geometry": {
        "coordinates": [
          139.767926,
          35.70168
        ],
        "type": "Point"
      },
      "properties": {
        "bangumi_id": 49294,
        "bangumi_title": "LoveLive!",
        "ep_cut": 2,
        "image_url": "https://w.junreimap.com/images/user/0/bangumi/49294/points/cxfdy2b0l-1694617233071.jpg",
        "location": "lovelive第一季 东条希 ",
        "point_id": "cxfdy2b0l",
        "point_name": "神田明神",
        "remark": ""
      },
      "type": "Feature"
    },
    {
      "geometry": {
        "coordinates": [
          139.772479,
          35.699656
        ],
        "type": "Point"
      },
      "properties": {
        "bangumi_id": 49294,
        "bangumi_title": "LoveLive!",
        "ep_cut": 1,
        "image_url": "https://w.junreimap.com/images/user/0/bangumi/49294/points/cxfz4st2i-1694617649891.jpg",
        "location": "",
        "point_id": "cxfz4st2i",
        "point_name": "秋葉原UDX",
        "remark": ""
      },
      "type": "Feature"
    },
    {
      "geometry": {
        "coordinates": [
          139.766361,
          35.682228
        ],
        "type": "Point"
      },
      "properties": {
        "bangumi_id": 49294,
        "bangumi_title": "LoveLive!",
        "ep_cut": "",
        "image_url": "https://w.junreimap.com/images/user/0/bangumi/49294/points/gbexjsi6b-1704175723648.jpg",
        "location": "",
        "point_id": "gbexjsi6b",
        "point_name": "東京駅丸の内北口",
        "remark": ""
      },
      "type": "Feature"
    },
    {
      "geometry": {
        "coordinates": [
          139.13837,
          35.202621
        ],
        "type": "Point"
      },
      "properties": {
        "bangumi_id": 49294,
        "bangumi_title": "LoveLive!",
        "ep_cut": "第二季 第11集",
        "image_url": "https://w.junreimap.com/images/user/0/bangumi/49294/points/ids9xqdzi-1710003733008.jpg",
        "location": "",
        "point_id": "ids9xqdzi",
        "point_name": "根府川駅",
        "remark": ""
      },
      "type": "Feature"
    },
    {
      "geometry": {
        "coordinates": [
          139.574057,
          35.714321
        ],
        "type": "Point"
      },
      "properties": {
        "bangumi_id": 49294,
        "bangumi_title": "LoveLive!",
        "ep_cut": 1,
        "image_url": "https://w.junreimap.com/images/user/0/bangumi/49294/points/kncu2clym-1716395926632.jpg",
        "location": "",
        "point_id": "kncu2clym",
        "point_name": "音ノ木坂の陸上競技場（成蹊大学ラグビー場）",
        "remark": "成蹊大学虽然是音乃木坂学院设计时参考的原型, 但动画改动较大, 其地址和校内设施与音乃木坂完全不同."
      },
      "type": "Feature"
    },
    {
      "geometry": {
        "coordinates": [
          139.57313,
          35.711098
        ],
        "type": "Point"
      },
      "properties": {
        "bangumi_id": 49294,
        "bangumi_title": "LoveLive!",
        "ep_cut": 1,
        "image_url": "https://w.junreimap.com/images/user/0/bangumi/49294/points/knd32xw1c-1716396332040.jpg",
        "location": "",
        "point_id": "knd32xw1c",
        "point_name": "音ノ木坂学院（成蹊大学）",
        "remark": "成蹊大学虽然是音乃木坂学院设计时参考的原型, 但动画改动较大, 其地址和校内设施与音乃木坂完全不同"
      },
      "type": "Feature"
    },
    {
      "geometry": {
        "coordinates": [
          139.76834,
          35.701335
        ],
        "type": "Point"
      },
      "properties": {
        "bangumi_id": 49294,
        "bangumi_title": "LoveLive!",
        "ep_cut": 2,
        "image_url": "https://w.junreimap.com/images/user/0/bangumi/49294/points/knd91s3j8-1716396701853.jpg",
        "location": "",
        "point_id": "knd91s3j8",
        "point_name": "男坂の下",
        "remark": ""
      },
      "type": "Feature"
    },
    {
      "geometry": {
        "coordinates": [
          139.572804,
          35.710568
        ],
        "type": "Point"
      },
      "properties": {
        "bangumi_id": 49294,
        "bangumi_title": "LoveLive!",
        "ep_cut": "S2.13",
        "image_url": "https://w.junreimap.com/images/user/0/bangumi/49294/points/kndlicukr-1716397474749.jpg",
        "location": "",
        "point_id": "kndlicukr",
        "point_name": "校門",
        "remark": "成蹊大学虽然是音乃木坂学院设计时参考的原型, 但动画改动较大, 其地址和校内设施与音乃木坂完全不同"
      },
      "type": "Feature"
    },
    {
      "geometry": {
        "coordinates": [
          139.796328,
          35.711059
        ],
        "type": "Point"
      },
      "properties": {
        "bangumi_id": 49294,
        "bangumi_title": "LoveLive!",
        "ep_cut": "S2.11",
        "image_url": "https://w.junreimap.com/images/user/0/bangumi/49294/points/kni7ht8er-1716407470744.jpg",
        "location": "",
        "point_id": "kni7ht8er",
        "point_name": "雷門",
        "remark": ""
      },
      "type": "Feature"
    },
    {
      "geometry": {
        "coordinates": [
          139.796698,
          35.714364
        ],
        "type": "Point"
      },
      "properties": {
        "bangumi_id": 49294,
        "bangumi_title": "LoveLive!",
        "ep_cut": "S2.11",
        "image_url": "https://w.junreimap.com/images/user/0/bangumi/49294/points/knia1frzc-1716407612296.jpg",
        "location": "",
        "point_id": "knia1frzc",
        "point_name": "常香炉",
        "remark": ""
      },
      "type": "Feature"
    },
    {
      "geometry": {
        "coordinates": [
          139.79504,
          35.715186
        ],
        "type": "Point"
      },
      "properties": {
        "bangumi_id": 49294,
        "bangumi_title": "LoveLive!",
        "ep_cut": 11,
        "image_url": "https://w.junreimap.com/images/user/0/bangumi/49294/points/knic0b9ff-1716407761408.jpg",
        "location": "",
        "point_id": "knic0b9ff",
        "point_name": "浅草花やしき　浅草門",
        "remark": ""
      },
      "type": "Feature"
    },
    {
      "geometry": {
        "coordinates": [
          139.79499,
          35.715148
        ],
        "type": "Point"
      },
      "properties": {
        "bangumi_id": 49294,
        "bangumi_title": "LoveLive!",
        "ep_cut": "S2.11",
        "image_url": "https://w.junreimap.com/images/user/0/bangumi/49294/points/knid7qtfi-1716407914012.jpg",
        "location": "",
        "point_id": "knid7qtfi",
        "point_name": "浅草門（最後海に行くことに決めるシーン）",
        "remark": ""
      },
      "type": "Feature"
    },
    {
      "geometry": {
        "coordinates": [
          139.214416,
          35.27988
        ],
        "type": "Point"
      },
      "properties": {
        "bangumi_id": 49294,
        "bangumi_title": "LoveLive!",
        "ep_cut": "S2.11",
        "image_url": "https://w.junreimap.com/images/user/0/bangumi/49294/points/kni6p7tho-1716408191322.jpg",
        "location": "",
        "point_id": "kni6p7tho",
        "point_name": "国府津海岸",
        "remark": ""
      },
      "type": "Feature"
    },
    {
      "geometry": {
        "coordinates": [
          139.214345,
          35.279846
        ],
        "type": "Point"
      },
      "properties": {
        "bangumi_id": 49294,
        "bangumi_title": "LoveLive!",
        "ep_cut": "S2.11",
        "image_url": "https://w.junreimap.com/images/user/0/bangumi/49294/points/knim9ckw2-1716408349569.jpg",
        "location": "",
        "point_id": "knim9ckw2",
        "point_name": "国府津海岸",
        "remark": ""
      },
      "type": "Feature"
    },
    {
      "geometry": {
        "coordinates": [
          139.138531,
          35.202696
        ],
        "type": "Point"
      },
      "properties": {
        "bangumi_id": 49294,
        "bangumi_title": "LoveLive!",
        "ep_cut": "S2.11",
        "image_url": "https://w.junreimap.com/images/user/0/bangumi/49294/points/knirdcgsg-1716408673902.jpg",
        "location": "",
        "point_id": "knirdcgsg",
        "point_name": "根府川駅内",
        "remark": ""
      },
      "type": "Feature"
    },
    {
      "geometry": {
        "coordinates": [
          139.138815,
          35.202837
        ],
        "type": "Point"
      },
      "properties": {
        "bangumi_id": 49294,
        "bangumi_title": "LoveLive!",
        "ep_cut": "S2.11",
        "image_url": "https://w.junreimap.com/images/user/0/bangumi/49294/points/knitk7gqa-1716408933810.jpg",
        "location": "",
        "point_id": "knitk7gqa",
        "point_name": "根府川駅２番線ホーム",
        "remark": ""
      },
      "type": "Feature"
    },
    {
      "geometry": {
        "coordinates": [
          139.13862,
          35.202765
        ],
        "type": "Point"
      },
      "properties": {
        "bangumi_id": 49294,
        "bangumi_title": "LoveLive!",
        "ep_cut": "S2.11",
        "image_url": "https://w.junreimap.com/images/user/0/bangumi/49294/points/kniwujnll-1716409021832.jpg",
        "location": "",
        "point_id": "kniwujnll",
        "point_name": "根府川駅デッキ入り口",
        "remark": ""
      },
      "type": "Feature"
    },
    {
      "geometry": {
        "coordinates": [
          139.76407,
          35.689192
        ],
        "type": "Point"
      },
      "properties": {
        "bangumi_id": 49294,
        "bangumi_title": "LoveLive!",
        "ep_cut": "S2.9",
        "image_url": "https://w.junreimap.com/images/user/0/bangumi/49294/points/knlc6pldr-1716414367738.jpg",
        "location": "",
        "point_id": "knlc6pldr",
        "point_name": "神田橋",
        "remark": ""
      },
      "type": "Feature"
    },
    {
      "geometry": {
        "coordinates": [
          139.764058,
          35.689124
        ],
        "type": "Point"
      },
      "properties": {
        "bangumi_id": 49294,
        "bangumi_title": "LoveLive!",
        "ep_cut": "S2.9",
        "image_url": "https://w.junreimap.com/images/user/0/bangumi/49294/points/knlej2txu-1716414420380.jpg",
        "location": "",
        "point_id": "knlej2txu",
        "point_name": "神田橋",
        "remark": ""
      },
      "type": "Feature"
    },
    {
      "geometry": {
        "coordinates": [
          139.763579,
          35.681916
        ],
        "type": "Point"
      },
      "properties": {
        "bangumi_id": 49294,
        "bangumi_title": "LoveLive!",
        "ep_cut": "",
        "image_url": "https://w.junreimap.com/images/user/0/bangumi/49294/points/knlm9w251-1716414873768.jpg",
        "location": "",
        "point_id": "knlm9w251",
        "point_name": "Snow Halation",
        "remark": "在动画中背景的东京站换成了别的建筑"
      },
      "type": "Feature"
    },
    {
      "geometry": {
        "coordinates": [
          139.772479,
          35.699656
        ],
        "type": "Point"
      },
      "properties": {
        "bangumi_id": 49294,
        "bangumi_title": "LoveLive!",
        "ep_cut": 1,
        "image_url": "https://w.junreimap.com/images/user/0/bangumi/49294/points/knlbeybai-1716415138518.jpg",
        "location": "",
        "point_id": "knlbeybai",
        "point_name": "秋葉原UDX",
        "remark": ""
      },
      "type": "Feature"
    },
    {
      "geometry": {
        "coordinates": [
          139.76803,
          35.701467
        ],
        "type": "Point"
      },
      "properties": {
        "bangumi_id": 49294,
        "bangumi_title": "LoveLive!",
        "ep_cut": "S2.1",
        "image_url": "https://w.junreimap.com/images/user/0/bangumi/49294/points/knog0ztm4-1716421032465.jpg",
        "location": "",
        "point_id": "knog0ztm4",
        "point_name": "男坂　にこ転んだ",
        "remark": ""
      },
      "type": "Feature"
    },
    {
      "geometry": {
        "coordinates": [
          139.76839,
          35.701395
        ],
        "type": "Point"
      },
      "properties": {
        "bangumi_id": 49294,
        "bangumi_title": "LoveLive!",
        "ep_cut": "S2.1",
        "image_url": "https://w.junreimap.com/images/user/0/bangumi/49294/points/knoezxlzu-1716420966820.jpg",
        "location": "",
        "point_id": "knoezxlzu",
        "point_name": "男坂",
        "remark": ""
      },
      "type": "Feature"
    },
    {
      "geometry": {
        "coordinates": [
          139.767547,
          35.701572
        ],
        "type": "Point"
      },
      "properties": {
        "bangumi_id": 49294,
        "bangumi_title": "LoveLive!",
        "ep_cut": "S2.1",
        "image_url": "https://w.junreimap.com/images/user/0/bangumi/49294/points/knoe5qca8-1716420917310.jpg",
        "location": "",
        "point_id": "knoe5qca8",
        "point_name": "神田明神　雨止め",
        "remark": ""
      },
      "type": "Feature"
    },
    {
      "geometry": {
        "coordinates": [
          139.767505,
          35.701523
        ],
        "type": "Point"
      },
      "properties": {
        "bangumi_id": 49294,
        "bangumi_title": "LoveLive!",
        "ep_cut": "S2.1",
        "image_url": "https://w.junreimap.com/images/user/0/bangumi/49294/points/knod3w61f-1716420864070.jpg",
        "location": "",
        "point_id": "knod3w61f",
        "point_name": "神田明神　雨止め",
        "remark": ""
      },
      "type": "Feature"
    },
    {
      "geometry": {
        "coordinates": [
          139.767457,
          35.701459
        ],
        "type": "Point"
      },
      "properties": {
        "bangumi_id": 49294,
        "bangumi_title": "LoveLive!",
        "ep_cut": "S2.1",
        "image_url": "https://w.junreimap.com/images/user/0/bangumi/49294/points/knoc7ol63-1716420800871.jpg",
        "location": "",
        "point_id": "knoc7ol63",
        "point_name": "神田明神",
        "remark": ""
      },
      "type": "Feature"
    },
    {
      "geometry": {
        "coordinates": [
          139.77142,
          35.701769
        ],
        "type": "Point"
      },
      "properties": {
        "bangumi_id": 49294,
        "bangumi_title": "LoveLive!",
        "ep_cut": 9,
        "image_url": "https://w.junreimap.com/images/user/0/bangumi/49294/points/knnoxih4g-1716419426774.jpg",
        "location": "",
        "point_id": "knnoxih4g",
        "point_name": "アキバ系アイドルショップ",
        "remark": ""
      },
      "type": "Feature"
    },
    {
      "geometry": {
        "coordinates": [
          139.771229,
          35.70188
        ],
        "type": "Point"
      },
      "properties": {
        "bangumi_id": 49294,
        "bangumi_title": "LoveLive!",
        "ep_cut": 9,
        "image_url": "https://w.junreimap.com/images/user/0/bangumi/49294/points/knlbeyap0-1716419771268.jpg",
        "location": "",
        "point_id": "knlbeyap0",
        "point_name": "キュアメイドカフェ",
        "remark": ""
      },
      "type": "Feature"
    },
    {
      "geometry": {
        "coordinates": [
          139.57416,
          35.714739
        ],
        "type": "Point"
      },
      "properties": {
        "bangumi_id": 49294,
        "bangumi_title": "LoveLive!",
        "ep_cut": "",
        "image_url": "https://w.junreimap.com/images/user/0/bangumi/49294/points/knnhz0rh5-1716418965801.jpg",
        "location": "",
        "point_id": "knnhz0rh5",
        "point_name": "僕らのLIVE 君とのLIFE",
        "remark": ""
      },
      "type": "Feature"
    },
    {
      "geometry": {
        "coordinates": [
          139.767809,
          35.701886
        ],
        "type": "Point"
      },
      "properties": {
        "bangumi_id": 49294,
        "bangumi_title": "LoveLive!",
        "ep_cut": 3,
        "image_url": "https://w.junreimap.com/images/user/0/bangumi/49294/points/knlbeyb59-1716416442757.jpg",
        "location": "",
        "point_id": "knlbeyb59",
        "point_name": "神田明神",
        "remark": ""
      },
      "type": "Feature"
    },
    {
      "geometry": {
        "coordinates": [
          139.767846,
          35.701527
        ],
        "type": "Point"
      },
      "properties": {
        "bangumi_id": 49294,
        "bangumi_title": "LoveLive!",
        "ep_cut": 3,
        "image_url": "https://w.junreimap.com/images/user/0/bangumi/49294/points/knm23ikee-1716415846729.jpg",
        "location": "",
        "point_id": "knm23ikee",
        "point_name": "男坂　練習の休憩",
        "remark": ""
      },
      "type": "Feature"
    },
    {
      "geometry": {
        "coordinates": [
          139.771668,
          35.698242
        ],
        "type": "Point"
      },
      "properties": {
        "bangumi_id": 49294,
        "bangumi_title": "LoveLive!",
        "ep_cut": 3,
        "image_url": "https://w.junreimap.com/images/user/0/bangumi/49294/points/knm846ct5-1716416216254.jpg",
        "location": "",
        "point_id": "knm846ct5",
        "point_name": "ゲーマーズ本店の外",
        "remark": ""
      },
      "type": "Feature"
    },
    {
      "geometry": {
        "coordinates": [
          139.767882,
          35.701469
        ],
        "type": "Point"
      },
      "properties": {
        "bangumi_id": 49294,
        "bangumi_title": "LoveLive!",
        "ep_cut": 2,
        "image_url": "https://w.junreimap.com/images/user/0/bangumi/49294/points/knlzsi8qi-1716415703677.jpg",
        "location": "",
        "point_id": "knlzsi8qi",
        "point_name": "男坂の上",
        "remark": ""
      },
      "type": "Feature"
    },
    {
      "geometry": {
        "coordinates": [
          139.767908,
          35.701491
        ],
        "type": "Point"
      },
      "properties": {
        "bangumi_id": 49294,
        "bangumi_title": "LoveLive!",
        "ep_cut": 2,
        "image_url": "https://w.junreimap.com/images/user/0/bangumi/49294/points/knlvq6egt-1716415457681.jpg",
        "location": "",
        "point_id": "knlvq6egt",
        "point_name": "男坂の上",
        "remark": ""
      },
      "type": "Feature"
    },
    {
      "geometry": {
        "coordinates": [
          139.768109,
          35.701451
        ],
        "type": "Point"
      },
      "properties": {
        "bangumi_id": 49294,
        "bangumi_title": "LoveLive!",
        "ep_cut": 2,
        "image_url": "https://w.junreimap.com/images/user/0/bangumi/49294/points/knlbeyanx-1716415361634.jpg",
        "location": "",
        "point_id": "knlbeyanx",
        "point_name": "男坂",
        "remark": ""
      },
      "type": "Feature"
    },
    {
      "geometry": {
        "coordinates": [
          139.772556,
          35.698753
        ],
        "type": "Point"
      },
      "properties": {
        "bangumi_id": 49294,
        "bangumi_title": "LoveLive!",
        "ep_cut": 1,
        "image_url": "https://w.junreimap.com/images/user/0/bangumi/49294/points/knlsfktrv-1716415249069.jpg",
        "location": "",
        "point_id": "knlsfktrv",
        "point_name": "秋葉原UDX",
        "remark": ""
      },
      "type": "Feature"
    },
    {
      "geometry": {
        "coordinates": [
          139.772493,
          35.699598
        ],
        "type": "Point"
      },
      "properties": {
        "bangumi_id": 49294,
        "bangumi_title": "LoveLive!",
        "ep_cut": 1,
        "image_url": "https://w.junreimap.com/images/user/0/bangumi/49294/points/knlr8hpjs-1716415176879.jpg",
        "location": "",
        "point_id": "knlr8hpjs",
        "point_name": "秋葉原UDX",
        "remark": ""
      },
      "type": "Feature"
    },
    {
      "geometry": {
        "coordinates": [
          139.756416,
          35.71116
        ],
        "type": "Point"
      },
      "properties": {
        "bangumi_id": 49294,
        "bangumi_title": "LoveLive!",
        "ep_cut": 7,
        "image_url": "https://w.junreimap.com/images/user/1093/bangumi/49294/points/ks0dnioed-1716760469490.jpg",
        "location": "",
        "point_id": "ks0dnioed",
        "point_name": "鳳明館 別館",
        "remark": "第一次到东京演出时的宾馆\n第二季12话参加LoveLive!时的宾馆也是这里"
      },
      "type": "Feature"
    },
    {
      "geometry": {
        "coordinates": [
          139.773758,
          35.702531
        ],
        "type": "Point"
      },
      "properties": {
        "bangumi_id": 49294,
        "bangumi_title": "LoveLive!",
        "ep_cut": "二季4话",
        "image_url": "https://w.junreimap.com/images/user/0/bangumi/49294/points/lo9h36cje-1719288027637.jpg",
        "location": "",
        "point_id": "lo9h36cje",
        "point_name": "肉​の​ハナマサ​秋葉原​店",
        "remark": ""
      },
      "type": "Feature"
    },
    {
      "geometry": {
        "coordinates": [
          138.885715,
          35.034857
        ],
        "type": "Point"
      },
      "properties": {
        "bangumi_id": 49294,
        "bangumi_title": "LoveLive!",
        "ep_cut": "",
        "image_url": "https://w.junreimap.com/images/user/1093/bangumi/49294/points/md2pmv45e-1721232337651.jpg",
        "location": "",
        "point_id": "md2pmv45e",
        "point_name": "海軍淡島桟橋",
        "remark": "LoveLive!Days9月号とLoveLive!Days5周年記念増刊・My Dream LoveLive!の合同表紙のイラスト"
      },
      "type": "Feature"
    },
    {
      "geometry": {
        "coordinates": [
          139.769187,
          35.69842
        ],
        "type": "Point"
      },
      "properties": {
        "bangumi_id": 49294,
        "bangumi_title": "LoveLive!",
        "ep_cut": "错觉CROSSROADS 单曲封面",
        "image_url": "https://w.junreimap.com/images/user/1093/bangumi/49294/points/d57lrnk-1775623656876.jpg",
        "location": "",
        "point_id": "d57lrnk",
        "point_name": "昌平橋東橋詰広場",
        "remark": ""
      },
      "type": "Feature"
    }
  ],
  "type": "FeatureCollection"
}