{
  "features": [
    {
      "geometry": {
        "coordinates": [
          135.703695,
          35.01952
        ],
        "type": "Point"
      },
      "properties": {
        "bangumi_id": 498934,
        "bangumi_title": "群花绽放，彷如修罗",
        "ep_cut": "OP1",
        "image_url": "https://w.junreimap.com/images/points/498934/rp3j0bzxs_1736279990832.jpg",
        "location": "嵯峨-京都市",
        "point_id": "rp3j0bzxs",
        "point_name": "府​立​嵯峨野​高等​学校",
        "remark": ""
      },
      "type": "Feature"
    },
    {
      "geometry": {
        "coordinates": [
          135.703677,
          35.020964
        ],
        "type": "Point"
      },
      "properties": {
        "bangumi_id": 498934,
        "bangumi_title": "群花绽放，彷如修罗",
        "ep_cut": 1,
        "image_url": "https://w.junreimap.com/images/points/498934/rp3wpwzii_1736281420187.jpg",
        "location": "嵯峨-京都市",
        "point_id": "rp3wpwzii",
        "point_name": "府​立​嵯峨野​高等​学校",
        "remark": "原作者武田綾乃的母校"
      },
      "type": "Feature"
    },
    {
      "geometry": {
        "coordinates": [
          135.703641,
          35.020937
        ],
        "type": "Point"
      },
      "properties": {
        "bangumi_id": 498934,
        "bangumi_title": "群花绽放，彷如修罗",
        "ep_cut": 1,
        "image_url": "https://w.junreimap.com/images/points/498934/rp4q2wkkz_1736282598406.jpg",
        "location": "嵯峨-京都市",
        "point_id": "rp4q2wkkz",
        "point_name": "府​立​嵯峨野​高等​学校 正门",
        "remark": ""
      },
      "type": "Feature"
    },
    {
      "geometry": {
        "coordinates": [
          135.703667,
          35.020936
        ],
        "type": "Point"
      },
      "properties": {
        "bangumi_id": 498934,
        "bangumi_title": "群花绽放，彷如修罗",
        "ep_cut": 1,
        "image_url": "https://w.junreimap.com/images/points/498934/rp4q8ts4b_1736282603840.jpg",
        "location": "嵯峨-京都市",
        "point_id": "rp4q8ts4b",
        "point_name": "府​立​嵯峨野​高等​学校 正门",
        "remark": ""
      },
      "type": "Feature"
    },
    {
      "geometry": {
        "coordinates": [
          135.703618,
          35.020947
        ],
        "type": "Point"
      },
      "properties": {
        "bangumi_id": 498934,
        "bangumi_title": "群花绽放，彷如修罗",
        "ep_cut": 1,
        "image_url": "https://w.junreimap.com/images/points/498934/rp4qbfc3w_1736282613954.jpg",
        "location": "嵯峨-京都市",
        "point_id": "rp4qbfc3w",
        "point_name": "府​立​嵯峨野​高等​学校 正门",
        "remark": ""
      },
      "type": "Feature"
    },
    {
      "geometry": {
        "coordinates": [
          135.7037,
          35.019847
        ],
        "type": "Point"
      },
      "properties": {
        "bangumi_id": 498934,
        "bangumi_title": "群花绽放，彷如修罗",
        "ep_cut": 1,
        "image_url": "https://w.junreimap.com/images/points/498934/rp80dhmki_1736289753808.jpg",
        "location": "嵯峨-京都市",
        "point_id": "rp80dhmki",
        "point_name": "府​立​嵯峨野​高等​学校 时钟塔",
        "remark": ""
      },
      "type": "Feature"
    },
    {
      "geometry": {
        "coordinates": [
          135.775539,
          35.018243
        ],
        "type": "Point"
      },
      "properties": {
        "bangumi_id": 498934,
        "bangumi_title": "群花绽放，彷如修罗",
        "ep_cut": 9,
        "image_url": "https://w.junreimap.com/images/user/0/bangumi/498934/points/tk50pwxh1-1741533760318.jpg",
        "location": "京大周边-京都市",
        "point_id": "tk50pwxh1",
        "point_name": "京都教育文化センター",
        "remark": ""
      },
      "type": "Feature"
    },
    {
      "geometry": {
        "coordinates": [
          135.775452,
          35.018476
        ],
        "type": "Point"
      },
      "properties": {
        "bangumi_id": 498934,
        "bangumi_title": "群花绽放，彷如修罗",
        "ep_cut": 10,
        "image_url": "https://w.junreimap.com/images/points/498934/u1hnzn6hj_1742893440801.jpg",
        "location": "京大周边-京都市",
        "point_id": "u1hnzn6hj",
        "point_name": "京都教育文化センター 看板",
        "remark": ""
      },
      "type": "Feature"
    },
    {
      "geometry": {
        "coordinates": [
          135.775449,
          35.018521
        ],
        "type": "Point"
      },
      "properties": {
        "bangumi_id": 498934,
        "bangumi_title": "群花绽放，彷如修罗",
        "ep_cut": 9,
        "image_url": "https://w.junreimap.com/images/points/498934/9o53kfo_1768061152646.jpg",
        "location": "京大周边-京都市",
        "point_id": "9o53kfo",
        "point_name": "京都教育文化センター 前",
        "remark": ""
      },
      "type": "Feature"
    },
    {
      "geometry": {
        "coordinates": [
          135.775451,
          35.018438
        ],
        "type": "Point"
      },
      "properties": {
        "bangumi_id": 498934,
        "bangumi_title": "群花绽放，彷如修罗",
        "ep_cut": 10,
        "image_url": "https://w.junreimap.com/images/points/498934/9o53yrd_1768061168116.jpg",
        "location": "京大周边-京都市",
        "point_id": "9o53yrd",
        "point_name": "京都教育文化センター 前",
        "remark": ""
      },
      "type": "Feature"
    },
    {
      "geometry": {
        "coordinates": [
          135.775513,
          35.018393
        ],
        "type": "Point"
      },
      "properties": {
        "bangumi_id": 498934,
        "bangumi_title": "群花绽放，彷如修罗",
        "ep_cut": 10,
        "image_url": "https://w.junreimap.com/images/points/498934/9o5564f_1768061223220.jpg",
        "location": "京大周边-京都市",
        "point_id": "9o5564f",
        "point_name": "京都教育文化センター 前",
        "remark": ""
      },
      "type": "Feature"
    },
    {
      "geometry": {
        "coordinates": [
          135.775489,
          35.018393
        ],
        "type": "Point"
      },
      "properties": {
        "bangumi_id": 498934,
        "bangumi_title": "群花绽放，彷如修罗",
        "ep_cut": 10,
        "image_url": "https://w.junreimap.com/images/points/498934/9o55fti_1768061235699.jpg",
        "location": "京大周边-京都市",
        "point_id": "9o55fti",
        "point_name": "京都教育文化センター 前",
        "remark": ""
      },
      "type": "Feature"
    },
    {
      "geometry": {
        "coordinates": [
          135.775538,
          35.018389
        ],
        "type": "Point"
      },
      "properties": {
        "bangumi_id": 498934,
        "bangumi_title": "群花绽放，彷如修罗",
        "ep_cut": 10,
        "image_url": "https://w.junreimap.com/images/points/498934/9o55me8_1768061242237.jpg",
        "location": "京大周边-京都市",
        "point_id": "9o55me8",
        "point_name": "京都教育文化センター 前",
        "remark": ""
      },
      "type": "Feature"
    },
    {
      "geometry": {
        "coordinates": [
          135.775561,
          35.01839
        ],
        "type": "Point"
      },
      "properties": {
        "bangumi_id": 498934,
        "bangumi_title": "群花绽放，彷如修罗",
        "ep_cut": 10,
        "image_url": "https://w.junreimap.com/images/points/498934/9o55pqb_1768061247012.jpg",
        "location": "京大周边-京都市",
        "point_id": "9o55pqb",
        "point_name": "京都教育文化センター 前",
        "remark": ""
      },
      "type": "Feature"
    },
    {
      "geometry": {
        "coordinates": [
          135.775511,
          35.018371
        ],
        "type": "Point"
      },
      "properties": {
        "bangumi_id": 498934,
        "bangumi_title": "群花绽放，彷如修罗",
        "ep_cut": 10,
        "image_url": "https://w.junreimap.com/images/points/498934/9o55uy9_1768061253959.jpg",
        "location": "京大周边-京都市",
        "point_id": "9o55uy9",
        "point_name": "京都教育文化センター 前",
        "remark": ""
      },
      "type": "Feature"
    },
    {
      "geometry": {
        "coordinates": [
          135.775534,
          35.018368
        ],
        "type": "Point"
      },
      "properties": {
        "bangumi_id": 498934,
        "bangumi_title": "群花绽放，彷如修罗",
        "ep_cut": 10,
        "image_url": "https://w.junreimap.com/images/points/498934/9o55yaz_1768061257518.jpg",
        "location": "京大周边-京都市",
        "point_id": "9o55yaz",
        "point_name": "京都教育文化センター 前",
        "remark": ""
      },
      "type": "Feature"
    },
    {
      "geometry": {
        "coordinates": [
          135.775552,
          35.018366
        ],
        "type": "Point"
      },
      "properties": {
        "bangumi_id": 498934,
        "bangumi_title": "群花绽放，彷如修罗",
        "ep_cut": 10,
        "image_url": "https://w.junreimap.com/images/points/498934/9o5618d_1768061271696.jpg",
        "location": "京大周边-京都市",
        "point_id": "9o5618d",
        "point_name": "京都教育文化センター 前",
        "remark": ""
      },
      "type": "Feature"
    },
    {
      "geometry": {
        "coordinates": [
          135.775486,
          35.018368
        ],
        "type": "Point"
      },
      "properties": {
        "bangumi_id": 498934,
        "bangumi_title": "群花绽放，彷如修罗",
        "ep_cut": 10,
        "image_url": "https://w.junreimap.com/images/points/498934/9o564kq_1768061266977.jpg",
        "location": "京大周边-京都市",
        "point_id": "9o564kq",
        "point_name": "京都教育文化センター 前",
        "remark": ""
      },
      "type": "Feature"
    },
    {
      "geometry": {
        "coordinates": [
          135.761087,
          35.028523
        ],
        "type": "Point"
      },
      "properties": {
        "bangumi_id": 498934,
        "bangumi_title": "群花绽放，彷如修罗",
        "ep_cut": "",
        "image_url": "https://w.junreimap.com/images/points/498934/9o5c7ww_1768061647222.jpg",
        "location": "京都御苑-京都市",
        "point_id": "9o5c7ww",
        "point_name": "京都御苑　児童公園",
        "remark": "作品中的休息区是将南边的小溪和北边的儿童公园组合而来的，实地无法得到所有元素完全一致的取景。原木虽然处于休息区域附近，但与建筑物不同框。"
      },
      "type": "Feature"
    },
    {
      "geometry": {
        "coordinates": [
          135.760981,
          35.028512
        ],
        "type": "Point"
      },
      "properties": {
        "bangumi_id": 498934,
        "bangumi_title": "群花绽放，彷如修罗",
        "ep_cut": "",
        "image_url": "https://w.junreimap.com/images/points/498934/9o5f9g8_1768061692714.jpg",
        "location": "京都御苑-京都市",
        "point_id": "9o5f9g8",
        "point_name": "京都御苑　児童公園",
        "remark": "作品中的休息区是将南边的小溪和北边的儿童公园组合而来的，实地无法得到所有元素完全一致的取景。原木虽然处于休息区域附近，但与建筑物不同框。"
      },
      "type": "Feature"
    },
    {
      "geometry": {
        "coordinates": [
          135.761187,
          35.02852
        ],
        "type": "Point"
      },
      "properties": {
        "bangumi_id": 498934,
        "bangumi_title": "群花绽放，彷如修罗",
        "ep_cut": "",
        "image_url": "https://w.junreimap.com/images/points/498934/9o5fdbg_1768061696866.jpg",
        "location": "京都御苑-京都市",
        "point_id": "9o5fdbg",
        "point_name": "京都御苑　児童公園",
        "remark": "作品中的休息区是将南边的小溪和北边的儿童公园组合而来的，实地无法得到所有元素完全一致的取景。原木虽然处于休息区域附近，但与建筑物不同框。"
      },
      "type": "Feature"
    },
    {
      "geometry": {
        "coordinates": [
          135.761018,
          35.028599
        ],
        "type": "Point"
      },
      "properties": {
        "bangumi_id": 498934,
        "bangumi_title": "群花绽放，彷如修罗",
        "ep_cut": "",
        "image_url": "https://w.junreimap.com/images/points/498934/9o5fg0k_1768061700822.jpg",
        "location": "京都御苑-京都市",
        "point_id": "9o5fg0k",
        "point_name": "京都御苑　児童公園",
        "remark": "作品中的休息区是将南边的小溪和北边的儿童公园组合而来的，实地无法得到所有元素完全一致的取景。原木虽然处于休息区域附近，但与建筑物不同框。"
      },
      "type": "Feature"
    },
    {
      "geometry": {
        "coordinates": [
          135.760761,
          35.028251
        ],
        "type": "Point"
      },
      "properties": {
        "bangumi_id": 498934,
        "bangumi_title": "群花绽放，彷如修罗",
        "ep_cut": 9,
        "image_url": "https://w.junreimap.com/images/points/498934/u1ij8nqym_1742895436937.jpg",
        "location": "京都御苑-京都市",
        "point_id": "u1ij8nqym",
        "point_name": "京都御苑　児童公園",
        "remark": "合同練習会のお昼休憩で花奈達がお弁当を食べていた場所。"
      },
      "type": "Feature"
    },
    {
      "geometry": {
        "coordinates": [
          135.760577,
          35.019957
        ],
        "type": "Point"
      },
      "properties": {
        "bangumi_id": 498934,
        "bangumi_title": "群花绽放，彷如修罗",
        "ep_cut": 9,
        "image_url": "https://w.junreimap.com/images/points/498934/u1ia2aucn_1742894947033.jpg",
        "location": "京都御苑-京都市",
        "point_id": "u1ia2aucn",
        "point_name": "出水の小川",
        "remark": ""
      },
      "type": "Feature"
    },
    {
      "geometry": {
        "coordinates": [
          135.760639,
          35.019907
        ],
        "type": "Point"
      },
      "properties": {
        "bangumi_id": 498934,
        "bangumi_title": "群花绽放，彷如修罗",
        "ep_cut": "",
        "image_url": "https://w.junreimap.com/images/points/498934/9o5cuit_1768061580327.jpg",
        "location": "京都御苑-京都市",
        "point_id": "9o5cuit",
        "point_name": "出水の小川",
        "remark": "作品中的休息区是将南边的小溪和北边的儿童公园组合而来的，实地无法得到所有元素完全一致的取景。"
      },
      "type": "Feature"
    },
    {
      "geometry": {
        "coordinates": [
          135.800749,
          35.027945
        ],
        "type": "Point"
      },
      "properties": {
        "bangumi_id": 498934,
        "bangumi_title": "群花绽放，彷如修罗",
        "ep_cut": "",
        "image_url": "https://w.junreimap.com/images/points/498934/9o6ek3d_1768063343686.jpg",
        "location": "大文字山-京都市",
        "point_id": "9o6ek3d",
        "point_name": "大文字山登山道 入口",
        "remark": "入口附近的泉水。从这里爬到山上的点大概要30分钟。"
      },
      "type": "Feature"
    },
    {
      "geometry": {
        "coordinates": [
          135.800683,
          35.027937
        ],
        "type": "Point"
      },
      "properties": {
        "bangumi_id": 498934,
        "bangumi_title": "群花绽放，彷如修罗",
        "ep_cut": "",
        "image_url": "https://w.junreimap.com/images/points/498934/9o6f7gm_1768063371538.jpg",
        "location": "大文字山-京都市",
        "point_id": "9o6f7gm",
        "point_name": "大文字山登山道 入口",
        "remark": "从这里爬到山上的点大概要30分钟。"
      },
      "type": "Feature"
    },
    {
      "geometry": {
        "coordinates": [
          135.800803,
          35.027962
        ],
        "type": "Point"
      },
      "properties": {
        "bangumi_id": 498934,
        "bangumi_title": "群花绽放，彷如修罗",
        "ep_cut": "",
        "image_url": "https://w.junreimap.com/images/points/498934/9o6fec9_1768063379172.jpg",
        "location": "大文字山-京都市",
        "point_id": "9o6fec9",
        "point_name": "大文字山登山道 入口",
        "remark": ""
      },
      "type": "Feature"
    },
    {
      "geometry": {
        "coordinates": [
          135.801952,
          35.027514
        ],
        "type": "Point"
      },
      "properties": {
        "bangumi_id": 498934,
        "bangumi_title": "群花绽放，彷如修罗",
        "ep_cut": "",
        "image_url": "https://w.junreimap.com/images/points/498934/9o6ggqk_1768063430434.jpg",
        "location": "大文字山-京都市",
        "point_id": "9o6ggqk",
        "point_name": "大文字山登山道",
        "remark": "山中非准确点位，顺着登山道爬总能拍到。"
      },
      "type": "Feature"
    },
    {
      "geometry": {
        "coordinates": [
          135.801978,
          35.027306
        ],
        "type": "Point"
      },
      "properties": {
        "bangumi_id": 498934,
        "bangumi_title": "群花绽放，彷如修罗",
        "ep_cut": "",
        "image_url": "https://w.junreimap.com/images/points/498934/9o6h1kn_1768063454762.jpg",
        "location": "大文字山-京都市",
        "point_id": "9o6h1kn",
        "point_name": "大文字山登山道",
        "remark": "山中非准确点位，顺着登山道爬总能拍到。"
      },
      "type": "Feature"
    },
    {
      "geometry": {
        "coordinates": [
          135.802001,
          35.027271
        ],
        "type": "Point"
      },
      "properties": {
        "bangumi_id": 498934,
        "bangumi_title": "群花绽放，彷如修罗",
        "ep_cut": "",
        "image_url": "https://w.junreimap.com/images/points/498934/9o6hax5_1768063467276.jpg",
        "location": "大文字山-京都市",
        "point_id": "9o6hax5",
        "point_name": "大文字山登山道",
        "remark": ""
      },
      "type": "Feature"
    },
    {
      "geometry": {
        "coordinates": [
          135.802018,
          35.027228
        ],
        "type": "Point"
      },
      "properties": {
        "bangumi_id": 498934,
        "bangumi_title": "群花绽放，彷如修罗",
        "ep_cut": "",
        "image_url": "https://w.junreimap.com/images/points/498934/9o6hp9m_1768063485929.jpg",
        "location": "大文字山-京都市",
        "point_id": "9o6hp9m",
        "point_name": "大文字山登山道",
        "remark": ""
      },
      "type": "Feature"
    },
    {
      "geometry": {
        "coordinates": [
          135.802042,
          35.027193
        ],
        "type": "Point"
      },
      "properties": {
        "bangumi_id": 498934,
        "bangumi_title": "群花绽放，彷如修罗",
        "ep_cut": "",
        "image_url": "https://w.junreimap.com/images/points/498934/9o6hsi2_1768063489632.jpg",
        "location": "大文字山-京都市",
        "point_id": "9o6hsi2",
        "point_name": "大文字山登山道",
        "remark": ""
      },
      "type": "Feature"
    },
    {
      "geometry": {
        "coordinates": [
          135.804373,
          35.022967
        ],
        "type": "Point"
      },
      "properties": {
        "bangumi_id": 498934,
        "bangumi_title": "群花绽放，彷如修罗",
        "ep_cut": 10,
        "image_url": "https://w.junreimap.com/images/user/0/bangumi/498934/points/tqk9qfw05-1742037024870.jpg",
        "location": "大文字山-京都市",
        "point_id": "tqk9qfw05",
        "point_name": "弘法大師堂",
        "remark": "https://maps.app.goo.gl/CrKkqPDXtm1xBgAt9"
      },
      "type": "Feature"
    },
    {
      "geometry": {
        "coordinates": [
          135.804329,
          35.023057
        ],
        "type": "Point"
      },
      "properties": {
        "bangumi_id": 498934,
        "bangumi_title": "群花绽放，彷如修罗",
        "ep_cut": "",
        "image_url": "https://w.junreimap.com/images/points/498934/9o6ihxl_1768063527632.jpg",
        "location": "大文字山-京都市",
        "point_id": "9o6ihxl",
        "point_name": "弘法大師堂",
        "remark": "山中非准确点位，顺着登山道爬总能拍到。从入口爬到山上的点大概要30分钟。"
      },
      "type": "Feature"
    },
    {
      "geometry": {
        "coordinates": [
          135.804105,
          35.02304
        ],
        "type": "Point"
      },
      "properties": {
        "bangumi_id": 498934,
        "bangumi_title": "群花绽放，彷如修罗",
        "ep_cut": "",
        "image_url": "https://w.junreimap.com/images/points/498934/9o6iot5_1768063533303.jpg",
        "location": "大文字山-京都市",
        "point_id": "9o6iot5",
        "point_name": "弘法大師堂 京都市俯瞰",
        "remark": "山中非准确点位，顺着登山道爬总能拍到。从入口爬到山上的点大概要30分钟。"
      },
      "type": "Feature"
    },
    {
      "geometry": {
        "coordinates": [
          135.804406,
          35.023031
        ],
        "type": "Point"
      },
      "properties": {
        "bangumi_id": 498934,
        "bangumi_title": "群花绽放，彷如修罗",
        "ep_cut": "",
        "image_url": "https://w.junreimap.com/images/points/498934/9o6iu5v_1768063540024.jpg",
        "location": "大文字山-京都市",
        "point_id": "9o6iu5v",
        "point_name": "弘法大師堂",
        "remark": "山中非准确点位，顺着登山道爬总从入口爬到山上的点大概要30分钟。能拍到。"
      },
      "type": "Feature"
    },
    {
      "geometry": {
        "coordinates": [
          135.804485,
          35.022907
        ],
        "type": "Point"
      },
      "properties": {
        "bangumi_id": 498934,
        "bangumi_title": "群花绽放，彷如修罗",
        "ep_cut": "",
        "image_url": "https://w.junreimap.com/images/points/498934/9o6j4b3_1768063551468.jpg",
        "location": "大文字山-京都市",
        "point_id": "9o6j4b3",
        "point_name": "弘法大師堂",
        "remark": "山中非准确点位，顺着登山道爬总能拍到。从入口爬到山上的点大概要30分钟。"
      },
      "type": "Feature"
    },
    {
      "geometry": {
        "coordinates": [
          135.77186,
          35.050191
        ],
        "type": "Point"
      },
      "properties": {
        "bangumi_id": 498934,
        "bangumi_title": "群花绽放，彷如修罗",
        "ep_cut": 12,
        "image_url": "https://w.junreimap.com/images/points/498934/u8g0c531a_1743438473914.jpg",
        "location": "左京区-京都市",
        "point_id": "u8g0c531a",
        "point_name": "京都​ノートルダム​女子大",
        "remark": ""
      },
      "type": "Feature"
    },
    {
      "geometry": {
        "coordinates": [
          135.771866,
          35.050457
        ],
        "type": "Point"
      },
      "properties": {
        "bangumi_id": 498934,
        "bangumi_title": "群花绽放，彷如修罗",
        "ep_cut": "",
        "image_url": "https://w.junreimap.com/images/points/498934/9o6y4e0_1768064251488.jpg",
        "location": "左京区-京都市",
        "point_id": "9o6y4e0",
        "point_name": "京都​ノートルダム​女子大",
        "remark": ""
      },
      "type": "Feature"
    },
    {
      "geometry": {
        "coordinates": [
          135.771895,
          35.050192
        ],
        "type": "Point"
      },
      "properties": {
        "bangumi_id": 498934,
        "bangumi_title": "群花绽放，彷如修罗",
        "ep_cut": "",
        "image_url": "https://w.junreimap.com/images/points/498934/9o6y92k_1768064257280.jpg",
        "location": "左京区-京都市",
        "point_id": "9o6y92k",
        "point_name": "京都​ノートルダム​女子大",
        "remark": ""
      },
      "type": "Feature"
    },
    {
      "geometry": {
        "coordinates": [
          135.77186,
          35.050263
        ],
        "type": "Point"
      },
      "properties": {
        "bangumi_id": 498934,
        "bangumi_title": "群花绽放，彷如修罗",
        "ep_cut": "",
        "image_url": "https://w.junreimap.com/images/points/498934/9o6ydmg_1768064264690.jpg",
        "location": "左京区-京都市",
        "point_id": "9o6ydmg",
        "point_name": "京都​ノートルダム​女子大",
        "remark": ""
      },
      "type": "Feature"
    },
    {
      "geometry": {
        "coordinates": [
          135.771903,
          35.050225
        ],
        "type": "Point"
      },
      "properties": {
        "bangumi_id": 498934,
        "bangumi_title": "群花绽放，彷如修罗",
        "ep_cut": "",
        "image_url": "https://w.junreimap.com/images/points/498934/9o6yjc5_1768064271111.jpg",
        "location": "左京区-京都市",
        "point_id": "9o6yjc5",
        "point_name": "京都​ノートルダム​女子大",
        "remark": ""
      },
      "type": "Feature"
    },
    {
      "geometry": {
        "coordinates": [
          135.771973,
          35.050163
        ],
        "type": "Point"
      },
      "properties": {
        "bangumi_id": 498934,
        "bangumi_title": "群花绽放，彷如修罗",
        "ep_cut": "",
        "image_url": "https://w.junreimap.com/images/points/498934/9o6ymgn_1768064275136.jpg",
        "location": "左京区-京都市",
        "point_id": "9o6ymgn",
        "point_name": "京都​ノートルダム​女子大",
        "remark": ""
      },
      "type": "Feature"
    },
    {
      "geometry": {
        "coordinates": [
          135.771811,
          35.050247
        ],
        "type": "Point"
      },
      "properties": {
        "bangumi_id": 498934,
        "bangumi_title": "群花绽放，彷如修罗",
        "ep_cut": "",
        "image_url": "https://w.junreimap.com/images/points/498934/9o6yplj_1768064278800.jpg",
        "location": "左京区-京都市",
        "point_id": "9o6yplj",
        "point_name": "京都​ノートルダム​女子大",
        "remark": ""
      },
      "type": "Feature"
    },
    {
      "geometry": {
        "coordinates": [
          135.77192,
          35.050277
        ],
        "type": "Point"
      },
      "properties": {
        "bangumi_id": 498934,
        "bangumi_title": "群花绽放，彷如修罗",
        "ep_cut": "",
        "image_url": "https://w.junreimap.com/images/points/498934/9o6ys5j_1768064283196.jpg",
        "location": "左京区-京都市",
        "point_id": "9o6ys5j",
        "point_name": "京都​ノートルダム​女子大",
        "remark": ""
      },
      "type": "Feature"
    },
    {
      "geometry": {
        "coordinates": [
          135.771848,
          35.050226
        ],
        "type": "Point"
      },
      "properties": {
        "bangumi_id": 498934,
        "bangumi_title": "群花绽放，彷如修罗",
        "ep_cut": "",
        "image_url": "https://w.junreimap.com/images/points/498934/9o6yvjh_1768064287960.jpg",
        "location": "左京区-京都市",
        "point_id": "9o6yvjh",
        "point_name": "京都​ノートルダム​女子大",
        "remark": ""
      },
      "type": "Feature"
    },
    {
      "geometry": {
        "coordinates": [
          135.771838,
          35.050161
        ],
        "type": "Point"
      },
      "properties": {
        "bangumi_id": 498934,
        "bangumi_title": "群花绽放，彷如修罗",
        "ep_cut": "",
        "image_url": "https://w.junreimap.com/images/points/498934/9o6yz6t_1768064291867.jpg",
        "location": "左京区-京都市",
        "point_id": "9o6yz6t",
        "point_name": "京都​ノートルダム​女子大",
        "remark": ""
      },
      "type": "Feature"
    },
    {
      "geometry": {
        "coordinates": [
          135.771908,
          35.050156
        ],
        "type": "Point"
      },
      "properties": {
        "bangumi_id": 498934,
        "bangumi_title": "群花绽放，彷如修罗",
        "ep_cut": "",
        "image_url": "https://w.junreimap.com/images/points/498934/9o6z2au_1768064296762.jpg",
        "location": "左京区-京都市",
        "point_id": "9o6z2au",
        "point_name": "京都​ノートルダム​女子大",
        "remark": ""
      },
      "type": "Feature"
    },
    {
      "geometry": {
        "coordinates": [
          135.63448,
          35.05991
        ],
        "type": "Point"
      },
      "properties": {
        "bangumi_id": 498934,
        "bangumi_title": "群花绽放，彷如修罗",
        "ep_cut": 10,
        "image_url": "https://w.junreimap.com/images/points/498934/9o6nb4f_1768063749677.jpg",
        "location": "愛宕山-京都",
        "point_id": "9o6nb4f",
        "point_name": "愛宕神社本殿",
        "remark": "注：爬上来差不多两小时，很考验体力。"
      },
      "type": "Feature"
    },
    {
      "geometry": {
        "coordinates": [
          135.634472,
          35.059871
        ],
        "type": "Point"
      },
      "properties": {
        "bangumi_id": 498934,
        "bangumi_title": "群花绽放，彷如修罗",
        "ep_cut": 10,
        "image_url": "https://w.junreimap.com/images/points/498934/u8fvsio63_1743438155225.jpg",
        "location": "愛宕山-京都",
        "point_id": "u8fvsio63",
        "point_name": "愛宕神社本殿",
        "remark": ""
      },
      "type": "Feature"
    },
    {
      "geometry": {
        "coordinates": [
          135.634432,
          35.059837
        ],
        "type": "Point"
      },
      "properties": {
        "bangumi_id": 498934,
        "bangumi_title": "群花绽放，彷如修罗",
        "ep_cut": 10,
        "image_url": "https://w.junreimap.com/images/points/498934/9o6ngju_1768063754832.jpg",
        "location": "愛宕山-京都",
        "point_id": "9o6ngju",
        "point_name": "愛宕神社本殿",
        "remark": "注：爬上来差不多两小时，很考验体力。"
      },
      "type": "Feature"
    },
    {
      "geometry": {
        "coordinates": [
          135.771874,
          35.031782
        ],
        "type": "Point"
      },
      "properties": {
        "bangumi_id": 498934,
        "bangumi_title": "群花绽放，彷如修罗",
        "ep_cut": "",
        "image_url": "https://w.junreimap.com/images/points/498934/9o6ov5i_1768063922979.jpg",
        "location": "鸭川三角洲-京都市",
        "point_id": "9o6ov5i",
        "point_name": "旧​三井家​下鴨​別邸",
        "remark": "瑞希家原型"
      },
      "type": "Feature"
    },
    {
      "geometry": {
        "coordinates": [
          135.771874,
          35.031747
        ],
        "type": "Point"
      },
      "properties": {
        "bangumi_id": 498934,
        "bangumi_title": "群花绽放，彷如修罗",
        "ep_cut": "",
        "image_url": "https://w.junreimap.com/images/points/498934/9o6rnjy_1768063950221.jpg",
        "location": "鸭川三角洲-京都市",
        "point_id": "9o6rnjy",
        "point_name": "旧​三井家​下鴨​別邸",
        "remark": ""
      },
      "type": "Feature"
    },
    {
      "geometry": {
        "coordinates": [
          135.771879,
          35.031814
        ],
        "type": "Point"
      },
      "properties": {
        "bangumi_id": 498934,
        "bangumi_title": "群花绽放，彷如修罗",
        "ep_cut": "",
        "image_url": "https://w.junreimap.com/images/points/498934/9o6rret_1768063956264.jpg",
        "location": "鸭川三角洲-京都市",
        "point_id": "9o6rret",
        "point_name": "旧​三井家​下鴨​別邸",
        "remark": ""
      },
      "type": "Feature"
    },
    {
      "geometry": {
        "coordinates": [
          135.771909,
          35.031816
        ],
        "type": "Point"
      },
      "properties": {
        "bangumi_id": 498934,
        "bangumi_title": "群花绽放，彷如修罗",
        "ep_cut": "",
        "image_url": "https://w.junreimap.com/images/points/498934/9o6rvl4_1768063960112.jpg",
        "location": "鸭川三角洲-京都市",
        "point_id": "9o6rvl4",
        "point_name": "旧​三井家​下鴨​別邸",
        "remark": ""
      },
      "type": "Feature"
    },
    {
      "geometry": {
        "coordinates": [
          135.771917,
          35.031772
        ],
        "type": "Point"
      },
      "properties": {
        "bangumi_id": 498934,
        "bangumi_title": "群花绽放，彷如修罗",
        "ep_cut": "",
        "image_url": "https://w.junreimap.com/images/points/498934/9o6s3cn_1768063971152.jpg",
        "location": "鸭川三角洲-京都市",
        "point_id": "9o6s3cn",
        "point_name": "旧​三井家​下鴨​別邸",
        "remark": ""
      },
      "type": "Feature"
    },
    {
      "geometry": {
        "coordinates": [
          135.772472,
          35.031958
        ],
        "type": "Point"
      },
      "properties": {
        "bangumi_id": 498934,
        "bangumi_title": "群花绽放，彷如修罗",
        "ep_cut": "",
        "image_url": "https://w.junreimap.com/images/points/498934/9o6wq1e_1768064187046.jpg",
        "location": "鸭川三角洲-京都市",
        "point_id": "9o6wq1e",
        "point_name": "下鴨東通",
        "remark": ""
      },
      "type": "Feature"
    },
    {
      "geometry": {
        "coordinates": [
          135.77252,
          35.03202
        ],
        "type": "Point"
      },
      "properties": {
        "bangumi_id": 498934,
        "bangumi_title": "群花绽放，彷如修罗",
        "ep_cut": "",
        "image_url": "https://w.junreimap.com/images/points/498934/9o6wu9r_1768064191247.jpg",
        "location": "鸭川三角洲-京都市",
        "point_id": "9o6wu9r",
        "point_name": "下鴨東通",
        "remark": ""
      },
      "type": "Feature"
    },
    {
      "geometry": {
        "coordinates": [
          135.772554,
          35.032073
        ],
        "type": "Point"
      },
      "properties": {
        "bangumi_id": 498934,
        "bangumi_title": "群花绽放，彷如修罗",
        "ep_cut": "",
        "image_url": "https://w.junreimap.com/images/points/498934/9o6wwp9_1768064195071.jpg",
        "location": "鸭川三角洲-京都市",
        "point_id": "9o6wwp9",
        "point_name": "下鴨東通",
        "remark": ""
      },
      "type": "Feature"
    },
    {
      "geometry": {
        "coordinates": [
          135.77259,
          35.032113
        ],
        "type": "Point"
      },
      "properties": {
        "bangumi_id": 498934,
        "bangumi_title": "群花绽放，彷如修罗",
        "ep_cut": "",
        "image_url": "https://w.junreimap.com/images/points/498934/9o6wzif_1768064197950.jpg",
        "location": "鸭川三角洲-京都市",
        "point_id": "9o6wzif",
        "point_name": "下鴨東通",
        "remark": ""
      },
      "type": "Feature"
    },
    {
      "geometry": {
        "coordinates": [
          135.772623,
          35.032157
        ],
        "type": "Point"
      },
      "properties": {
        "bangumi_id": 498934,
        "bangumi_title": "群花绽放，彷如修罗",
        "ep_cut": "",
        "image_url": "https://w.junreimap.com/images/points/498934/9o6x1vl_1768064200980.jpg",
        "location": "鸭川三角洲-京都市",
        "point_id": "9o6x1vl",
        "point_name": "下鴨東通",
        "remark": ""
      },
      "type": "Feature"
    },
    {
      "geometry": {
        "coordinates": [
          135.328085,
          35.454523
        ],
        "type": "Point"
      },
      "properties": {
        "bangumi_id": 498934,
        "bangumi_title": "群花绽放，彷如修罗",
        "ep_cut": 1,
        "image_url": "https://w.junreimap.com/images/user/2135/bangumi/498934/points/rp3gevrss-1736279990471.jpg",
        "location": "西吉原-舞鹤市",
        "point_id": "rp3gevrss",
        "point_name": "舞鶴水産流通協同組合",
        "remark": ""
      },
      "type": "Feature"
    },
    {
      "geometry": {
        "coordinates": [
          135.329623,
          35.454866
        ],
        "type": "Point"
      },
      "properties": {
        "bangumi_id": 498934,
        "bangumi_title": "群花绽放，彷如修罗",
        "ep_cut": 1,
        "image_url": "https://w.junreimap.com/images/points/498934/rp4p28913_1736282552825.jpg",
        "location": "西吉原-舞鹤市",
        "point_id": "rp4p28913",
        "point_name": "破れたフェンス",
        "remark": ""
      },
      "type": "Feature"
    },
    {
      "geometry": {
        "coordinates": [
          135.328526,
          35.454045
        ],
        "type": "Point"
      },
      "properties": {
        "bangumi_id": 498934,
        "bangumi_title": "群花绽放，彷如修罗",
        "ep_cut": 1,
        "image_url": "https://w.junreimap.com/images/points/498934/rp3mqmu99_1736280219873.jpg",
        "location": "西吉原-舞鹤市",
        "point_id": "rp3mqmu99",
        "point_name": "大和橋",
        "remark": ""
      },
      "type": "Feature"
    },
    {
      "geometry": {
        "coordinates": [
          135.390345,
          35.51669
        ],
        "type": "Point"
      },
      "properties": {
        "bangumi_id": 498934,
        "bangumi_title": "群花绽放，彷如修罗",
        "ep_cut": "OP1",
        "image_url": "https://w.junreimap.com/images/points/498934/rp3qg8rs5_1736280557365.jpg",
        "location": "大浦-舞鹤市",
        "point_id": "rp3qg8rs5",
        "point_name": "舞鶴クレインブリッジ",
        "remark": "OPで花奈が走っている道"
      },
      "type": "Feature"
    },
    {
      "geometry": {
        "coordinates": [
          135.390747,
          35.516962
        ],
        "type": "Point"
      },
      "properties": {
        "bangumi_id": 498934,
        "bangumi_title": "群花绽放，彷如修罗",
        "ep_cut": "",
        "image_url": "https://w.junreimap.com/images/points/498934/9o5hyv4_1768061822768.jpg",
        "location": "大浦-舞鹤市",
        "point_id": "9o5hyv4",
        "point_name": "平・​赤野​浄化​センター 前",
        "remark": ""
      },
      "type": "Feature"
    },
    {
      "geometry": {
        "coordinates": [
          135.390819,
          35.517012
        ],
        "type": "Point"
      },
      "properties": {
        "bangumi_id": 498934,
        "bangumi_title": "群花绽放，彷如修罗",
        "ep_cut": "",
        "image_url": "https://w.junreimap.com/images/points/498934/9o5j1ng_1768061868633.jpg",
        "location": "大浦-舞鹤市",
        "point_id": "9o5j1ng",
        "point_name": "平・​赤野​浄化​センター 前",
        "remark": ""
      },
      "type": "Feature"
    },
    {
      "geometry": {
        "coordinates": [
          135.389691,
          35.517035
        ],
        "type": "Point"
      },
      "properties": {
        "bangumi_id": 498934,
        "bangumi_title": "群花绽放，彷如修罗",
        "ep_cut": "",
        "image_url": "https://w.junreimap.com/images/points/498934/9o5inlo_1768061863446.jpg",
        "location": "大浦-舞鹤市",
        "point_id": "9o5inlo",
        "point_name": "舞鹤湾 俯瞰",
        "remark": ""
      },
      "type": "Feature"
    },
    {
      "geometry": {
        "coordinates": [
          135.388853,
          35.516216
        ],
        "type": "Point"
      },
      "properties": {
        "bangumi_id": 498934,
        "bangumi_title": "群花绽放，彷如修罗",
        "ep_cut": "",
        "image_url": "https://w.junreimap.com/images/points/498934/9o5h9i6_1768061794056.jpg",
        "location": "大浦-舞鹤市",
        "point_id": "9o5h9i6",
        "point_name": "西大浦郵便局 前 码头",
        "remark": ""
      },
      "type": "Feature"
    },
    {
      "geometry": {
        "coordinates": [
          135.388556,
          35.515912
        ],
        "type": "Point"
      },
      "properties": {
        "bangumi_id": 498934,
        "bangumi_title": "群花绽放，彷如修罗",
        "ep_cut": "",
        "image_url": "https://w.junreimap.com/images/points/498934/9o5m6iy_1768062016923.jpg",
        "location": "大浦-舞鹤市",
        "point_id": "9o5m6iy",
        "point_name": "平バス停 前",
        "remark": "此处长椅为平巴士站的长椅"
      },
      "type": "Feature"
    },
    {
      "geometry": {
        "coordinates": [
          135.388684,
          35.51586
        ],
        "type": "Point"
      },
      "properties": {
        "bangumi_id": 498934,
        "bangumi_title": "群花绽放，彷如修罗",
        "ep_cut": "",
        "image_url": "https://w.junreimap.com/images/points/498934/9o5kmaa_1768061968194.jpg",
        "location": "大浦-舞鹤市",
        "point_id": "9o5kmaa",
        "point_name": "平バス停 前",
        "remark": ""
      },
      "type": "Feature"
    },
    {
      "geometry": {
        "coordinates": [
          135.388694,
          35.515889
        ],
        "type": "Point"
      },
      "properties": {
        "bangumi_id": 498934,
        "bangumi_title": "群花绽放，彷如修罗",
        "ep_cut": "",
        "image_url": "https://w.junreimap.com/images/points/498934/9o5lld3_1768061987923.jpg",
        "location": "大浦-舞鹤市",
        "point_id": "9o5lld3",
        "point_name": "平バス停 前",
        "remark": ""
      },
      "type": "Feature"
    },
    {
      "geometry": {
        "coordinates": [
          135.388706,
          35.51592
        ],
        "type": "Point"
      },
      "properties": {
        "bangumi_id": 498934,
        "bangumi_title": "群花绽放，彷如修罗",
        "ep_cut": "",
        "image_url": "https://w.junreimap.com/images/points/498934/9o5lpas_1768061993778.jpg",
        "location": "大浦-舞鹤市",
        "point_id": "9o5lpas",
        "point_name": "平バス停 前",
        "remark": ""
      },
      "type": "Feature"
    },
    {
      "geometry": {
        "coordinates": [
          135.388747,
          35.515911
        ],
        "type": "Point"
      },
      "properties": {
        "bangumi_id": 498934,
        "bangumi_title": "群花绽放，彷如修罗",
        "ep_cut": "",
        "image_url": "https://w.junreimap.com/images/points/498934/9o5ppfy_1768062179352.jpg",
        "location": "大浦-舞鹤市",
        "point_id": "9o5ppfy",
        "point_name": "平バス停 前",
        "remark": ""
      },
      "type": "Feature"
    },
    {
      "geometry": {
        "coordinates": [
          135.388719,
          35.515941
        ],
        "type": "Point"
      },
      "properties": {
        "bangumi_id": 498934,
        "bangumi_title": "群花绽放，彷如修罗",
        "ep_cut": "",
        "image_url": "https://w.junreimap.com/images/points/498934/9o5pst3_1768062183798.jpg",
        "location": "大浦-舞鹤市",
        "point_id": "9o5pst3",
        "point_name": "平バス停 前",
        "remark": ""
      },
      "type": "Feature"
    },
    {
      "geometry": {
        "coordinates": [
          135.388646,
          35.51584
        ],
        "type": "Point"
      },
      "properties": {
        "bangumi_id": 498934,
        "bangumi_title": "群花绽放，彷如修罗",
        "ep_cut": "",
        "image_url": "https://w.junreimap.com/images/points/498934/9o5pw3y_1768062189946.jpg",
        "location": "大浦-舞鹤市",
        "point_id": "9o5pw3y",
        "point_name": "平バス停 前",
        "remark": ""
      },
      "type": "Feature"
    },
    {
      "geometry": {
        "coordinates": [
          135.395855,
          35.473686
        ],
        "type": "Point"
      },
      "properties": {
        "bangumi_id": 498934,
        "bangumi_title": "群花绽放，彷如修罗",
        "ep_cut": 6,
        "image_url": "https://w.junreimap.com/images/points/498934/tlyc9bth5_1741675882309.jpg",
        "location": "东舞鹤-舞鹤市",
        "point_id": "tlyc9bth5",
        "point_name": "舞鶴七条通り",
        "remark": "第5話、6話"
      },
      "type": "Feature"
    },
    {
      "geometry": {
        "coordinates": [
          135.395857,
          35.473675
        ],
        "type": "Point"
      },
      "properties": {
        "bangumi_id": 498934,
        "bangumi_title": "群花绽放，彷如修罗",
        "ep_cut": "",
        "image_url": "https://w.junreimap.com/images/points/498934/9o5rlsk_1768062304425.jpg",
        "location": "东舞鹤-舞鹤市",
        "point_id": "9o5rlsk",
        "point_name": "舞鶴七条通り",
        "remark": "作品里并未完全参考七条通的建筑物，但大致上是一样的。"
      },
      "type": "Feature"
    },
    {
      "geometry": {
        "coordinates": [
          135.39585,
          35.473694
        ],
        "type": "Point"
      },
      "properties": {
        "bangumi_id": 498934,
        "bangumi_title": "群花绽放，彷如修罗",
        "ep_cut": "",
        "image_url": "https://w.junreimap.com/images/points/498934/9o5t1t3_1768062334919.jpg",
        "location": "东舞鹤-舞鹤市",
        "point_id": "9o5t1t3",
        "point_name": "舞鶴七条通り",
        "remark": ""
      },
      "type": "Feature"
    },
    {
      "geometry": {
        "coordinates": [
          135.395846,
          35.473705
        ],
        "type": "Point"
      },
      "properties": {
        "bangumi_id": 498934,
        "bangumi_title": "群花绽放，彷如修罗",
        "ep_cut": "",
        "image_url": "https://w.junreimap.com/images/points/498934/9o5t6ct_1768062341010.jpg",
        "location": "东舞鹤-舞鹤市",
        "point_id": "9o5t6ct",
        "point_name": "舞鶴七条通り",
        "remark": ""
      },
      "type": "Feature"
    },
    {
      "geometry": {
        "coordinates": [
          135.395862,
          35.473665
        ],
        "type": "Point"
      },
      "properties": {
        "bangumi_id": 498934,
        "bangumi_title": "群花绽放，彷如修罗",
        "ep_cut": "",
        "image_url": "https://w.junreimap.com/images/points/498934/9o5t9c6_1768062344418.jpg",
        "location": "东舞鹤-舞鹤市",
        "point_id": "9o5t9c6",
        "point_name": "舞鶴七条通り",
        "remark": ""
      },
      "type": "Feature"
    },
    {
      "geometry": {
        "coordinates": [
          135.397362,
          35.491705
        ],
        "type": "Point"
      },
      "properties": {
        "bangumi_id": 498934,
        "bangumi_title": "群花绽放，彷如修罗",
        "ep_cut": 8,
        "image_url": "https://w.junreimap.com/images/points/498934/tlyrkky9q_1741676806252.jpg",
        "location": "愛宕山西侧-舞鹤市",
        "point_id": "tlyrkky9q",
        "point_name": "舞鶴野原港高浜線",
        "remark": "8話"
      },
      "type": "Feature"
    },
    {
      "geometry": {
        "coordinates": [
          135.39732,
          35.491605
        ],
        "type": "Point"
      },
      "properties": {
        "bangumi_id": 498934,
        "bangumi_title": "群花绽放，彷如修罗",
        "ep_cut": "",
        "image_url": "https://w.junreimap.com/images/points/498934/9o5yc2c_1768062583347.jpg",
        "location": "愛宕山西侧-舞鹤市",
        "point_id": "9o5yc2c",
        "point_name": "舞鶴野原港高浜線",
        "remark": ""
      },
      "type": "Feature"
    },
    {
      "geometry": {
        "coordinates": [
          135.397296,
          35.491543
        ],
        "type": "Point"
      },
      "properties": {
        "bangumi_id": 498934,
        "bangumi_title": "群花绽放，彷如修罗",
        "ep_cut": "",
        "image_url": "https://w.junreimap.com/images/points/498934/9o5ynx8_1768062600506.jpg",
        "location": "愛宕山西侧-舞鹤市",
        "point_id": "9o5ynx8",
        "point_name": "舞鶴野原港高浜線",
        "remark": ""
      },
      "type": "Feature"
    },
    {
      "geometry": {
        "coordinates": [
          135.397278,
          35.491482
        ],
        "type": "Point"
      },
      "properties": {
        "bangumi_id": 498934,
        "bangumi_title": "群花绽放，彷如修罗",
        "ep_cut": "",
        "image_url": "https://w.junreimap.com/images/points/498934/9o5yt8s_1768062603501.jpg",
        "location": "愛宕山西侧-舞鹤市",
        "point_id": "9o5yt8s",
        "point_name": "舞鶴野原港高浜線",
        "remark": ""
      },
      "type": "Feature"
    },
    {
      "geometry": {
        "coordinates": [
          135.397242,
          35.491426
        ],
        "type": "Point"
      },
      "properties": {
        "bangumi_id": 498934,
        "bangumi_title": "群花绽放，彷如修罗",
        "ep_cut": "",
        "image_url": "https://w.junreimap.com/images/points/498934/9o5yw2q_1768062608124.jpg",
        "location": "愛宕山西侧-舞鹤市",
        "point_id": "9o5yw2q",
        "point_name": "舞鶴野原港高浜線",
        "remark": ""
      },
      "type": "Feature"
    },
    {
      "geometry": {
        "coordinates": [
          135.298926,
          35.514703
        ],
        "type": "Point"
      },
      "properties": {
        "bangumi_id": 498934,
        "bangumi_title": "群花绽放，彷如修罗",
        "ep_cut": "",
        "image_url": "https://w.junreimap.com/images/points/498934/9o5vslz_1768062487732.jpg",
        "location": "若狭湾-舞鹤市",
        "point_id": "9o5vslz",
        "point_name": "神崎海水浴場",
        "remark": ""
      },
      "type": "Feature"
    },
    {
      "geometry": {
        "coordinates": [
          135.298782,
          35.514663
        ],
        "type": "Point"
      },
      "properties": {
        "bangumi_id": 498934,
        "bangumi_title": "群花绽放，彷如修罗",
        "ep_cut": "",
        "image_url": "https://w.junreimap.com/images/points/498934/9o5w5gm_1768062493113.jpg",
        "location": "若狭湾-舞鹤市",
        "point_id": "9o5w5gm",
        "point_name": "神崎海水浴場",
        "remark": ""
      },
      "type": "Feature"
    },
    {
      "geometry": {
        "coordinates": [
          135.29881,
          35.514739
        ],
        "type": "Point"
      },
      "properties": {
        "bangumi_id": 498934,
        "bangumi_title": "群花绽放，彷如修罗",
        "ep_cut": 7,
        "image_url": "https://w.junreimap.com/images/points/498934/tlym2tejw_1741676467108.jpg",
        "location": "若狭湾-舞鹤市",
        "point_id": "tlym2tejw",
        "point_name": "神崎海水浴場",
        "remark": "第7話で撮影をしていたこちらの海岸"
      },
      "type": "Feature"
    },
    {
      "geometry": {
        "coordinates": [
          135.298891,
          35.514629
        ],
        "type": "Point"
      },
      "properties": {
        "bangumi_id": 498934,
        "bangumi_title": "群花绽放，彷如修罗",
        "ep_cut": "",
        "image_url": "https://w.junreimap.com/images/points/498934/9o5wxut_1768062519906.jpg",
        "location": "若狭湾-舞鹤市",
        "point_id": "9o5wxut",
        "point_name": "神崎海水浴場",
        "remark": ""
      },
      "type": "Feature"
    },
    {
      "geometry": {
        "coordinates": [
          135.298762,
          35.514848
        ],
        "type": "Point"
      },
      "properties": {
        "bangumi_id": 498934,
        "bangumi_title": "群花绽放，彷如修罗",
        "ep_cut": "",
        "image_url": "https://w.junreimap.com/images/points/498934/9o5xd0f_1768062539928.jpg",
        "location": "若狭湾-舞鹤市",
        "point_id": "9o5xd0f",
        "point_name": "神崎海水浴場",
        "remark": ""
      },
      "type": "Feature"
    },
    {
      "geometry": {
        "coordinates": [
          135.298847,
          35.514479
        ],
        "type": "Point"
      },
      "properties": {
        "bangumi_id": 498934,
        "bangumi_title": "群花绽放，彷如修罗",
        "ep_cut": "",
        "image_url": "https://w.junreimap.com/images/points/498934/9o5xipk_1768062543343.jpg",
        "location": "若狭湾-舞鹤市",
        "point_id": "9o5xipk",
        "point_name": "神崎海水浴場",
        "remark": "凉亭"
      },
      "type": "Feature"
    },
    {
      "geometry": {
        "coordinates": [
          135.298901,
          35.514466
        ],
        "type": "Point"
      },
      "properties": {
        "bangumi_id": 498934,
        "bangumi_title": "群花绽放，彷如修罗",
        "ep_cut": "",
        "image_url": "https://w.junreimap.com/images/points/498934/9o5vkvd_1768062454687.jpg",
        "location": "若狭湾-舞鹤市",
        "point_id": "9o5vkvd",
        "point_name": "神崎海水浴場",
        "remark": "非精确坐标"
      },
      "type": "Feature"
    },
    {
      "geometry": {
        "coordinates": [
          135.804657,
          34.87973
        ],
        "type": "Point"
      },
      "properties": {
        "bangumi_id": 498934,
        "bangumi_title": "群花绽放，彷如修罗",
        "ep_cut": 7,
        "image_url": "https://w.junreimap.com/images/points/498934/t1acbmiq4_1740056472198.jpg",
        "location": "宇治文化中心-宇治市",
        "point_id": "t1acbmiq4",
        "point_name": "宇治文化センター",
        "remark": ""
      },
      "type": "Feature"
    },
    {
      "geometry": {
        "coordinates": [
          135.804642,
          34.879861
        ],
        "type": "Point"
      },
      "properties": {
        "bangumi_id": 498934,
        "bangumi_title": "群花绽放，彷如修罗",
        "ep_cut": 7,
        "image_url": "https://w.junreimap.com/images/points/498934/t1ag6d26z_1740056534101.jpg",
        "location": "宇治文化中心-宇治市",
        "point_id": "t1ag6d26z",
        "point_name": "宇治文化センター",
        "remark": ""
      },
      "type": "Feature"
    },
    {
      "geometry": {
        "coordinates": [
          135.804524,
          34.879936
        ],
        "type": "Point"
      },
      "properties": {
        "bangumi_id": 498934,
        "bangumi_title": "群花绽放，彷如修罗",
        "ep_cut": 7,
        "image_url": "https://w.junreimap.com/images/points/498934/t1agxqn5l_1740056580485.jpg",
        "location": "宇治文化中心-宇治市",
        "point_id": "t1agxqn5l",
        "point_name": "宇治文化センター",
        "remark": ""
      },
      "type": "Feature"
    },
    {
      "geometry": {
        "coordinates": [
          135.804569,
          34.879856
        ],
        "type": "Point"
      },
      "properties": {
        "bangumi_id": 498934,
        "bangumi_title": "群花绽放，彷如修罗",
        "ep_cut": 7,
        "image_url": "https://w.junreimap.com/images/points/498934/t1ahwb44b_1740056638030.jpg",
        "location": "宇治文化中心-宇治市",
        "point_id": "t1ahwb44b",
        "point_name": "宇治文化センター",
        "remark": "背后是For the Life Cafe"
      },
      "type": "Feature"
    },
    {
      "geometry": {
        "coordinates": [
          135.804459,
          34.879729
        ],
        "type": "Point"
      },
      "properties": {
        "bangumi_id": 498934,
        "bangumi_title": "群花绽放，彷如修罗",
        "ep_cut": "",
        "image_url": "https://w.junreimap.com/images/points/498934/9o6084c_1768062670649.jpg",
        "location": "宇治文化中心-宇治市",
        "point_id": "9o6084c",
        "point_name": "宇治文化センター",
        "remark": "入口那根大柱子，当然现实里并没有挂海报"
      },
      "type": "Feature"
    },
    {
      "geometry": {
        "coordinates": [
          135.810417,
          34.889807
        ],
        "type": "Point"
      },
      "properties": {
        "bangumi_id": 498934,
        "bangumi_title": "群花绽放，彷如修罗",
        "ep_cut": 8,
        "image_url": "https://w.junreimap.com/images/points/498934/tx3h8eg56_1742549172208.jpg",
        "location": "朝雾桥-宇治市",
        "point_id": "tx3h8eg56",
        "point_name": "朝雾橋前",
        "remark": "不甘心，想做得更好，全国金"
      },
      "type": "Feature"
    },
    {
      "geometry": {
        "coordinates": [
          135.810457,
          34.88978
        ],
        "type": "Point"
      },
      "properties": {
        "bangumi_id": 498934,
        "bangumi_title": "群花绽放，彷如修罗",
        "ep_cut": "",
        "image_url": "https://w.junreimap.com/images/points/498934/9o66fqf_1768062961704.jpg",
        "location": "朝雾桥-宇治市",
        "point_id": "9o66fqf",
        "point_name": "朝雾橋前",
        "remark": ""
      },
      "type": "Feature"
    },
    {
      "geometry": {
        "coordinates": [
          135.810304,
          34.889432
        ],
        "type": "Point"
      },
      "properties": {
        "bangumi_id": 498934,
        "bangumi_title": "群花绽放，彷如修罗",
        "ep_cut": "",
        "image_url": "https://w.junreimap.com/images/points/498934/9o66ka6_1768062965980.jpg",
        "location": "朝雾桥-宇治市",
        "point_id": "9o66ka6",
        "point_name": "朝雾橋前",
        "remark": "石头老演员了"
      },
      "type": "Feature"
    },
    {
      "geometry": {
        "coordinates": [
          135.810491,
          34.889751
        ],
        "type": "Point"
      },
      "properties": {
        "bangumi_id": 498934,
        "bangumi_title": "群花绽放，彷如修罗",
        "ep_cut": "",
        "image_url": "https://w.junreimap.com/images/points/498934/9o66t1h_1768062982755.jpg",
        "location": "朝雾桥-宇治市",
        "point_id": "9o66t1h",
        "point_name": "朝雾橋前",
        "remark": ""
      },
      "type": "Feature"
    },
    {
      "geometry": {
        "coordinates": [
          135.810529,
          34.889707
        ],
        "type": "Point"
      },
      "properties": {
        "bangumi_id": 498934,
        "bangumi_title": "群花绽放，彷如修罗",
        "ep_cut": "",
        "image_url": "https://w.junreimap.com/images/points/498934/9o6702o_1768062986142.jpg",
        "location": "朝雾桥-宇治市",
        "point_id": "9o6702o",
        "point_name": "朝雾橋前",
        "remark": ""
      },
      "type": "Feature"
    },
    {
      "geometry": {
        "coordinates": [
          135.809591,
          34.889286
        ],
        "type": "Point"
      },
      "properties": {
        "bangumi_id": 498934,
        "bangumi_title": "群花绽放，彷如修罗",
        "ep_cut": "",
        "image_url": "https://w.junreimap.com/images/points/498934/9o672lk_1768062992865.jpg",
        "location": "朝雾桥-宇治市",
        "point_id": "9o672lk",
        "point_name": "朝雾橋前 宇治公园视角",
        "remark": ""
      },
      "type": "Feature"
    },
    {
      "geometry": {
        "coordinates": [
          135.81056,
          34.889683
        ],
        "type": "Point"
      },
      "properties": {
        "bangumi_id": 498934,
        "bangumi_title": "群花绽放，彷如修罗",
        "ep_cut": "",
        "image_url": "https://w.junreimap.com/images/points/498934/9o67roe_1768063025879.jpg",
        "location": "朝雾桥-宇治市",
        "point_id": "9o67roe",
        "point_name": "朝雾橋前 宇治公园视角",
        "remark": ""
      },
      "type": "Feature"
    },
    {
      "geometry": {
        "coordinates": [
          135.810596,
          34.889651
        ],
        "type": "Point"
      },
      "properties": {
        "bangumi_id": 498934,
        "bangumi_title": "群花绽放，彷如修罗",
        "ep_cut": "",
        "image_url": "https://w.junreimap.com/images/points/498934/9o67xnd_1768063030326.jpg",
        "location": "朝雾桥-宇治市",
        "point_id": "9o67xnd",
        "point_name": "朝雾橋前 宇治公园视角",
        "remark": ""
      },
      "type": "Feature"
    },
    {
      "geometry": {
        "coordinates": [
          135.810633,
          34.889617
        ],
        "type": "Point"
      },
      "properties": {
        "bangumi_id": 498934,
        "bangumi_title": "群花绽放，彷如修罗",
        "ep_cut": "",
        "image_url": "https://w.junreimap.com/images/points/498934/9o68238_1768063042310.jpg",
        "location": "朝雾桥-宇治市",
        "point_id": "9o68238",
        "point_name": "朝雾橋前 宇治公园视角",
        "remark": ""
      },
      "type": "Feature"
    },
    {
      "geometry": {
        "coordinates": [
          137.041841,
          36.8147
        ],
        "type": "Point"
      },
      "properties": {
        "bangumi_id": 498934,
        "bangumi_title": "群花绽放，彷如修罗",
        "ep_cut": 8,
        "image_url": "https://w.junreimap.com/images/points/498934/tlxge53le_1741673917427.jpg",
        "location": "高冈市",
        "point_id": "tlxge53le",
        "point_name": "道の駅雨晴 1F",
        "remark": "第8話\n冬賀がピアノを弾いていた場所"
      },
      "type": "Feature"
    },
    {
      "geometry": {
        "coordinates": [
          137.041785,
          36.814724
        ],
        "type": "Point"
      },
      "properties": {
        "bangumi_id": 498934,
        "bangumi_title": "群花绽放，彷如修罗",
        "ep_cut": "",
        "image_url": "https://w.junreimap.com/images/points/498934/9o69fro_1768063104804.jpg",
        "location": "高冈市",
        "point_id": "9o69fro",
        "point_name": "道の駅雨晴 1F",
        "remark": "钢琴已经搬走了，悲"
      },
      "type": "Feature"
    },
    {
      "geometry": {
        "coordinates": [
          137.041811,
          36.814714
        ],
        "type": "Point"
      },
      "properties": {
        "bangumi_id": 498934,
        "bangumi_title": "群花绽放，彷如修罗",
        "ep_cut": "",
        "image_url": "https://w.junreimap.com/images/points/498934/9o6a5wx_1768063137181.jpg",
        "location": "高冈市",
        "point_id": "9o6a5wx",
        "point_name": "道の駅雨晴 1F",
        "remark": ""
      },
      "type": "Feature"
    },
    {
      "geometry": {
        "coordinates": [
          137.041782,
          36.814703
        ],
        "type": "Point"
      },
      "properties": {
        "bangumi_id": 498934,
        "bangumi_title": "群花绽放，彷如修罗",
        "ep_cut": "",
        "image_url": "https://w.junreimap.com/images/points/498934/9o6aut0_1768063172572.jpg",
        "location": "高冈市",
        "point_id": "9o6aut0",
        "point_name": "道の駅雨晴 1F",
        "remark": ""
      },
      "type": "Feature"
    },
    {
      "geometry": {
        "coordinates": [
          137.041792,
          36.814737
        ],
        "type": "Point"
      },
      "properties": {
        "bangumi_id": 498934,
        "bangumi_title": "群花绽放，彷如修罗",
        "ep_cut": "",
        "image_url": "https://w.junreimap.com/images/points/498934/9o6b85e_1768063193376.jpg",
        "location": "高冈市",
        "point_id": "9o6b85e",
        "point_name": "道の駅雨晴 1F",
        "remark": "需要用长焦从铁道入口附近拍摄"
      },
      "type": "Feature"
    },
    {
      "geometry": {
        "coordinates": [
          137.041814,
          36.814727
        ],
        "type": "Point"
      },
      "properties": {
        "bangumi_id": 498934,
        "bangumi_title": "群花绽放，彷如修罗",
        "ep_cut": "",
        "image_url": "https://w.junreimap.com/images/points/498934/9o6bpfz_1768063205818.jpg",
        "location": "高冈市",
        "point_id": "9o6bpfz",
        "point_name": "道の駅雨晴 1F",
        "remark": ""
      },
      "type": "Feature"
    },
    {
      "geometry": {
        "coordinates": [
          137.041766,
          36.814734
        ],
        "type": "Point"
      },
      "properties": {
        "bangumi_id": 498934,
        "bangumi_title": "群花绽放，彷如修罗",
        "ep_cut": "",
        "image_url": "https://w.junreimap.com/images/points/498934/9o6b3zq_1768063178465.jpg",
        "location": "高冈市",
        "point_id": "9o6b3zq",
        "point_name": "道の駅雨晴 1F",
        "remark": ""
      },
      "type": "Feature"
    },
    {
      "geometry": {
        "coordinates": [
          137.041839,
          36.814714
        ],
        "type": "Point"
      },
      "properties": {
        "bangumi_id": 498934,
        "bangumi_title": "群花绽放，彷如修罗",
        "ep_cut": "",
        "image_url": "https://w.junreimap.com/images/points/498934/9o6c3vc_1768063235476.jpg",
        "location": "高冈市",
        "point_id": "9o6c3vc",
        "point_name": "道の駅雨晴 1F",
        "remark": ""
      },
      "type": "Feature"
    },
    {
      "geometry": {
        "coordinates": [
          137.041855,
          36.814706
        ],
        "type": "Point"
      },
      "properties": {
        "bangumi_id": 498934,
        "bangumi_title": "群花绽放，彷如修罗",
        "ep_cut": "",
        "image_url": "https://w.junreimap.com/images/points/498934/9o6cmv1_1768063250452.jpg",
        "location": "高冈市",
        "point_id": "9o6cmv1",
        "point_name": "道の駅雨晴 1F",
        "remark": ""
      },
      "type": "Feature"
    },
    {
      "geometry": {
        "coordinates": [
          137.041833,
          36.814688
        ],
        "type": "Point"
      },
      "properties": {
        "bangumi_id": 498934,
        "bangumi_title": "群花绽放，彷如修罗",
        "ep_cut": "",
        "image_url": "https://w.junreimap.com/images/points/498934/9o6cqmh_1768063254150.jpg",
        "location": "高冈市",
        "point_id": "9o6cqmh",
        "point_name": "道の駅雨晴 1F",
        "remark": ""
      },
      "type": "Feature"
    },
    {
      "geometry": {
        "coordinates": [
          137.041581,
          36.814829
        ],
        "type": "Point"
      },
      "properties": {
        "bangumi_id": 498934,
        "bangumi_title": "群花绽放，彷如修罗",
        "ep_cut": 8,
        "image_url": "https://w.junreimap.com/images/points/498934/tlxgznnx1_1741673990930.jpg",
        "location": "高冈市",
        "point_id": "tlxgznnx1",
        "point_name": "道の駅雨晴 2F",
        "remark": ""
      },
      "type": "Feature"
    },
    {
      "geometry": {
        "coordinates": [
          137.041724,
          36.815069
        ],
        "type": "Point"
      },
      "properties": {
        "bangumi_id": 498934,
        "bangumi_title": "群花绽放，彷如修罗",
        "ep_cut": 8,
        "image_url": "https://w.junreimap.com/images/points/498934/tlxidzpxe_1741674512515.jpg",
        "location": "高冈市",
        "point_id": "tlxidzpxe",
        "point_name": "雨晴海岸",
        "remark": ""
      },
      "type": "Feature"
    }
  ],
  "type": "FeatureCollection"
}