{
  "features": [
    {
      "geometry": {
        "coordinates": [
          139.778055,
          35.661183
        ],
        "type": "Point"
      },
      "properties": {
        "bangumi_id": 505895,
        "bangumi_title": "悲喜渔生",
        "ep_cut": "视觉图",
        "image_url": "https://w.junreimap.com/images/points/505895/ore9jofjj_1727996792415.jpg",
        "location": "",
        "point_id": "ore9jofjj",
        "point_name": "西仲橋",
        "remark": "此处建议在月島川水門附近使用长焦拍摄"
      },
      "type": "Feature"
    },
    {
      "geometry": {
        "coordinates": [
          139.782575,
          35.668552
        ],
        "type": "Point"
      },
      "properties": {
        "bangumi_id": 505895,
        "bangumi_title": "悲喜渔生",
        "ep_cut": 1,
        "image_url": "https://w.junreimap.com/images/points/505895/orf5i2yhc_1727998729126.jpg",
        "location": "",
        "point_id": "orf5i2yhc",
        "point_name": "住吉小橋",
        "remark": ""
      },
      "type": "Feature"
    },
    {
      "geometry": {
        "coordinates": [
          139.812728,
          35.64465
        ],
        "type": "Point"
      },
      "properties": {
        "bangumi_id": 505895,
        "bangumi_title": "悲喜渔生",
        "ep_cut": 1,
        "image_url": "https://w.junreimap.com/images/points/505895/orjmy9zz1_1728008482494_c16v9.jpg",
        "location": "",
        "point_id": "orjmy9zz1",
        "point_name": "辰巳JCB",
        "remark": ""
      },
      "type": "Feature"
    },
    {
      "geometry": {
        "coordinates": [
          139.773777,
          35.661487
        ],
        "type": "Point"
      },
      "properties": {
        "bangumi_id": 505895,
        "bangumi_title": "悲喜渔生",
        "ep_cut": 1,
        "image_url": "https://w.junreimap.com/images/points/505895/org8iz2c2_1728001138374_c16v9.jpg",
        "location": "",
        "point_id": "org8iz2c2",
        "point_name": "勝鬨橋と築地大橋の間",
        "remark": ""
      },
      "type": "Feature"
    },
    {
      "geometry": {
        "coordinates": [
          139.782331,
          35.668575
        ],
        "type": "Point"
      },
      "properties": {
        "bangumi_id": 505895,
        "bangumi_title": "悲喜渔生",
        "ep_cut": 1,
        "image_url": "https://w.junreimap.com/images/points/505895/orf6llcvr_1727998833497_c16v9.jpg",
        "location": "",
        "point_id": "orf6llcvr",
        "point_name": "住吉水門",
        "remark": ""
      },
      "type": "Feature"
    },
    {
      "geometry": {
        "coordinates": [
          139.782385,
          35.66857
        ],
        "type": "Point"
      },
      "properties": {
        "bangumi_id": 505895,
        "bangumi_title": "悲喜渔生",
        "ep_cut": 1,
        "image_url": "https://w.junreimap.com/images/points/505895/orf77iuf2_1727998826364_c16v9.jpg",
        "location": "",
        "point_id": "orf77iuf2",
        "point_name": "住吉水門",
        "remark": "ここ船入ってくるの見えるんだね"
      },
      "type": "Feature"
    },
    {
      "geometry": {
        "coordinates": [
          139.783119,
          35.667537
        ],
        "type": "Point"
      },
      "properties": {
        "bangumi_id": 505895,
        "bangumi_title": "悲喜渔生",
        "ep_cut": 1,
        "image_url": "https://w.junreimap.com/images/points/505895/orf96ua8g_1728003257466_c16v9.jpg",
        "location": "",
        "point_id": "orf96ua8g",
        "point_name": "日の出湯 のあたり",
        "remark": ""
      },
      "type": "Feature"
    },
    {
      "geometry": {
        "coordinates": [
          139.783543,
          35.667582
        ],
        "type": "Point"
      },
      "properties": {
        "bangumi_id": 505895,
        "bangumi_title": "悲喜渔生",
        "ep_cut": 1,
        "image_url": "https://w.junreimap.com/images/points/505895/orhcvuezo_1728003537748_c16v9.jpg",
        "location": "",
        "point_id": "orhcvuezo",
        "point_name": "日の出湯 のあたり",
        "remark": ""
      },
      "type": "Feature"
    },
    {
      "geometry": {
        "coordinates": [
          139.781254,
          35.667737
        ],
        "type": "Point"
      },
      "properties": {
        "bangumi_id": 505895,
        "bangumi_title": "悲喜渔生",
        "ep_cut": 1,
        "image_url": "https://w.junreimap.com/images/points/505895/oreq2fge1_1727997794743_c16v9.jpg",
        "location": "",
        "point_id": "oreq2fge1",
        "point_name": "佃大橋",
        "remark": ""
      },
      "type": "Feature"
    },
    {
      "geometry": {
        "coordinates": [
          139.781329,
          35.66766
        ],
        "type": "Point"
      },
      "properties": {
        "bangumi_id": 505895,
        "bangumi_title": "悲喜渔生",
        "ep_cut": 1,
        "image_url": "https://w.junreimap.com/images/points/505895/oreqd4eqg_1727997788751_c16v9.jpg",
        "location": "",
        "point_id": "oreqd4eqg",
        "point_name": "佃大橋",
        "remark": ""
      },
      "type": "Feature"
    },
    {
      "geometry": {
        "coordinates": [
          139.782502,
          35.66925
        ],
        "type": "Point"
      },
      "properties": {
        "bangumi_id": 505895,
        "bangumi_title": "悲喜渔生",
        "ep_cut": 1,
        "image_url": "https://w.junreimap.com/images/points/505895/orfds7cqn_1727999207416_c16v9.jpg",
        "location": "",
        "point_id": "orfds7cqn",
        "point_name": "中央区立佃公園",
        "remark": ""
      },
      "type": "Feature"
    },
    {
      "geometry": {
        "coordinates": [
          139.782697,
          35.668746
        ],
        "type": "Point"
      },
      "properties": {
        "bangumi_id": 505895,
        "bangumi_title": "悲喜渔生",
        "ep_cut": 1,
        "image_url": "https://w.junreimap.com/images/points/505895/orfgvkgx9_1727999436065_c16v9.jpg",
        "location": "",
        "point_id": "orfgvkgx9",
        "point_name": "中央区立佃公園",
        "remark": "石川島灯台旁边"
      },
      "type": "Feature"
    },
    {
      "geometry": {
        "coordinates": [
          139.782613,
          35.668954
        ],
        "type": "Point"
      },
      "properties": {
        "bangumi_id": 505895,
        "bangumi_title": "悲喜渔生",
        "ep_cut": 1,
        "image_url": "https://w.junreimap.com/images/points/505895/orflbwedw_1727999900246_c16v9.jpg",
        "location": "",
        "point_id": "orflbwedw",
        "point_name": "中央区立佃公園",
        "remark": ""
      },
      "type": "Feature"
    },
    {
      "geometry": {
        "coordinates": [
          139.782602,
          35.668963
        ],
        "type": "Point"
      },
      "properties": {
        "bangumi_id": 505895,
        "bangumi_title": "悲喜渔生",
        "ep_cut": "",
        "image_url": "https://w.junreimap.com/images/points/505895/orflwudi5_1727999915859_c16v9.jpg",
        "location": "",
        "point_id": "orflwudi5",
        "point_name": "中央区立佃公園",
        "remark": ""
      },
      "type": "Feature"
    },
    {
      "geometry": {
        "coordinates": [
          139.782622,
          35.668969
        ],
        "type": "Point"
      },
      "properties": {
        "bangumi_id": 505895,
        "bangumi_title": "悲喜渔生",
        "ep_cut": 1,
        "image_url": "https://w.junreimap.com/images/points/505895/orfm2ja98_1727999920252_c16v9.jpg",
        "location": "",
        "point_id": "orfm2ja98",
        "point_name": "中央区立佃公園",
        "remark": ""
      },
      "type": "Feature"
    },
    {
      "geometry": {
        "coordinates": [
          139.782614,
          35.668943
        ],
        "type": "Point"
      },
      "properties": {
        "bangumi_id": 505895,
        "bangumi_title": "悲喜渔生",
        "ep_cut": 1,
        "image_url": "https://w.junreimap.com/images/points/505895/orfljuexy_1727999905277_c16v9.jpg",
        "location": "",
        "point_id": "orfljuexy",
        "point_name": "中央区立佃公園",
        "remark": ""
      },
      "type": "Feature"
    },
    {
      "geometry": {
        "coordinates": [
          139.782596,
          35.668948
        ],
        "type": "Point"
      },
      "properties": {
        "bangumi_id": 505895,
        "bangumi_title": "悲喜渔生",
        "ep_cut": 1,
        "image_url": "https://w.junreimap.com/images/points/505895/orflse1s6_1727999910679_c16v9.jpg",
        "location": "",
        "point_id": "orflse1s6",
        "point_name": "中央区立佃公園",
        "remark": ""
      },
      "type": "Feature"
    },
    {
      "geometry": {
        "coordinates": [
          139.784265,
          35.670763
        ],
        "type": "Point"
      },
      "properties": {
        "bangumi_id": 505895,
        "bangumi_title": "悲喜渔生",
        "ep_cut": 1,
        "image_url": "https://w.junreimap.com/images/points/505895/orfmcdbwg_1727999927568_c16v9.jpg",
        "location": "",
        "point_id": "orfmcdbwg",
        "point_name": "中央区立佃公園",
        "remark": "中央大桥附近"
      },
      "type": "Feature"
    },
    {
      "geometry": {
        "coordinates": [
          139.784422,
          35.671609
        ],
        "type": "Point"
      },
      "properties": {
        "bangumi_id": 505895,
        "bangumi_title": "悲喜渔生",
        "ep_cut": 1,
        "image_url": "https://w.junreimap.com/images/points/505895/p0die8nap_1728700405785.jpg",
        "location": "",
        "point_id": "p0die8nap",
        "point_name": "中央大橋",
        "remark": ""
      },
      "type": "Feature"
    },
    {
      "geometry": {
        "coordinates": [
          139.781519,
          35.624977
        ],
        "type": "Point"
      },
      "properties": {
        "bangumi_id": 505895,
        "bangumi_title": "悲喜渔生",
        "ep_cut": "",
        "image_url": "https://w.junreimap.com/images/points/505895/p73dq7us0_1729227005019_c16v9.jpg",
        "location": "",
        "point_id": "p73dq7us0",
        "point_name": "",
        "remark": "从2A或1A天桥入口台阶进入上到二楼"
      },
      "type": "Feature"
    },
    {
      "geometry": {
        "coordinates": [
          139.780899,
          35.625606
        ],
        "type": "Point"
      },
      "properties": {
        "bangumi_id": 505895,
        "bangumi_title": "悲喜渔生",
        "ep_cut": "",
        "image_url": "https://w.junreimap.com/images/points/505895/p73i2z49w_1729227215826_c16v9.jpg",
        "location": "",
        "point_id": "p73i2z49w",
        "point_name": "venus grand",
        "remark": "这一卡中Shopping Grand的原型"
      },
      "type": "Feature"
    },
    {
      "geometry": {
        "coordinates": [
          139.780237,
          35.626635
        ],
        "type": "Point"
      },
      "properties": {
        "bangumi_id": 505895,
        "bangumi_title": "悲喜渔生",
        "ep_cut": "",
        "image_url": "https://w.junreimap.com/images/points/505895/p73ksxpsl_1729227431092_c16v9.jpg",
        "location": "",
        "point_id": "p73ksxpsl",
        "point_name": "夢の広場",
        "remark": ""
      },
      "type": "Feature"
    },
    {
      "geometry": {
        "coordinates": [
          139.777638,
          35.630086
        ],
        "type": "Point"
      },
      "properties": {
        "bangumi_id": 505895,
        "bangumi_title": "悲喜渔生",
        "ep_cut": "",
        "image_url": "https://w.junreimap.com/images/points/505895/p73n6qcej_1729227510626_c16v9.jpg",
        "location": "",
        "point_id": "p73n6qcej",
        "point_name": "《25 porticos》",
        "remark": "25のポルティコ―色彩と反映（1996）"
      },
      "type": "Feature"
    },
    {
      "geometry": {
        "coordinates": [
          139.779629,
          35.627369
        ],
        "type": "Point"
      },
      "properties": {
        "bangumi_id": 505895,
        "bangumi_title": "悲喜渔生",
        "ep_cut": "",
        "image_url": "https://w.junreimap.com/images/points/505895/p73lr6yq7_1729227426706_c16v9.jpg",
        "location": "",
        "point_id": "p73lr6yq7",
        "point_name": "テレポートブリッジ",
        "remark": ""
      },
      "type": "Feature"
    },
    {
      "geometry": {
        "coordinates": [
          139.78226,
          35.624631
        ],
        "type": "Point"
      },
      "properties": {
        "bangumi_id": 505895,
        "bangumi_title": "悲喜渔生",
        "ep_cut": "",
        "image_url": "https://w.junreimap.com/images/points/505895/p735q57wy_1729226514671_c16v9.jpg",
        "location": "",
        "point_id": "p735q57wy",
        "point_name": "水之廣場公園 水の広場公園（西側地区）",
        "remark": ""
      },
      "type": "Feature"
    },
    {
      "geometry": {
        "coordinates": [
          139.782142,
          35.624574
        ],
        "type": "Point"
      },
      "properties": {
        "bangumi_id": 505895,
        "bangumi_title": "悲喜渔生",
        "ep_cut": "",
        "image_url": "https://w.junreimap.com/images/points/505895/p736cy1uw_1729226517928_c16v9.jpg",
        "location": "",
        "point_id": "p736cy1uw",
        "point_name": "水之廣場公園 水の広場公園（西側地区）",
        "remark": ""
      },
      "type": "Feature"
    },
    {
      "geometry": {
        "coordinates": [
          139.782028,
          35.624548
        ],
        "type": "Point"
      },
      "properties": {
        "bangumi_id": 505895,
        "bangumi_title": "悲喜渔生",
        "ep_cut": "",
        "image_url": "https://w.junreimap.com/images/points/505895/p736gmjdr_1729226519677_c16v9.jpg",
        "location": "",
        "point_id": "p736gmjdr",
        "point_name": "水之廣場公園 水の広場公園（西側地区）",
        "remark": ""
      },
      "type": "Feature"
    },
    {
      "geometry": {
        "coordinates": [
          139.782173,
          35.624602
        ],
        "type": "Point"
      },
      "properties": {
        "bangumi_id": 505895,
        "bangumi_title": "悲喜渔生",
        "ep_cut": "",
        "image_url": "https://w.junreimap.com/images/points/505895/p736zbjjy_1729226523302_c16v9.jpg",
        "location": "",
        "point_id": "p736zbjjy",
        "point_name": "水之廣場公園 水の広場公園（西側地区）",
        "remark": ""
      },
      "type": "Feature"
    },
    {
      "geometry": {
        "coordinates": [
          139.782088,
          35.624555
        ],
        "type": "Point"
      },
      "properties": {
        "bangumi_id": 505895,
        "bangumi_title": "悲喜渔生",
        "ep_cut": "",
        "image_url": "https://w.junreimap.com/images/points/505895/p7377mswc_1729226524914_c16v9.jpg",
        "location": "",
        "point_id": "p7377mswc",
        "point_name": "水之廣場公園 水の広場公園（西側地区）",
        "remark": ""
      },
      "type": "Feature"
    },
    {
      "geometry": {
        "coordinates": [
          139.783124,
          35.667349
        ],
        "type": "Point"
      },
      "properties": {
        "bangumi_id": 505895,
        "bangumi_title": "悲喜渔生",
        "ep_cut": 1,
        "image_url": "https://w.junreimap.com/images/points/505895/p0djh3yzj_1728700490716.jpg",
        "location": "",
        "point_id": "p0djh3yzj",
        "point_name": "佃麗江",
        "remark": "此处实际并没有便利店，所在方位原型为中餐馆“佃麗江”"
      },
      "type": "Feature"
    },
    {
      "geometry": {
        "coordinates": [
          139.783043,
          35.667358
        ],
        "type": "Point"
      },
      "properties": {
        "bangumi_id": 505895,
        "bangumi_title": "悲喜渔生",
        "ep_cut": 3,
        "image_url": "https://w.junreimap.com/images/points/505895/p72nl0mlt_1729225334068_c16v9.jpg",
        "location": "",
        "point_id": "p72nl0mlt",
        "point_name": "佃麗江",
        "remark": ""
      },
      "type": "Feature"
    },
    {
      "geometry": {
        "coordinates": [
          139.886742,
          35.66379
        ],
        "type": "Point"
      },
      "properties": {
        "bangumi_id": 505895,
        "bangumi_title": "悲喜渔生",
        "ep_cut": "",
        "image_url": "https://w.junreimap.com/images/points/505895/osa2382u8_1728078720419_c16v9.jpg",
        "location": "",
        "point_id": "osa2382u8",
        "point_name": "江戸川第一橋梁",
        "remark": ""
      },
      "type": "Feature"
    },
    {
      "geometry": {
        "coordinates": [
          139.78333,
          35.666973
        ],
        "type": "Point"
      },
      "properties": {
        "bangumi_id": 505895,
        "bangumi_title": "悲喜渔生",
        "ep_cut": "",
        "image_url": "https://w.junreimap.com/images/points/505895/osflea3f5_1728078727276_c16v9.jpg",
        "location": "",
        "point_id": "osflea3f5",
        "point_name": "佃小橋付近",
        "remark": ""
      },
      "type": "Feature"
    },
    {
      "geometry": {
        "coordinates": [
          139.788409,
          35.6758
        ],
        "type": "Point"
      },
      "properties": {
        "bangumi_id": 505895,
        "bangumi_title": "悲喜渔生",
        "ep_cut": "",
        "image_url": "https://w.junreimap.com/images/points/505895/osg9gor7k_1728079502031_c16v9.jpg",
        "location": "",
        "point_id": "osg9gor7k",
        "point_name": "永代橋",
        "remark": ""
      },
      "type": "Feature"
    },
    {
      "geometry": {
        "coordinates": [
          139.776319,
          35.642221
        ],
        "type": "Point"
      },
      "properties": {
        "bangumi_id": 505895,
        "bangumi_title": "悲喜渔生",
        "ep_cut": "",
        "image_url": "https://w.junreimap.com/images/points/505895/osgo9k9if_1728081571490_c16v9.jpg",
        "location": "",
        "point_id": "osgo9k9if",
        "point_name": "豊洲ぐるり公園",
        "remark": ""
      },
      "type": "Feature"
    },
    {
      "geometry": {
        "coordinates": [
          139.776388,
          35.641891
        ],
        "type": "Point"
      },
      "properties": {
        "bangumi_id": 505895,
        "bangumi_title": "悲喜渔生",
        "ep_cut": "",
        "image_url": "https://w.junreimap.com/images/points/505895/osgoo949g_1728081565348_c16v9.jpg",
        "location": "",
        "point_id": "osgoo949g",
        "point_name": "豊洲ぐるり公園",
        "remark": ""
      },
      "type": "Feature"
    },
    {
      "geometry": {
        "coordinates": [
          139.78415,
          35.647783
        ],
        "type": "Point"
      },
      "properties": {
        "bangumi_id": 505895,
        "bangumi_title": "悲喜渔生",
        "ep_cut": "",
        "image_url": "https://w.junreimap.com/images/points/505895/osgt5j184_1728081562155_c16v9.jpg",
        "location": "",
        "point_id": "osgt5j184",
        "point_name": "豊洲ぐるり公園",
        "remark": ""
      },
      "type": "Feature"
    },
    {
      "geometry": {
        "coordinates": [
          139.784281,
          35.647899
        ],
        "type": "Point"
      },
      "properties": {
        "bangumi_id": 505895,
        "bangumi_title": "悲喜渔生",
        "ep_cut": "",
        "image_url": "https://w.junreimap.com/images/points/505895/osgt6a4g4_1728081554356_c16v9.jpg",
        "location": "",
        "point_id": "osgt6a4g4",
        "point_name": "豊洲ぐるり公園",
        "remark": ""
      },
      "type": "Feature"
    },
    {
      "geometry": {
        "coordinates": [
          139.647352,
          35.743101
        ],
        "type": "Point"
      },
      "properties": {
        "bangumi_id": 505895,
        "bangumi_title": "悲喜渔生",
        "ep_cut": "",
        "image_url": "https://w.junreimap.com/images/points/505895/oz666kajx_1728606962565_c16v9.jpg",
        "location": "",
        "point_id": "oz666kajx",
        "point_name": "豊島園 正門",
        "remark": ""
      },
      "type": "Feature"
    },
    {
      "geometry": {
        "coordinates": [
          139.644661,
          35.74332
        ],
        "type": "Point"
      },
      "properties": {
        "bangumi_id": 505895,
        "bangumi_title": "悲喜渔生",
        "ep_cut": "",
        "image_url": "https://w.junreimap.com/images/points/505895/oz6l142yf_1728606955058.jpg",
        "location": "",
        "point_id": "oz6l142yf",
        "point_name": "豊島園",
        "remark": ""
      },
      "type": "Feature"
    },
    {
      "geometry": {
        "coordinates": [
          139.643827,
          35.743875
        ],
        "type": "Point"
      },
      "properties": {
        "bangumi_id": 505895,
        "bangumi_title": "悲喜渔生",
        "ep_cut": 2,
        "image_url": "https://w.junreimap.com/images/points/505895/p6vozsj5c_1729210182267.jpg",
        "location": "",
        "point_id": "p6vozsj5c",
        "point_name": "としまえんフィッシングエリア（閉業）",
        "remark": ""
      },
      "type": "Feature"
    },
    {
      "geometry": {
        "coordinates": [
          139.647781,
          35.744909
        ],
        "type": "Point"
      },
      "properties": {
        "bangumi_id": 505895,
        "bangumi_title": "悲喜渔生",
        "ep_cut": 2,
        "image_url": "https://w.junreimap.com/images/points/505895/p6vqhlh21_1729210279159.jpg",
        "location": "",
        "point_id": "p6vqhlh21",
        "point_name": "第一駐車場",
        "remark": ""
      },
      "type": "Feature"
    },
    {
      "geometry": {
        "coordinates": [
          139.648401,
          35.742773
        ],
        "type": "Point"
      },
      "properties": {
        "bangumi_id": 505895,
        "bangumi_title": "悲喜渔生",
        "ep_cut": 3,
        "image_url": "https://w.junreimap.com/images/points/505895/p6vtaou49_1729210436822.jpg",
        "location": "",
        "point_id": "p6vtaou49",
        "point_name": "笑天やきとり 一輝",
        "remark": ""
      },
      "type": "Feature"
    },
    {
      "geometry": {
        "coordinates": [
          139.649093,
          35.742582
        ],
        "type": "Point"
      },
      "properties": {
        "bangumi_id": 505895,
        "bangumi_title": "悲喜渔生",
        "ep_cut": 3,
        "image_url": "https://w.junreimap.com/images/points/505895/p6vvao1rq_1729210584495_c16v9.jpg",
        "location": "",
        "point_id": "p6vvao1rq",
        "point_name": "",
        "remark": ""
      },
      "type": "Feature"
    },
    {
      "geometry": {
        "coordinates": [
          139.648983,
          35.742575
        ],
        "type": "Point"
      },
      "properties": {
        "bangumi_id": 505895,
        "bangumi_title": "悲喜渔生",
        "ep_cut": 3,
        "image_url": "https://w.junreimap.com/images/points/505895/p6vwujok7_1729210652973_c16v9.jpg",
        "location": "",
        "point_id": "p6vwujok7",
        "point_name": 40,
        "remark": ""
      },
      "type": "Feature"
    },
    {
      "geometry": {
        "coordinates": [
          139.648971,
          35.742597
        ],
        "type": "Point"
      },
      "properties": {
        "bangumi_id": 505895,
        "bangumi_title": "悲喜渔生",
        "ep_cut": "",
        "image_url": "https://w.junreimap.com/images/points/505895/p6vxqvvf7_1729210697222_c16v9.jpg",
        "location": "",
        "point_id": "p6vxqvvf7",
        "point_name": 40,
        "remark": ""
      },
      "type": "Feature"
    },
    {
      "geometry": {
        "coordinates": [
          139.760389,
          35.636872
        ],
        "type": "Point"
      },
      "properties": {
        "bangumi_id": 505895,
        "bangumi_title": "悲喜渔生",
        "ep_cut": 3,
        "image_url": "https://w.junreimap.com/images/points/505895/p6w0rvqsu_1729210887581_c16v9.jpg",
        "location": "",
        "point_id": "p6w0rvqsu",
        "point_name": "芝浦​南​ふ頭​公園​運動​広場",
        "remark": ""
      },
      "type": "Feature"
    },
    {
      "geometry": {
        "coordinates": [
          139.646063,
          35.743391
        ],
        "type": "Point"
      },
      "properties": {
        "bangumi_id": 505895,
        "bangumi_title": "悲喜渔生",
        "ep_cut": 2,
        "image_url": "https://w.junreimap.com/images/points/505895/oz6mzr0pn_1728607083879_c16v9.jpg",
        "location": "",
        "point_id": "oz6mzr0pn",
        "point_name": "豊島園",
        "remark": ""
      },
      "type": "Feature"
    },
    {
      "geometry": {
        "coordinates": [
          139.645618,
          35.743433
        ],
        "type": "Point"
      },
      "properties": {
        "bangumi_id": 505895,
        "bangumi_title": "悲喜渔生",
        "ep_cut": "",
        "image_url": "https://w.junreimap.com/images/points/505895/oz6ne97iy_1728607101685_c16v9.jpg",
        "location": "",
        "point_id": "oz6ne97iy",
        "point_name": "豊島園",
        "remark": ""
      },
      "type": "Feature"
    },
    {
      "geometry": {
        "coordinates": [
          139.645613,
          35.743391
        ],
        "type": "Point"
      },
      "properties": {
        "bangumi_id": 505895,
        "bangumi_title": "悲喜渔生",
        "ep_cut": "",
        "image_url": "https://w.junreimap.com/images/points/505895/oz6nlzhuo_1728607117945_c16v9.jpg",
        "location": "",
        "point_id": "oz6nlzhuo",
        "point_name": "豊島園",
        "remark": ""
      },
      "type": "Feature"
    },
    {
      "geometry": {
        "coordinates": [
          139.64612,
          35.743374
        ],
        "type": "Point"
      },
      "properties": {
        "bangumi_id": 505895,
        "bangumi_title": "悲喜渔生",
        "ep_cut": "",
        "image_url": "https://w.junreimap.com/images/points/505895/oz6nyyxnx_1728607141602_c16v9.jpg",
        "location": "",
        "point_id": "oz6nyyxnx",
        "point_name": "豊島園",
        "remark": ""
      },
      "type": "Feature"
    },
    {
      "geometry": {
        "coordinates": [
          139.769779,
          35.665576
        ],
        "type": "Point"
      },
      "properties": {
        "bangumi_id": 505895,
        "bangumi_title": "悲喜渔生",
        "ep_cut": 1,
        "image_url": "https://w.junreimap.com/images/points/505895/ozba7kf6w_1728617321871_c16v9.jpg",
        "location": "",
        "point_id": "ozba7kf6w",
        "point_name": "築地場外市場",
        "remark": "画面右上侧“中華そば”全名为“中華そば 若葉”"
      },
      "type": "Feature"
    },
    {
      "geometry": {
        "coordinates": [
          139.785455,
          35.673953
        ],
        "type": "Point"
      },
      "properties": {
        "bangumi_id": 505895,
        "bangumi_title": "悲喜渔生",
        "ep_cut": 1,
        "image_url": "https://w.junreimap.com/images/points/505895/p0dgpcyha_1728700300415.jpg",
        "location": "",
        "point_id": "p0dgpcyha",
        "point_name": "",
        "remark": ""
      },
      "type": "Feature"
    },
    {
      "geometry": {
        "coordinates": [
          139.701373,
          35.683639
        ],
        "type": "Point"
      },
      "properties": {
        "bangumi_id": 505895,
        "bangumi_title": "悲喜渔生",
        "ep_cut": 3,
        "image_url": "https://w.junreimap.com/images/points/505895/p71ul55l6_1729223650431_c16v9.jpg",
        "location": "",
        "point_id": "p71ul55l6",
        "point_name": "カスタマカフェ 代々木店",
        "remark": ""
      },
      "type": "Feature"
    },
    {
      "geometry": {
        "coordinates": [
          139.701432,
          35.683676
        ],
        "type": "Point"
      },
      "properties": {
        "bangumi_id": 505895,
        "bangumi_title": "悲喜渔生",
        "ep_cut": "",
        "image_url": "https://w.junreimap.com/images/points/505895/p71vw6lrh_1729223662919_c16v9.jpg",
        "location": "",
        "point_id": "p71vw6lrh",
        "point_name": "カスタマカフェ 代々木店",
        "remark": ""
      },
      "type": "Feature"
    },
    {
      "geometry": {
        "coordinates": [
          139.777304,
          35.630416
        ],
        "type": "Point"
      },
      "properties": {
        "bangumi_id": 505895,
        "bangumi_title": "悲喜渔生",
        "ep_cut": 3,
        "image_url": "https://w.junreimap.com/images/points/505895/p73q0po39_1729227662582_c16v9.jpg",
        "location": "",
        "point_id": "p73q0po39",
        "point_name": "",
        "remark": ""
      },
      "type": "Feature"
    },
    {
      "geometry": {
        "coordinates": [
          139.775135,
          35.630247
        ],
        "type": "Point"
      },
      "properties": {
        "bangumi_id": 505895,
        "bangumi_title": "悲喜渔生",
        "ep_cut": 3,
        "image_url": "https://w.junreimap.com/images/points/505895/p73sn8rvw_1729227812564_c16v9.jpg",
        "location": "",
        "point_id": "p73sn8rvw",
        "point_name": 56,
        "remark": ""
      },
      "type": "Feature"
    },
    {
      "geometry": {
        "coordinates": [
          139.775261,
          35.635552
        ],
        "type": "Point"
      },
      "properties": {
        "bangumi_id": 505895,
        "bangumi_title": "悲喜渔生",
        "ep_cut": 3,
        "image_url": "https://w.junreimap.com/images/points/505895/p73ugt8an_1729227970667_c16v9.jpg",
        "location": "",
        "point_id": "p73ugt8an",
        "point_name": "レインボープロムナード",
        "remark": ""
      },
      "type": "Feature"
    },
    {
      "geometry": {
        "coordinates": [
          139.768795,
          35.635033
        ],
        "type": "Point"
      },
      "properties": {
        "bangumi_id": 505895,
        "bangumi_title": "悲喜渔生",
        "ep_cut": 3,
        "image_url": "https://w.junreimap.com/images/points/505895/p742oijxm_1729228570044_c16v9.jpg",
        "location": "",
        "point_id": "p742oijxm",
        "point_name": 58,
        "remark": ""
      },
      "type": "Feature"
    },
    {
      "geometry": {
        "coordinates": [
          139.768743,
          35.63502
        ],
        "type": "Point"
      },
      "properties": {
        "bangumi_id": 505895,
        "bangumi_title": "悲喜渔生",
        "ep_cut": "",
        "image_url": "https://w.junreimap.com/images/points/505895/p743x4ay2_1729228577772_c16v9.jpg",
        "location": "",
        "point_id": "p743x4ay2",
        "point_name": 58,
        "remark": ""
      },
      "type": "Feature"
    },
    {
      "geometry": {
        "coordinates": [
          139.768827,
          35.635006
        ],
        "type": "Point"
      },
      "properties": {
        "bangumi_id": 505895,
        "bangumi_title": "悲喜渔生",
        "ep_cut": 3,
        "image_url": "https://w.junreimap.com/images/points/505895/p7441z3lv_1729228580592_cut.jpg",
        "location": "",
        "point_id": "p7441z3lv",
        "point_name": 58,
        "remark": ""
      },
      "type": "Feature"
    },
    {
      "geometry": {
        "coordinates": [
          139.768781,
          35.635001
        ],
        "type": "Point"
      },
      "properties": {
        "bangumi_id": 505895,
        "bangumi_title": "悲喜渔生",
        "ep_cut": "",
        "image_url": "https://w.junreimap.com/images/points/505895/p744pvamw_1729228587204_c16v9.jpg",
        "location": "",
        "point_id": "p744pvamw",
        "point_name": 58,
        "remark": ""
      },
      "type": "Feature"
    },
    {
      "geometry": {
        "coordinates": [
          139.768852,
          35.635033
        ],
        "type": "Point"
      },
      "properties": {
        "bangumi_id": 505895,
        "bangumi_title": "悲喜渔生",
        "ep_cut": "",
        "image_url": "https://w.junreimap.com/images/points/505895/p74501azw_1729228585474_c16v9.jpg",
        "location": "",
        "point_id": "p74501azw",
        "point_name": 58,
        "remark": ""
      },
      "type": "Feature"
    },
    {
      "geometry": {
        "coordinates": [
          139.768856,
          35.635012
        ],
        "type": "Point"
      },
      "properties": {
        "bangumi_id": 505895,
        "bangumi_title": "悲喜渔生",
        "ep_cut": "",
        "image_url": "https://w.junreimap.com/images/points/505895/p7455mgv9_1729228591412_c16v9.jpg",
        "location": "",
        "point_id": "p7455mgv9",
        "point_name": 58,
        "remark": ""
      },
      "type": "Feature"
    },
    {
      "geometry": {
        "coordinates": [
          139.772151,
          35.653958
        ],
        "type": "Point"
      },
      "properties": {
        "bangumi_id": 505895,
        "bangumi_title": "悲喜渔生",
        "ep_cut": 4,
        "image_url": "https://w.junreimap.com/images/points/505895/pescl8dba_1729829819152_c16v9.jpg",
        "location": "",
        "point_id": "pescl8dba",
        "point_name": "豊海運動公園",
        "remark": ""
      },
      "type": "Feature"
    },
    {
      "geometry": {
        "coordinates": [
          139.772906,
          35.653308
        ],
        "type": "Point"
      },
      "properties": {
        "bangumi_id": 505895,
        "bangumi_title": "悲喜渔生",
        "ep_cut": 4,
        "image_url": "https://w.junreimap.com/images/points/505895/perinuwyn_1729828392957_c16v9.jpg",
        "location": "",
        "point_id": "perinuwyn",
        "point_name": "豊海運動公園",
        "remark": "片中“转转公园”的原型。男主和花钓鲟鱼的地方"
      },
      "type": "Feature"
    },
    {
      "geometry": {
        "coordinates": [
          139.772875,
          35.653263
        ],
        "type": "Point"
      },
      "properties": {
        "bangumi_id": 505895,
        "bangumi_title": "悲喜渔生",
        "ep_cut": 4,
        "image_url": "https://w.junreimap.com/images/points/505895/perpvyl3m_1729828495006_c16v9.jpg",
        "location": "",
        "point_id": "perpvyl3m",
        "point_name": "豊海運動公園",
        "remark": ""
      },
      "type": "Feature"
    },
    {
      "geometry": {
        "coordinates": [
          139.772916,
          35.653277
        ],
        "type": "Point"
      },
      "properties": {
        "bangumi_id": 505895,
        "bangumi_title": "悲喜渔生",
        "ep_cut": 4,
        "image_url": "https://w.junreimap.com/images/points/505895/persvbzlw_1729828615580_c16v9.jpg",
        "location": "",
        "point_id": "persvbzlw",
        "point_name": "豊海運動公園",
        "remark": ""
      },
      "type": "Feature"
    },
    {
      "geometry": {
        "coordinates": [
          139.77287,
          35.653314
        ],
        "type": "Point"
      },
      "properties": {
        "bangumi_id": 505895,
        "bangumi_title": "悲喜渔生",
        "ep_cut": 4,
        "image_url": "https://w.junreimap.com/images/points/505895/perq4p320_1729828500410_c16v9.jpg",
        "location": "",
        "point_id": "perq4p320",
        "point_name": "豊海運動公園",
        "remark": ""
      },
      "type": "Feature"
    },
    {
      "geometry": {
        "coordinates": [
          139.772812,
          35.65326
        ],
        "type": "Point"
      },
      "properties": {
        "bangumi_id": 505895,
        "bangumi_title": "悲喜渔生",
        "ep_cut": 4,
        "image_url": "https://w.junreimap.com/images/points/505895/perq4bj09_1729828498801_c16v9.jpg",
        "location": "",
        "point_id": "perq4bj09",
        "point_name": "豊海運動公園",
        "remark": ""
      },
      "type": "Feature"
    },
    {
      "geometry": {
        "coordinates": [
          139.772803,
          35.65322
        ],
        "type": "Point"
      },
      "properties": {
        "bangumi_id": 505895,
        "bangumi_title": "悲喜渔生",
        "ep_cut": 4,
        "image_url": "https://w.junreimap.com/images/points/505895/perq5jcle_1729828507781_c16v9.jpg",
        "location": "",
        "point_id": "perq5jcle",
        "point_name": "豊海運動公園",
        "remark": ""
      },
      "type": "Feature"
    },
    {
      "geometry": {
        "coordinates": [
          139.772824,
          35.6533
        ],
        "type": "Point"
      },
      "properties": {
        "bangumi_id": 505895,
        "bangumi_title": "悲喜渔生",
        "ep_cut": 4,
        "image_url": "https://w.junreimap.com/images/points/505895/perq56myx_1729828504635_c16v9.jpg",
        "location": "",
        "point_id": "perq56myx",
        "point_name": "豊海運動公園",
        "remark": ""
      },
      "type": "Feature"
    },
    {
      "geometry": {
        "coordinates": [
          139.772782,
          35.653237
        ],
        "type": "Point"
      },
      "properties": {
        "bangumi_id": 505895,
        "bangumi_title": "悲喜渔生",
        "ep_cut": 4,
        "image_url": "https://w.junreimap.com/images/points/505895/perrpulct_1729828552110_c16v9.jpg",
        "location": "",
        "point_id": "perrpulct",
        "point_name": "豊海運動公園",
        "remark": ""
      },
      "type": "Feature"
    },
    {
      "geometry": {
        "coordinates": [
          139.781982,
          35.667714
        ],
        "type": "Point"
      },
      "properties": {
        "bangumi_id": 505895,
        "bangumi_title": "悲喜渔生",
        "ep_cut": 4,
        "image_url": "https://w.junreimap.com/images/points/505895/pesuashpf_1729830929910_c16v9.jpg",
        "location": "",
        "point_id": "pesuashpf",
        "point_name": "佃大桥东",
        "remark": ""
      },
      "type": "Feature"
    },
    {
      "geometry": {
        "coordinates": [
          139.781976,
          35.667681
        ],
        "type": "Point"
      },
      "properties": {
        "bangumi_id": 505895,
        "bangumi_title": "悲喜渔生",
        "ep_cut": 4,
        "image_url": "https://w.junreimap.com/images/points/505895/pesv1b6ar_1729830931407_c16v9.jpg",
        "location": "",
        "point_id": "pesv1b6ar",
        "point_name": "佃大桥东",
        "remark": ""
      },
      "type": "Feature"
    },
    {
      "geometry": {
        "coordinates": [
          139.781995,
          35.667682
        ],
        "type": "Point"
      },
      "properties": {
        "bangumi_id": 505895,
        "bangumi_title": "悲喜渔生",
        "ep_cut": 4,
        "image_url": "https://w.junreimap.com/images/points/505895/pesubv4kk_1729830936188_c16v9.jpg",
        "location": "",
        "point_id": "pesubv4kk",
        "point_name": "佃大桥东",
        "remark": ""
      },
      "type": "Feature"
    },
    {
      "geometry": {
        "coordinates": [
          139.795496,
          35.662144
        ],
        "type": "Point"
      },
      "properties": {
        "bangumi_id": 505895,
        "bangumi_title": "悲喜渔生",
        "ep_cut": 4,
        "image_url": "https://w.junreimap.com/images/points/505895/pet6ogrqv_1729831646686_c16v9.jpg",
        "location": "",
        "point_id": "pet6ogrqv",
        "point_name": "丰州桥",
        "remark": "花上下学途径"
      },
      "type": "Feature"
    }
  ],
  "type": "FeatureCollection"
}