{
  "features": [
    {
      "geometry": {
        "coordinates": [
          133.450044,
          34.588129
        ],
        "type": "Point"
      },
      "properties": {
        "bangumi_id": 507209,
        "bangumi_title": "怠工之夏",
        "ep_cut": "第一卷封面",
        "image_url": "https://w.junreimap.com/images/points/507209/3a4pbzk_1754153292819.jpg",
        "location": "",
        "point_id": "3a4pbzk",
        "point_name": "いずえ",
        "remark": ""
      },
      "type": "Feature"
    },
    {
      "geometry": {
        "coordinates": [
          133.450787,
          34.587978
        ],
        "type": "Point"
      },
      "properties": {
        "bangumi_id": 507209,
        "bangumi_title": "怠工之夏",
        "ep_cut": 1,
        "image_url": "https://w.junreimap.com/images/points/507209/3a4p5x4_1754153433689.jpg",
        "location": "",
        "point_id": "3a4p5x4",
        "point_name": "いずえ",
        "remark": ""
      },
      "type": "Feature"
    },
    {
      "geometry": {
        "coordinates": [
          133.450749,
          34.588007
        ],
        "type": "Point"
      },
      "properties": {
        "bangumi_id": 507209,
        "bangumi_title": "怠工之夏",
        "ep_cut": 1,
        "image_url": "https://w.junreimap.com/images/points/507209/3a4tasu_1754153451854.jpg",
        "location": "",
        "point_id": "3a4tasu",
        "point_name": "いずえ",
        "remark": ""
      },
      "type": "Feature"
    },
    {
      "geometry": {
        "coordinates": [
          133.450722,
          34.587992
        ],
        "type": "Point"
      },
      "properties": {
        "bangumi_id": 507209,
        "bangumi_title": "怠工之夏",
        "ep_cut": 1,
        "image_url": "https://w.junreimap.com/images/points/507209/3a4tbko_1754153463930.jpg",
        "location": "",
        "point_id": "3a4tbko",
        "point_name": "いずえ",
        "remark": ""
      },
      "type": "Feature"
    },
    {
      "geometry": {
        "coordinates": [
          133.450761,
          34.587843
        ],
        "type": "Point"
      },
      "properties": {
        "bangumi_id": 507209,
        "bangumi_title": "怠工之夏",
        "ep_cut": 1,
        "image_url": "https://w.junreimap.com/images/points/507209/3a4yvo0_1754153864717.jpg",
        "location": "",
        "point_id": "3a4yvo0",
        "point_name": "いずえ",
        "remark": ""
      },
      "type": "Feature"
    },
    {
      "geometry": {
        "coordinates": [
          133.472394,
          34.598718
        ],
        "type": "Point"
      },
      "properties": {
        "bangumi_id": 507209,
        "bangumi_title": "怠工之夏",
        "ep_cut": "第一卷目录",
        "image_url": "https://w.junreimap.com/images/points/507209/3a9fskx_1754161249963.jpg",
        "location": "",
        "point_id": "3a9fskx",
        "point_name": 5,
        "remark": ""
      },
      "type": "Feature"
    },
    {
      "geometry": {
        "coordinates": [
          133.462257,
          34.599082
        ],
        "type": "Point"
      },
      "properties": {
        "bangumi_id": 507209,
        "bangumi_title": "怠工之夏",
        "ep_cut": 2,
        "image_url": "https://w.junreimap.com/images/points/507209/3a9thv5_1754161890066.jpg",
        "location": "",
        "point_id": "3a9thv5",
        "point_name": "ハローズ 井原店",
        "remark": "前往观星地途中经过，漫画中店名“HAPPY”应该取自井原的另一座大型购物中心“Tenmaya Happy's Ibara”"
      },
      "type": "Feature"
    },
    {
      "geometry": {
        "coordinates": [
          133.462013,
          34.599569
        ],
        "type": "Point"
      },
      "properties": {
        "bangumi_id": 507209,
        "bangumi_title": "怠工之夏",
        "ep_cut": 2,
        "image_url": "https://w.junreimap.com/images/points/507209/3a9xees_1754162055533.jpg",
        "location": "",
        "point_id": "3a9xees",
        "point_name": "ロマンチック街道313",
        "remark": "女主前往观星地的途中"
      },
      "type": "Feature"
    },
    {
      "geometry": {
        "coordinates": [
          133.497024,
          34.471905
        ],
        "type": "Point"
      },
      "properties": {
        "bangumi_id": 507209,
        "bangumi_title": "怠工之夏",
        "ep_cut": "第二卷封面",
        "image_url": "https://w.junreimap.com/images/points/507209/3aa9d68_1754162616266.jpg",
        "location": "",
        "point_id": "3aa9d68",
        "point_name": "笠岡ベイファーム花畑",
        "remark": "向日葵田"
      },
      "type": "Feature"
    },
    {
      "geometry": {
        "coordinates": [
          133.539879,
          34.674347
        ],
        "type": "Point"
      },
      "properties": {
        "bangumi_id": 507209,
        "bangumi_title": "怠工之夏",
        "ep_cut": 2,
        "image_url": "https://w.junreimap.com/images/points/507209/3aakve5_1754163301379.jpg",
        "location": "",
        "point_id": "3aakve5",
        "point_name": "Chusei Yumegahara",
        "remark": "*大致\n井原附近的古代遗址+观星地，基本上只有美星町这一个选项"
      },
      "type": "Feature"
    },
    {
      "geometry": {
        "coordinates": [
          133.539797,
          34.674237
        ],
        "type": "Point"
      },
      "properties": {
        "bangumi_id": 507209,
        "bangumi_title": "怠工之夏",
        "ep_cut": 2,
        "image_url": "https://w.junreimap.com/images/points/507209/3aaoqkr_1754163313784.jpg",
        "location": "",
        "point_id": "3aaoqkr",
        "point_name": "Chusei Yumegahara",
        "remark": "捏他的应该是附近的中世遗迹公园"
      },
      "type": "Feature"
    }
  ],
  "type": "FeatureCollection"
}