{
  "features": [
    {
      "geometry": {
        "coordinates": [
          139.667439,
          35.673782
        ],
        "type": "Point"
      },
      "properties": {
        "bangumi_id": 50814,
        "bangumi_title": "打工吧！魔王大人",
        "ep_cut": 8,
        "image_url": "https://w.junreimap.com/images/user/1099/bangumi/50814/points/otxiwibwg-1728195505706.jpg",
        "location": "",
        "point_id": "otxiwibwg",
        "point_name": "京王​笹塚​駅​北口",
        "remark": ""
      },
      "type": "Feature"
    },
    {
      "geometry": {
        "coordinates": [
          139.667476,
          35.673728
        ],
        "type": "Point"
      },
      "properties": {
        "bangumi_id": 50814,
        "bangumi_title": "打工吧！魔王大人",
        "ep_cut": 8,
        "image_url": "https://w.junreimap.com/images/user/1099/bangumi/50814/points/otxsxfvix-1728196032563.jpg",
        "location": "",
        "point_id": "otxsxfvix",
        "point_name": "笹冢站",
        "remark": ""
      },
      "type": "Feature"
    },
    {
      "geometry": {
        "coordinates": [
          139.66746,
          35.673728
        ],
        "type": "Point"
      },
      "properties": {
        "bangumi_id": 50814,
        "bangumi_title": "打工吧！魔王大人",
        "ep_cut": 8,
        "image_url": "https://w.junreimap.com/images/user/1099/bangumi/50814/points/otxtpaxns-1728196069079.jpg",
        "location": "",
        "point_id": "otxtpaxns",
        "point_name": "笹冢站",
        "remark": ""
      },
      "type": "Feature"
    },
    {
      "geometry": {
        "coordinates": [
          139.667468,
          35.673598
        ],
        "type": "Point"
      },
      "properties": {
        "bangumi_id": 50814,
        "bangumi_title": "打工吧！魔王大人",
        "ep_cut": 8,
        "image_url": "https://w.junreimap.com/images/user/1099/bangumi/50814/points/otxvrag36-1728196195453.jpg",
        "location": "",
        "point_id": "otxvrag36",
        "point_name": "笹塚駅 南口",
        "remark": "根据图中的笹塚駅牌，确定是南口\n入口处的“笹塚駅”绿色指示牌已拆除\n背景里蓝色招牌KATORI原本是书店，2021年拆除，外观变化较大。"
      },
      "type": "Feature"
    },
    {
      "geometry": {
        "coordinates": [
          139.667495,
          35.674711
        ],
        "type": "Point"
      },
      "properties": {
        "bangumi_id": 50814,
        "bangumi_title": "打工吧！魔王大人",
        "ep_cut": 2,
        "image_url": "https://w.junreimap.com/images/user/1099/bangumi/50814/points/otya923d6-1728197073217.jpg",
        "location": "",
        "point_id": "otya923d6",
        "point_name": "タイムズ笹塚駅前",
        "remark": "《打魔》中为数不多未改变外观的取景地"
      },
      "type": "Feature"
    },
    {
      "geometry": {
        "coordinates": [
          139.66785,
          35.674436
        ],
        "type": "Point"
      },
      "properties": {
        "bangumi_id": 50814,
        "bangumi_title": "打工吧！魔王大人",
        "ep_cut": 1,
        "image_url": "https://w.junreimap.com/images/user/1099/bangumi/50814/points/otydsvr0y-1728197439072.jpg",
        "location": "",
        "point_id": "otydsvr0y",
        "point_name": "総栄ビル",
        "remark": "位于人行天桥上"
      },
      "type": "Feature"
    },
    {
      "geometry": {
        "coordinates": [
          139.670933,
          35.675329
        ],
        "type": "Point"
      },
      "properties": {
        "bangumi_id": 50814,
        "bangumi_title": "打工吧！魔王大人",
        "ep_cut": 1,
        "image_url": "https://w.junreimap.com/images/user/1099/bangumi/50814/points/otyw9ynp0-1728198409848.jpg",
        "location": "",
        "point_id": "otyw9ynp0",
        "point_name": "Chiba Bldg.",
        "remark": ""
      },
      "type": "Feature"
    },
    {
      "geometry": {
        "coordinates": [
          139.696419,
          35.687395
        ],
        "type": "Point"
      },
      "properties": {
        "bangumi_id": 50814,
        "bangumi_title": "打工吧！魔王大人",
        "ep_cut": "1",
        "image_url": "https://w.junreimap.com/images/user/0/bangumi/50814/points/jjplgb6-1789561156468.webp",
        "location": "",
        "point_id": "jjplgb6",
        "point_name": "西新宿二丁目",
        "remark": "4分钟到8分钟均在这里"
      },
      "type": "Feature"
    },
    {
      "geometry": {
        "coordinates": [
          139.696397,
          35.68732
        ],
        "type": "Point"
      },
      "properties": {
        "bangumi_id": 50814,
        "bangumi_title": "打工吧！魔王大人",
        "ep_cut": "1",
        "image_url": "https://w.junreimap.com/images/user/0/bangumi/50814/points/jjprqr3-1789561401335.webp",
        "location": "",
        "point_id": "jjprqr3",
        "point_name": "西新宿二丁目",
        "remark": "4分钟--6分钟位置都在这里"
      },
      "type": "Feature"
    },
    {
      "geometry": {
        "coordinates": [
          139.696418,
          35.687324
        ],
        "type": "Point"
      },
      "properties": {
        "bangumi_id": 50814,
        "bangumi_title": "打工吧！魔王大人",
        "ep_cut": "1",
        "image_url": "https://w.junreimap.com/images/user/0/bangumi/50814/points/jjptgq8-1789561444551.webp",
        "location": "",
        "point_id": "jjptgq8",
        "point_name": "西新宿二丁目",
        "remark": ""
      },
      "type": "Feature"
    },
    {
      "geometry": {
        "coordinates": [
          139.696422,
          35.687317
        ],
        "type": "Point"
      },
      "properties": {
        "bangumi_id": 50814,
        "bangumi_title": "打工吧！魔王大人",
        "ep_cut": "1",
        "image_url": "https://w.junreimap.com/images/user/0/bangumi/50814/points/jjpuyvx-1789561520611.webp",
        "location": "",
        "point_id": "jjpuyvx",
        "point_name": "西新宿二丁目",
        "remark": ""
      },
      "type": "Feature"
    },
    {
      "geometry": {
        "coordinates": [
          139.696366,
          35.687304
        ],
        "type": "Point"
      },
      "properties": {
        "bangumi_id": 50814,
        "bangumi_title": "打工吧！魔王大人",
        "ep_cut": "1",
        "image_url": "https://w.junreimap.com/images/user/0/bangumi/50814/points/jjpvkg3-1789561554215.webp",
        "location": "",
        "point_id": "jjpvkg3",
        "point_name": "西新宿二丁目",
        "remark": ""
      },
      "type": "Feature"
    },
    {
      "geometry": {
        "coordinates": [
          139.696501,
          35.687369
        ],
        "type": "Point"
      },
      "properties": {
        "bangumi_id": 50814,
        "bangumi_title": "打工吧！魔王大人",
        "ep_cut": "1",
        "image_url": "https://w.junreimap.com/images/user/0/bangumi/50814/points/jjpwnw1-1789561596557.webp",
        "location": "",
        "point_id": "jjpwnw1",
        "point_name": "西新宿二丁目",
        "remark": ""
      },
      "type": "Feature"
    },
    {
      "geometry": {
        "coordinates": [
          139.696346,
          35.687293
        ],
        "type": "Point"
      },
      "properties": {
        "bangumi_id": 50814,
        "bangumi_title": "打工吧！魔王大人",
        "ep_cut": "1",
        "image_url": "https://w.junreimap.com/images/user/0/bangumi/50814/points/jjpwvsi-1789561603104.webp",
        "location": "",
        "point_id": "jjpwvsi",
        "point_name": "西新宿二丁目",
        "remark": ""
      },
      "type": "Feature"
    },
    {
      "geometry": {
        "coordinates": [
          139.696406,
          35.687316
        ],
        "type": "Point"
      },
      "properties": {
        "bangumi_id": 50814,
        "bangumi_title": "打工吧！魔王大人",
        "ep_cut": "1",
        "image_url": "https://w.junreimap.com/images/user/0/bangumi/50814/points/jjpx6pi-1789561615437.webp",
        "location": "",
        "point_id": "jjpx6pi",
        "point_name": "西新宿二丁目",
        "remark": ""
      },
      "type": "Feature"
    },
    {
      "geometry": {
        "coordinates": [
          139.696466,
          35.687354
        ],
        "type": "Point"
      },
      "properties": {
        "bangumi_id": 50814,
        "bangumi_title": "打工吧！魔王大人",
        "ep_cut": "1",
        "image_url": "https://w.junreimap.com/images/user/0/bangumi/50814/points/jjpxgw7-1789561628604.webp",
        "location": "",
        "point_id": "jjpxgw7",
        "point_name": "西新宿二丁目",
        "remark": ""
      },
      "type": "Feature"
    },
    {
      "geometry": {
        "coordinates": [
          139.69649,
          35.687368
        ],
        "type": "Point"
      },
      "properties": {
        "bangumi_id": 50814,
        "bangumi_title": "打工吧！魔王大人",
        "ep_cut": "1",
        "image_url": "https://w.junreimap.com/images/user/0/bangumi/50814/points/jjpxlzi-1789561635803.webp",
        "location": "",
        "point_id": "jjpxlzi",
        "point_name": "西新宿二丁目",
        "remark": ""
      },
      "type": "Feature"
    },
    {
      "geometry": {
        "coordinates": [
          139.69951,
          35.693736
        ],
        "type": "Point"
      },
      "properties": {
        "bangumi_id": 50814,
        "bangumi_title": "打工吧！魔王大人",
        "ep_cut": "1",
        "image_url": "https://w.junreimap.com/images/user/0/bangumi/50814/points/jjqksqh-1789562756948.webp",
        "location": "",
        "point_id": "jjqksqh",
        "point_name": "新宿西口",
        "remark": "10分钟左右"
      },
      "type": "Feature"
    },
    {
      "geometry": {
        "coordinates": [
          139.694133,
          35.69279
        ],
        "type": "Point"
      },
      "properties": {
        "bangumi_id": 50814,
        "bangumi_title": "打工吧！魔王大人",
        "ep_cut": "1",
        "image_url": "https://w.junreimap.com/images/user/0/bangumi/50814/points/jjqna12-1789562844900.webp",
        "location": "",
        "point_id": "jjqna12",
        "point_name": "新宿警察署裏交差点",
        "remark": ""
      },
      "type": "Feature"
    },
    {
      "geometry": {
        "coordinates": [
          139.66725,
          35.671013
        ],
        "type": "Point"
      },
      "properties": {
        "bangumi_id": 50814,
        "bangumi_title": "打工吧！魔王大人",
        "ep_cut": "1",
        "image_url": "https://w.junreimap.com/images/user/0/bangumi/50814/points/jjqutbr-1789563190533.webp",
        "location": "",
        "point_id": "jjqutbr",
        "point_name": "动漫男主家",
        "remark": "根据动漫后面剧情推出，现实是私人住宅，而且和动漫相差太大，应该翻修过"
      },
      "type": "Feature"
    },
    {
      "geometry": {
        "coordinates": [
          139.671061,
          35.673895
        ],
        "type": "Point"
      },
      "properties": {
        "bangumi_id": 50814,
        "bangumi_title": "打工吧！魔王大人",
        "ep_cut": "1",
        "image_url": "https://w.junreimap.com/images/user/0/bangumi/50814/points/jjr0gds-1789563491235.webp",
        "location": "",
        "point_id": "jjr0gds",
        "point_name": "一丁目东",
        "remark": "右面的楼现在正在翻修，我记得没错现在修高楼，又一个位置和动漫不一样了"
      },
      "type": "Feature"
    },
    {
      "geometry": {
        "coordinates": [
          139.671057,
          35.674032
        ],
        "type": "Point"
      },
      "properties": {
        "bangumi_id": 50814,
        "bangumi_title": "打工吧！魔王大人",
        "ep_cut": "1",
        "image_url": "https://w.junreimap.com/images/user/0/bangumi/50814/points/jjr38ot-1789563581253.webp",
        "location": "",
        "point_id": "jjr38ot",
        "point_name": "一丁目东",
        "remark": "本作最经典位置"
      },
      "type": "Feature"
    },
    {
      "geometry": {
        "coordinates": [
          139.671268,
          35.674065
        ],
        "type": "Point"
      },
      "properties": {
        "bangumi_id": 50814,
        "bangumi_title": "打工吧！魔王大人",
        "ep_cut": "1",
        "image_url": "https://w.junreimap.com/images/user/0/bangumi/50814/points/jjr3ooc-1789563651878.webp",
        "location": "",
        "point_id": "jjr3ooc",
        "point_name": "爱是一把会倾斜的伞",
        "remark": ""
      },
      "type": "Feature"
    },
    {
      "geometry": {
        "coordinates": [
          139.671269,
          35.674072
        ],
        "type": "Point"
      },
      "properties": {
        "bangumi_id": 50814,
        "bangumi_title": "打工吧！魔王大人",
        "ep_cut": "1",
        "image_url": "https://w.junreimap.com/images/user/0/bangumi/50814/points/jjr54xu-1789563673191.webp",
        "location": "",
        "point_id": "jjr54xu",
        "point_name": "一丁目东",
        "remark": ""
      },
      "type": "Feature"
    },
    {
      "geometry": {
        "coordinates": [
          139.671057,
          35.674058
        ],
        "type": "Point"
      },
      "properties": {
        "bangumi_id": 50814,
        "bangumi_title": "打工吧！魔王大人",
        "ep_cut": "1",
        "image_url": "https://w.junreimap.com/images/user/0/bangumi/50814/points/jjr8ld1-1789563835915.webp",
        "location": "",
        "point_id": "jjr8ld1",
        "point_name": "一丁目东",
        "remark": ""
      },
      "type": "Feature"
    },
    {
      "geometry": {
        "coordinates": [
          139.671259,
          35.67408
        ],
        "type": "Point"
      },
      "properties": {
        "bangumi_id": 50814,
        "bangumi_title": "打工吧！魔王大人",
        "ep_cut": "1",
        "image_url": "https://w.junreimap.com/images/user/0/bangumi/50814/points/jjr8dy8-1789563840268.webp",
        "location": "",
        "point_id": "jjr8dy8",
        "point_name": "一丁目东",
        "remark": ""
      },
      "type": "Feature"
    },
    {
      "geometry": {
        "coordinates": [
          139.671055,
          35.674059
        ],
        "type": "Point"
      },
      "properties": {
        "bangumi_id": 50814,
        "bangumi_title": "打工吧！魔王大人",
        "ep_cut": "1",
        "image_url": "https://w.junreimap.com/images/user/0/bangumi/50814/points/jjr9r8q-1789563886189.webp",
        "location": "",
        "point_id": "jjr9r8q",
        "point_name": "一丁目东",
        "remark": ""
      },
      "type": "Feature"
    },
    {
      "geometry": {
        "coordinates": [
          139.67107,
          35.674032
        ],
        "type": "Point"
      },
      "properties": {
        "bangumi_id": 50814,
        "bangumi_title": "打工吧！魔王大人",
        "ep_cut": "1",
        "image_url": "https://w.junreimap.com/images/user/0/bangumi/50814/points/jjr9t4d-1789563890275.webp",
        "location": "",
        "point_id": "jjr9t4d",
        "point_name": "一丁目东",
        "remark": ""
      },
      "type": "Feature"
    },
    {
      "geometry": {
        "coordinates": [
          139.66468,
          35.673516
        ],
        "type": "Point"
      },
      "properties": {
        "bangumi_id": 50814,
        "bangumi_title": "打工吧！魔王大人",
        "ep_cut": "1",
        "image_url": "https://w.junreimap.com/images/user/0/bangumi/50814/points/jjrpl6r-1789564653542.webp",
        "location": "",
        "point_id": "jjrpl6r",
        "point_name": "dear all",
        "remark": ""
      },
      "type": "Feature"
    },
    {
      "geometry": {
        "coordinates": [
          139.664679,
          35.673511
        ],
        "type": "Point"
      },
      "properties": {
        "bangumi_id": 50814,
        "bangumi_title": "打工吧！魔王大人",
        "ep_cut": "1",
        "image_url": "https://w.junreimap.com/images/user/0/bangumi/50814/points/jjrpurt-1789564660434.webp",
        "location": "",
        "point_id": "jjrpurt",
        "point_name": "dear all",
        "remark": "后面应该还有一次取景"
      },
      "type": "Feature"
    },
    {
      "geometry": {
        "coordinates": [
          139.664659,
          35.673496
        ],
        "type": "Point"
      },
      "properties": {
        "bangumi_id": 50814,
        "bangumi_title": "打工吧！魔王大人",
        "ep_cut": "1",
        "image_url": "https://w.junreimap.com/images/user/0/bangumi/50814/points/jjrq33x-1789564708121.webp",
        "location": "",
        "point_id": "jjrq33x",
        "point_name": "dear all",
        "remark": ""
      },
      "type": "Feature"
    },
    {
      "geometry": {
        "coordinates": [
          139.671397,
          35.674217
        ],
        "type": "Point"
      },
      "properties": {
        "bangumi_id": 50814,
        "bangumi_title": "打工吧！魔王大人",
        "ep_cut": "1",
        "image_url": "https://w.junreimap.com/images/user/0/bangumi/50814/points/jjrswn2-1789564795946.webp",
        "location": "",
        "point_id": "jjrswn2",
        "point_name": "Il Chianti Cafe",
        "remark": ""
      },
      "type": "Feature"
    },
    {
      "geometry": {
        "coordinates": [
          139.664679,
          35.673498
        ],
        "type": "Point"
      },
      "properties": {
        "bangumi_id": 50814,
        "bangumi_title": "打工吧！魔王大人",
        "ep_cut": "1",
        "image_url": "https://w.junreimap.com/images/user/0/bangumi/50814/points/jjrpwqr-1789564665622.webp",
        "location": "",
        "point_id": "jjrpwqr",
        "point_name": "dear all",
        "remark": ""
      },
      "type": "Feature"
    },
    {
      "geometry": {
        "coordinates": [
          139.671291,
          35.674185
        ],
        "type": "Point"
      },
      "properties": {
        "bangumi_id": 50814,
        "bangumi_title": "打工吧！魔王大人",
        "ep_cut": "1",
        "image_url": "https://w.junreimap.com/images/user/0/bangumi/50814/points/jjrt2wm-1789564792151.webp",
        "location": "",
        "point_id": "jjrt2wm",
        "point_name": "Il Chianti Cafe",
        "remark": ""
      },
      "type": "Feature"
    },
    {
      "geometry": {
        "coordinates": [
          139.671275,
          35.674087
        ],
        "type": "Point"
      },
      "properties": {
        "bangumi_id": 50814,
        "bangumi_title": "打工吧！魔王大人",
        "ep_cut": "1",
        "image_url": "https://w.junreimap.com/images/user/0/bangumi/50814/points/jjrt3y9-1789564788269.webp",
        "location": "",
        "point_id": "jjrt3y9",
        "point_name": "Il Chianti Cafe",
        "remark": ""
      },
      "type": "Feature"
    },
    {
      "geometry": {
        "coordinates": [
          139.67192,
          35.674163
        ],
        "type": "Point"
      },
      "properties": {
        "bangumi_id": 50814,
        "bangumi_title": "打工吧！魔王大人",
        "ep_cut": "1",
        "image_url": "https://w.junreimap.com/images/user/0/bangumi/50814/points/jjru3t8-1789564868070.webp",
        "location": "",
        "point_id": "jjru3t8",
        "point_name": "711便利店",
        "remark": ""
      },
      "type": "Feature"
    }
  ],
  "type": "FeatureCollection"
}