{
  "features": [
    {
      "geometry": {
        "coordinates": [
          138.247649,
          36.753032
        ],
        "type": "Point"
      },
      "properties": {
        "bangumi_id": 508146,
        "bangumi_title": "秒速5厘米",
        "ep_cut": 1,
        "image_url": "https://w.junreimap.com/images/user/2207/bangumi/508146/points/dw4bgdv-1777454727961.jpg",
        "location": "",
        "point_id": "dw4bgdv",
        "point_name": "牟礼駅内",
        "remark": "动画中的岩舟站，在电影中分开两部分取景，下车和站内的镜头都是在牟礼完成真人版取景。"
      },
      "type": "Feature"
    },
    {
      "geometry": {
        "coordinates": [
          138.196031,
          36.808088
        ],
        "type": "Point"
      },
      "properties": {
        "bangumi_id": 508146,
        "bangumi_title": "秒速5厘米",
        "ep_cut": 1,
        "image_url": "https://w.junreimap.com/images/user/0/bangumi/508146/points/dw4ylbz-1777251864125.jpg",
        "location": "",
        "point_id": "dw4ylbz",
        "point_name": "黑姬站",
        "remark": "动画中的岩舟站，在电影中分开两部分取景，少年时期贵树和明理相见后，第二天离别的镜头是在黑姬站站台完成真人版取景。"
      },
      "type": "Feature"
    },
    {
      "geometry": {
        "coordinates": [
          138.24762,
          36.753109
        ],
        "type": "Point"
      },
      "properties": {
        "bangumi_id": 508146,
        "bangumi_title": "秒速5厘米",
        "ep_cut": 1,
        "image_url": "https://w.junreimap.com/images/user/0/bangumi/508146/points/dw57ofu-1777252208003.jpg",
        "location": "",
        "point_id": "dw57ofu",
        "point_name": "牟礼",
        "remark": "动画中的岩舟站，在电影中分开两部分取景，下车和站内的镜头都是在牟礼完成真人版取景。"
      },
      "type": "Feature"
    },
    {
      "geometry": {
        "coordinates": [
          138.212225,
          36.872338
        ],
        "type": "Point"
      },
      "properties": {
        "bangumi_id": 508146,
        "bangumi_title": "秒速5厘米",
        "ep_cut": 1,
        "image_url": "https://w.junreimap.com/images/user/0/bangumi/508146/points/dw5blyb-1777252506092.jpg",
        "location": "",
        "point_id": "dw5blyb",
        "point_name": "妙高高原",
        "remark": "动画中的小山站，电影版用妙高高原站取景。贵树在此准备换乘两毛线前往岩舟，却在站台上被风吹走写给明里的信。"
      },
      "type": "Feature"
    },
    {
      "geometry": {
        "coordinates": [
          139.702689,
          35.691964
        ],
        "type": "Point"
      },
      "properties": {
        "bangumi_id": 508146,
        "bangumi_title": "秒速5厘米",
        "ep_cut": 1,
        "image_url": "https://w.junreimap.com/images/user/0/bangumi/508146/points/dw5ol7f-1777253001758.jpg",
        "location": "",
        "point_id": "dw5ol7f",
        "point_name": "纪伊国屋书店 新宿本店",
        "remark": ""
      },
      "type": "Feature"
    },
    {
      "geometry": {
        "coordinates": [
          139.647462,
          35.653698
        ],
        "type": "Point"
      },
      "properties": {
        "bangumi_id": 508146,
        "bangumi_title": "秒速5厘米",
        "ep_cut": 1,
        "image_url": "https://w.junreimap.com/images/user/0/bangumi/508146/points/dw69w8q-1777254083575.jpg",
        "location": "",
        "point_id": "dw69w8q",
        "point_name": "豪徳寺駅",
        "remark": ""
      },
      "type": "Feature"
    },
    {
      "geometry": {
        "coordinates": [
          139.673137,
          35.687983
        ],
        "type": "Point"
      },
      "properties": {
        "bangumi_id": 508146,
        "bangumi_title": "秒速5厘米",
        "ep_cut": 1,
        "image_url": "https://w.junreimap.com/images/user/0/bangumi/508146/points/dw78x9y-1777255655165.jpg",
        "location": "",
        "point_id": "dw78x9y",
        "point_name": "川島商店街",
        "remark": ""
      },
      "type": "Feature"
    },
    {
      "geometry": {
        "coordinates": [
          139.729532,
          35.75185
        ],
        "type": "Point"
      },
      "properties": {
        "bangumi_id": 508146,
        "bangumi_title": "秒速5厘米",
        "ep_cut": 1,
        "image_url": "https://w.junreimap.com/images/user/0/bangumi/508146/points/dwc0hjy-1777263675842.jpg",
        "location": "",
        "point_id": "dwc0hjy",
        "point_name": "北区立音無もみじ緑地",
        "remark": "松橋弁財天洞窟跡旁"
      },
      "type": "Feature"
    },
    {
      "geometry": {
        "coordinates": [
          139.692229,
          35.679197
        ],
        "type": "Point"
      },
      "properties": {
        "bangumi_id": 508146,
        "bangumi_title": "秒速5厘米",
        "ep_cut": 1,
        "image_url": "https://w.junreimap.com/images/user/0/bangumi/508146/points/dwy6gki-1777300871862.jpg",
        "location": "",
        "point_id": "dwy6gki",
        "point_name": "参宮橋公園",
        "remark": ""
      },
      "type": "Feature"
    },
    {
      "geometry": {
        "coordinates": [
          139.692726,
          35.678711
        ],
        "type": "Point"
      },
      "properties": {
        "bangumi_id": 508146,
        "bangumi_title": "秒速5厘米",
        "ep_cut": 1,
        "image_url": "https://w.junreimap.com/images/user/0/bangumi/508146/points/dwy9idr-1777301008175.jpg",
        "location": "",
        "point_id": "dwy9idr",
        "point_name": "参宮橋公園前(1)",
        "remark": ""
      },
      "type": "Feature"
    },
    {
      "geometry": {
        "coordinates": [
          139.689812,
          35.690137
        ],
        "type": "Point"
      },
      "properties": {
        "bangumi_id": 508146,
        "bangumi_title": "秒速5厘米",
        "ep_cut": 1,
        "image_url": "https://w.junreimap.com/images/user/0/bangumi/508146/points/dwybqv5-1777301100668.jpg",
        "location": "",
        "point_id": "dwybqv5",
        "point_name": "新宿中央公園水の広場",
        "remark": ""
      },
      "type": "Feature"
    },
    {
      "geometry": {
        "coordinates": [
          139.68946,
          35.690063
        ],
        "type": "Point"
      },
      "properties": {
        "bangumi_id": 508146,
        "bangumi_title": "秒速5厘米",
        "ep_cut": 1,
        "image_url": "https://w.junreimap.com/images/user/0/bangumi/508146/points/dwyfazu-1777301270673.jpg",
        "location": "",
        "point_id": "dwyfazu",
        "point_name": "新宿中央公園白糸の滝",
        "remark": ""
      },
      "type": "Feature"
    },
    {
      "geometry": {
        "coordinates": [
          139.757018,
          35.690845
        ],
        "type": "Point"
      },
      "properties": {
        "bangumi_id": 508146,
        "bangumi_title": "秒速5厘米",
        "ep_cut": 1,
        "image_url": "https://w.junreimap.com/images/user/0/bangumi/508146/points/dwyiyju-1777301437300.jpg",
        "location": "",
        "point_id": "dwyiyju",
        "point_name": "毎日新聞社の本社ビル屋上",
        "remark": ""
      },
      "type": "Feature"
    },
    {
      "geometry": {
        "coordinates": [
          130.898226,
          30.494989
        ],
        "type": "Point"
      },
      "properties": {
        "bangumi_id": 508146,
        "bangumi_title": "秒速5厘米",
        "ep_cut": 1,
        "image_url": "https://w.junreimap.com/images/user/0/bangumi/508146/points/dwysoiq-1777301983658.jpg",
        "location": "",
        "point_id": "dwysoiq",
        "point_name": "種子島長浜",
        "remark": ""
      },
      "type": "Feature"
    },
    {
      "geometry": {
        "coordinates": [
          130.960512,
          30.540816
        ],
        "type": "Point"
      },
      "properties": {
        "bangumi_id": 508146,
        "bangumi_title": "秒速5厘米",
        "ep_cut": 1,
        "image_url": "https://w.junreimap.com/images/user/0/bangumi/508146/points/dwyw25j-1777302150823.jpg",
        "location": "",
        "point_id": "dwyw25j",
        "point_name": "種子島中央高等学校 駐輪場",
        "remark": ""
      },
      "type": "Feature"
    },
    {
      "geometry": {
        "coordinates": [
          130.898771,
          30.495565
        ],
        "type": "Point"
      },
      "properties": {
        "bangumi_id": 508146,
        "bangumi_title": "秒速5厘米",
        "ep_cut": 1,
        "image_url": "https://w.junreimap.com/images/user/0/bangumi/508146/points/dwyzfjm-1777302224995.jpg",
        "location": "",
        "point_id": "dwyzfjm",
        "point_name": "種子島長浜",
        "remark": ""
      },
      "type": "Feature"
    },
    {
      "geometry": {
        "coordinates": [
          130.970912,
          30.546728
        ],
        "type": "Point"
      },
      "properties": {
        "bangumi_id": 508146,
        "bangumi_title": "秒速5厘米",
        "ep_cut": 1,
        "image_url": "https://w.junreimap.com/images/user/0/bangumi/508146/points/dwz1tqv-1777302363078.jpg",
        "location": "",
        "point_id": "dwz1tqv",
        "point_name": "アイショップ 石堂店",
        "remark": ""
      },
      "type": "Feature"
    },
    {
      "geometry": {
        "coordinates": [
          130.993226,
          30.530206
        ],
        "type": "Point"
      },
      "properties": {
        "bangumi_id": 508146,
        "bangumi_title": "秒速5厘米",
        "ep_cut": 1,
        "image_url": "https://w.junreimap.com/images/user/0/bangumi/508146/points/dwz48db-1777302444335.jpg",
        "location": "",
        "point_id": "dwz48db",
        "point_name": "中山海岸",
        "remark": ""
      },
      "type": "Feature"
    },
    {
      "geometry": {
        "coordinates": [
          130.970925,
          30.546739
        ],
        "type": "Point"
      },
      "properties": {
        "bangumi_id": 508146,
        "bangumi_title": "秒速5厘米",
        "ep_cut": 1,
        "image_url": "https://w.junreimap.com/images/user/0/bangumi/508146/points/dwz5kx0-1777302528383.jpg",
        "location": "",
        "point_id": "dwz5kx0",
        "point_name": "アイショップ 石堂店(2)",
        "remark": ""
      },
      "type": "Feature"
    },
    {
      "geometry": {
        "coordinates": [
          130.969405,
          30.584076
        ],
        "type": "Point"
      },
      "properties": {
        "bangumi_id": 508146,
        "bangumi_title": "秒速5厘米",
        "ep_cut": 1,
        "image_url": "https://w.junreimap.com/images/user/0/bangumi/508146/points/dwz8a6i-1777302619912.jpg",
        "location": "",
        "point_id": "dwz8a6i",
        "point_name": "幽霊坂",
        "remark": ""
      },
      "type": "Feature"
    },
    {
      "geometry": {
        "coordinates": [
          139.706314,
          35.689623
        ],
        "type": "Point"
      },
      "properties": {
        "bangumi_id": 508146,
        "bangumi_title": "秒速5厘米",
        "ep_cut": 1,
        "image_url": "https://w.junreimap.com/images/user/0/bangumi/508146/points/dwzbkd8-1777302786919.jpg",
        "location": "",
        "point_id": "dwzbkd8",
        "point_name": "世界堂新宿店前路口",
        "remark": ""
      },
      "type": "Feature"
    },
    {
      "geometry": {
        "coordinates": [
          139.94635,
          35.773125
        ],
        "type": "Point"
      },
      "properties": {
        "bangumi_id": 508146,
        "bangumi_title": "秒速5厘米",
        "ep_cut": 1,
        "image_url": "https://w.junreimap.com/images/user/0/bangumi/508146/points/dwzfr7j-1777303276104.jpg",
        "location": "",
        "point_id": "dwzfr7j",
        "point_name": "東松戸中央公園",
        "remark": ""
      },
      "type": "Feature"
    },
    {
      "geometry": {
        "coordinates": [
          138.19622,
          36.807864
        ],
        "type": "Point"
      },
      "properties": {
        "bangumi_id": 508146,
        "bangumi_title": "秒速5厘米",
        "ep_cut": 1,
        "image_url": "https://w.junreimap.com/images/user/0/bangumi/508146/points/dwzo3pn-1777303377073.jpg",
        "location": "",
        "point_id": "dwzo3pn",
        "point_name": "黒姫駅",
        "remark": ""
      },
      "type": "Feature"
    },
    {
      "geometry": {
        "coordinates": [
          139.523127,
          35.734525
        ],
        "type": "Point"
      },
      "properties": {
        "bangumi_id": 508146,
        "bangumi_title": "秒速5厘米",
        "ep_cut": 1,
        "image_url": "https://w.junreimap.com/images/user/0/bangumi/508146/points/dwzsnzj-1777303720724.jpg",
        "location": "",
        "point_id": "dwzsnzj",
        "point_name": "多摩六都科学館プラネタリウム",
        "remark": ""
      },
      "type": "Feature"
    },
    {
      "geometry": {
        "coordinates": [
          139.694295,
          35.69124
        ],
        "type": "Point"
      },
      "properties": {
        "bangumi_id": 508146,
        "bangumi_title": "秒速5厘米",
        "ep_cut": 1,
        "image_url": "https://w.junreimap.com/images/user/0/bangumi/508146/points/dx12rcz-1777305765656.jpg",
        "location": "",
        "point_id": "dx12rcz",
        "point_name": "新宿三井ビルディング 55広場",
        "remark": ""
      },
      "type": "Feature"
    },
    {
      "geometry": {
        "coordinates": [
          139.647379,
          35.653744
        ],
        "type": "Point"
      },
      "properties": {
        "bangumi_id": 508146,
        "bangumi_title": "秒速5厘米",
        "ep_cut": 1,
        "image_url": "https://w.junreimap.com/images/user/0/bangumi/508146/points/dx1b714-1777306110700.jpg",
        "location": "",
        "point_id": "dx1b714",
        "point_name": "豪徳寺駅(2)",
        "remark": ""
      },
      "type": "Feature"
    },
    {
      "geometry": {
        "coordinates": [
          138.259656,
          36.701838
        ],
        "type": "Point"
      },
      "properties": {
        "bangumi_id": 508146,
        "bangumi_title": "秒速5厘米",
        "ep_cut": 1,
        "image_url": "https://w.junreimap.com/images/user/0/bangumi/508146/points/dxme662-1777341522591.jpg",
        "location": "",
        "point_id": "dxme662",
        "point_name": "南石集会所前",
        "remark": ""
      },
      "type": "Feature"
    },
    {
      "geometry": {
        "coordinates": [
          139.694269,
          35.679539
        ],
        "type": "Point"
      },
      "properties": {
        "bangumi_id": 508146,
        "bangumi_title": "秒速5厘米",
        "ep_cut": 1,
        "image_url": "https://w.junreimap.com/images/user/0/bangumi/508146/points/dxn4hh8-1777342801008.jpg",
        "location": "",
        "point_id": "dxn4hh8",
        "point_name": "参宮橋高架下",
        "remark": ""
      },
      "type": "Feature"
    },
    {
      "geometry": {
        "coordinates": [
          139.691726,
          35.675311
        ],
        "type": "Point"
      },
      "properties": {
        "bangumi_id": 508146,
        "bangumi_title": "秒速5厘米",
        "ep_cut": 1,
        "image_url": "https://w.junreimap.com/images/user/0/bangumi/508146/points/dxn7z8l-1777342916009.jpg",
        "location": "",
        "point_id": "dxn7z8l",
        "point_name": "参宮橋3号踏切",
        "remark": ""
      },
      "type": "Feature"
    },
    {
      "geometry": {
        "coordinates": [
          139.691751,
          35.675279
        ],
        "type": "Point"
      },
      "properties": {
        "bangumi_id": 508146,
        "bangumi_title": "秒速5厘米",
        "ep_cut": 1,
        "image_url": "https://w.junreimap.com/images/user/0/bangumi/508146/points/dxn91iw-1777342982091.jpg",
        "location": "",
        "point_id": "dxn91iw",
        "point_name": "参宮橋3号踏切(2)",
        "remark": ""
      },
      "type": "Feature"
    },
    {
      "geometry": {
        "coordinates": [
          130.960094,
          30.537426
        ],
        "type": "Point"
      },
      "properties": {
        "bangumi_id": 508146,
        "bangumi_title": "秒速5厘米",
        "ep_cut": 1,
        "image_url": "https://w.junreimap.com/images/user/0/bangumi/508146/points/dxnefmc-1777343219659.jpg",
        "location": "",
        "point_id": "dxnefmc",
        "point_name": "鹿児島相互信用金庫中種子支店",
        "remark": ""
      },
      "type": "Feature"
    },
    {
      "geometry": {
        "coordinates": [
          139.75678,
          35.690972
        ],
        "type": "Point"
      },
      "properties": {
        "bangumi_id": 508146,
        "bangumi_title": "秒速5厘米",
        "ep_cut": 1,
        "image_url": "https://w.junreimap.com/images/user/0/bangumi/508146/points/dxngpb0-1777343466252.jpg",
        "location": "",
        "point_id": "dxngpb0",
        "point_name": "毎日新聞社の本社ビルエレベーターホール",
        "remark": ""
      },
      "type": "Feature"
    },
    {
      "geometry": {
        "coordinates": [
          138.212109,
          36.872098
        ],
        "type": "Point"
      },
      "properties": {
        "bangumi_id": 508146,
        "bangumi_title": "秒速5厘米",
        "ep_cut": 1,
        "image_url": "https://w.junreimap.com/images/user/0/bangumi/508146/points/dxnljvz-1777343550985.jpg",
        "location": "",
        "point_id": "dxnljvz",
        "point_name": "妙高高原駅(2)",
        "remark": ""
      },
      "type": "Feature"
    },
    {
      "geometry": {
        "coordinates": [
          138.212324,
          36.872417
        ],
        "type": "Point"
      },
      "properties": {
        "bangumi_id": 508146,
        "bangumi_title": "秒速5厘米",
        "ep_cut": 1,
        "image_url": "https://w.junreimap.com/images/user/0/bangumi/508146/points/dxnmjnu-1777343610813.jpg",
        "location": "",
        "point_id": "dxnmjnu",
        "point_name": "妙高高原駅(3)",
        "remark": ""
      },
      "type": "Feature"
    },
    {
      "geometry": {
        "coordinates": [
          139.687993,
          35.671486
        ],
        "type": "Point"
      },
      "properties": {
        "bangumi_id": 508146,
        "bangumi_title": "秒速5厘米",
        "ep_cut": 1,
        "image_url": "https://w.junreimap.com/images/user/0/bangumi/508146/points/dxnoy9r-1777344189386.jpg",
        "location": "",
        "point_id": "dxnoy9r",
        "point_name": "代々木八幡から見下ろす山手通り",
        "remark": ""
      },
      "type": "Feature"
    },
    {
      "geometry": {
        "coordinates": [
          139.688001,
          35.671495
        ],
        "type": "Point"
      },
      "properties": {
        "bangumi_id": 508146,
        "bangumi_title": "秒速5厘米",
        "ep_cut": 1,
        "image_url": "https://w.junreimap.com/images/user/0/bangumi/508146/points/dxo3w7v-1777344443682.jpg",
        "location": "",
        "point_id": "dxo3w7v",
        "point_name": "代々木八幡宮階段",
        "remark": ""
      },
      "type": "Feature"
    },
    {
      "geometry": {
        "coordinates": [
          139.727698,
          35.751063
        ],
        "type": "Point"
      },
      "properties": {
        "bangumi_id": 508146,
        "bangumi_title": "秒速5厘米",
        "ep_cut": 1,
        "image_url": "https://w.junreimap.com/images/user/0/bangumi/508146/points/dxod0dn-1777344828785.jpg",
        "location": "",
        "point_id": "dxod0dn",
        "point_name": "北区立音無えのき緑地",
        "remark": ""
      },
      "type": "Feature"
    },
    {
      "geometry": {
        "coordinates": [
          139.693711,
          35.680019
        ],
        "type": "Point"
      },
      "properties": {
        "bangumi_id": 508146,
        "bangumi_title": "秒速5厘米",
        "ep_cut": 1,
        "image_url": "https://w.junreimap.com/images/user/0/bangumi/508146/points/dxoqi7r-1777345475848.jpg",
        "location": "",
        "point_id": "dxoqi7r",
        "point_name": "公衆電話ボックス",
        "remark": ""
      },
      "type": "Feature"
    },
    {
      "geometry": {
        "coordinates": [
          139.70265,
          35.691954
        ],
        "type": "Point"
      },
      "properties": {
        "bangumi_id": 508146,
        "bangumi_title": "秒速5厘米",
        "ep_cut": 1,
        "image_url": "https://w.junreimap.com/images/user/0/bangumi/508146/points/dxoua2j-1777345639537.jpg",
        "location": "",
        "point_id": "dxoua2j",
        "point_name": "纪伊国屋书店 新宿本店前",
        "remark": ""
      },
      "type": "Feature"
    },
    {
      "geometry": {
        "coordinates": [
          139.73049,
          35.752406
        ],
        "type": "Point"
      },
      "properties": {
        "bangumi_id": 508146,
        "bangumi_title": "秒速5厘米",
        "ep_cut": 1,
        "image_url": "https://w.junreimap.com/images/user/0/bangumi/508146/points/dxplu3u-1777346919327.jpg",
        "location": "",
        "point_id": "dxplu3u",
        "point_name": "北区立音無さくら緑地",
        "remark": ""
      },
      "type": "Feature"
    },
    {
      "geometry": {
        "coordinates": [
          139.688096,
          35.671598
        ],
        "type": "Point"
      },
      "properties": {
        "bangumi_id": 508146,
        "bangumi_title": "秒速5厘米",
        "ep_cut": 1,
        "image_url": "https://w.junreimap.com/images/user/0/bangumi/508146/points/dxq5mvh-1777347878335.jpg",
        "location": "",
        "point_id": "dxq5mvh",
        "point_name": "ミミーと明里と貴樹",
        "remark": ""
      },
      "type": "Feature"
    },
    {
      "geometry": {
        "coordinates": [
          139.691718,
          35.687229
        ],
        "type": "Point"
      },
      "properties": {
        "bangumi_id": 508146,
        "bangumi_title": "秒速5厘米",
        "ep_cut": 1,
        "image_url": "https://w.junreimap.com/images/user/2207/bangumi/508146/points/dzg9uak-1777452176177.jpg",
        "location": "",
        "point_id": "dzg9uak",
        "point_name": "「風景の断片」前",
        "remark": "远野贵树与水野理纱分别之地\n"
      },
      "type": "Feature"
    },
    {
      "geometry": {
        "coordinates": [
          139.692787,
          35.68865
        ],
        "type": "Point"
      },
      "properties": {
        "bangumi_id": 508146,
        "bangumi_title": "秒速5厘米",
        "ep_cut": 1,
        "image_url": "https://w.junreimap.com/images/user/2207/bangumi/508146/points/dzgmqm1-1777452999347.jpg",
        "location": "",
        "point_id": "dzgmqm1",
        "point_name": "貴樹の喫煙スポット",
        "remark": ""
      },
      "type": "Feature"
    },
    {
      "geometry": {
        "coordinates": [
          139.692741,
          35.678707
        ],
        "type": "Point"
      },
      "properties": {
        "bangumi_id": 508146,
        "bangumi_title": "秒速5厘米",
        "ep_cut": 1,
        "image_url": "https://w.junreimap.com/images/user/2207/bangumi/508146/points/dzh137x-1777453449246.jpg",
        "location": "",
        "point_id": "dzh137x",
        "point_name": "参宮橋公園前(2)",
        "remark": ""
      },
      "type": "Feature"
    },
    {
      "geometry": {
        "coordinates": [
          139.692927,
          35.678644
        ],
        "type": "Point"
      },
      "properties": {
        "bangumi_id": 508146,
        "bangumi_title": "秒速5厘米",
        "ep_cut": 1,
        "image_url": "https://w.junreimap.com/images/user/2207/bangumi/508146/points/dzh6lq7-1777453840650.jpg",
        "location": "",
        "point_id": "dzh6lq7",
        "point_name": "参宮橋公園前の坂",
        "remark": ""
      },
      "type": "Feature"
    },
    {
      "geometry": {
        "coordinates": [
          139.692958,
          35.677711
        ],
        "type": "Point"
      },
      "properties": {
        "bangumi_id": 508146,
        "bangumi_title": "秒速5厘米",
        "ep_cut": 1,
        "image_url": "https://w.junreimap.com/images/user/2207/bangumi/508146/points/dzhc7ji-1777453967967.jpg",
        "location": "",
        "point_id": "dzhc7ji",
        "point_name": "参宮橋1号踏切（向こうに明里)",
        "remark": ""
      },
      "type": "Feature"
    },
    {
      "geometry": {
        "coordinates": [
          139.692999,
          35.677673
        ],
        "type": "Point"
      },
      "properties": {
        "bangumi_id": 508146,
        "bangumi_title": "秒速5厘米",
        "ep_cut": 1,
        "image_url": "https://w.junreimap.com/images/user/2207/bangumi/508146/points/dzhe6e5-1777454085800.jpg",
        "location": "",
        "point_id": "dzhe6e5",
        "point_name": "参宮橋1号踏切（向こうに貴樹)",
        "remark": ""
      },
      "type": "Feature"
    },
    {
      "geometry": {
        "coordinates": [
          139.692982,
          35.677697
        ],
        "type": "Point"
      },
      "properties": {
        "bangumi_id": 508146,
        "bangumi_title": "秒速5厘米",
        "ep_cut": 1,
        "image_url": "https://w.junreimap.com/images/user/2207/bangumi/508146/points/dzhg4gt-1777454158827.jpg",
        "location": "",
        "point_id": "dzhg4gt",
        "point_name": "参宮橋1号踏切",
        "remark": ""
      },
      "type": "Feature"
    },
    {
      "geometry": {
        "coordinates": [
          138.246818,
          36.752724
        ],
        "type": "Point"
      },
      "properties": {
        "bangumi_id": 508146,
        "bangumi_title": "秒速5厘米",
        "ep_cut": 1,
        "image_url": "https://w.junreimap.com/images/user/2207/bangumi/508146/points/dzhwf3g-1777454924178.jpg",
        "location": "",
        "point_id": "dzhwf3g",
        "point_name": "牟礼駅外",
        "remark": ""
      },
      "type": "Feature"
    },
    {
      "geometry": {
        "coordinates": [
          138.247345,
          36.752905
        ],
        "type": "Point"
      },
      "properties": {
        "bangumi_id": 508146,
        "bangumi_title": "秒速5厘米",
        "ep_cut": 1,
        "image_url": "https://w.junreimap.com/images/user/2207/bangumi/508146/points/dzhyuit-1777455116075.jpg",
        "location": "",
        "point_id": "dzhyuit",
        "point_name": "牟礼駅外(2)",
        "remark": ""
      },
      "type": "Feature"
    },
    {
      "geometry": {
        "coordinates": [
          130.961035,
          30.512636
        ],
        "type": "Point"
      },
      "properties": {
        "bangumi_id": 508146,
        "bangumi_title": "秒速5厘米",
        "ep_cut": 1,
        "image_url": "https://w.junreimap.com/images/user/2207/bangumi/508146/points/e0ruyyq-1777532110455.jpg",
        "location": "",
        "point_id": "e0ruyyq",
        "point_name": "さとうきび畑の通学路",
        "remark": ""
      },
      "type": "Feature"
    },
    {
      "geometry": {
        "coordinates": [
          139.694661,
          35.686419
        ],
        "type": "Point"
      },
      "properties": {
        "bangumi_id": 508146,
        "bangumi_title": "秒速5厘米",
        "ep_cut": 1,
        "image_url": "https://w.junreimap.com/images/user/2207/bangumi/508146/points/e0qz1cn-1777530612844.jpg",
        "location": "",
        "point_id": "e0qz1cn",
        "point_name": "新宿文化クイントビル前",
        "remark": ""
      },
      "type": "Feature"
    },
    {
      "geometry": {
        "coordinates": [
          139.694801,
          35.68649
        ],
        "type": "Point"
      },
      "properties": {
        "bangumi_id": 508146,
        "bangumi_title": "秒速5厘米",
        "ep_cut": 1,
        "image_url": "https://w.junreimap.com/images/user/2207/bangumi/508146/points/e0qwlp2-1777530532057.jpg",
        "location": "",
        "point_id": "e0qwlp2",
        "point_name": "新宿文化クイントビル前",
        "remark": ""
      },
      "type": "Feature"
    },
    {
      "geometry": {
        "coordinates": [
          139.694157,
          35.688344
        ],
        "type": "Point"
      },
      "properties": {
        "bangumi_id": 508146,
        "bangumi_title": "秒速5厘米",
        "ep_cut": 1,
        "image_url": "https://w.junreimap.com/images/user/2207/bangumi/508146/points/e0mwnni-1777523789351.jpg",
        "location": "",
        "point_id": "e0mwnni",
        "point_name": "新宿モノリス前",
        "remark": ""
      },
      "type": "Feature"
    },
    {
      "geometry": {
        "coordinates": [
          139.694178,
          35.688487
        ],
        "type": "Point"
      },
      "properties": {
        "bangumi_id": 508146,
        "bangumi_title": "秒速5厘米",
        "ep_cut": 1,
        "image_url": "https://w.junreimap.com/images/user/2207/bangumi/508146/points/e0mvryp-1777523743183.jpg",
        "location": "",
        "point_id": "e0mvryp",
        "point_name": "新宿モノリス前",
        "remark": ""
      },
      "type": "Feature"
    },
    {
      "geometry": {
        "coordinates": [
          139.694142,
          35.688563
        ],
        "type": "Point"
      },
      "properties": {
        "bangumi_id": 508146,
        "bangumi_title": "秒速5厘米",
        "ep_cut": 1,
        "image_url": "https://w.junreimap.com/images/user/2207/bangumi/508146/points/e0muc24-1777523720288.jpg",
        "location": "",
        "point_id": "e0muc24",
        "point_name": "新宿モノリス前",
        "remark": ""
      },
      "type": "Feature"
    },
    {
      "geometry": {
        "coordinates": [
          139.684358,
          35.689549
        ],
        "type": "Point"
      },
      "properties": {
        "bangumi_id": 508146,
        "bangumi_title": "秒速5厘米",
        "ep_cut": 1,
        "image_url": "https://w.junreimap.com/images/user/2207/bangumi/508146/points/e0kxykr-1777520486417.jpg",
        "location": "",
        "point_id": "e0kxykr",
        "point_name": "貴樹のアパート",
        "remark": ""
      },
      "type": "Feature"
    },
    {
      "geometry": {
        "coordinates": [
          139.684418,
          35.689523
        ],
        "type": "Point"
      },
      "properties": {
        "bangumi_id": 508146,
        "bangumi_title": "秒速5厘米",
        "ep_cut": 1,
        "image_url": "https://w.junreimap.com/images/user/2207/bangumi/508146/points/e0kqz0x-1777520158742.jpg",
        "location": "",
        "point_id": "e0kqz0x",
        "point_name": "西新宿IKビルから南東方向を望む",
        "remark": ""
      },
      "type": "Feature"
    },
    {
      "geometry": {
        "coordinates": [
          139.70423,
          35.69435
        ],
        "type": "Point"
      },
      "properties": {
        "bangumi_id": 508146,
        "bangumi_title": "秒速5厘米",
        "ep_cut": 1,
        "image_url": "https://w.junreimap.com/images/user/2207/bangumi/508146/points/dzwc3f6-1777479349077.jpg",
        "location": "",
        "point_id": "dzwc3f6",
        "point_name": "創作和食うどんDINING するり 新宿本店",
        "remark": ""
      },
      "type": "Feature"
    },
    {
      "geometry": {
        "coordinates": [
          139.686514,
          35.692432
        ],
        "type": "Point"
      },
      "properties": {
        "bangumi_id": 508146,
        "bangumi_title": "秒速5厘米",
        "ep_cut": 1,
        "image_url": "https://w.junreimap.com/images/user/0/bangumi/508146/points/dzy594e-1777482199041.jpg",
        "location": "",
        "point_id": "dzy594e",
        "point_name": "西新宿 5-12-2",
        "remark": ""
      },
      "type": "Feature"
    },
    {
      "geometry": {
        "coordinates": [
          139.522917,
          35.734379
        ],
        "type": "Point"
      },
      "properties": {
        "bangumi_id": 508146,
        "bangumi_title": "秒速5厘米",
        "ep_cut": 1,
        "image_url": "https://w.junreimap.com/images/user/0/bangumi/508146/points/dzyayll-1777482476991.jpg",
        "location": "",
        "point_id": "dzyayll",
        "point_name": "科学館の電波塔",
        "remark": ""
      },
      "type": "Feature"
    },
    {
      "geometry": {
        "coordinates": [
          139.691711,
          35.675327
        ],
        "type": "Point"
      },
      "properties": {
        "bangumi_id": 508146,
        "bangumi_title": "秒速5厘米",
        "ep_cut": 1,
        "image_url": "https://w.junreimap.com/images/user/2207/bangumi/508146/points/e0hw804-1777515364074.jpg",
        "location": "",
        "point_id": "e0hw804",
        "point_name": "参宮橋3号踏切信号機",
        "remark": ""
      },
      "type": "Feature"
    },
    {
      "geometry": {
        "coordinates": [
          139.694529,
          35.691733
        ],
        "type": "Point"
      },
      "properties": {
        "bangumi_id": 508146,
        "bangumi_title": "秒速5厘米",
        "ep_cut": 1,
        "image_url": "https://w.junreimap.com/images/user/2207/bangumi/508146/points/e0ifcop-1777517375403.jpg",
        "location": "",
        "point_id": "e0ifcop",
        "point_name": "新宿三井ビルの東側",
        "remark": ""
      },
      "type": "Feature"
    },
    {
      "geometry": {
        "coordinates": [
          139.68466,
          35.689461
        ],
        "type": "Point"
      },
      "properties": {
        "bangumi_id": 508146,
        "bangumi_title": "秒速5厘米",
        "ep_cut": 1,
        "image_url": "https://w.junreimap.com/images/user/2207/bangumi/508146/points/e0kor5w-1777520056957.jpg",
        "location": "",
        "point_id": "e0kor5w",
        "point_name": "貴樹の帰路",
        "remark": ""
      },
      "type": "Feature"
    },
    {
      "geometry": {
        "coordinates": [
          139.693712,
          35.68001
        ],
        "type": "Point"
      },
      "properties": {
        "bangumi_id": 508146,
        "bangumi_title": "秒速5厘米",
        "ep_cut": 1,
        "image_url": "https://w.junreimap.com/images/user/0/bangumi/508146/points/dzn8m1y-1777463875736.jpg",
        "location": "",
        "point_id": "dzn8m1y",
        "point_name": "公衆電話ボックス(2)",
        "remark": ""
      },
      "type": "Feature"
    },
    {
      "geometry": {
        "coordinates": [
          138.247562,
          36.753058
        ],
        "type": "Point"
      },
      "properties": {
        "bangumi_id": 508146,
        "bangumi_title": "秒速5厘米",
        "ep_cut": 1,
        "image_url": "https://w.junreimap.com/images/user/0/bangumi/508146/points/dznpdvj-1777464657000.jpg",
        "location": "",
        "point_id": "dznpdvj",
        "point_name": "牟礼駅",
        "remark": ""
      },
      "type": "Feature"
    },
    {
      "geometry": {
        "coordinates": [
          139.739113,
          35.664666
        ],
        "type": "Point"
      },
      "properties": {
        "bangumi_id": 508146,
        "bangumi_title": "秒速5厘米",
        "ep_cut": 1,
        "image_url": "https://w.junreimap.com/images/user/2207/bangumi/508146/points/dztu2dx-1777475089065.jpg",
        "location": "",
        "point_id": "dztu2dx",
        "point_name": "泉ガーデンタワーのエスカレーター",
        "remark": ""
      },
      "type": "Feature"
    },
    {
      "geometry": {
        "coordinates": [
          138.196111,
          36.808041
        ],
        "type": "Point"
      },
      "properties": {
        "bangumi_id": 508146,
        "bangumi_title": "秒速5厘米",
        "ep_cut": 1,
        "image_url": "https://w.junreimap.com/images/user/0/bangumi/508146/points/dznke9l-1777464447999.jpg",
        "location": "",
        "point_id": "dznke9l",
        "point_name": "黒姫駅",
        "remark": "明里美如画"
      },
      "type": "Feature"
    },
    {
      "geometry": {
        "coordinates": [
          138.196166,
          36.807984
        ],
        "type": "Point"
      },
      "properties": {
        "bangumi_id": 508146,
        "bangumi_title": "秒速5厘米",
        "ep_cut": 1,
        "image_url": "https://w.junreimap.com/images/user/0/bangumi/508146/points/dznhmkz-1777464293158.jpg",
        "location": "",
        "point_id": "dznhmkz",
        "point_name": "黒姫駅",
        "remark": ""
      },
      "type": "Feature"
    },
    {
      "geometry": {
        "coordinates": [
          139.622098,
          35.645987
        ],
        "type": "Point"
      },
      "properties": {
        "bangumi_id": 508146,
        "bangumi_title": "秒速5厘米",
        "ep_cut": 1,
        "image_url": "https://w.junreimap.com/images/user/0/bangumi/508146/points/dzqh0sj-1777469384131.jpg",
        "location": "",
        "point_id": "dzqh0sj",
        "point_name": "笹原横断歩道橋(ｻｻﾊﾗｵｳﾀﾞﾝﾎﾄﾞｳｷｮｳ)",
        "remark": ""
      },
      "type": "Feature"
    },
    {
      "geometry": {
        "coordinates": [
          130.901312,
          30.418111
        ],
        "type": "Point"
      },
      "properties": {
        "bangumi_id": 508146,
        "bangumi_title": "秒速5厘米",
        "ep_cut": 1,
        "image_url": "https://w.junreimap.com/images/user/2207/bangumi/508146/points/e3mzhpq-1777705457752.jpg",
        "location": "",
        "point_id": "e3mzhpq",
        "point_name": "南種子郵便局",
        "remark": ""
      },
      "type": "Feature"
    },
    {
      "geometry": {
        "coordinates": [
          130.901378,
          30.417936
        ],
        "type": "Point"
      },
      "properties": {
        "bangumi_id": 508146,
        "bangumi_title": "秒速5厘米",
        "ep_cut": 1,
        "image_url": "https://w.junreimap.com/images/user/2207/bangumi/508146/points/e3ngt0h-1777706153470.jpg",
        "location": "",
        "point_id": "e3ngt0h",
        "point_name": "南種子郵便局",
        "remark": ""
      },
      "type": "Feature"
    },
    {
      "geometry": {
        "coordinates": [
          130.901401,
          30.417966
        ],
        "type": "Point"
      },
      "properties": {
        "bangumi_id": 508146,
        "bangumi_title": "秒速5厘米",
        "ep_cut": 1,
        "image_url": "https://w.junreimap.com/images/user/2207/bangumi/508146/points/e3ni5o9-1777706196757.jpg",
        "location": "",
        "point_id": "e3ni5o9",
        "point_name": "南種子郵便局",
        "remark": ""
      },
      "type": "Feature"
    },
    {
      "geometry": {
        "coordinates": [
          130.949487,
          30.375152
        ],
        "type": "Point"
      },
      "properties": {
        "bangumi_id": 508146,
        "bangumi_title": "秒速5厘米",
        "ep_cut": 1,
        "image_url": "https://w.junreimap.com/images/user/2207/bangumi/508146/points/e3nj729-1777706233552.jpg",
        "location": "",
        "point_id": "e3nj729",
        "point_name": "いわさきホテルコスモリゾート",
        "remark": ""
      },
      "type": "Feature"
    },
    {
      "geometry": {
        "coordinates": [
          130.975882,
          30.550006
        ],
        "type": "Point"
      },
      "properties": {
        "bangumi_id": 508146,
        "bangumi_title": "秒速5厘米",
        "ep_cut": 1,
        "image_url": "https://w.junreimap.com/images/user/2207/bangumi/508146/points/e3wdbjw-1777721153090.jpg",
        "location": "",
        "point_id": "e3wdbjw",
        "point_name": "貴樹と花苗がおしゃべりをしていた草原",
        "remark": ""
      },
      "type": "Feature"
    },
    {
      "geometry": {
        "coordinates": [
          130.965611,
          30.516601
        ],
        "type": "Point"
      },
      "properties": {
        "bangumi_id": 508146,
        "bangumi_title": "秒速5厘米",
        "ep_cut": 1,
        "image_url": "https://w.junreimap.com/images/user/2207/bangumi/508146/points/e3zloiv-1777726504499.jpg",
        "location": "",
        "point_id": "e3zloiv",
        "point_name": "貴樹と花苗が別れを告げた交差点で",
        "remark": ""
      },
      "type": "Feature"
    },
    {
      "geometry": {
        "coordinates": [
          130.975653,
          30.5498
        ],
        "type": "Point"
      },
      "properties": {
        "bangumi_id": 508146,
        "bangumi_title": "秒速5厘米",
        "ep_cut": 1,
        "image_url": "https://w.junreimap.com/images/user/2207/bangumi/508146/points/e3wvs1x-1777721937309.jpg",
        "location": "",
        "point_id": "e3wvs1x",
        "point_name": "野间の草原",
        "remark": ""
      },
      "type": "Feature"
    },
    {
      "geometry": {
        "coordinates": [
          130.994859,
          30.732938
        ],
        "type": "Point"
      },
      "properties": {
        "bangumi_id": 508146,
        "bangumi_title": "秒速5厘米",
        "ep_cut": 1,
        "image_url": "https://w.junreimap.com/images/user/2207/bangumi/508146/points/e3zwsc7-1777727054526.jpg",
        "location": "",
        "point_id": "e3zwsc7",
        "point_name": "ミュージックスタジオ アミーゴ",
        "remark": ""
      },
      "type": "Feature"
    },
    {
      "geometry": {
        "coordinates": [
          138.275354,
          36.710852
        ],
        "type": "Point"
      },
      "properties": {
        "bangumi_id": 508146,
        "bangumi_title": "秒速5厘米",
        "ep_cut": 1,
        "image_url": "https://w.junreimap.com/images/user/2207/bangumi/508146/points/e40nhkz-1777728303911.jpg",
        "location": "",
        "point_id": "e40nhkz",
        "point_name": "豊野駅",
        "remark": ""
      },
      "type": "Feature"
    },
    {
      "geometry": {
        "coordinates": [
          130.971681,
          30.546641
        ],
        "type": "Point"
      },
      "properties": {
        "bangumi_id": 508146,
        "bangumi_title": "秒速5厘米",
        "ep_cut": 1,
        "image_url": "https://w.junreimap.com/images/user/2207/bangumi/508146/points/e6n41qt-1777886990491.jpg",
        "location": "",
        "point_id": "e6n41qt",
        "point_name": "サトウキビ畑の中の小道",
        "remark": "拍照地点并非在公路上，是在公路电线杆边蔗田里的泥路里面，在日落时分向西方拍摄。注意该地可能属于私人财产，进入前应先征询同意。"
      },
      "type": "Feature"
    }
  ],
  "type": "FeatureCollection"
}