{
  "features": [
    {
      "geometry": {
        "coordinates": [
          139.471741,
          35.788371
        ],
        "type": "Point"
      },
      "properties": {
        "bangumi_id": 510256,
        "bangumi_title": "与游戏中心的少女异文化交流的故事",
        "ep_cut": 1,
        "image_url": "https://w.junreimap.com/images/points/510256/ur7ivydqh_1744908788494_c16v9.jpg",
        "location": "",
        "point_id": "ur7ivydqh",
        "point_name": "GiGO所沢",
        "remark": ""
      },
      "type": "Feature"
    },
    {
      "geometry": {
        "coordinates": [
          139.471733,
          35.788345
        ],
        "type": "Point"
      },
      "properties": {
        "bangumi_id": 510256,
        "bangumi_title": "与游戏中心的少女异文化交流的故事",
        "ep_cut": 1,
        "image_url": "https://w.junreimap.com/images/points/510256/29yul6u_1751966693418_c16v9.jpg",
        "location": "",
        "point_id": "29yul6u",
        "point_name": "GiGO所沢",
        "remark": ""
      },
      "type": "Feature"
    },
    {
      "geometry": {
        "coordinates": [
          139.471706,
          35.788359
        ],
        "type": "Point"
      },
      "properties": {
        "bangumi_id": 510256,
        "bangumi_title": "与游戏中心的少女异文化交流的故事",
        "ep_cut": 1,
        "image_url": "https://w.junreimap.com/images/points/510256/29yusmt_1751966690683_c16v9.jpg",
        "location": "",
        "point_id": "29yusmt",
        "point_name": "GiGO所沢",
        "remark": ""
      },
      "type": "Feature"
    },
    {
      "geometry": {
        "coordinates": [
          139.471859,
          35.788408
        ],
        "type": "Point"
      },
      "properties": {
        "bangumi_id": 510256,
        "bangumi_title": "与游戏中心的少女异文化交流的故事",
        "ep_cut": 1,
        "image_url": "https://w.junreimap.com/images/points/510256/29yv259_1751966680459_c16v9.jpg",
        "location": "",
        "point_id": "29yv259",
        "point_name": "GiGO所沢",
        "remark": ""
      },
      "type": "Feature"
    },
    {
      "geometry": {
        "coordinates": [
          139.471721,
          35.788359
        ],
        "type": "Point"
      },
      "properties": {
        "bangumi_id": 510256,
        "bangumi_title": "与游戏中心的少女异文化交流的故事",
        "ep_cut": 1,
        "image_url": "https://w.junreimap.com/images/points/510256/ur7jo74a1_1744908813043_c16v9.jpg",
        "location": "",
        "point_id": "ur7jo74a1",
        "point_name": "GiGO所沢",
        "remark": ""
      },
      "type": "Feature"
    },
    {
      "geometry": {
        "coordinates": [
          139.472779,
          35.786922
        ],
        "type": "Point"
      },
      "properties": {
        "bangumi_id": 510256,
        "bangumi_title": "与游戏中心的少女异文化交流的故事",
        "ep_cut": 1,
        "image_url": "https://w.junreimap.com/images/points/510256/27w75fi_1751841267705.jpg",
        "location": "",
        "point_id": "27w75fi",
        "point_name": "フジビル前",
        "remark": ""
      },
      "type": "Feature"
    },
    {
      "geometry": {
        "coordinates": [
          139.47251,
          35.7874
        ],
        "type": "Point"
      },
      "properties": {
        "bangumi_id": 510256,
        "bangumi_title": "与游戏中心的少女异文化交流的故事",
        "ep_cut": 1,
        "image_url": "https://w.junreimap.com/images/points/510256/29ytoku_1751966621018_c16v9.jpg",
        "location": "",
        "point_id": "29ytoku",
        "point_name": "フジビル前",
        "remark": ""
      },
      "type": "Feature"
    },
    {
      "geometry": {
        "coordinates": [
          139.472776,
          35.786914
        ],
        "type": "Point"
      },
      "properties": {
        "bangumi_id": 510256,
        "bangumi_title": "与游戏中心的少女异文化交流的故事",
        "ep_cut": 1,
        "image_url": "https://w.junreimap.com/images/points/510256/27w8quq_1751841342251.jpg",
        "location": "",
        "point_id": "27w8quq",
        "point_name": "フジビル前 南眺",
        "remark": ""
      },
      "type": "Feature"
    },
    {
      "geometry": {
        "coordinates": [
          141.562535,
          38.814582
        ],
        "type": "Point"
      },
      "properties": {
        "bangumi_id": 510256,
        "bangumi_title": "与游戏中心的少女异文化交流的故事",
        "ep_cut": 11,
        "image_url": "https://w.junreimap.com/images/user/0/bangumi/510256/points/73ajssk-1762447019740.jpg",
        "location": "",
        "point_id": "73ajssk",
        "point_name": "道の駅 大谷海岸",
        "remark": ""
      },
      "type": "Feature"
    },
    {
      "geometry": {
        "coordinates": [
          141.562957,
          38.81473
        ],
        "type": "Point"
      },
      "properties": {
        "bangumi_id": 510256,
        "bangumi_title": "与游戏中心的少女异文化交流的故事",
        "ep_cut": 11,
        "image_url": "https://w.junreimap.com/images/user/0/bangumi/510256/points/73aq263-1762447302164.jpg",
        "location": "",
        "point_id": "73aq263",
        "point_name": "はまカフェ（道の駅 大谷海岸）",
        "remark": ""
      },
      "type": "Feature"
    },
    {
      "geometry": {
        "coordinates": [
          141.562948,
          38.814751
        ],
        "type": "Point"
      },
      "properties": {
        "bangumi_id": 510256,
        "bangumi_title": "与游戏中心的少女异文化交流的故事",
        "ep_cut": 11,
        "image_url": "https://w.junreimap.com/images/user/0/bangumi/510256/points/73arvgv-1762447332963.jpg",
        "location": "",
        "point_id": "73arvgv",
        "point_name": "はまカフェ（道の駅 大谷海岸）",
        "remark": ""
      },
      "type": "Feature"
    },
    {
      "geometry": {
        "coordinates": [
          141.562359,
          38.814835
        ],
        "type": "Point"
      },
      "properties": {
        "bangumi_id": 510256,
        "bangumi_title": "与游戏中心的少女异文化交流的故事",
        "ep_cut": 11,
        "image_url": "https://w.junreimap.com/images/user/2173/bangumi/510256/points/73awvwm-1762447564960.jpg",
        "location": "",
        "point_id": "73awvwm",
        "point_name": "道の駅 大谷海岸",
        "remark": ""
      },
      "type": "Feature"
    },
    {
      "geometry": {
        "coordinates": [
          141.562779,
          38.814827
        ],
        "type": "Point"
      },
      "properties": {
        "bangumi_id": 510256,
        "bangumi_title": "与游戏中心的少女异文化交流的故事",
        "ep_cut": 11,
        "image_url": "https://w.junreimap.com/images/user/2173/bangumi/510256/points/73axby9-1762447587803.jpg",
        "location": "",
        "point_id": "73axby9",
        "point_name": "道の駅 大谷海岸",
        "remark": ""
      },
      "type": "Feature"
    }
  ],
  "type": "FeatureCollection"
}