{
  "features": [
    {
      "geometry": {
        "coordinates": [
          -73.996326,
          40.705675
        ],
        "type": "Point"
      },
      "properties": {
        "bangumi_id": 513603,
        "bangumi_title": "战地风云6",
        "ep_cut": "",
        "image_url": "https://w.junreimap.com/images/user/2186/bangumi/513603/points/3v55iq2-1755423979747.jpg",
        "location": "",
        "point_id": "3v55iq2",
        "point_name": "Brooklyn Bridge",
        "remark": "《帝国之州》作为战地风云6公测的地图，该图原型位于纽约的布鲁克林戴大桥附近。"
      },
      "type": "Feature"
    }
  ],
  "type": "FeatureCollection"
}