{
  "features": [
    {
      "geometry": {
        "coordinates": [
          135.189633,
          34.701386
        ],
        "type": "Point"
      },
      "properties": {
        "bangumi_id": 52273,
        "bangumi_title": "Kira☆Kira Show Time!!",
        "ep_cut": "游戏背景图",
        "image_url": "https://w.junreimap.com/images/user/0/bangumi/52273/points/joeuoow-1789845452632.webp",
        "location": "兵库",
        "point_id": "joeuoow",
        "point_name": "風見鶏の館（旧トーマス住宅）",
        "remark": ""
      },
      "type": "Feature"
    },
    {
      "geometry": {
        "coordinates": [
          136.906235,
          35.169668
        ],
        "type": "Point"
      },
      "properties": {
        "bangumi_id": 52273,
        "bangumi_title": "Kira☆Kira Show Time!!",
        "ep_cut": "游戏背景图",
        "image_url": "https://w.junreimap.com/images/user/0/bangumi/52273/points/jof72z2-1789845996612.webp",
        "location": "名古屋",
        "point_id": "jof72z2",
        "point_name": "サンシャインサカエ",
        "remark": ""
      },
      "type": "Feature"
    },
    {
      "geometry": {
        "coordinates": [
          135.784107,
          34.995258
        ],
        "type": "Point"
      },
      "properties": {
        "bangumi_id": 52273,
        "bangumi_title": "Kira☆Kira Show Time!!",
        "ep_cut": "游戏背景图",
        "image_url": "https://w.junreimap.com/images/user/0/bangumi/52273/points/jofc0xv-1789846194376.webp",
        "location": "京都",
        "point_id": "jofc0xv",
        "point_name": "随求堂",
        "remark": ""
      },
      "type": "Feature"
    },
    {
      "geometry": {
        "coordinates": [
          135.785264,
          34.994445
        ],
        "type": "Point"
      },
      "properties": {
        "bangumi_id": 52273,
        "bangumi_title": "Kira☆Kira Show Time!!",
        "ep_cut": "游戏背景图",
        "image_url": "https://w.junreimap.com/images/user/0/bangumi/52273/points/jofe6gc-1789846285554.webp",
        "location": "京都",
        "point_id": "jofe6gc",
        "point_name": "音羽の滝",
        "remark": ""
      },
      "type": "Feature"
    },
    {
      "geometry": {
        "coordinates": [
          135.497916,
          34.672069
        ],
        "type": "Point"
      },
      "properties": {
        "bangumi_id": 52273,
        "bangumi_title": "Kira☆Kira Show Time!!",
        "ep_cut": "游戏背景图",
        "image_url": "https://w.junreimap.com/images/user/0/bangumi/52273/points/jofkbyr-1789846580904.webp",
        "location": "大阪",
        "point_id": "jofkbyr",
        "point_name": "御津公園 （三角公園）",
        "remark": ""
      },
      "type": "Feature"
    },
    {
      "geometry": {
        "coordinates": [
          135.501358,
          34.668856
        ],
        "type": "Point"
      },
      "properties": {
        "bangumi_id": 52273,
        "bangumi_title": "Kira☆Kira Show Time!!",
        "ep_cut": "游戏背景图",
        "image_url": "https://w.junreimap.com/images/user/0/bangumi/52273/points/jofoewr-1789846758641.webp",
        "location": "大阪",
        "point_id": "jofoewr",
        "point_name": "道頓堀",
        "remark": ""
      },
      "type": "Feature"
    },
    {
      "geometry": {
        "coordinates": [
          135.190668,
          34.702946
        ],
        "type": "Point"
      },
      "properties": {
        "bangumi_id": 52273,
        "bangumi_title": "Kira☆Kira Show Time!!",
        "ep_cut": "游戏背景图",
        "image_url": "https://w.junreimap.com/images/user/0/bangumi/52273/points/jofrpcj-1789846911664.webp",
        "location": "兵库",
        "point_id": "jofrpcj",
        "point_name": "うろこの家",
        "remark": "这里是kirakira中沙里奈的家，也是Fate中樱的家，罚抄中千早的家"
      },
      "type": "Feature"
    },
    {
      "geometry": {
        "coordinates": [
          135.19083,
          34.688348
        ],
        "type": "Point"
      },
      "properties": {
        "bangumi_id": 52273,
        "bangumi_title": "Kira☆Kira Show Time!!",
        "ep_cut": "游戏背景图",
        "image_url": "https://w.junreimap.com/images/user/0/bangumi/52273/points/jofxqxt-1789847246103.webp",
        "location": "神户",
        "point_id": "jofxqxt",
        "point_name": "旧居留地38番館",
        "remark": ""
      },
      "type": "Feature"
    },
    {
      "geometry": {
        "coordinates": [
          130.710955,
          32.804743
        ],
        "type": "Point"
      },
      "properties": {
        "bangumi_id": 52273,
        "bangumi_title": "Kira☆Kira Show Time!!",
        "ep_cut": "游戏背景图",
        "image_url": "https://w.junreimap.com/images/user/0/bangumi/52273/points/jog53b2-1789847573182.webp",
        "location": "熊本",
        "point_id": "jog53b2",
        "point_name": "熊本上通り商店街",
        "remark": "从鸟长筋出发，穿过乐天利便利店就能找到"
      },
      "type": "Feature"
    },
    {
      "geometry": {
        "coordinates": [
          135.78162,
          34.99872
        ],
        "type": "Point"
      },
      "properties": {
        "bangumi_id": 52273,
        "bangumi_title": "Kira☆Kira Show Time!!",
        "ep_cut": "游戏背景图",
        "image_url": "https://w.junreimap.com/images/user/0/bangumi/52273/points/jogbh34-1789847887161.webp",
        "location": "京都",
        "point_id": "jogbh34",
        "point_name": "茶寮 京林泉",
        "remark": "在茶寮京林泉门口，离二年坂很近"
      },
      "type": "Feature"
    },
    {
      "geometry": {
        "coordinates": [
          135.708435,
          35.016782
        ],
        "type": "Point"
      },
      "properties": {
        "bangumi_id": 52273,
        "bangumi_title": "Kira☆Kira Show Time!!",
        "ep_cut": "游戏背景图",
        "image_url": "https://w.junreimap.com/images/user/0/bangumi/52273/points/jogfl27-1789848031057.webp",
        "location": "京都",
        "point_id": "jogfl27",
        "point_name": "太秦映画村",
        "remark": "前岛鹿之助接受神秘少爷表白进入BAD（？）END的经典场所\n江戸の町三丁目附近"
      },
      "type": "Feature"
    },
    {
      "geometry": {
        "coordinates": [
          135.708124,
          35.016748
        ],
        "type": "Point"
      },
      "properties": {
        "bangumi_id": 52273,
        "bangumi_title": "Kira☆Kira Show Time!!",
        "ep_cut": "游戏背景图",
        "image_url": "https://w.junreimap.com/images/user/0/bangumi/52273/points/jogk2aj-1789848284458.webp",
        "location": "京都",
        "point_id": "jogk2aj",
        "point_name": "太秦映画村（扮装写真館）",
        "remark": ""
      },
      "type": "Feature"
    },
    {
      "geometry": {
        "coordinates": [
          127.680095,
          26.21398
        ],
        "type": "Point"
      },
      "properties": {
        "bangumi_id": 52273,
        "bangumi_title": "Kira☆Kira Show Time!!",
        "ep_cut": "游戏背景图",
        "image_url": "https://w.junreimap.com/images/user/0/bangumi/52273/points/jogpphv-1789848550295.webp",
        "location": "冲绳",
        "point_id": "jogpphv",
        "point_name": "国際通り",
        "remark": "从 Yui Rail 县厅前站步行约 200 米，就在县厅北口十字路口一带"
      },
      "type": "Feature"
    },
    {
      "geometry": {
        "coordinates": [
          127.716879,
          26.218119
        ],
        "type": "Point"
      },
      "properties": {
        "bangumi_id": 52273,
        "bangumi_title": "Kira☆Kira Show Time!!",
        "ep_cut": "游戏背景图",
        "image_url": "https://w.junreimap.com/images/user/0/bangumi/52273/points/jogscmo-1789848647487.webp",
        "location": "冲绳",
        "point_id": "jogscmo",
        "point_name": "守礼門",
        "remark": ""
      },
      "type": "Feature"
    },
    {
      "geometry": {
        "coordinates": [
          135.332774,
          34.760813
        ],
        "type": "Point"
      },
      "properties": {
        "bangumi_id": 52273,
        "bangumi_title": "Kira☆Kira Show Time!!",
        "ep_cut": "游戏背景图",
        "image_url": "https://w.junreimap.com/images/user/0/bangumi/52273/points/joh3fjj-1789849154311.webp",
        "location": "西宫",
        "point_id": "joh3fjj",
        "point_name": "西宮にあるとある坂",
        "remark": "kirakira中上学的坡道。当然，这条坡道更因为在《凉宫春日》系列中登场而闻名。\n\n在动画第1话开头，阿虚骑着自行车爬的就是这个坡，而在《凉宫春日的消失》中，这附近也是他遇到实玖瑠（大人版）的地方。"
      },
      "type": "Feature"
    },
    {
      "geometry": {
        "coordinates": [
          135.784843,
          34.994845
        ],
        "type": "Point"
      },
      "properties": {
        "bangumi_id": 52273,
        "bangumi_title": "Kira☆Kira Show Time!!",
        "ep_cut": "游戏背景图",
        "image_url": "https://w.junreimap.com/images/user/0/bangumi/52273/points/joh7hqt-1789849329843.webp",
        "location": "京都",
        "point_id": "joh7hqt",
        "point_name": "清水寺",
        "remark": ""
      },
      "type": "Feature"
    }
  ],
  "type": "FeatureCollection"
}