{
  "features": [
    {
      "geometry": {
        "coordinates": [
          139.700925,
          35.692266
        ],
        "type": "Point"
      },
      "properties": {
        "bangumi_id": 5395,
        "bangumi_title": "Forest",
        "ep_cut": "",
        "image_url": "https://w.junreimap.com/images/user/1181/bangumi/5395/points/ntmsirttr-1725350986807.jpg",
        "location": "",
        "point_id": "ntmsirttr",
        "point_name": "JR 新宿站東口",
        "remark": ""
      },
      "type": "Feature"
    },
    {
      "geometry": {
        "coordinates": [
          139.700729,
          35.6921
        ],
        "type": "Point"
      },
      "properties": {
        "bangumi_id": 5395,
        "bangumi_title": "Forest",
        "ep_cut": "",
        "image_url": "https://w.junreimap.com/images/points/5395/ntoh0esfe_1725354605163.jpg",
        "location": "",
        "point_id": "ntoh0esfe",
        "point_name": 1,
        "remark": ""
      },
      "type": "Feature"
    },
    {
      "geometry": {
        "coordinates": [
          139.700824,
          35.692366
        ],
        "type": "Point"
      },
      "properties": {
        "bangumi_id": 5395,
        "bangumi_title": "Forest",
        "ep_cut": "",
        "image_url": "https://w.junreimap.com/images/points/5395/ntohcbl4u_1725354617686.jpg",
        "location": "",
        "point_id": "ntohcbl4u",
        "point_name": 1,
        "remark": ""
      },
      "type": "Feature"
    },
    {
      "geometry": {
        "coordinates": [
          139.701034,
          35.692347
        ],
        "type": "Point"
      },
      "properties": {
        "bangumi_id": 5395,
        "bangumi_title": "Forest",
        "ep_cut": "",
        "image_url": "https://w.junreimap.com/images/points/5395/ntoj64zvy_1725354727428.jpg",
        "location": "",
        "point_id": "ntoj64zvy",
        "point_name": 1,
        "remark": ""
      },
      "type": "Feature"
    },
    {
      "geometry": {
        "coordinates": [
          139.701003,
          35.691994
        ],
        "type": "Point"
      },
      "properties": {
        "bangumi_id": 5395,
        "bangumi_title": "Forest",
        "ep_cut": "",
        "image_url": "https://w.junreimap.com/images/points/5395/ntohita5k_1725354629581.jpg",
        "location": "",
        "point_id": "ntohita5k",
        "point_name": "新宿通り",
        "remark": ""
      },
      "type": "Feature"
    },
    {
      "geometry": {
        "coordinates": [
          139.700986,
          35.692353
        ],
        "type": "Point"
      },
      "properties": {
        "bangumi_id": 5395,
        "bangumi_title": "Forest",
        "ep_cut": "",
        "image_url": "https://w.junreimap.com/images/points/5395/ntohrhjex_1725354646750.jpg",
        "location": "",
        "point_id": "ntohrhjex",
        "point_name": "新宿通り",
        "remark": ""
      },
      "type": "Feature"
    },
    {
      "geometry": {
        "coordinates": [
          139.700606,
          35.692333
        ],
        "type": "Point"
      },
      "properties": {
        "bangumi_id": 5395,
        "bangumi_title": "Forest",
        "ep_cut": "",
        "image_url": "https://w.junreimap.com/images/points/5395/ntoi1zt8j_1725354712982.jpg",
        "location": "",
        "point_id": "ntoi1zt8j",
        "point_name": "新宿通り",
        "remark": ""
      },
      "type": "Feature"
    },
    {
      "geometry": {
        "coordinates": [
          139.700746,
          35.692433
        ],
        "type": "Point"
      },
      "properties": {
        "bangumi_id": 5395,
        "bangumi_title": "Forest",
        "ep_cut": "",
        "image_url": "https://w.junreimap.com/images/points/5395/ntotv5fzl_1725355373968.jpg",
        "location": "",
        "point_id": "ntotv5fzl",
        "point_name": "新宿通り",
        "remark": ""
      },
      "type": "Feature"
    },
    {
      "geometry": {
        "coordinates": [
          139.705795,
          35.692412
        ],
        "type": "Point"
      },
      "properties": {
        "bangumi_id": 5395,
        "bangumi_title": "Forest",
        "ep_cut": "",
        "image_url": "https://w.junreimap.com/images/points/5395/ntov0pchq_1725355450212.jpg",
        "location": "",
        "point_id": "ntov0pchq",
        "point_name": "明治通り",
        "remark": ""
      },
      "type": "Feature"
    },
    {
      "geometry": {
        "coordinates": [
          139.706471,
          35.692132
        ],
        "type": "Point"
      },
      "properties": {
        "bangumi_id": 5395,
        "bangumi_title": "Forest",
        "ep_cut": "",
        "image_url": "https://w.junreimap.com/images/points/5395/ntpcnaw03_1725356517924.jpg",
        "location": "",
        "point_id": "ntpcnaw03",
        "point_name": "スターバックス​コーヒー​新宿​3丁目​店",
        "remark": ""
      },
      "type": "Feature"
    },
    {
      "geometry": {
        "coordinates": [
          139.701995,
          35.692128
        ],
        "type": "Point"
      },
      "properties": {
        "bangumi_id": 5395,
        "bangumi_title": "Forest",
        "ep_cut": "",
        "image_url": "https://w.junreimap.com/images/points/5395/ntpi650jf_1725356843613.jpg",
        "location": "",
        "point_id": "ntpi650jf",
        "point_name": "新宿通り",
        "remark": ""
      },
      "type": "Feature"
    },
    {
      "geometry": {
        "coordinates": [
          139.706431,
          35.692084
        ],
        "type": "Point"
      },
      "properties": {
        "bangumi_id": 5395,
        "bangumi_title": "Forest",
        "ep_cut": "",
        "image_url": "https://w.junreimap.com/images/points/5395/ntpia60vl_1725356874544.jpg",
        "location": "",
        "point_id": "ntpia60vl",
        "point_name": "新宿通り",
        "remark": ""
      },
      "type": "Feature"
    },
    {
      "geometry": {
        "coordinates": [
          139.70118,
          35.692286
        ],
        "type": "Point"
      },
      "properties": {
        "bangumi_id": 5395,
        "bangumi_title": "Forest",
        "ep_cut": "",
        "image_url": "https://w.junreimap.com/images/points/5395/ntpj11b9z_1725356895609.jpg",
        "location": "",
        "point_id": "ntpj11b9z",
        "point_name": "新宿通り",
        "remark": ""
      },
      "type": "Feature"
    },
    {
      "geometry": {
        "coordinates": [
          139.701795,
          35.692105
        ],
        "type": "Point"
      },
      "properties": {
        "bangumi_id": 5395,
        "bangumi_title": "Forest",
        "ep_cut": "",
        "image_url": "https://w.junreimap.com/images/points/5395/ntpj6k1qn_1725356905409.jpg",
        "location": "",
        "point_id": "ntpj6k1qn",
        "point_name": "新宿通り",
        "remark": ""
      },
      "type": "Feature"
    },
    {
      "geometry": {
        "coordinates": [
          139.702496,
          35.691946
        ],
        "type": "Point"
      },
      "properties": {
        "bangumi_id": 5395,
        "bangumi_title": "Forest",
        "ep_cut": "",
        "image_url": "https://w.junreimap.com/images/points/5395/ntoybcdxr_1725355642784.jpg",
        "location": "",
        "point_id": "ntoybcdxr",
        "point_name": "新宿通り",
        "remark": ""
      },
      "type": "Feature"
    },
    {
      "geometry": {
        "coordinates": [
          139.702534,
          35.691918
        ],
        "type": "Point"
      },
      "properties": {
        "bangumi_id": 5395,
        "bangumi_title": "Forest",
        "ep_cut": "",
        "image_url": "https://w.junreimap.com/images/points/5395/ntozf3abv_1725355710197.jpg",
        "location": "",
        "point_id": "ntozf3abv",
        "point_name": "新宿通り",
        "remark": ""
      },
      "type": "Feature"
    },
    {
      "geometry": {
        "coordinates": [
          139.702761,
          35.691843
        ],
        "type": "Point"
      },
      "properties": {
        "bangumi_id": 5395,
        "bangumi_title": "Forest",
        "ep_cut": "",
        "image_url": "https://w.junreimap.com/images/points/5395/ntp0b164i_1725355763233.jpg",
        "location": "",
        "point_id": "ntp0b164i",
        "point_name": "新宿通り",
        "remark": ""
      },
      "type": "Feature"
    },
    {
      "geometry": {
        "coordinates": [
          139.703278,
          35.691594
        ],
        "type": "Point"
      },
      "properties": {
        "bangumi_id": 5395,
        "bangumi_title": "Forest",
        "ep_cut": "",
        "image_url": "https://w.junreimap.com/images/points/5395/ntp708oq2_1725356175550.jpg",
        "location": "",
        "point_id": "ntp708oq2",
        "point_name": "新宿通り",
        "remark": ""
      },
      "type": "Feature"
    },
    {
      "geometry": {
        "coordinates": [
          139.703349,
          35.691484
        ],
        "type": "Point"
      },
      "properties": {
        "bangumi_id": 5395,
        "bangumi_title": "Forest",
        "ep_cut": "",
        "image_url": "https://w.junreimap.com/images/points/5395/ntp7rs4pv_1725356220289.jpg",
        "location": "",
        "point_id": "ntp7rs4pv",
        "point_name": "新宿通り",
        "remark": ""
      },
      "type": "Feature"
    },
    {
      "geometry": {
        "coordinates": [
          139.702795,
          35.691842
        ],
        "type": "Point"
      },
      "properties": {
        "bangumi_id": 5395,
        "bangumi_title": "Forest",
        "ep_cut": "",
        "image_url": "https://w.junreimap.com/images/points/5395/ntp89k35v_1725356244755.jpg",
        "location": "",
        "point_id": "ntp89k35v",
        "point_name": "新宿通り",
        "remark": ""
      },
      "type": "Feature"
    },
    {
      "geometry": {
        "coordinates": [
          139.705784,
          35.692363
        ],
        "type": "Point"
      },
      "properties": {
        "bangumi_id": 5395,
        "bangumi_title": "Forest",
        "ep_cut": "",
        "image_url": "https://w.junreimap.com/images/points/5395/ntpbcw8jo_1725356439695.jpg",
        "location": "",
        "point_id": "ntpbcw8jo",
        "point_name": "明治通り",
        "remark": ""
      },
      "type": "Feature"
    },
    {
      "geometry": {
        "coordinates": [
          139.702564,
          35.691902
        ],
        "type": "Point"
      },
      "properties": {
        "bangumi_id": 5395,
        "bangumi_title": "Forest",
        "ep_cut": "",
        "image_url": "https://w.junreimap.com/images/points/5395/ntp14j9ki_1725355812763.jpg",
        "location": "",
        "point_id": "ntp14j9ki",
        "point_name": "新宿通り",
        "remark": ""
      },
      "type": "Feature"
    },
    {
      "geometry": {
        "coordinates": [
          139.70244,
          35.691902
        ],
        "type": "Point"
      },
      "properties": {
        "bangumi_id": 5395,
        "bangumi_title": "Forest",
        "ep_cut": "",
        "image_url": "https://w.junreimap.com/images/points/5395/ntp4h655c_1725356041339.jpg",
        "location": "",
        "point_id": "ntp4h655c",
        "point_name": "新宿通り",
        "remark": ""
      },
      "type": "Feature"
    },
    {
      "geometry": {
        "coordinates": [
          139.702286,
          35.691956
        ],
        "type": "Point"
      },
      "properties": {
        "bangumi_id": 5395,
        "bangumi_title": "Forest",
        "ep_cut": "",
        "image_url": "https://w.junreimap.com/images/points/5395/ntpl0wo0w_1725357018396.jpg",
        "location": "",
        "point_id": "ntpl0wo0w",
        "point_name": "新宿中村屋ビル",
        "remark": ""
      },
      "type": "Feature"
    },
    {
      "geometry": {
        "coordinates": [
          139.702551,
          35.691871
        ],
        "type": "Point"
      },
      "properties": {
        "bangumi_id": 5395,
        "bangumi_title": "Forest",
        "ep_cut": "",
        "image_url": "https://w.junreimap.com/images/points/5395/ntplwv3bi_1725357069896.jpg",
        "location": "",
        "point_id": "ntplwv3bi",
        "point_name": "新宿通り",
        "remark": ""
      },
      "type": "Feature"
    },
    {
      "geometry": {
        "coordinates": [
          139.702136,
          35.690189
        ],
        "type": "Point"
      },
      "properties": {
        "bangumi_id": 5395,
        "bangumi_title": "Forest",
        "ep_cut": "",
        "image_url": "https://w.junreimap.com/images/points/5395/ntppxqeql_1725357318473.jpg",
        "location": "",
        "point_id": "ntppxqeql",
        "point_name": "新宿通り",
        "remark": ""
      },
      "type": "Feature"
    },
    {
      "geometry": {
        "coordinates": [
          139.702193,
          35.690408
        ],
        "type": "Point"
      },
      "properties": {
        "bangumi_id": 5395,
        "bangumi_title": "Forest",
        "ep_cut": "",
        "image_url": "https://w.junreimap.com/images/points/5395/ntprirqu7_1725357414984.jpg",
        "location": "",
        "point_id": "ntprirqu7",
        "point_name": "新宿通り",
        "remark": ""
      },
      "type": "Feature"
    },
    {
      "geometry": {
        "coordinates": [
          139.702095,
          35.690371
        ],
        "type": "Point"
      },
      "properties": {
        "bangumi_id": 5395,
        "bangumi_title": "Forest",
        "ep_cut": "",
        "image_url": "https://w.junreimap.com/images/points/5395/ntprwmkt5_1725357432101.jpg",
        "location": "",
        "point_id": "ntprwmkt5",
        "point_name": "新宿通り",
        "remark": ""
      },
      "type": "Feature"
    },
    {
      "geometry": {
        "coordinates": [
          139.705947,
          35.691132
        ],
        "type": "Point"
      },
      "properties": {
        "bangumi_id": 5395,
        "bangumi_title": "Forest",
        "ep_cut": "",
        "image_url": "https://w.junreimap.com/images/points/5395/ntpt305t8_1725357510715.jpg",
        "location": "",
        "point_id": "ntpt305t8",
        "point_name": "末広亭",
        "remark": ""
      },
      "type": "Feature"
    },
    {
      "geometry": {
        "coordinates": [
          139.707517,
          35.690405
        ],
        "type": "Point"
      },
      "properties": {
        "bangumi_id": 5395,
        "bangumi_title": "Forest",
        "ep_cut": "",
        "image_url": "https://w.junreimap.com/images/points/5395/ntqdjggq7_1725358754438.jpg",
        "location": "",
        "point_id": "ntqdjggq7",
        "point_name": "新宿三丁目",
        "remark": ""
      },
      "type": "Feature"
    },
    {
      "geometry": {
        "coordinates": [
          139.706934,
          35.691691
        ],
        "type": "Point"
      },
      "properties": {
        "bangumi_id": 5395,
        "bangumi_title": "Forest",
        "ep_cut": "",
        "image_url": "https://w.junreimap.com/images/points/5395/ntpwy5p9p_1725357751764.jpg",
        "location": "",
        "point_id": "ntpwy5p9p",
        "point_name": "かなめ通り",
        "remark": ""
      },
      "type": "Feature"
    },
    {
      "geometry": {
        "coordinates": [
          139.706332,
          35.691251
        ],
        "type": "Point"
      },
      "properties": {
        "bangumi_id": 5395,
        "bangumi_title": "Forest",
        "ep_cut": "",
        "image_url": "https://w.junreimap.com/images/points/5395/ntpza92fi_1725357878314.jpg",
        "location": "",
        "point_id": "ntpza92fi",
        "point_name": "どん底",
        "remark": ""
      },
      "type": "Feature"
    },
    {
      "geometry": {
        "coordinates": [
          139.704127,
          35.693806
        ],
        "type": "Point"
      },
      "properties": {
        "bangumi_id": 5395,
        "bangumi_title": "Forest",
        "ep_cut": "",
        "image_url": "https://w.junreimap.com/images/points/5395/ntqax73rw_1725358585233.jpg",
        "location": "",
        "point_id": "ntqax73rw",
        "point_name": "新宿ゴールデン街",
        "remark": ""
      },
      "type": "Feature"
    },
    {
      "geometry": {
        "coordinates": [
          139.708516,
          35.690606
        ],
        "type": "Point"
      },
      "properties": {
        "bangumi_id": 5395,
        "bangumi_title": "Forest",
        "ep_cut": "",
        "image_url": "https://w.junreimap.com/images/points/5395/ntqk0x7sz_1725359139432.jpg",
        "location": "",
        "point_id": "ntqk0x7sz",
        "point_name": "アリスデート地",
        "remark": ""
      },
      "type": "Feature"
    },
    {
      "geometry": {
        "coordinates": [
          139.705171,
          35.693554
        ],
        "type": "Point"
      },
      "properties": {
        "bangumi_id": 5395,
        "bangumi_title": "Forest",
        "ep_cut": "",
        "image_url": "https://w.junreimap.com/images/points/5395/ntqlwghqc_1725359245815.jpg",
        "location": "",
        "point_id": "ntqlwghqc",
        "point_name": "花園神社",
        "remark": ""
      },
      "type": "Feature"
    },
    {
      "geometry": {
        "coordinates": [
          139.705245,
          35.693497
        ],
        "type": "Point"
      },
      "properties": {
        "bangumi_id": 5395,
        "bangumi_title": "Forest",
        "ep_cut": "",
        "image_url": "https://w.junreimap.com/images/points/5395/ntqm2vy13_1725359256504.jpg",
        "location": "",
        "point_id": "ntqm2vy13",
        "point_name": "花園神社",
        "remark": ""
      },
      "type": "Feature"
    },
    {
      "geometry": {
        "coordinates": [
          139.705286,
          35.693543
        ],
        "type": "Point"
      },
      "properties": {
        "bangumi_id": 5395,
        "bangumi_title": "Forest",
        "ep_cut": "",
        "image_url": "https://w.junreimap.com/images/points/5395/ntqm7x0hy_1725359264855.jpg",
        "location": "",
        "point_id": "ntqm7x0hy",
        "point_name": "花園神社",
        "remark": ""
      },
      "type": "Feature"
    },
    {
      "geometry": {
        "coordinates": [
          139.705414,
          35.693552
        ],
        "type": "Point"
      },
      "properties": {
        "bangumi_id": 5395,
        "bangumi_title": "Forest",
        "ep_cut": "",
        "image_url": "https://w.junreimap.com/images/points/5395/ntqmdym36_1725359275129.jpg",
        "location": "",
        "point_id": "ntqmdym36",
        "point_name": "納大明神",
        "remark": ""
      },
      "type": "Feature"
    },
    {
      "geometry": {
        "coordinates": [
          139.699663,
          35.691649
        ],
        "type": "Point"
      },
      "properties": {
        "bangumi_id": 5395,
        "bangumi_title": "Forest",
        "ep_cut": "",
        "image_url": "https://w.junreimap.com/images/points/5395/ntqv64krf_1725359806121.jpg",
        "location": "",
        "point_id": "ntqv64krf",
        "point_name": "新宿駅",
        "remark": ""
      },
      "type": "Feature"
    },
    {
      "geometry": {
        "coordinates": [
          139.701723,
          35.689439
        ],
        "type": "Point"
      },
      "properties": {
        "bangumi_id": 5395,
        "bangumi_title": "Forest",
        "ep_cut": "",
        "image_url": "https://w.junreimap.com/images/points/5395/ntqoi9m0m_1725359416269.jpg",
        "location": "",
        "point_id": "ntqoi9m0m",
        "point_name": "新宿駅南",
        "remark": ""
      },
      "type": "Feature"
    },
    {
      "geometry": {
        "coordinates": [
          139.698665,
          35.690879
        ],
        "type": "Point"
      },
      "properties": {
        "bangumi_id": 5395,
        "bangumi_title": "Forest",
        "ep_cut": "",
        "image_url": "https://w.junreimap.com/images/points/5395/ntqrzdzp4_1725359629385.jpg",
        "location": "",
        "point_id": "ntqrzdzp4",
        "point_name": "新宿駅西",
        "remark": ""
      },
      "type": "Feature"
    },
    {
      "geometry": {
        "coordinates": [
          139.69939,
          35.691948
        ],
        "type": "Point"
      },
      "properties": {
        "bangumi_id": 5395,
        "bangumi_title": "Forest",
        "ep_cut": "",
        "image_url": "https://w.junreimap.com/images/points/5395/ntquvvrb5_1725359789175.jpg",
        "location": "",
        "point_id": "ntquvvrb5",
        "point_name": "新宿駅西",
        "remark": ""
      },
      "type": "Feature"
    },
    {
      "geometry": {
        "coordinates": [
          139.699498,
          35.689811
        ],
        "type": "Point"
      },
      "properties": {
        "bangumi_id": 5395,
        "bangumi_title": "Forest",
        "ep_cut": "",
        "image_url": "https://w.junreimap.com/images/points/5395/ntr2ndx04_1725360275892.jpg",
        "location": "",
        "point_id": "ntr2ndx04",
        "point_name": "Mosaic Street",
        "remark": ""
      },
      "type": "Feature"
    },
    {
      "geometry": {
        "coordinates": [
          139.699536,
          35.689916
        ],
        "type": "Point"
      },
      "properties": {
        "bangumi_id": 5395,
        "bangumi_title": "Forest",
        "ep_cut": "",
        "image_url": "https://w.junreimap.com/images/points/5395/ntr37wm7z_1725360292858.jpg",
        "location": "",
        "point_id": "ntr37wm7z",
        "point_name": "Mosaic Street",
        "remark": ""
      },
      "type": "Feature"
    },
    {
      "geometry": {
        "coordinates": [
          139.698033,
          35.690058
        ],
        "type": "Point"
      },
      "properties": {
        "bangumi_id": 5395,
        "bangumi_title": "Forest",
        "ep_cut": "",
        "image_url": "https://w.junreimap.com/images/points/5395/ntr6w0q43_1725360530738.jpg",
        "location": "",
        "point_id": "ntr6w0q43",
        "point_name": "ヨドバシカメラ",
        "remark": ""
      },
      "type": "Feature"
    },
    {
      "geometry": {
        "coordinates": [
          139.697573,
          35.688703
        ],
        "type": "Point"
      },
      "properties": {
        "bangumi_id": 5395,
        "bangumi_title": "Forest",
        "ep_cut": "",
        "image_url": "https://w.junreimap.com/images/points/5395/ntrazfxr6_1725360767855.jpg",
        "location": "",
        "point_id": "ntrazfxr6",
        "point_name": "石井スポーツ前",
        "remark": ""
      },
      "type": "Feature"
    },
    {
      "geometry": {
        "coordinates": [
          139.69254,
          35.689743
        ],
        "type": "Point"
      },
      "properties": {
        "bangumi_id": 5395,
        "bangumi_title": "Forest",
        "ep_cut": "",
        "image_url": "https://w.junreimap.com/images/points/5395/ntskggsg5_1725363512667.jpg",
        "location": "",
        "point_id": "ntskggsg5",
        "point_name": "都庁",
        "remark": ""
      },
      "type": "Feature"
    },
    {
      "geometry": {
        "coordinates": [
          139.692677,
          35.689294
        ],
        "type": "Point"
      },
      "properties": {
        "bangumi_id": 5395,
        "bangumi_title": "Forest",
        "ep_cut": "",
        "image_url": "https://w.junreimap.com/images/points/5395/ntrcce0vj_1725360860030.jpg",
        "location": "",
        "point_id": "ntrcce0vj",
        "point_name": "議事堂前から都庁を眺める",
        "remark": ""
      },
      "type": "Feature"
    },
    {
      "geometry": {
        "coordinates": [
          139.693714,
          35.689907
        ],
        "type": "Point"
      },
      "properties": {
        "bangumi_id": 5395,
        "bangumi_title": "Forest",
        "ep_cut": "",
        "image_url": "https://w.junreimap.com/images/points/5395/ntrcsn977_1725360872085.jpg",
        "location": "",
        "point_id": "ntrcsn977",
        "point_name": "議事堂前から都庁を眺める",
        "remark": ""
      },
      "type": "Feature"
    },
    {
      "geometry": {
        "coordinates": [
          139.691867,
          35.689421
        ],
        "type": "Point"
      },
      "properties": {
        "bangumi_id": 5395,
        "bangumi_title": "Forest",
        "ep_cut": "",
        "image_url": "https://w.junreimap.com/images/points/5395/ntrd5ides_1725360894182.jpg",
        "location": "",
        "point_id": "ntrd5ides",
        "point_name": "都庁1階",
        "remark": ""
      },
      "type": "Feature"
    },
    {
      "geometry": {
        "coordinates": [
          139.691775,
          35.689507
        ],
        "type": "Point"
      },
      "properties": {
        "bangumi_id": 5395,
        "bangumi_title": "Forest",
        "ep_cut": "",
        "image_url": "https://w.junreimap.com/images/points/5395/ntrdlf3rl_1725360920517.jpg",
        "location": "",
        "point_id": "ntrdlf3rl",
        "point_name": "都庁2階",
        "remark": ""
      },
      "type": "Feature"
    },
    {
      "geometry": {
        "coordinates": [
          139.692452,
          35.688988
        ],
        "type": "Point"
      },
      "properties": {
        "bangumi_id": 5395,
        "bangumi_title": "Forest",
        "ep_cut": "",
        "image_url": "https://w.junreimap.com/images/points/5395/ntrep3676_1725360987864.jpg",
        "location": "",
        "point_id": "ntrep3676",
        "point_name": "都庁前の通り",
        "remark": ""
      },
      "type": "Feature"
    },
    {
      "geometry": {
        "coordinates": [
          139.691835,
          35.689806
        ],
        "type": "Point"
      },
      "properties": {
        "bangumi_id": 5395,
        "bangumi_title": "Forest",
        "ep_cut": "",
        "image_url": "https://w.junreimap.com/images/points/5395/ntrf24fbd_1725361009069.jpg",
        "location": "",
        "point_id": "ntrf24fbd",
        "point_name": "都庁",
        "remark": ""
      },
      "type": "Feature"
    },
    {
      "geometry": {
        "coordinates": [
          139.694375,
          35.692592
        ],
        "type": "Point"
      },
      "properties": {
        "bangumi_id": 5395,
        "bangumi_title": "Forest",
        "ep_cut": "",
        "image_url": "https://w.junreimap.com/images/points/5395/ntrg4czht_1725361079208.jpg",
        "location": "",
        "point_id": "ntrg4czht",
        "point_name": "新宿警察署裏",
        "remark": ""
      },
      "type": "Feature"
    },
    {
      "geometry": {
        "coordinates": [
          139.69432,
          35.69267
        ],
        "type": "Point"
      },
      "properties": {
        "bangumi_id": 5395,
        "bangumi_title": "Forest",
        "ep_cut": "",
        "image_url": "https://w.junreimap.com/images/points/5395/ntrgir8fs_1725361097382.jpg",
        "location": "",
        "point_id": "ntrgir8fs",
        "point_name": "新宿警察署裏",
        "remark": ""
      },
      "type": "Feature"
    },
    {
      "geometry": {
        "coordinates": [
          139.69436,
          35.692557
        ],
        "type": "Point"
      },
      "properties": {
        "bangumi_id": 5395,
        "bangumi_title": "Forest",
        "ep_cut": "",
        "image_url": "https://w.junreimap.com/images/points/5395/ntrgz2hbe_1725361124565.jpg",
        "location": "",
        "point_id": "ntrgz2hbe",
        "point_name": "新宿警察署裏",
        "remark": ""
      },
      "type": "Feature"
    },
    {
      "geometry": {
        "coordinates": [
          139.69432,
          35.692729
        ],
        "type": "Point"
      },
      "properties": {
        "bangumi_id": 5395,
        "bangumi_title": "Forest",
        "ep_cut": "",
        "image_url": "https://w.junreimap.com/images/points/5395/ntrho6hp1_1725361167026.jpg",
        "location": "",
        "point_id": "ntrho6hp1",
        "point_name": "新宿警察署裏",
        "remark": ""
      },
      "type": "Feature"
    },
    {
      "geometry": {
        "coordinates": [
          139.699592,
          35.692663
        ],
        "type": "Point"
      },
      "properties": {
        "bangumi_id": 5395,
        "bangumi_title": "Forest",
        "ep_cut": "",
        "image_url": "https://w.junreimap.com/images/points/5395/ntrnfrlsc_1725361550234.jpg",
        "location": "",
        "point_id": "ntrnfrlsc",
        "point_name": "思い出横丁",
        "remark": ""
      },
      "type": "Feature"
    },
    {
      "geometry": {
        "coordinates": [
          139.699544,
          35.692941
        ],
        "type": "Point"
      },
      "properties": {
        "bangumi_id": 5395,
        "bangumi_title": "Forest",
        "ep_cut": "",
        "image_url": "https://w.junreimap.com/images/points/5395/ntrpeh2a7_1725361634125.jpg",
        "location": "",
        "point_id": "ntrpeh2a7",
        "point_name": "思い出横丁",
        "remark": ""
      },
      "type": "Feature"
    },
    {
      "geometry": {
        "coordinates": [
          139.701028,
          35.693743
        ],
        "type": "Point"
      },
      "properties": {
        "bangumi_id": 5395,
        "bangumi_title": "Forest",
        "ep_cut": "",
        "image_url": "https://w.junreimap.com/images/points/5395/ntrq8p4bm_1725361697971.jpg",
        "location": "",
        "point_id": "ntrq8p4bm",
        "point_name": "歌舞伎町",
        "remark": ""
      },
      "type": "Feature"
    },
    {
      "geometry": {
        "coordinates": [
          139.701399,
          35.69561
        ],
        "type": "Point"
      },
      "properties": {
        "bangumi_id": 5395,
        "bangumi_title": "Forest",
        "ep_cut": "",
        "image_url": "https://w.junreimap.com/images/points/5395/ntrrebfxi_1725361767792.jpg",
        "location": "",
        "point_id": "ntrrebfxi",
        "point_name": "コマ劇場前広場",
        "remark": ""
      },
      "type": "Feature"
    },
    {
      "geometry": {
        "coordinates": [
          139.704664,
          35.696754
        ],
        "type": "Point"
      },
      "properties": {
        "bangumi_id": 5395,
        "bangumi_title": "Forest",
        "ep_cut": "",
        "image_url": "https://w.junreimap.com/images/points/5395/ntrsw841y_1725361850980.jpg",
        "location": "",
        "point_id": "ntrsw841y",
        "point_name": "新宿バッティングセンター",
        "remark": ""
      },
      "type": "Feature"
    },
    {
      "geometry": {
        "coordinates": [
          139.704384,
          35.69662
        ],
        "type": "Point"
      },
      "properties": {
        "bangumi_id": 5395,
        "bangumi_title": "Forest",
        "ep_cut": "",
        "image_url": "https://w.junreimap.com/images/points/5395/ntrt7pp3u_1725361864772.jpg",
        "location": "",
        "point_id": "ntrt7pp3u",
        "point_name": "新宿​バッティング​センター",
        "remark": ""
      },
      "type": "Feature"
    },
    {
      "geometry": {
        "coordinates": [
          139.704344,
          35.696638
        ],
        "type": "Point"
      },
      "properties": {
        "bangumi_id": 5395,
        "bangumi_title": "Forest",
        "ep_cut": "",
        "image_url": "https://w.junreimap.com/images/points/5395/ntrtp39e3_1725361893943.jpg",
        "location": "",
        "point_id": "ntrtp39e3",
        "point_name": "新宿​バッティング​センター",
        "remark": ""
      },
      "type": "Feature"
    },
    {
      "geometry": {
        "coordinates": [
          139.696472,
          35.697302
        ],
        "type": "Point"
      },
      "properties": {
        "bangumi_id": 5395,
        "bangumi_title": "Forest",
        "ep_cut": "",
        "image_url": "https://w.junreimap.com/images/points/5395/ntrwazhyz_1725362064693.jpg",
        "location": "",
        "point_id": "ntrwazhyz",
        "point_name": "柏木MURA",
        "remark": ""
      },
      "type": "Feature"
    },
    {
      "geometry": {
        "coordinates": [
          139.702104,
          35.698188
        ],
        "type": "Point"
      },
      "properties": {
        "bangumi_id": 5395,
        "bangumi_title": "Forest",
        "ep_cut": "",
        "image_url": "https://w.junreimap.com/images/points/5395/nts0tubxc_1725362334299.jpg",
        "location": "",
        "point_id": "nts0tubxc",
        "point_name": "大使館",
        "remark": ""
      },
      "type": "Feature"
    },
    {
      "geometry": {
        "coordinates": [
          139.698284,
          35.691616
        ],
        "type": "Point"
      },
      "properties": {
        "bangumi_id": 5395,
        "bangumi_title": "Forest",
        "ep_cut": "",
        "image_url": "https://w.junreimap.com/images/points/5395/ntqtjw5mq_1725359708801.jpg",
        "location": "",
        "point_id": "ntqtjw5mq",
        "point_name": "新宿駅西",
        "remark": ""
      },
      "type": "Feature"
    },
    {
      "geometry": {
        "coordinates": [
          139.704382,
          35.693843
        ],
        "type": "Point"
      },
      "properties": {
        "bangumi_id": 5395,
        "bangumi_title": "Forest",
        "ep_cut": "",
        "image_url": "https://w.junreimap.com/images/points/5395/ntqgf76ka_1725358924328.jpg",
        "location": "",
        "point_id": "ntqgf76ka",
        "point_name": "新宿ゴールデン街",
        "remark": ""
      },
      "type": "Feature"
    },
    {
      "geometry": {
        "coordinates": [
          139.702113,
          35.690506
        ],
        "type": "Point"
      },
      "properties": {
        "bangumi_id": 5395,
        "bangumi_title": "Forest",
        "ep_cut": "",
        "image_url": "https://w.junreimap.com/images/points/5395/ntpry165b_1725357434850.jpg",
        "location": "",
        "point_id": "ntpry165b",
        "point_name": "新宿通り",
        "remark": ""
      },
      "type": "Feature"
    },
    {
      "geometry": {
        "coordinates": [
          139.701874,
          35.698167
        ],
        "type": "Point"
      },
      "properties": {
        "bangumi_id": 5395,
        "bangumi_title": "Forest",
        "ep_cut": "",
        "image_url": "https://w.junreimap.com/images/points/5395/nts2c7ew3_1725362417146.jpg",
        "location": "",
        "point_id": "nts2c7ew3",
        "point_name": 68,
        "remark": ""
      },
      "type": "Feature"
    },
    {
      "geometry": {
        "coordinates": [
          139.699221,
          35.689572
        ],
        "type": "Point"
      },
      "properties": {
        "bangumi_id": 5395,
        "bangumi_title": "Forest",
        "ep_cut": "",
        "image_url": "https://w.junreimap.com/images/points/5395/nts42tmzb_1725362529377.jpg",
        "location": "",
        "point_id": "nts42tmzb",
        "point_name": "JR新宿站",
        "remark": ""
      },
      "type": "Feature"
    },
    {
      "geometry": {
        "coordinates": [
          139.699514,
          35.689493
        ],
        "type": "Point"
      },
      "properties": {
        "bangumi_id": 5395,
        "bangumi_title": "Forest",
        "ep_cut": "",
        "image_url": "https://w.junreimap.com/images/points/5395/nts5ric3c_1725362623942.jpg",
        "location": "",
        "point_id": "nts5ric3c",
        "point_name": "JR新宿站南口檢票口",
        "remark": ""
      },
      "type": "Feature"
    },
    {
      "geometry": {
        "coordinates": [
          139.698669,
          35.68997
        ],
        "type": "Point"
      },
      "properties": {
        "bangumi_id": 5395,
        "bangumi_title": "Forest",
        "ep_cut": "",
        "image_url": "https://w.junreimap.com/images/points/5395/nts6fr4rx_1725362667244.jpg",
        "location": "",
        "point_id": "nts6fr4rx",
        "point_name": "南口",
        "remark": ""
      },
      "type": "Feature"
    },
    {
      "geometry": {
        "coordinates": [
          139.701345,
          35.68969
        ],
        "type": "Point"
      },
      "properties": {
        "bangumi_id": 5395,
        "bangumi_title": "Forest",
        "ep_cut": "",
        "image_url": "https://w.junreimap.com/images/points/5395/nts72gj9t_1725362703982.jpg",
        "location": "",
        "point_id": "nts72gj9t",
        "point_name": "東南口外廣場",
        "remark": ""
      },
      "type": "Feature"
    },
    {
      "geometry": {
        "coordinates": [
          139.700021,
          35.689044
        ],
        "type": "Point"
      },
      "properties": {
        "bangumi_id": 5395,
        "bangumi_title": "Forest",
        "ep_cut": "",
        "image_url": "https://w.junreimap.com/images/points/5395/nts8vche7_1725362818241.jpg",
        "location": "",
        "point_id": "nts8vche7",
        "point_name": "新宿駅　新南口付近",
        "remark": ""
      },
      "type": "Feature"
    },
    {
      "geometry": {
        "coordinates": [
          139.70136,
          35.687498
        ],
        "type": "Point"
      },
      "properties": {
        "bangumi_id": 5395,
        "bangumi_title": "Forest",
        "ep_cut": "",
        "image_url": "https://w.junreimap.com/images/points/5395/ntsafivjk_1725362907555.jpg",
        "location": "",
        "point_id": "ntsafivjk",
        "point_name": "新宿駅",
        "remark": ""
      },
      "type": "Feature"
    },
    {
      "geometry": {
        "coordinates": [
          139.70135,
          35.68762
        ],
        "type": "Point"
      },
      "properties": {
        "bangumi_id": 5395,
        "bangumi_title": "Forest",
        "ep_cut": "",
        "image_url": "https://w.junreimap.com/images/points/5395/ntsanz74q_1725362920022.jpg",
        "location": "",
        "point_id": "ntsanz74q",
        "point_name": "新宿駅",
        "remark": ""
      },
      "type": "Feature"
    },
    {
      "geometry": {
        "coordinates": [
          139.700689,
          35.690028
        ],
        "type": "Point"
      },
      "properties": {
        "bangumi_id": 5395,
        "bangumi_title": "Forest",
        "ep_cut": "",
        "image_url": "https://w.junreimap.com/images/points/5395/ntsb0p66s_1725362941395.jpg",
        "location": "",
        "point_id": "ntsb0p66s",
        "point_name": "新宿駅",
        "remark": ""
      },
      "type": "Feature"
    },
    {
      "geometry": {
        "coordinates": [
          139.700322,
          35.692336
        ],
        "type": "Point"
      },
      "properties": {
        "bangumi_id": 5395,
        "bangumi_title": "Forest",
        "ep_cut": "",
        "image_url": "https://w.junreimap.com/images/points/5395/ntsb8qaz7_1725362954968.jpg",
        "location": "",
        "point_id": "ntsb8qaz7",
        "point_name": "新宿駅",
        "remark": ""
      },
      "type": "Feature"
    },
    {
      "geometry": {
        "coordinates": [
          139.699916,
          35.692384
        ],
        "type": "Point"
      },
      "properties": {
        "bangumi_id": 5395,
        "bangumi_title": "Forest",
        "ep_cut": "",
        "image_url": "https://w.junreimap.com/images/points/5395/ntsbob1k6_1725362981410.jpg",
        "location": "",
        "point_id": "ntsbob1k6",
        "point_name": "新宿駅",
        "remark": ""
      },
      "type": "Feature"
    },
    {
      "geometry": {
        "coordinates": [
          139.713526,
          35.686572
        ],
        "type": "Point"
      },
      "properties": {
        "bangumi_id": 5395,
        "bangumi_title": "Forest",
        "ep_cut": "",
        "image_url": "https://w.junreimap.com/images/points/5395/ntsh3bl0o_1725363308821.jpg",
        "location": "",
        "point_id": "ntsh3bl0o",
        "point_name": "新宿御苑",
        "remark": ""
      },
      "type": "Feature"
    },
    {
      "geometry": {
        "coordinates": [
          139.710666,
          35.687118
        ],
        "type": "Point"
      },
      "properties": {
        "bangumi_id": 5395,
        "bangumi_title": "Forest",
        "ep_cut": "",
        "image_url": "https://w.junreimap.com/images/points/5395/ntsd9oez6_1725363077516.jpg",
        "location": "",
        "point_id": "ntsd9oez6",
        "point_name": "新宿御苑",
        "remark": ""
      },
      "type": "Feature"
    },
    {
      "geometry": {
        "coordinates": [
          139.712743,
          35.68671
        ],
        "type": "Point"
      },
      "properties": {
        "bangumi_id": 5395,
        "bangumi_title": "Forest",
        "ep_cut": "",
        "image_url": "https://w.junreimap.com/images/points/5395/ntsdmhmzf_1725363106136.jpg",
        "location": "",
        "point_id": "ntsdmhmzf",
        "point_name": "溫室",
        "remark": ""
      },
      "type": "Feature"
    },
    {
      "geometry": {
        "coordinates": [
          139.712082,
          35.684759
        ],
        "type": "Point"
      },
      "properties": {
        "bangumi_id": 5395,
        "bangumi_title": "Forest",
        "ep_cut": "",
        "image_url": "https://w.junreimap.com/images/points/5395/ntskv4m5s_1725363537090.jpg",
        "location": "",
        "point_id": "ntskv4m5s",
        "point_name": "溫室",
        "remark": ""
      },
      "type": "Feature"
    },
    {
      "geometry": {
        "coordinates": [
          139.706924,
          35.692033
        ],
        "type": "Point"
      },
      "properties": {
        "bangumi_id": 5395,
        "bangumi_title": "Forest",
        "ep_cut": "",
        "image_url": "https://w.junreimap.com/images/points/5395/ntsm3rtpo_1725363623029.jpg",
        "location": "",
        "point_id": "ntsm3rtpo",
        "point_name": "新宿五丁目東",
        "remark": ""
      },
      "type": "Feature"
    },
    {
      "geometry": {
        "coordinates": [
          139.713695,
          35.686557
        ],
        "type": "Point"
      },
      "properties": {
        "bangumi_id": 5395,
        "bangumi_title": "Forest",
        "ep_cut": "",
        "image_url": "https://w.junreimap.com/images/points/5395/ntsgm5v5r_1725363285877.jpg",
        "location": "",
        "point_id": "ntsgm5v5r",
        "point_name": "新宿御苑",
        "remark": ""
      },
      "type": "Feature"
    },
    {
      "geometry": {
        "coordinates": [
          139.713842,
          35.686458
        ],
        "type": "Point"
      },
      "properties": {
        "bangumi_id": 5395,
        "bangumi_title": "Forest",
        "ep_cut": "",
        "image_url": "https://w.junreimap.com/images/points/5395/ntsgz3tjj_1725363301405.jpg",
        "location": "",
        "point_id": "ntsgz3tjj",
        "point_name": "新宿御苑",
        "remark": ""
      },
      "type": "Feature"
    },
    {
      "geometry": {
        "coordinates": [
          139.690034,
          35.690145
        ],
        "type": "Point"
      },
      "properties": {
        "bangumi_id": 5395,
        "bangumi_title": "Forest",
        "ep_cut": "",
        "image_url": "https://w.junreimap.com/images/points/5395/ntshma7x7_1725363340770.jpg",
        "location": "",
        "point_id": "ntshma7x7",
        "point_name": "新宿中央Park",
        "remark": ""
      },
      "type": "Feature"
    },
    {
      "geometry": {
        "coordinates": [
          139.690192,
          35.69049
        ],
        "type": "Point"
      },
      "properties": {
        "bangumi_id": 5395,
        "bangumi_title": "Forest",
        "ep_cut": "",
        "image_url": "https://w.junreimap.com/images/points/5395/ntshznuz3_1725363362809.jpg",
        "location": "",
        "point_id": "ntshznuz3",
        "point_name": "新宿中央Park",
        "remark": ""
      },
      "type": "Feature"
    }
  ],
  "type": "FeatureCollection"
}