{
  "features": [
    {
      "geometry": {
        "coordinates": [
          135.505793,
          34.651128
        ],
        "type": "Point"
      },
      "properties": {
        "bangumi_id": 543189,
        "bangumi_title": "野原广志午餐流派",
        "ep_cut": 4,
        "image_url": "https://w.junreimap.com/images/user/0/bangumi/543189/points/6xky1ir-1762101618667.jpg",
        "location": "",
        "point_id": "6xky1ir",
        "point_name": "公園本通と通天閣南本通リの交差点",
        "remark": ""
      },
      "type": "Feature"
    },
    {
      "geometry": {
        "coordinates": [
          139.765813,
          35.681435
        ],
        "type": "Point"
      },
      "properties": {
        "bangumi_id": 543189,
        "bangumi_title": "野原广志午餐流派",
        "ep_cut": 4,
        "image_url": "https://w.junreimap.com/images/user/0/bangumi/543189/points/6yz3tqs-1762185923947.jpg",
        "location": "",
        "point_id": "6yz3tqs",
        "point_name": "東京駅丸之内中央口",
        "remark": ""
      },
      "type": "Feature"
    },
    {
      "geometry": {
        "coordinates": [
          139.76802,
          35.680394
        ],
        "type": "Point"
      },
      "properties": {
        "bangumi_id": 543189,
        "bangumi_title": "野原广志午餐流派",
        "ep_cut": 4,
        "image_url": "https://w.junreimap.com/images/user/0/bangumi/543189/points/6yzg65w-1762186516156.jpg",
        "location": "",
        "point_id": "6yzg65w",
        "point_name": "東京駅東海道新幹線",
        "remark": ""
      },
      "type": "Feature"
    },
    {
      "geometry": {
        "coordinates": [
          139.687949,
          35.673301
        ],
        "type": "Point"
      },
      "properties": {
        "bangumi_id": 543189,
        "bangumi_title": "野原广志午餐流派",
        "ep_cut": "",
        "image_url": "https://w.junreimap.com/images/user/1073/bangumi/543189/points/772bhbv-1762675035559.jpg",
        "location": "",
        "point_id": "772bhbv",
        "point_name": "midダイニング",
        "remark": "ED"
      },
      "type": "Feature"
    },
    {
      "geometry": {
        "coordinates": [
          139.757916,
          35.664534
        ],
        "type": "Point"
      },
      "properties": {
        "bangumi_id": 543189,
        "bangumi_title": "野原广志午餐流派",
        "ep_cut": "",
        "image_url": "https://w.junreimap.com/images/user/1073/bangumi/543189/points/772ev7y-1762675187586.jpg",
        "location": "",
        "point_id": "772ev7y",
        "point_name": "タイレストラン ブア・デ・タイ",
        "remark": "ED"
      },
      "type": "Feature"
    },
    {
      "geometry": {
        "coordinates": [
          139.73566,
          35.654571
        ],
        "type": "Point"
      },
      "properties": {
        "bangumi_id": 543189,
        "bangumi_title": "野原广志午餐流派",
        "ep_cut": "",
        "image_url": "https://w.junreimap.com/images/user/1073/bangumi/543189/points/772ia53-1762675330948.jpg",
        "location": "",
        "point_id": "772ia53",
        "point_name": "網代公園",
        "remark": "ED"
      },
      "type": "Feature"
    },
    {
      "geometry": {
        "coordinates": [
          139.701993,
          35.682674
        ],
        "type": "Point"
      },
      "properties": {
        "bangumi_id": 543189,
        "bangumi_title": "野原广志午餐流派",
        "ep_cut": "",
        "image_url": "https://w.junreimap.com/images/user/1073/bangumi/543189/points/772r5l8-1762675751725.jpg",
        "location": "",
        "point_id": "772r5l8",
        "point_name": "原宿警察署  代々木駅前交番",
        "remark": "ED"
      },
      "type": "Feature"
    },
    {
      "geometry": {
        "coordinates": [
          139.70229,
          35.68257
        ],
        "type": "Point"
      },
      "properties": {
        "bangumi_id": 543189,
        "bangumi_title": "野原广志午餐流派",
        "ep_cut": "",
        "image_url": "https://w.junreimap.com/images/user/1073/bangumi/543189/points/772svts-1762675820565.jpg",
        "location": "",
        "point_id": "772svts",
        "point_name": "てけてけ 代々木店",
        "remark": "ED"
      },
      "type": "Feature"
    },
    {
      "geometry": {
        "coordinates": [
          139.701253,
          35.68347
        ],
        "type": "Point"
      },
      "properties": {
        "bangumi_id": 543189,
        "bangumi_title": "野原广志午餐流派",
        "ep_cut": "",
        "image_url": "https://w.junreimap.com/images/user/1073/bangumi/543189/points/772vrc6-1762675958311.jpg",
        "location": "",
        "point_id": "772vrc6",
        "point_name": "すき家 代々木​一丁目​店",
        "remark": "ED"
      },
      "type": "Feature"
    },
    {
      "geometry": {
        "coordinates": [
          139.686449,
          35.674061
        ],
        "type": "Point"
      },
      "properties": {
        "bangumi_id": 543189,
        "bangumi_title": "野原广志午餐流派",
        "ep_cut": "",
        "image_url": "https://w.junreimap.com/images/user/1073/bangumi/543189/points/772yyzn-1762676143301.jpg",
        "location": "",
        "point_id": "772yyzn",
        "point_name": "こうだ（甲田）",
        "remark": "ED"
      },
      "type": "Feature"
    }
  ],
  "type": "FeatureCollection"
}