{
  "features": [
    {
      "geometry": {
        "coordinates": [
          132.571981,
          34.252403
        ],
        "type": "Point"
      },
      "properties": {
        "bangumi_id": 54550,
        "bangumi_title": "在这世界的角落",
        "ep_cut": "",
        "image_url": "",
        "location": "呉周辺",
        "point_id": "51i53nkaa",
        "point_name": "三ツ蔵（旧澤原家住宅）",
        "remark": ""
      },
      "type": "Feature"
    },
    {
      "geometry": {
        "coordinates": [
          132.593445,
          34.270146
        ],
        "type": "Point"
      },
      "properties": {
        "bangumi_id": 54550,
        "bangumi_title": "在这世界的角落",
        "ep_cut": "",
        "image_url": "",
        "location": "呉周辺",
        "point_id": "51i53nkcr",
        "point_name": "灰ヶ峰",
        "remark": ""
      },
      "type": "Feature"
    },
    {
      "geometry": {
        "coordinates": [
          132.564521,
          34.245318
        ],
        "type": "Point"
      },
      "properties": {
        "bangumi_id": 54550,
        "bangumi_title": "在这世界的角落",
        "ep_cut": "",
        "image_url": "",
        "location": "呉周辺",
        "point_id": "51i53nk2p",
        "point_name": "福屋呉店",
        "remark": ""
      },
      "type": "Feature"
    },
    {
      "geometry": {
        "coordinates": [
          132.561356,
          34.245093
        ],
        "type": "Point"
      },
      "properties": {
        "bangumi_id": 54550,
        "bangumi_title": "在这世界的角落",
        "ep_cut": "",
        "image_url": "",
        "location": "呉周辺",
        "point_id": "51i53nk6x",
        "point_name": "蔵本通り（消防署鉄塔、灰ヶ峰）",
        "remark": ""
      },
      "type": "Feature"
    },
    {
      "geometry": {
        "coordinates": [
          132.562547,
          34.245288
        ],
        "type": "Point"
      },
      "properties": {
        "bangumi_id": 54550,
        "bangumi_title": "在这世界的角落",
        "ep_cut": "",
        "image_url": "",
        "location": "呉周辺",
        "point_id": "51i53nk0v",
        "point_name": "小春橋",
        "remark": ""
      },
      "type": "Feature"
    },
    {
      "geometry": {
        "coordinates": [
          132.557584,
          34.244647
        ],
        "type": "Point"
      },
      "properties": {
        "bangumi_id": 54550,
        "bangumi_title": "在这世界的角落",
        "ep_cut": "",
        "image_url": "",
        "location": "呉周辺",
        "point_id": "51i53nk0c",
        "point_name": "呉駅",
        "remark": ""
      },
      "type": "Feature"
    },
    {
      "geometry": {
        "coordinates": [
          132.563026,
          34.240755
        ],
        "type": "Point"
      },
      "properties": {
        "bangumi_id": 54550,
        "bangumi_title": "在这世界的角落",
        "ep_cut": "",
        "image_url": "",
        "location": "呉周辺",
        "point_id": "51i53njzl",
        "point_name": "下士官集会所周辺（海上自衛隊呉地方総監部援護業務課）",
        "remark": ""
      },
      "type": "Feature"
    },
    {
      "geometry": {
        "coordinates": [
          132.564184,
          34.239275
        ],
        "type": "Point"
      },
      "properties": {
        "bangumi_id": 54550,
        "bangumi_title": "在这世界的角落",
        "ep_cut": "",
        "image_url": "",
        "location": "呉周辺",
        "point_id": "51i53nkev",
        "point_name": "海軍病院前の階段（呉医療センター付属呉看護学校）",
        "remark": ""
      },
      "type": "Feature"
    },
    {
      "geometry": {
        "coordinates": [
          132.556333,
          34.240627
        ],
        "type": "Point"
      },
      "properties": {
        "bangumi_id": 54550,
        "bangumi_title": "在这世界的角落",
        "ep_cut": "",
        "image_url": "",
        "location": "呉周辺",
        "point_id": "51i53nl8l",
        "point_name": "呉駅より呉港方面を望む（呉中央桟橋ターミナル）",
        "remark": ""
      },
      "type": "Feature"
    },
    {
      "geometry": {
        "coordinates": [
          132.543929,
          34.208212
        ],
        "type": "Point"
      },
      "properties": {
        "bangumi_id": 54550,
        "bangumi_title": "在这世界的角落",
        "ep_cut": "",
        "image_url": "",
        "location": "呉周辺",
        "point_id": "51i53nle4",
        "point_name": "巡洋艦青葉終焉之地",
        "remark": ""
      },
      "type": "Feature"
    },
    {
      "geometry": {
        "coordinates": [
          132.45012,
          34.405245
        ],
        "type": "Point"
      },
      "properties": {
        "bangumi_id": 54550,
        "bangumi_title": "在这世界的角落",
        "ep_cut": "",
        "image_url": "",
        "location": "広島周辺",
        "point_id": "51i53nkyr",
        "point_name": "横川橋",
        "remark": ""
      },
      "type": "Feature"
    },
    {
      "geometry": {
        "coordinates": [
          132.453255,
          34.39387
        ],
        "type": "Point"
      },
      "properties": {
        "bangumi_id": 54550,
        "bangumi_title": "在这世界的角落",
        "ep_cut": "",
        "image_url": "",
        "location": "広島周辺",
        "point_id": "51i53nkpe",
        "point_name": "中嶋本町レストハウス",
        "remark": ""
      },
      "type": "Feature"
    },
    {
      "geometry": {
        "coordinates": [
          132.459282,
          34.398986
        ],
        "type": "Point"
      },
      "properties": {
        "bangumi_id": 54550,
        "bangumi_title": "在这世界的角落",
        "ep_cut": "",
        "image_url": "",
        "location": "広島周辺",
        "point_id": "51i53nluo",
        "point_name": "広島城俯瞰",
        "remark": ""
      },
      "type": "Feature"
    },
    {
      "geometry": {
        "coordinates": [
          132.475432,
          34.396165
        ],
        "type": "Point"
      },
      "properties": {
        "bangumi_id": 54550,
        "bangumi_title": "在这世界的角落",
        "ep_cut": "",
        "image_url": "",
        "location": "広島周辺",
        "point_id": "51i53nlll",
        "point_name": "広島駅",
        "remark": ""
      },
      "type": "Feature"
    },
    {
      "geometry": {
        "coordinates": [
          132.462744,
          34.393515
        ],
        "type": "Point"
      },
      "properties": {
        "bangumi_id": 54550,
        "bangumi_title": "在这世界的角落",
        "ep_cut": "",
        "image_url": "",
        "location": "広島周辺",
        "point_id": "51i53nlxu",
        "point_name": "福屋八丁堀本店",
        "remark": ""
      },
      "type": "Feature"
    },
    {
      "geometry": {
        "coordinates": [
          132.465144,
          34.393323
        ],
        "type": "Point"
      },
      "properties": {
        "bangumi_id": 54550,
        "bangumi_title": "在这世界的角落",
        "ep_cut": "",
        "image_url": "",
        "location": "広島周辺",
        "point_id": "51i53nm0q",
        "point_name": "胡町駅",
        "remark": ""
      },
      "type": "Feature"
    },
    {
      "geometry": {
        "coordinates": [
          132.446376,
          34.384166
        ],
        "type": "Point"
      },
      "properties": {
        "bangumi_id": 54550,
        "bangumi_title": "在这世界的角落",
        "ep_cut": "",
        "image_url": "",
        "location": "広島周辺",
        "point_id": "51i53nlhj",
        "point_name": "住吉橋",
        "remark": ""
      },
      "type": "Feature"
    },
    {
      "geometry": {
        "coordinates": [
          132.443844,
          34.379482
        ],
        "type": "Point"
      },
      "properties": {
        "bangumi_id": 54550,
        "bangumi_title": "在这世界的角落",
        "ep_cut": "",
        "image_url": "",
        "location": "広島周辺",
        "point_id": "51i53nm6t",
        "point_name": "太田川を望む地点",
        "remark": ""
      },
      "type": "Feature"
    },
    {
      "geometry": {
        "coordinates": [
          132.439906,
          34.370441
        ],
        "type": "Point"
      },
      "properties": {
        "bangumi_id": 54550,
        "bangumi_title": "在这世界的角落",
        "ep_cut": "",
        "image_url": "",
        "location": "広島周辺",
        "point_id": "51i53nlo0",
        "point_name": "すずが舟に乗せてもらう道",
        "remark": ""
      },
      "type": "Feature"
    },
    {
      "geometry": {
        "coordinates": [
          132.439112,
          34.368802
        ],
        "type": "Point"
      },
      "properties": {
        "bangumi_id": 54550,
        "bangumi_title": "在这世界的角落",
        "ep_cut": "",
        "image_url": "",
        "location": "広島周辺",
        "point_id": "51i53nllb",
        "point_name": "松下商店",
        "remark": ""
      },
      "type": "Feature"
    },
    {
      "geometry": {
        "coordinates": [
          132.438554,
          34.367704
        ],
        "type": "Point"
      },
      "properties": {
        "bangumi_id": 54550,
        "bangumi_title": "在这世界的角落",
        "ep_cut": "",
        "image_url": "",
        "location": "広島周辺",
        "point_id": "51i53nluq",
        "point_name": "すずの実家近く",
        "remark": ""
      },
      "type": "Feature"
    },
    {
      "geometry": {
        "coordinates": [
          132.45255,
          34.395348
        ],
        "type": "Point"
      },
      "properties": {
        "bangumi_id": 54550,
        "bangumi_title": "在这世界的角落",
        "ep_cut": "1",
        "image_url": "https://w.junreimap.com/images/user/0/bangumi/54550/points/51i53nm1r-1761489668332.jpg",
        "location": "広島周辺",
        "point_id": "51i53nm1r",
        "point_name": "原爆ドーム",
        "remark": ""
      },
      "type": "Feature"
    },
    {
      "geometry": {
        "coordinates": [
          132.450082,
          34.393728
        ],
        "type": "Point"
      },
      "properties": {
        "bangumi_id": 54550,
        "bangumi_title": "在这世界的角落",
        "ep_cut": "",
        "image_url": "",
        "location": "広島周辺",
        "point_id": "51i53nm6e",
        "point_name": "すずが上陸する雁木",
        "remark": "を狙う位置"
      },
      "type": "Feature"
    },
    {
      "geometry": {
        "coordinates": [
          132.449927,
          34.391878
        ],
        "type": "Point"
      },
      "properties": {
        "bangumi_id": 54550,
        "bangumi_title": "在这世界的角落",
        "ep_cut": "",
        "image_url": "",
        "location": "広島周辺",
        "point_id": "51i53nm4i",
        "point_name": "この付近の俯瞰",
        "remark": "この付近はドローン禁止です"
      },
      "type": "Feature"
    },
    {
      "geometry": {
        "coordinates": [
          132.453473,
          34.396384
        ],
        "type": "Point"
      },
      "properties": {
        "bangumi_id": 54550,
        "bangumi_title": "在这世界的角落",
        "ep_cut": "1",
        "image_url": "https://w.junreimap.com/images/user/0/bangumi/54550/points/6ngql3l-1761490014612.jpg",
        "location": "",
        "point_id": "6ngql3l",
        "point_name": "原爆ドーム",
        "remark": ""
      },
      "type": "Feature"
    },
    {
      "geometry": {
        "coordinates": [
          132.452552,
          34.395343
        ],
        "type": "Point"
      },
      "properties": {
        "bangumi_id": 54550,
        "bangumi_title": "在这世界的角落",
        "ep_cut": "1",
        "image_url": "https://w.junreimap.com/images/user/0/bangumi/54550/points/6nh45zi-1761490529418.jpg",
        "location": "",
        "point_id": "6nh45zi",
        "point_name": "原爆ドーム",
        "remark": ""
      },
      "type": "Feature"
    },
    {
      "geometry": {
        "coordinates": [
          132.453304,
          34.396499
        ],
        "type": "Point"
      },
      "properties": {
        "bangumi_id": 54550,
        "bangumi_title": "在这世界的角落",
        "ep_cut": "1",
        "image_url": "https://w.junreimap.com/images/user/0/bangumi/54550/points/6ngxbym-1761490219550.jpg",
        "location": "",
        "point_id": "6ngxbym",
        "point_name": "原爆ドーム",
        "remark": ""
      },
      "type": "Feature"
    }
  ],
  "type": "FeatureCollection"
}