{
  "features": [
    {
      "geometry": {
        "coordinates": [
          136.716986,
          35.437149
        ],
        "type": "Point"
      },
      "properties": {
        "bangumi_id": 55791,
        "bangumi_title": "笨蛋全裸向前冲",
        "ep_cut": "",
        "image_url": "",
        "location": "",
        "point_id": "iljxav3vf",
        "point_name": "尻毛橋",
        "remark": "这家小小的邮局位于我回家途中会经过的一座桥的桥头，夹在住家中间，马路正对面是汽车卖场，右手边是倒闭的米店。——《笨蛋全裸向前冲》 第五章 全裸的笨蛋登场"
      },
      "type": "Feature"
    },
    {
      "geometry": {
        "coordinates": [
          136.715632,
          35.437325
        ],
        "type": "Point"
      },
      "properties": {
        "bangumi_id": 55791,
        "bangumi_title": "笨蛋全裸向前冲",
        "ep_cut": "",
        "image_url": "",
        "location": "",
        "point_id": "iljxav3ki",
        "point_name": "岐阜尻毛郵便局",
        "remark": "这家小小的邮局位于我回家途中会经过的一座桥的桥头，夹在住家中间，马路正对面是汽车卖场，右手边是倒闭的米店。——《笨蛋全裸向前冲》 第五章 全裸的笨蛋登场"
      },
      "type": "Feature"
    },
    {
      "geometry": {
        "coordinates": [
          136.715916,
          35.437544
        ],
        "type": "Point"
      },
      "properties": {
        "bangumi_id": 55791,
        "bangumi_title": "笨蛋全裸向前冲",
        "ep_cut": "",
        "image_url": "",
        "location": "",
        "point_id": "iljxav39e",
        "point_name": "坂口モータース",
        "remark": "这家小小的邮局位于我回家途中会经过的一座桥的桥头，夹在住家中间，马路正对面是汽车卖场，右手边是倒闭的米店。——《笨蛋全裸向前冲》 第五章 全裸的笨蛋登场"
      },
      "type": "Feature"
    },
    {
      "geometry": {
        "coordinates": [
          136.715253,
          35.437523
        ],
        "type": "Point"
      },
      "properties": {
        "bangumi_id": 55791,
        "bangumi_title": "笨蛋全裸向前冲",
        "ep_cut": "",
        "image_url": "",
        "location": "",
        "point_id": "iljxav36u",
        "point_name": "安藤米穀店",
        "remark": "这家小小的邮局位于我回家途中会经过的一座桥的桥头，夹在住家中间，马路正对面是汽车卖场，右手边是倒闭的米店。——《笨蛋全裸向前冲》 第五章 全裸的笨蛋登场"
      },
      "type": "Feature"
    },
    {
      "geometry": {
        "coordinates": [
          136.974665,
          35.133649
        ],
        "type": "Point"
      },
      "properties": {
        "bangumi_id": 55791,
        "bangumi_title": "笨蛋全裸向前冲",
        "ep_cut": "",
        "image_url": "",
        "location": "",
        "point_id": "iljxav3cb",
        "point_name": "ローソン 名城大前店",
        "remark": "我们就读的大学山坡下有便利商店与邮局，我相信这一定是为了让我能这样寄出原稿而存在。虽然多半也只有现在是如此。——《笨蛋全裸向前冲》 第一章 全裸的笨蛋登场"
      },
      "type": "Feature"
    },
    {
      "geometry": {
        "coordinates": [
          136.974066,
          35.133758
        ],
        "type": "Point"
      },
      "properties": {
        "bangumi_id": 55791,
        "bangumi_title": "笨蛋全裸向前冲",
        "ep_cut": "",
        "image_url": "",
        "location": "",
        "point_id": "iljxav3wd",
        "point_name": "名古屋名城大学内郵便局",
        "remark": "我们就读的大学山坡下有便利商店与邮局，我相信这一定是为了让我能这样寄出原稿而存在。虽然多半也只有现在是如此。——《笨蛋全裸向前冲》 第一章 全裸的笨蛋登场"
      },
      "type": "Feature"
    },
    {
      "geometry": {
        "coordinates": [
          136.975511,
          35.133088
        ],
        "type": "Point"
      },
      "properties": {
        "bangumi_id": 55791,
        "bangumi_title": "笨蛋全裸向前冲",
        "ep_cut": "",
        "image_url": "",
        "location": "",
        "point_id": "jf1psei8o",
        "point_name": "カレーハウスCoCo壱番屋 名城大前店",
        "remark": "甲斐抄子这么说完，动作突然变得灵敏，但还是会往左靠。她以螃蟹步赶在红灯前穿过马路，抢先走到对面的步道上。对面的道路上有着以鸡翅为招牌菜的居酒屋与CoCo壹番屋。\n——《笨蛋全裸向前冲》 第一章 全裸的笨蛋登场\n\n（注：现为「鉄板焼ぱせポン」。）"
      },
      "type": "Feature"
    },
    {
      "geometry": {
        "coordinates": [
          136.975686,
          35.133028
        ],
        "type": "Point"
      },
      "properties": {
        "bangumi_id": 55791,
        "bangumi_title": "笨蛋全裸向前冲",
        "ep_cut": "",
        "image_url": "",
        "location": "",
        "point_id": "jf1pti059",
        "point_name": "つばさや 塩釜店",
        "remark": "甲斐抄子这么说完，动作突然变得灵敏，但还是会往左靠。她以螃蟹步赶在红灯前穿过马路，抢先走到对面的步道上。对面的道路上有着以鸡翅为招牌菜的居酒屋与CoCo壹番屋。\n——《笨蛋全裸向前冲》 第一章 全裸的笨蛋登场／\n\n这里是以鸡翅闻名的居酒屋。去年春天，新生欢迎会就是在这间店举办的。我有豪迈且苦涩的回忆，也有没有的回忆。我一边祈祷店员已经全部换过一轮，一边跟着甲斐抄子穿过入口的门。橙色的灯笼光辉映入眼帘。\n——《笨蛋全裸向前冲 Ver.2.0》 第五章・笨蛋全裸向前冲 ver2.0\n\n（注：现为「らーめん 六弦」。）"
      },
      "type": "Feature"
    },
    {
      "geometry": {
        "coordinates": [
          136.97581,
          35.135252
        ],
        "type": "Point"
      },
      "properties": {
        "bangumi_id": 55791,
        "bangumi_title": "笨蛋全裸向前冲",
        "ep_cut": "",
        "image_url": "",
        "location": "",
        "point_id": "jhkqeg6ml",
        "point_name": "名城大学附属図書館",
        "remark": "我在图书馆入口刷过学生证。这是我第一次来图书馆，所以有点生疏。进了图书馆后，左手边不远处放了大量的国际电话与今天的报纸。我很快地看看这一区，并未找到甲斐抄子的身影，于是大步走向下一个地方。\n——《笨蛋全裸向前冲》 第一章 全裸的笨蛋登场"
      },
      "type": "Feature"
    },
    {
      "geometry": {
        "coordinates": [
          139.739092,
          35.628455
        ],
        "type": "Point"
      },
      "properties": {
        "bangumi_id": 55791,
        "bangumi_title": "笨蛋全裸向前冲",
        "ep_cut": "",
        "image_url": "",
        "location": "",
        "point_id": "jhkr6vp5s",
        "point_name": "品川駅",
        "remark": "我痛苦地度过将近两小时的时间后，走下新干线，转搭电车。编辑部在新宿，所以我从品川搭山手线过去。老实说，我对东京的电车不熟，不知道这是不是最短的距离，但我不知道其他路线。我又被摇晃了二十分钟左右。\n——《笨蛋全裸向前冲 Ver.2.0》 第二章・笨蛋全裸向前冲 var.3.0"
      },
      "type": "Feature"
    },
    {
      "geometry": {
        "coordinates": [
          139.700686,
          35.689195
        ],
        "type": "Point"
      },
      "properties": {
        "bangumi_id": 55791,
        "bangumi_title": "笨蛋全裸向前冲",
        "ep_cut": "",
        "image_url": "",
        "location": "",
        "point_id": "jhkylb07m",
        "point_name": "新宿駅",
        "remark": "我痛苦地度过将近两小时的时间后，走下新干线，转搭电车。编辑部在新宿，所以我从品川搭山手线过去。老实说，我对东京的电车不熟，不知道这是不是最短的距离，但我不知道其他路线。我又被摇晃了二十分钟左右。\n——《笨蛋全裸向前冲 Ver.2.0》 第二章・笨蛋全裸向前冲 var.3.0"
      },
      "type": "Feature"
    },
    {
      "geometry": {
        "coordinates": [
          139.693015,
          35.686887
        ],
        "type": "Point"
      },
      "properties": {
        "bangumi_id": 55791,
        "bangumi_title": "笨蛋全裸向前冲",
        "ep_cut": "",
        "image_url": "",
        "location": "",
        "point_id": "jhkz4m8wr",
        "point_name": "新宿ワシントンホテル",
        "remark": "接下来只要往这里走，就能前往都厅的方向，抵达饭店的地下楼层。这边是单行道，所以很好认。反而是地上才刚来的时候，我迷路了。\n……\n我们在地下道走了五分钟左右，爬上楼梯，抵达饭店的地下一楼。我一边听着隔壁的柏青哥店传来的喧嚣声，一边走上一楼，确认时间。接着我和伊次原幸子一样，朝着饭店入口的方向往前踏出一步。\n——《笨蛋全裸向前冲 Ver.2.0》 第二章・笨蛋全裸向前冲 var.3.0"
      },
      "type": "Feature"
    },
    {
      "geometry": {
        "coordinates": [
          139.693211,
          35.686908
        ],
        "type": "Point"
      },
      "properties": {
        "bangumi_id": 55791,
        "bangumi_title": "笨蛋全裸向前冲",
        "ep_cut": "",
        "image_url": "",
        "location": "",
        "point_id": "jhl0ffcon",
        "point_name": "新宿FRESCO",
        "remark": "我们在地下道走了五分钟左右，爬上楼梯，抵达饭店的地下一楼。我一边听着隔壁的柏青哥店传来的喧嚣声，一边走上一楼，确认时间。接着我和伊次原幸子一样，朝着饭店入口的方向往前踏出一步。\n——《笨蛋全裸向前冲 Ver.2.0》 第二章・笨蛋全裸向前冲 var.3.0"
      },
      "type": "Feature"
    },
    {
      "geometry": {
        "coordinates": [
          139.688493,
          35.686412
        ],
        "type": "Point"
      },
      "properties": {
        "bangumi_id": 55791,
        "bangumi_title": "笨蛋全裸向前冲",
        "ep_cut": "",
        "image_url": "",
        "location": "",
        "point_id": "jhkuub1b1",
        "point_name": "株式会社アスキー・メディアワークス（2008~2011）",
        "remark": "我痛苦地度过将近两小时的时间后，走下新干线，转搭电车。编辑部在新宿，所以我从品川搭山手线过去。老实说，我对东京的电车不熟，不知道这是不是最短的距离，但我不知道其他路线。我又被摇晃了二十分钟左右。\n——《笨蛋全裸向前冲 Ver.2.0》 第二章・笨蛋全裸向前冲 var.3.0"
      },
      "type": "Feature"
    },
    {
      "geometry": {
        "coordinates": [
          139.76609,
          35.681319
        ],
        "type": "Point"
      },
      "properties": {
        "bangumi_id": 55791,
        "bangumi_title": "笨蛋全裸向前冲",
        "ep_cut": "",
        "image_url": "",
        "location": "",
        "point_id": "jhktshzcs",
        "point_name": "東京駅",
        "remark": "之后我立刻离开会场，退掉饭店的房间，搭上出租车前往东京站。在窗口更改新干线的乘车日期后，我站在拥挤的自由座车厢最前面的座位发呆，就这样回到了名古屋。\n——《笨蛋全裸向前冲 Ver.2.0》 第二章・笨蛋全裸向前冲 var.3.0"
      },
      "type": "Feature"
    },
    {
      "geometry": {
        "coordinates": [
          139.617594,
          35.507364
        ],
        "type": "Point"
      },
      "properties": {
        "bangumi_id": 55791,
        "bangumi_title": "笨蛋全裸向前冲",
        "ep_cut": "",
        "image_url": "",
        "location": "",
        "point_id": "jhkxjkc6n",
        "point_name": "新横浜駅",
        "remark": "在寒冷的天气中，我从名古屋搭新干线前往东京。在新横滨站前，有个中年上班族倒在车厢间的通道上，引起一阵骚动，我还帮忙把那个男人搬到新横滨站。\n——《笨蛋全裸向前冲 Ver.2.0》 第二章・笨蛋全裸向前冲 var.3.0"
      },
      "type": "Feature"
    },
    {
      "geometry": {
        "coordinates": [
          139.745577,
          35.698386
        ],
        "type": "Point"
      },
      "properties": {
        "bangumi_id": 55791,
        "bangumi_title": "笨蛋全裸向前冲",
        "ep_cut": "",
        "image_url": "",
        "location": "",
        "point_id": "jhl1trvyl",
        "point_name": "株式会社アスキー・メディアワークス（2011~2013）",
        "remark": "新宿的编辑部搬到新大楼，今年的忘年会地点也换了，一定要来一趟哦。\n——《笨蛋全裸向前冲 Ver.2.0》 第三章・笨蛋全裸向前冲 ver4·0"
      },
      "type": "Feature"
    }
  ],
  "type": "FeatureCollection"
}