{
  "features": [
    {
      "geometry": {
        "coordinates": [
          104.752938,
          29.350265
        ],
        "type": "Point"
      },
      "properties": {
        "bangumi_id": 559564,
        "bangumi_title": "纸房子",
        "ep_cut": "",
        "image_url": "",
        "location": "塘湾路周边",
        "point_id": "5rxxdw9",
        "point_name": "自贡六中",
        "remark": "陈水六中原型自贡六中的实际位置。游戏中的六中位置以此为基础，但取景地是荣县职业技术教育中心。"
      },
      "type": "Feature"
    },
    {
      "geometry": {
        "coordinates": [
          104.748398,
          29.35044
        ],
        "type": "Point"
      },
      "properties": {
        "bangumi_id": 559564,
        "bangumi_title": "纸房子",
        "ep_cut": "",
        "image_url": "https://w.junreimap.com/images/points/559564/5r7fwny_1759539712478_c16v9.jpg",
        "location": "塘湾路周边",
        "point_id": "5r7fwny",
        "point_name": "塘湾路小巷",
        "remark": "巷子的入口位于大湾井社区塘湾路西侧尽头的大院左侧（https://j.map.baidu.com/c2/1-Bk）\n，可搜索塘湾路138号定位。"
      },
      "type": "Feature"
    },
    {
      "geometry": {
        "coordinates": [
          104.746238,
          29.3504
        ],
        "type": "Point"
      },
      "properties": {
        "bangumi_id": 559564,
        "bangumi_title": "纸房子",
        "ep_cut": "",
        "image_url": "",
        "location": "塘湾路周边",
        "point_id": "5r7qj8n",
        "point_name": "赵颖家",
        "remark": "从塘湾路小巷向上坡走可抵达，附近住宅楼的其中一栋。"
      },
      "type": "Feature"
    },
    {
      "geometry": {
        "coordinates": [
          104.746305,
          29.350384
        ],
        "type": "Point"
      },
      "properties": {
        "bangumi_id": 559564,
        "bangumi_title": "纸房子",
        "ep_cut": "",
        "image_url": "https://w.junreimap.com/images/points/559564/5s022wf_1759587441716.jpg",
        "location": "",
        "point_id": "5s022wf",
        "point_name": "赵颖家",
        "remark": ""
      },
      "type": "Feature"
    },
    {
      "geometry": {
        "coordinates": [
          104.746537,
          29.350429
        ],
        "type": "Point"
      },
      "properties": {
        "bangumi_id": 559564,
        "bangumi_title": "纸房子",
        "ep_cut": "",
        "image_url": "",
        "location": "塘湾路周边",
        "point_id": "5r7takm",
        "point_name": "赵颖家门口",
        "remark": "左侧为塘湾路174号1栋和2栋，右侧为塘湾路173号。"
      },
      "type": "Feature"
    },
    {
      "geometry": {
        "coordinates": [
          104.767752,
          29.322343
        ],
        "type": "Point"
      },
      "properties": {
        "bangumi_id": 559564,
        "bangumi_title": "纸房子",
        "ep_cut": "",
        "image_url": "https://w.junreimap.com/images/user/0/bangumi/559564/points/4fbwqzh-1756644687394.jpg",
        "location": "华商国际城",
        "point_id": "4fbwqzh",
        "point_name": "华商国际城",
        "remark": "右侧店铺为食神厕所兔，前方为星维国际影城所在的华商国际城5号楼。"
      },
      "type": "Feature"
    },
    {
      "geometry": {
        "coordinates": [
          104.769669,
          29.322792
        ],
        "type": "Point"
      },
      "properties": {
        "bangumi_id": 559564,
        "bangumi_title": "纸房子",
        "ep_cut": "",
        "image_url": "https://w.junreimap.com/images/user/0/bangumi/559564/points/5r91uxj-1775305747183.jpg",
        "location": "华商国际城",
        "point_id": "5r91uxj",
        "point_name": "星维国际影城",
        "remark": "位于华商国际城5号楼3楼。"
      },
      "type": "Feature"
    },
    {
      "geometry": {
        "coordinates": [
          104.768455,
          29.323381
        ],
        "type": "Point"
      },
      "properties": {
        "bangumi_id": 559564,
        "bangumi_title": "纸房子",
        "ep_cut": "",
        "image_url": "",
        "location": "华商国际城",
        "point_id": "5r8szlf",
        "point_name": "华商爱琴海购物中心B馆",
        "remark": "取景地为华商爱琴海购物中心B馆1楼内部，左侧为Calvin Klein Jeans，右侧为JACK&JONES。"
      },
      "type": "Feature"
    },
    {
      "geometry": {
        "coordinates": [
          104.768388,
          29.323103
        ],
        "type": "Point"
      },
      "properties": {
        "bangumi_id": 559564,
        "bangumi_title": "纸房子",
        "ep_cut": "",
        "image_url": "",
        "location": "华商国际城",
        "point_id": "5rwv8l5",
        "point_name": "茶百道（华商店）",
        "remark": "位于华商国际城1期8号楼。"
      },
      "type": "Feature"
    },
    {
      "geometry": {
        "coordinates": [
          104.761152,
          29.322326
        ],
        "type": "Point"
      },
      "properties": {
        "bangumi_id": 559564,
        "bangumi_title": "纸房子",
        "ep_cut": "",
        "image_url": "https://w.junreimap.com/images/points/559564/5r8z937_1759581648316.jpg",
        "location": "华商国际城",
        "point_id": "5r8z937",
        "point_name": "枫叶林咖啡酒馆",
        "remark": "位于华商国际城三期19栋1层。"
      },
      "type": "Feature"
    },
    {
      "geometry": {
        "coordinates": [
          104.804186,
          29.317739
        ],
        "type": "Point"
      },
      "properties": {
        "bangumi_id": 559564,
        "bangumi_title": "纸房子",
        "ep_cut": "",
        "image_url": "https://w.junreimap.com/images/user/0/bangumi/559564/points/5rx471g-1775305220769.jpg",
        "location": "龙湖周边",
        "point_id": "5rx471g",
        "point_name": "龙湖尚城",
        "remark": "赵家买的新房子所在小区。"
      },
      "type": "Feature"
    },
    {
      "geometry": {
        "coordinates": [
          104.802463,
          29.318353
        ],
        "type": "Point"
      },
      "properties": {
        "bangumi_id": 559564,
        "bangumi_title": "纸房子",
        "ep_cut": "",
        "image_url": "https://w.junreimap.com/images/user/0/bangumi/559564/points/5rxcoy1-1775305199727.jpg",
        "location": "龙湖周边",
        "point_id": "5rxcoy1",
        "point_name": "龙湖公园",
        "remark": "赵颖遇到徐敏敏的公园，旁边有名为龙湖坝坝茶的店铺。\nhttps://j.map.baidu.com/89/rlFk"
      },
      "type": "Feature"
    },
    {
      "geometry": {
        "coordinates": [
          104.422556,
          29.450552
        ],
        "type": "Point"
      },
      "properties": {
        "bangumi_id": 559564,
        "bangumi_title": "纸房子",
        "ep_cut": "",
        "image_url": "https://w.junreimap.com/images/user/0/bangumi/559564/points/4fcguif-1756645489054.jpg",
        "location": "容县",
        "point_id": "4fcguif",
        "point_name": "荣州路",
        "remark": "荣州路与福凤街交叉口。"
      },
      "type": "Feature"
    },
    {
      "geometry": {
        "coordinates": [
          104.42723,
          29.46159
        ],
        "type": "Point"
      },
      "properties": {
        "bangumi_id": 559564,
        "bangumi_title": "纸房子",
        "ep_cut": "",
        "image_url": "https://w.junreimap.com/images/user/0/bangumi/559564/points/4fcm624-1756645681178.jpg",
        "location": "容县",
        "point_id": "4fcm624",
        "point_name": "荣县职业技术教育中心（陈水六中取景地）",
        "remark": "剧情背景中为自贡六中，实际场景取自荣县职教中心。"
      },
      "type": "Feature"
    },
    {
      "geometry": {
        "coordinates": [
          104.413329,
          29.459191
        ],
        "type": "Point"
      },
      "properties": {
        "bangumi_id": 559564,
        "bangumi_title": "纸房子",
        "ep_cut": "",
        "image_url": "https://w.junreimap.com/images/user/0/bangumi/559564/points/4fcqd46-1756645868436.jpg",
        "location": "容县",
        "point_id": "4fcqd46",
        "point_name": "古城街",
        "remark": ""
      },
      "type": "Feature"
    },
    {
      "geometry": {
        "coordinates": [
          104.76884,
          29.354649
        ],
        "type": "Point"
      },
      "properties": {
        "bangumi_id": 559564,
        "bangumi_title": "纸房子",
        "ep_cut": "",
        "image_url": "https://w.junreimap.com/images/user/0/bangumi/559564/points/5rwpqik-1775305672773.jpg",
        "location": "东方广场",
        "point_id": "5rwpqik",
        "point_name": "东方广场",
        "remark": "位于东方广场最南侧，左侧店铺为玩羊国际，右侧店铺为臻灿黄金、书亦烧仙草等。"
      },
      "type": "Feature"
    },
    {
      "geometry": {
        "coordinates": [
          104.770501,
          29.354716
        ],
        "type": "Point"
      },
      "properties": {
        "bangumi_id": 559564,
        "bangumi_title": "纸房子",
        "ep_cut": "",
        "image_url": "https://w.junreimap.com/images/user/0/bangumi/559564/points/4fcvpst-1756646130168.jpg",
        "location": "东方广场",
        "point_id": "4fcvpst",
        "point_name": "灯杆坝糍粑冰粉",
        "remark": "游戏中羊肉粉店取景地为现实中的灯杆坝羊肉粉隔壁的糍粑冰粉店，该店铺夏季为冰粉店，冬季为YANGYANG羊绒店。"
      },
      "type": "Feature"
    },
    {
      "geometry": {
        "coordinates": [
          104.770687,
          29.354794
        ],
        "type": "Point"
      },
      "properties": {
        "bangumi_id": 559564,
        "bangumi_title": "纸房子",
        "ep_cut": "",
        "image_url": "",
        "location": "东方广场",
        "point_id": "5r8ufrz",
        "point_name": "灯杆坝碗碗香羊肉米线",
        "remark": "现实中存在于灯杆坝的羊肉粉店。"
      },
      "type": "Feature"
    },
    {
      "geometry": {
        "coordinates": [
          104.764437,
          29.33423
        ],
        "type": "Point"
      },
      "properties": {
        "bangumi_id": 559564,
        "bangumi_title": "纸房子",
        "ep_cut": "",
        "image_url": "https://w.junreimap.com/images/user/0/bangumi/559564/points/5rxp5o4-1775305157842.jpg",
        "location": "四川轻化工大学",
        "point_id": "5rxp5o4",
        "point_name": "四川轻化工大学汇东校区",
        "remark": "右侧建筑为四川轻化工大学生物工程学院。\nhttps://j.map.baidu.com/e4/PpFk"
      },
      "type": "Feature"
    }
  ],
  "type": "FeatureCollection"
}