{
  "features": [
    {
      "geometry": {
        "coordinates": [
          -118.321651,
          34.1341
        ],
        "type": "Point"
      },
      "properties": {
        "bangumi_id": 56705,
        "bangumi_title": "侠盗猎车手5",
        "ep_cut": "",
        "image_url": "https://w.junreimap.com/images/user/0/bangumi/56705/points/nxhnj3evh-1725653383440.jpg",
        "location": "",
        "point_id": "nxhnj3evh",
        "point_name": "Hollywood Sign",
        "remark": "游戏经典地标"
      },
      "type": "Feature"
    },
    {
      "geometry": {
        "coordinates": [
          -118.495415,
          34.007389
        ],
        "type": "Point"
      },
      "properties": {
        "bangumi_id": 56705,
        "bangumi_title": "侠盗猎车手5",
        "ep_cut": "",
        "image_url": "https://w.junreimap.com/images/user/0/bangumi/56705/points/o3k9qbxly-1726129251869.jpg",
        "location": "",
        "point_id": "o3k9qbxly",
        "point_name": "圣莫尼卡沙滩",
        "remark": ""
      },
      "type": "Feature"
    },
    {
      "geometry": {
        "coordinates": [
          -118.25336,
          34.053239
        ],
        "type": "Point"
      },
      "properties": {
        "bangumi_id": 56705,
        "bangumi_title": "侠盗猎车手5",
        "ep_cut": "",
        "image_url": "https://w.junreimap.com/images/user/0/bangumi/56705/points/o3m1ce1ck-1726133000655.jpg",
        "location": "",
        "point_id": "o3m1ce1ck",
        "point_name": "美国合众银行大厦",
        "remark": ""
      },
      "type": "Feature"
    },
    {
      "geometry": {
        "coordinates": [
          -118.403854,
          34.069892
        ],
        "type": "Point"
      },
      "properties": {
        "bangumi_id": 56705,
        "bangumi_title": "侠盗猎车手5",
        "ep_cut": "",
        "image_url": "https://w.junreimap.com/images/user/0/bangumi/56705/points/vtvebv-1748935708356.jpg",
        "location": "",
        "point_id": "vtvebv",
        "point_name": "House of Bijan",
        "remark": ""
      },
      "type": "Feature"
    },
    {
      "geometry": {
        "coordinates": [
          -118.300376,
          34.118466
        ],
        "type": "Point"
      },
      "properties": {
        "bangumi_id": 56705,
        "bangumi_title": "侠盗猎车手5",
        "ep_cut": "",
        "image_url": "https://w.junreimap.com/images/user/0/bangumi/56705/points/10f3x06-1749212765239.jpg",
        "location": "",
        "point_id": "10f3x06",
        "point_name": "Griffith Observatory",
        "remark": ""
      },
      "type": "Feature"
    },
    {
      "geometry": {
        "coordinates": [
          -118.338944,
          34.112591
        ],
        "type": "Point"
      },
      "properties": {
        "bangumi_id": 56705,
        "bangumi_title": "侠盗猎车手5",
        "ep_cut": "",
        "image_url": "https://w.junreimap.com/images/user/0/bangumi/56705/points/10fmygb-1749213505080.jpg",
        "location": "",
        "point_id": "10fmygb",
        "point_name": "HollywoodlBowl",
        "remark": ""
      },
      "type": "Feature"
    },
    {
      "geometry": {
        "coordinates": [
          -118.42318,
          34.069249
        ],
        "type": "Point"
      },
      "properties": {
        "bangumi_id": 56705,
        "bangumi_title": "侠盗猎车手5",
        "ep_cut": "",
        "image_url": "https://w.junreimap.com/images/user/0/bangumi/56705/points/10fx58u-1749213983801.jpg",
        "location": "",
        "point_id": "10fx58u",
        "point_name": "The Los Anqeles Country Club",
        "remark": ""
      },
      "type": "Feature"
    },
    {
      "geometry": {
        "coordinates": [
          -118.445235,
          34.071166
        ],
        "type": "Point"
      },
      "properties": {
        "bangumi_id": 56705,
        "bangumi_title": "侠盗猎车手5",
        "ep_cut": "",
        "image_url": "https://w.junreimap.com/images/user/0/bangumi/56705/points/10g8flm-1749214480294.jpg",
        "location": "",
        "point_id": "10g8flm",
        "point_name": "University of California",
        "remark": ""
      },
      "type": "Feature"
    },
    {
      "geometry": {
        "coordinates": [
          -118.474011,
          34.077039
        ],
        "type": "Point"
      },
      "properties": {
        "bangumi_id": 56705,
        "bangumi_title": "侠盗猎车手5",
        "ep_cut": "",
        "image_url": "https://w.junreimap.com/images/user/0/bangumi/56705/points/10ggdgi-1749214820127.jpg",
        "location": "",
        "point_id": "10ggdgi",
        "point_name": "The J. Paul Getty Museum",
        "remark": ""
      },
      "type": "Feature"
    },
    {
      "geometry": {
        "coordinates": [
          -118.403468,
          34.072398
        ],
        "type": "Point"
      },
      "properties": {
        "bangumi_id": 56705,
        "bangumi_title": "侠盗猎车手5",
        "ep_cut": "",
        "image_url": "https://w.junreimap.com/images/user/0/bangumi/56705/points/10gnjma-1749215127187.jpg",
        "location": "",
        "point_id": "10gnjma",
        "point_name": "Beverly Gardens Park",
        "remark": ""
      },
      "type": "Feature"
    },
    {
      "geometry": {
        "coordinates": [
          -118.400725,
          34.06729
        ],
        "type": "Point"
      },
      "properties": {
        "bangumi_id": 56705,
        "bangumi_title": "侠盗猎车手5",
        "ep_cut": "",
        "image_url": "https://w.junreimap.com/images/user/0/bangumi/56705/points/10gvsjd-1749215495989.jpg",
        "location": "",
        "point_id": "10gvsjd",
        "point_name": "Rodeo drive Steps",
        "remark": ""
      },
      "type": "Feature"
    },
    {
      "geometry": {
        "coordinates": [
          -118.399536,
          34.073772
        ],
        "type": "Point"
      },
      "properties": {
        "bangumi_id": 56705,
        "bangumi_title": "侠盗猎车手5",
        "ep_cut": "",
        "image_url": "https://w.junreimap.com/images/user/0/bangumi/56705/points/10h6585-1749215979620.jpg",
        "location": "",
        "point_id": "10h6585",
        "point_name": "Beverly Hills Civic Center",
        "remark": ""
      },
      "type": "Feature"
    },
    {
      "geometry": {
        "coordinates": [
          -118.394097,
          34.090882
        ],
        "type": "Point"
      },
      "properties": {
        "bangumi_id": 56705,
        "bangumi_title": "侠盗猎车手5",
        "ep_cut": "",
        "image_url": "https://w.junreimap.com/images/user/0/bangumi/56705/points/10hah1m-1749216716515.jpg",
        "location": "",
        "point_id": "10hah1m",
        "point_name": "Sierra Towers",
        "remark": ""
      },
      "type": "Feature"
    },
    {
      "geometry": {
        "coordinates": [
          -118.371901,
          34.095941
        ],
        "type": "Point"
      },
      "properties": {
        "bangumi_id": 56705,
        "bangumi_title": "侠盗猎车手5",
        "ep_cut": "",
        "image_url": "https://w.junreimap.com/images/user/0/bangumi/56705/points/10ho20w-1749216933554.jpg",
        "location": "",
        "point_id": "10ho20w",
        "point_name": "Carney’s Restaurant",
        "remark": ""
      },
      "type": "Feature"
    },
    {
      "geometry": {
        "coordinates": [
          -118.326358,
          34.1031
        ],
        "type": "Point"
      },
      "properties": {
        "bangumi_id": 56705,
        "bangumi_title": "侠盗猎车手5",
        "ep_cut": "",
        "image_url": "https://w.junreimap.com/images/user/0/bangumi/56705/points/10hxeda-1749217481608.jpg",
        "location": "",
        "point_id": "10hxeda",
        "point_name": "Capitol Records Building",
        "remark": ""
      },
      "type": "Feature"
    },
    {
      "geometry": {
        "coordinates": [
          -118.497781,
          34.008587
        ],
        "type": "Point"
      },
      "properties": {
        "bangumi_id": 56705,
        "bangumi_title": "侠盗猎车手5",
        "ep_cut": "",
        "image_url": "https://w.junreimap.com/images/user/0/bangumi/56705/points/10i445i-1749217738927.jpg",
        "location": "",
        "point_id": "10i445i",
        "point_name": "Pacific Park",
        "remark": ""
      },
      "type": "Feature"
    },
    {
      "geometry": {
        "coordinates": [
          -118.340947,
          34.102088
        ],
        "type": "Point"
      },
      "properties": {
        "bangumi_id": 56705,
        "bangumi_title": "侠盗猎车手5",
        "ep_cut": "",
        "image_url": "https://w.junreimap.com/images/user/0/bangumi/56705/points/10ivd59-1749218871127.jpg",
        "location": "",
        "point_id": "10ivd59",
        "point_name": "TCL Chinese Theatre",
        "remark": ""
      },
      "type": "Feature"
    },
    {
      "geometry": {
        "coordinates": [
          -118.413208,
          34.066306
        ],
        "type": "Point"
      },
      "properties": {
        "bangumi_id": 56705,
        "bangumi_title": "侠盗猎车手5",
        "ep_cut": "",
        "image_url": "https://w.junreimap.com/images/user/0/bangumi/56705/points/10jcpw3-1749219686284.jpg",
        "location": "",
        "point_id": "10jcpw3",
        "point_name": "The Beverly Hilton",
        "remark": ""
      },
      "type": "Feature"
    },
    {
      "geometry": {
        "coordinates": [
          -118.413978,
          34.081657
        ],
        "type": "Point"
      },
      "properties": {
        "bangumi_id": 56705,
        "bangumi_title": "侠盗猎车手5",
        "ep_cut": "",
        "image_url": "https://w.junreimap.com/images/user/0/bangumi/56705/points/10jizs4-1749219963002.jpg",
        "location": "",
        "point_id": "10jizs4",
        "point_name": "The Beverly Hills Hotel",
        "remark": ""
      },
      "type": "Feature"
    },
    {
      "geometry": {
        "coordinates": [
          -118.341992,
          33.958215
        ],
        "type": "Point"
      },
      "properties": {
        "bangumi_id": 56705,
        "bangumi_title": "侠盗猎车手5",
        "ep_cut": "",
        "image_url": "https://w.junreimap.com/images/user/0/bangumi/56705/points/10jqumq-1749220347045.jpg",
        "location": "",
        "point_id": "10jqumq",
        "point_name": "Kia Forum",
        "remark": ""
      },
      "type": "Feature"
    },
    {
      "geometry": {
        "coordinates": [
          -118.466204,
          33.984163
        ],
        "type": "Point"
      },
      "properties": {
        "bangumi_id": 56705,
        "bangumi_title": "侠盗猎车手5",
        "ep_cut": "",
        "image_url": "https://w.junreimap.com/images/user/0/bangumi/56705/points/10jybia-1749220665928.jpg",
        "location": "",
        "point_id": "10jybia",
        "point_name": "Venice Canal Historic District",
        "remark": ""
      },
      "type": "Feature"
    },
    {
      "geometry": {
        "coordinates": [
          -118.252974,
          34.048446
        ],
        "type": "Point"
      },
      "properties": {
        "bangumi_id": 56705,
        "bangumi_title": "侠盗猎车手5",
        "ep_cut": "",
        "image_url": "https://w.junreimap.com/images/user/0/bangumi/56705/points/10k9788-1749221198954.jpg",
        "location": "",
        "point_id": "10k9788",
        "point_name": "Pershing Square",
        "remark": ""
      },
      "type": "Feature"
    },
    {
      "geometry": {
        "coordinates": [
          -118.402483,
          33.944125
        ],
        "type": "Point"
      },
      "properties": {
        "bangumi_id": 56705,
        "bangumi_title": "侠盗猎车手5",
        "ep_cut": "",
        "image_url": "https://w.junreimap.com/images/user/0/bangumi/56705/points/10kfnvm-1749221510012.jpg",
        "location": "",
        "point_id": "10kfnvm",
        "point_name": "Theme Building",
        "remark": ""
      },
      "type": "Feature"
    }
  ],
  "type": "FeatureCollection"
}