{
  "features": [
    {
      "geometry": {
        "coordinates": [
          139.536981,
          35.641451
        ],
        "type": "Point"
      },
      "properties": {
        "bangumi_id": 587454,
        "bangumi_title": "我们不可能成为恋人！绝对不行。 (※似乎可行？) 〜再次闪耀！〜",
        "ep_cut": "PV",
        "image_url": "https://w.junreimap.com/images/user/2191/bangumi/587454/points/735a1vy-1762438387723.jpg",
        "location": "",
        "point_id": "735a1vy",
        "point_name": "多摩川堤通り",
        "remark": ""
      },
      "type": "Feature"
    },
    {
      "geometry": {
        "coordinates": [
          139.574383,
          35.657823
        ],
        "type": "Point"
      },
      "properties": {
        "bangumi_id": 587454,
        "bangumi_title": "我们不可能成为恋人！绝对不行。 (※似乎可行？) 〜再次闪耀！〜",
        "ep_cut": "PV",
        "image_url": "https://w.junreimap.com/images/user/2191/bangumi/587454/points/735u70y-1762439244270.jpg",
        "location": "",
        "point_id": "735u70y",
        "point_name": "京王電鉄つつじヶ丘駅の近く",
        "remark": ""
      },
      "type": "Feature"
    },
    {
      "geometry": {
        "coordinates": [
          139.574447,
          35.657849
        ],
        "type": "Point"
      },
      "properties": {
        "bangumi_id": 587454,
        "bangumi_title": "我们不可能成为恋人！绝对不行。 (※似乎可行？) 〜再次闪耀！〜",
        "ep_cut": 14,
        "image_url": "https://w.junreimap.com/images/points/587454/9ak7baq_1767239991071.jpg",
        "location": "",
        "point_id": "9ak7baq",
        "point_name": "京王電鉄つつじヶ丘駅の近く",
        "remark": ""
      },
      "type": "Feature"
    },
    {
      "geometry": {
        "coordinates": [
          139.536305,
          35.641576
        ],
        "type": "Point"
      },
      "properties": {
        "bangumi_id": 587454,
        "bangumi_title": "我们不可能成为恋人！绝对不行。 (※似乎可行？) 〜再次闪耀！〜",
        "ep_cut": 13,
        "image_url": "https://w.junreimap.com/images/points/587454/9aiwlcy_1767237811042.jpg",
        "location": "",
        "point_id": "9aiwlcy",
        "point_name": "多摩川堤通り",
        "remark": ""
      },
      "type": "Feature"
    },
    {
      "geometry": {
        "coordinates": [
          139.536525,
          35.640992
        ],
        "type": "Point"
      },
      "properties": {
        "bangumi_id": 587454,
        "bangumi_title": "我们不可能成为恋人！绝对不行。 (※似乎可行？) 〜再次闪耀！〜",
        "ep_cut": 13,
        "image_url": "https://w.junreimap.com/images/points/587454/9aj35jg_1767238129661.jpg",
        "location": "",
        "point_id": "9aj35jg",
        "point_name": "多摩川児童公園自由広場",
        "remark": ""
      },
      "type": "Feature"
    },
    {
      "geometry": {
        "coordinates": [
          139.573309,
          35.657691
        ],
        "type": "Point"
      },
      "properties": {
        "bangumi_id": 587454,
        "bangumi_title": "我们不可能成为恋人！绝对不行。 (※似乎可行？) 〜再次闪耀！〜",
        "ep_cut": 14,
        "image_url": "https://w.junreimap.com/images/points/587454/9ajg2yq_1767238719018.jpg",
        "location": "",
        "point_id": "9ajg2yq",
        "point_name": "富士見商店街",
        "remark": ""
      },
      "type": "Feature"
    },
    {
      "geometry": {
        "coordinates": [
          139.572018,
          35.656439
        ],
        "type": "Point"
      },
      "properties": {
        "bangumi_id": 587454,
        "bangumi_title": "我们不可能成为恋人！绝对不行。 (※似乎可行？) 〜再次闪耀！〜",
        "ep_cut": 14,
        "image_url": "https://w.junreimap.com/images/points/587454/9ajveox_1767239493989.jpg",
        "location": "",
        "point_id": "9ajveox",
        "point_name": "京王電鉄つつじヶ丘駅西の近く",
        "remark": ""
      },
      "type": "Feature"
    },
    {
      "geometry": {
        "coordinates": [
          140.036321,
          35.647431
        ],
        "type": "Point"
      },
      "properties": {
        "bangumi_id": 587454,
        "bangumi_title": "我们不可能成为恋人！绝对不行。 (※似乎可行？) 〜再次闪耀！〜",
        "ep_cut": 16,
        "image_url": "https://w.junreimap.com/images/points/587454/9b0baiz_1767267051093.jpg",
        "location": "",
        "point_id": "9b0baiz",
        "point_name": "幕張メッセ",
        "remark": ""
      },
      "type": "Feature"
    }
  ],
  "type": "FeatureCollection"
}