{
  "features": [
    {
      "geometry": {
        "coordinates": [
          139.720617,
          35.697721
        ],
        "type": "Point"
      },
      "properties": {
        "bangumi_id": 70983,
        "bangumi_title": "NOeSIS02-羽化-",
        "ep_cut": "",
        "image_url": "https://w.junreimap.com/images/user/0/bangumi/70983/points/p57b29tbx-1729078925566.jpg",
        "location": "",
        "point_id": "p57b29tbx",
        "point_name": "東京女子醫科大學病院",
        "remark": ""
      },
      "type": "Feature"
    },
    {
      "geometry": {
        "coordinates": [
          139.719479,
          35.697823
        ],
        "type": "Point"
      },
      "properties": {
        "bangumi_id": 70983,
        "bangumi_title": "NOeSIS02-羽化-",
        "ep_cut": "",
        "image_url": "https://w.junreimap.com/images/user/0/bangumi/70983/points/p57k5pp7a-1729079376392.jpg",
        "location": "",
        "point_id": "p57k5pp7a",
        "point_name": "女子医大通り",
        "remark": ""
      },
      "type": "Feature"
    },
    {
      "geometry": {
        "coordinates": [
          139.68019,
          35.662269
        ],
        "type": "Point"
      },
      "properties": {
        "bangumi_id": 70983,
        "bangumi_title": "NOeSIS02-羽化-",
        "ep_cut": "",
        "image_url": "https://w.junreimap.com/images/user/0/bangumi/70983/points/p58gj46f6-1729081447878.jpg",
        "location": "",
        "point_id": "p58gj46f6",
        "point_name": "旧前田家本邸 洋館",
        "remark": "鹰白一夜独白场景"
      },
      "type": "Feature"
    },
    {
      "geometry": {
        "coordinates": [
          139.496158,
          35.682203
        ],
        "type": "Point"
      },
      "properties": {
        "bangumi_id": 70983,
        "bangumi_title": "NOeSIS02-羽化-",
        "ep_cut": "",
        "image_url": "https://w.junreimap.com/images/user/0/bangumi/70983/points/p59zrgvj2-1729084610145.jpg",
        "location": "",
        "point_id": "p59zrgvj2",
        "point_name": "府中基地跡",
        "remark": ""
      },
      "type": "Feature"
    },
    {
      "geometry": {
        "coordinates": [
          139.38902,
          35.716046
        ],
        "type": "Point"
      },
      "properties": {
        "bangumi_id": 70983,
        "bangumi_title": "NOeSIS02-羽化-",
        "ep_cut": "",
        "image_url": "https://w.junreimap.com/images/user/0/bangumi/70983/points/p64d7zcw0-1729150744881.jpg",
        "location": "",
        "point_id": "p64d7zcw0",
        "point_name": "立川基地跡の3煙突",
        "remark": "场景图，3烟囱已于2014年拆除"
      },
      "type": "Feature"
    },
    {
      "geometry": {
        "coordinates": [
          136.450485,
          35.207534
        ],
        "type": "Point"
      },
      "properties": {
        "bangumi_id": 70983,
        "bangumi_title": "NOeSIS02-羽化-",
        "ep_cut": "",
        "image_url": "https://w.junreimap.com/images/user/0/bangumi/70983/points/p9bad5zac-1729400967190.jpg",
        "location": "",
        "point_id": "p9bad5zac",
        "point_name": "白石工業桑名工場跡",
        "remark": "场景图，白石工业桑名工厂已于2013年全部拆除。"
      },
      "type": "Feature"
    },
    {
      "geometry": {
        "coordinates": [
          139.343653,
          35.722101
        ],
        "type": "Point"
      },
      "properties": {
        "bangumi_id": 70983,
        "bangumi_title": "NOeSIS02-羽化-",
        "ep_cut": "",
        "image_url": "https://w.junreimap.com/images/user/0/bangumi/70983/points/p9crtllvb-1729404077681.jpg",
        "location": "",
        "point_id": "p9crtllvb",
        "point_name": "JR拝島駅",
        "remark": "场景图"
      },
      "type": "Feature"
    },
    {
      "geometry": {
        "coordinates": [
          139.344365,
          35.721197
        ],
        "type": "Point"
      },
      "properties": {
        "bangumi_id": 70983,
        "bangumi_title": "NOeSIS02-羽化-",
        "ep_cut": "",
        "image_url": "https://w.junreimap.com/images/user/0/bangumi/70983/points/p9cxqugk5-1729404432223.jpg",
        "location": "",
        "point_id": "p9cxqugk5",
        "point_name": "KFC西武拝島店",
        "remark": "场景图"
      },
      "type": "Feature"
    },
    {
      "geometry": {
        "coordinates": [
          139.288184,
          35.779831
        ],
        "type": "Point"
      },
      "properties": {
        "bangumi_id": 70983,
        "bangumi_title": "NOeSIS02-羽化-",
        "ep_cut": "",
        "image_url": "https://w.junreimap.com/images/points/70983/2g2xoxt_1752885157928.jpg",
        "location": "",
        "point_id": "2g2xoxt",
        "point_name": "東京都青梅市青梅1丁目",
        "remark": ""
      },
      "type": "Feature"
    }
  ],
  "type": "FeatureCollection"
}