{
  "features": [
    {
      "geometry": {
        "coordinates": [
          139.629301,
          35.72725
        ],
        "type": "Point"
      },
      "properties": {
        "bangumi_id": 74628,
        "bangumi_title": "伪恋",
        "ep_cut": "OP1",
        "image_url": "https://w.junreimap.com/images/points/74628/rjgtayvr8_1735843471287.jpg",
        "location": "",
        "point_id": "rjgtayvr8",
        "point_name": "新青梅街道中野区鷺宮六丁目",
        "remark": "op天橋"
      },
      "type": "Feature"
    },
    {
      "geometry": {
        "coordinates": [
          139.62942,
          35.727202
        ],
        "type": "Point"
      },
      "properties": {
        "bangumi_id": 74628,
        "bangumi_title": "伪恋",
        "ep_cut": "OP1",
        "image_url": "https://w.junreimap.com/images/points/74628/rjj06i95u_1735843551027.jpg",
        "location": "",
        "point_id": "rjj06i95u",
        "point_name": "新青梅街道",
        "remark": "op桥下"
      },
      "type": "Feature"
    },
    {
      "geometry": {
        "coordinates": [
          135.180705,
          34.69716
        ],
        "type": "Point"
      },
      "properties": {
        "bangumi_id": 74628,
        "bangumi_title": "伪恋",
        "ep_cut": "",
        "image_url": "https://w.junreimap.com/images/points/74628/tkx1468he_1753635033941_cblack.jpg",
        "location": "",
        "point_id": "tkx1468he",
        "point_name": "ビーナスブリッジ",
        "remark": "记不清中文名了，就是第二季最后约会的位置。说一下桥的位置可以和动漫一样，但椅子的取景是画师的艺术加成"
      },
      "type": "Feature"
    },
    {
      "geometry": {
        "coordinates": [
          135.180618,
          34.697234
        ],
        "type": "Point"
      },
      "properties": {
        "bangumi_id": 74628,
        "bangumi_title": "伪恋",
        "ep_cut": "",
        "image_url": "https://w.junreimap.com/images/user/0/bangumi/74628/points/tkx54psux-1741594861226.jpg",
        "location": "",
        "point_id": "tkx54psux",
        "point_name": "ビーナステラス",
        "remark": ""
      },
      "type": "Feature"
    },
    {
      "geometry": {
        "coordinates": [
          139.877927,
          35.675492
        ],
        "type": "Point"
      },
      "properties": {
        "bangumi_id": 74628,
        "bangumi_title": "伪恋",
        "ep_cut": "",
        "image_url": "https://w.junreimap.com/images/user/0/bangumi/74628/points/tkx7my6qf-1741595019280.jpg",
        "location": "",
        "point_id": "tkx7my6qf",
        "point_name": "環七通り",
        "remark": "主角们的上学路"
      },
      "type": "Feature"
    },
    {
      "geometry": {
        "coordinates": [
          139.876599,
          35.67496
        ],
        "type": "Point"
      },
      "properties": {
        "bangumi_id": 74628,
        "bangumi_title": "伪恋",
        "ep_cut": "",
        "image_url": "https://w.junreimap.com/images/user/0/bangumi/74628/points/tkx92may3-1741595304180.jpg",
        "location": "",
        "point_id": "tkx92may3",
        "point_name": "上学路",
        "remark": "基本都在这条河上，男主女主上学的那个墙应该不在这里，反正我没有看见。提一下，这里还是有很大的变化，只有一个我拍了没有变化"
      },
      "type": "Feature"
    },
    {
      "geometry": {
        "coordinates": [
          139.876729,
          35.674973
        ],
        "type": "Point"
      },
      "properties": {
        "bangumi_id": 74628,
        "bangumi_title": "伪恋",
        "ep_cut": "",
        "image_url": "https://w.junreimap.com/images/user/0/bangumi/74628/points/tkxcxacyq-1741595329702.jpg",
        "location": "",
        "point_id": "tkxcxacyq",
        "point_name": "上学校的路",
        "remark": ""
      },
      "type": "Feature"
    },
    {
      "geometry": {
        "coordinates": [
          139.710483,
          35.66618
        ],
        "type": "Point"
      },
      "properties": {
        "bangumi_id": 74628,
        "bangumi_title": "伪恋",
        "ep_cut": "",
        "image_url": "https://w.junreimap.com/images/user/0/bangumi/74628/points/tkxe4rzmx-1741595416778.jpg",
        "location": "",
        "point_id": "tkxe4rzmx",
        "point_name": "表参道人行天桥",
        "remark": "就在这条路上"
      },
      "type": "Feature"
    },
    {
      "geometry": {
        "coordinates": [
          139.701747,
          35.669141
        ],
        "type": "Point"
      },
      "properties": {
        "bangumi_id": 74628,
        "bangumi_title": "伪恋",
        "ep_cut": "",
        "image_url": "https://w.junreimap.com/images/user/0/bangumi/74628/points/tkxfj1s0w-1741595493501.jpg",
        "location": "",
        "point_id": "tkxfj1s0w",
        "point_name": "代代木公园",
        "remark": "代代木公园第一季刚开始约会位置。附近的涩谷也有取景"
      },
      "type": "Feature"
    },
    {
      "geometry": {
        "coordinates": [
          140.043285,
          35.644751
        ],
        "type": "Point"
      },
      "properties": {
        "bangumi_id": 74628,
        "bangumi_title": "伪恋",
        "ep_cut": 13,
        "image_url": "https://w.junreimap.com/images/user/0/bangumi/74628/points/1cm2wa7-1749950409364.jpg",
        "location": "",
        "point_id": "1cm2wa7",
        "point_name": "千葉県立幕張海浜公園Bブロック",
        "remark": ""
      },
      "type": "Feature"
    },
    {
      "geometry": {
        "coordinates": [
          133.003645,
          33.477074
        ],
        "type": "Point"
      },
      "properties": {
        "bangumi_id": 74628,
        "bangumi_title": "伪恋",
        "ep_cut": "漫画最后一章",
        "image_url": "https://w.junreimap.com/images/user/0/bangumi/74628/points/1cmoe5k-1749951337985.jpg",
        "location": "",
        "point_id": "1cmoe5k",
        "point_name": "高知県高岡郡津野町芳生野乙 天狗高原",
        "remark": ""
      },
      "type": "Feature"
    },
    {
      "geometry": {
        "coordinates": [
          139.701102,
          35.669211
        ],
        "type": "Point"
      },
      "properties": {
        "bangumi_id": 74628,
        "bangumi_title": "伪恋",
        "ep_cut": "第一季第2集",
        "image_url": "https://w.junreimap.com/images/user/0/bangumi/74628/points/dsnwzgw-1777041846935.jpg",
        "location": "",
        "point_id": "dsnwzgw",
        "point_name": "植物になった白線",
        "remark": "这两个灯柱的距离比较远，但形态是和动漫中近乎一致的，并且在两个灯柱之间还有一棵和动漫非常接近的树"
      },
      "type": "Feature"
    },
    {
      "geometry": {
        "coordinates": [
          139.701458,
          35.669166
        ],
        "type": "Point"
      },
      "properties": {
        "bangumi_id": 74628,
        "bangumi_title": "伪恋",
        "ep_cut": "第一季第2集",
        "image_url": "https://w.junreimap.com/images/user/0/bangumi/74628/points/dso5jr9-1777042203442.jpg",
        "location": "",
        "point_id": "dso5jr9",
        "point_name": "代代木公园天桥下",
        "remark": "这个场景现实中与动漫及其相似，原先这里应该有一个禁止停车的标志牌，现已摘除，但大部分还是能对得上的"
      },
      "type": "Feature"
    },
    {
      "geometry": {
        "coordinates": [
          139.701549,
          35.669116
        ],
        "type": "Point"
      },
      "properties": {
        "bangumi_id": 74628,
        "bangumi_title": "伪恋",
        "ep_cut": "",
        "image_url": "https://w.junreimap.com/images/user/0/bangumi/74628/points/dsoalli-1777042493852.jpg",
        "location": "",
        "point_id": "dsoalli",
        "point_name": "代代木公园天桥下",
        "remark": "这个地点是在天桥下，是一条乐给千棘松饼的位置，没有完全一致的动漫中的松树，有差不多的银杏树，我认为天桥旁边的第一棵树和第二棵树是动漫中的参考位置，底下有和动漫一致的铁柱子"
      },
      "type": "Feature"
    }
  ],
  "type": "FeatureCollection"
}