{
  "features": [
    {
      "geometry": {
        "coordinates": [
          130.996642,
          30.549776
        ],
        "type": "Point"
      },
      "properties": {
        "bangumi_id": 78544,
        "bangumi_title": "星辰恋曲的白色永恒",
        "ep_cut": "",
        "image_url": "https://w.junreimap.com/images/points/78544/lvxbb3d2u_1719888353936.jpg",
        "location": "",
        "point_id": "lvxbb3d2u",
        "point_name": "国道75",
        "remark": ""
      },
      "type": "Feature"
    },
    {
      "geometry": {
        "coordinates": [
          130.964576,
          30.392006
        ],
        "type": "Point"
      },
      "properties": {
        "bangumi_id": 78544,
        "bangumi_title": "星辰恋曲的白色永恒",
        "ep_cut": "",
        "image_url": "https://w.junreimap.com/images/points/78544/lvxc2xt8d_1719888400866.jpg",
        "location": "",
        "point_id": "lvxc2xt8d",
        "point_name": "大型ロケット発射場 町大崎海岸眺望",
        "remark": ""
      },
      "type": "Feature"
    },
    {
      "geometry": {
        "coordinates": [
          130.973135,
          30.402394
        ],
        "type": "Point"
      },
      "properties": {
        "bangumi_id": 78544,
        "bangumi_title": "星辰恋曲的白色永恒",
        "ep_cut": "",
        "image_url": "https://w.junreimap.com/images/points/78544/lvxdxej8w_1719888514181.jpg",
        "location": "",
        "point_id": "lvxdxej8w",
        "point_name": "ロケット組立棟",
        "remark": ""
      },
      "type": "Feature"
    },
    {
      "geometry": {
        "coordinates": [
          141.350798,
          43.068587
        ],
        "type": "Point"
      },
      "properties": {
        "bangumi_id": 78544,
        "bangumi_title": "星辰恋曲的白色永恒",
        "ep_cut": "",
        "image_url": "https://w.junreimap.com/images/points/78544/lvxkmj3wi_1719888921040.jpg",
        "location": "",
        "point_id": "lvxkmj3wi",
        "point_name": "札幌駅",
        "remark": ""
      },
      "type": "Feature"
    },
    {
      "geometry": {
        "coordinates": [
          141.353593,
          43.062632
        ],
        "type": "Point"
      },
      "properties": {
        "bangumi_id": 78544,
        "bangumi_title": "星辰恋曲的白色永恒",
        "ep_cut": "",
        "image_url": "https://w.junreimap.com/images/points/78544/lvxmtm3ye_1719889076597.jpg",
        "location": "",
        "point_id": "lvxmtm3ye",
        "point_name": "札幌市時計台",
        "remark": ""
      },
      "type": "Feature"
    },
    {
      "geometry": {
        "coordinates": [
          141.350906,
          43.038736
        ],
        "type": "Point"
      },
      "properties": {
        "bangumi_id": 78544,
        "bangumi_title": "星辰恋曲的白色永恒",
        "ep_cut": "",
        "image_url": "https://w.junreimap.com/images/points/78544/lvxpg6nss_1719890191762.jpg",
        "location": "",
        "point_id": "lvxpg6nss",
        "point_name": "ライオンズ​マンション​静修学園​前",
        "remark": ""
      },
      "type": "Feature"
    },
    {
      "geometry": {
        "coordinates": [
          141.325365,
          43.034936
        ],
        "type": "Point"
      },
      "properties": {
        "bangumi_id": 78544,
        "bangumi_title": "星辰恋曲的白色永恒",
        "ep_cut": "",
        "image_url": "https://w.junreimap.com/images/points/78544/lvxtq9vzm_1719889469801.jpg",
        "location": "",
        "point_id": "lvxtq9vzm",
        "point_name": "伏見稲荷神社",
        "remark": ""
      },
      "type": "Feature"
    },
    {
      "geometry": {
        "coordinates": [
          141.3259,
          43.036316
        ],
        "type": "Point"
      },
      "properties": {
        "bangumi_id": 78544,
        "bangumi_title": "星辰恋曲的白色永恒",
        "ep_cut": "",
        "image_url": "https://w.junreimap.com/images/points/78544/lvxw9e7vy_1719889625787.jpg",
        "location": "",
        "point_id": "lvxw9e7vy",
        "point_name": "社会​福祉​法人​札幌​福祉​事業​会​伏見​寮",
        "remark": ""
      },
      "type": "Feature"
    },
    {
      "geometry": {
        "coordinates": [
          141.336449,
          43.034841
        ],
        "type": "Point"
      },
      "properties": {
        "bangumi_id": 78544,
        "bangumi_title": "星辰恋曲的白色永恒",
        "ep_cut": "",
        "image_url": "https://w.junreimap.com/images/points/78544/lvy35q63k_1719890242246.jpg",
        "location": "",
        "point_id": "lvy35q63k",
        "point_name": "市立伏見小学校",
        "remark": ""
      },
      "type": "Feature"
    },
    {
      "geometry": {
        "coordinates": [
          141.354187,
          43.060701
        ],
        "type": "Point"
      },
      "properties": {
        "bangumi_id": 78544,
        "bangumi_title": "星辰恋曲的白色永恒",
        "ep_cut": "",
        "image_url": "https://w.junreimap.com/images/points/78544/lvy79jsay_1719890288542.jpg",
        "location": "",
        "point_id": "lvy79jsay",
        "point_name": "大通公園",
        "remark": ""
      },
      "type": "Feature"
    },
    {
      "geometry": {
        "coordinates": [
          139.678674,
          35.667173
        ],
        "type": "Point"
      },
      "properties": {
        "bangumi_id": 78544,
        "bangumi_title": "星辰恋曲的白色永恒",
        "ep_cut": "",
        "image_url": "https://w.junreimap.com/images/points/78544/lvycjw626_1719890636726.jpg",
        "location": "",
        "point_id": "lvycjw626",
        "point_name": "上原公園 左右反転です",
        "remark": ""
      },
      "type": "Feature"
    },
    {
      "geometry": {
        "coordinates": [
          139.679994,
          35.668009
        ],
        "type": "Point"
      },
      "properties": {
        "bangumi_id": 78544,
        "bangumi_title": "星辰恋曲的白色永恒",
        "ep_cut": "",
        "image_url": "https://w.junreimap.com/images/points/78544/lvye17bg8_1719890696535.jpg",
        "location": "",
        "point_id": "lvye17bg8",
        "point_name": "井ノ頭通り",
        "remark": ""
      },
      "type": "Feature"
    },
    {
      "geometry": {
        "coordinates": [
          139.68398,
          35.669513
        ],
        "type": "Point"
      },
      "properties": {
        "bangumi_id": 78544,
        "bangumi_title": "星辰恋曲的白色永恒",
        "ep_cut": "",
        "image_url": "https://w.junreimap.com/images/points/78544/lvyfx0b0o_1719890810913.jpg",
        "location": "",
        "point_id": "lvyfx0b0o",
        "point_name": "ベイタック・ケイ",
        "remark": ""
      },
      "type": "Feature"
    },
    {
      "geometry": {
        "coordinates": [
          139.70678,
          35.668153
        ],
        "type": "Point"
      },
      "properties": {
        "bangumi_id": 78544,
        "bangumi_title": "星辰恋曲的白色永恒",
        "ep_cut": "",
        "image_url": "https://w.junreimap.com/images/points/78544/lvyhoqyy0_1719890920251.jpg",
        "location": "",
        "point_id": "lvyhoqyy0",
        "point_name": "原宿ピアザビル",
        "remark": ""
      },
      "type": "Feature"
    },
    {
      "geometry": {
        "coordinates": [
          135.758632,
          34.985276
        ],
        "type": "Point"
      },
      "properties": {
        "bangumi_id": 78544,
        "bangumi_title": "星辰恋曲的白色永恒",
        "ep_cut": "",
        "image_url": "https://w.junreimap.com/images/points/78544/lvylmsmu5_1719891155363.jpg",
        "location": "",
        "point_id": "lvylmsmu5",
        "point_name": "京都駅",
        "remark": ""
      },
      "type": "Feature"
    },
    {
      "geometry": {
        "coordinates": [
          139.788324,
          35.676243
        ],
        "type": "Point"
      },
      "properties": {
        "bangumi_id": 78544,
        "bangumi_title": "星辰恋曲的白色永恒",
        "ep_cut": "",
        "image_url": "https://w.junreimap.com/images/points/78544/lvyjbh2uy_1719891024705.jpg",
        "location": "",
        "point_id": "lvyjbh2uy",
        "point_name": "永代橋 东口西眺",
        "remark": ""
      },
      "type": "Feature"
    }
  ],
  "type": "FeatureCollection"
}