{
  "features": [
    {
      "geometry": {
        "coordinates": [
          141.003011,
          43.197963
        ],
        "type": "Point"
      },
      "properties": {
        "bangumi_id": 82322,
        "bangumi_title": "花物语",
        "ep_cut": 1,
        "image_url": "https://w.junreimap.com/images/user/0/bangumi/82322/points/9ghrqzj-1767598817910.jpg",
        "location": "",
        "point_id": "9ghrqzj",
        "point_name": "小樽運河",
        "remark": ""
      },
      "type": "Feature"
    },
    {
      "geometry": {
        "coordinates": [
          141.007657,
          43.190809
        ],
        "type": "Point"
      },
      "properties": {
        "bangumi_id": 82322,
        "bangumi_title": "花物语",
        "ep_cut": 1,
        "image_url": "https://w.junreimap.com/images/user/0/bangumi/82322/points/9gi3nxk-1767599363102.jpg",
        "location": "",
        "point_id": "9gi3nxk",
        "point_name": "小樽オルゴール堂",
        "remark": ""
      },
      "type": "Feature"
    },
    {
      "geometry": {
        "coordinates": [
          140.347096,
          43.33346
        ],
        "type": "Point"
      },
      "properties": {
        "bangumi_id": 82322,
        "bangumi_title": "花物语",
        "ep_cut": 1,
        "image_url": "https://w.junreimap.com/images/user/0/bangumi/82322/points/9gicv5y-1767599823180.jpg",
        "location": "",
        "point_id": "9gicv5y",
        "point_name": "神威岬灯台",
        "remark": ""
      },
      "type": "Feature"
    },
    {
      "geometry": {
        "coordinates": [
          139.738526,
          35.62861
        ],
        "type": "Point"
      },
      "properties": {
        "bangumi_id": 82322,
        "bangumi_title": "花物语",
        "ep_cut": 2,
        "image_url": "https://w.junreimap.com/images/user/0/bangumi/82322/points/9givfz1-1767600792605.jpg",
        "location": "",
        "point_id": "9givfz1",
        "point_name": "品川駅駅内",
        "remark": ""
      },
      "type": "Feature"
    },
    {
      "geometry": {
        "coordinates": [
          139.73861,
          35.628611
        ],
        "type": "Point"
      },
      "properties": {
        "bangumi_id": 82322,
        "bangumi_title": "花物语",
        "ep_cut": 2,
        "image_url": "https://w.junreimap.com/images/user/0/bangumi/82322/points/9gji54e-1767601802107.jpg",
        "location": "",
        "point_id": "9gji54e",
        "point_name": "品川駅駅内",
        "remark": "神原骏河准备去找沼地同学"
      },
      "type": "Feature"
    },
    {
      "geometry": {
        "coordinates": [
          139.73862,
          35.62861
        ],
        "type": "Point"
      },
      "properties": {
        "bangumi_id": 82322,
        "bangumi_title": "花物语",
        "ep_cut": 2,
        "image_url": "https://w.junreimap.com/images/points/82322/a23ohpw_1768907496076.jpg",
        "location": "",
        "point_id": "a23ohpw",
        "point_name": "品川駅駅内",
        "remark": ""
      },
      "type": "Feature"
    },
    {
      "geometry": {
        "coordinates": [
          139.738619,
          35.628612
        ],
        "type": "Point"
      },
      "properties": {
        "bangumi_id": 82322,
        "bangumi_title": "花物语",
        "ep_cut": 2,
        "image_url": "https://w.junreimap.com/images/points/82322/a250if5_1768907542274.jpg",
        "location": "",
        "point_id": "a250if5",
        "point_name": "品川駅駅内",
        "remark": ""
      },
      "type": "Feature"
    },
    {
      "geometry": {
        "coordinates": [
          139.738617,
          35.628608
        ],
        "type": "Point"
      },
      "properties": {
        "bangumi_id": 82322,
        "bangumi_title": "花物语",
        "ep_cut": 2,
        "image_url": "https://w.junreimap.com/images/points/82322/a250w0a_1768907564393.jpg",
        "location": "",
        "point_id": "a250w0a",
        "point_name": "品川駅駅内",
        "remark": ""
      },
      "type": "Feature"
    },
    {
      "geometry": {
        "coordinates": [
          139.738227,
          35.628596
        ],
        "type": "Point"
      },
      "properties": {
        "bangumi_id": 82322,
        "bangumi_title": "花物语",
        "ep_cut": 2,
        "image_url": "https://w.junreimap.com/images/points/82322/a251iiy_1768907585451.jpg",
        "location": "",
        "point_id": "a251iiy",
        "point_name": "品川駅駅内",
        "remark": ""
      },
      "type": "Feature"
    },
    {
      "geometry": {
        "coordinates": [
          139.739483,
          35.629046
        ],
        "type": "Point"
      },
      "properties": {
        "bangumi_id": 82322,
        "bangumi_title": "花物语",
        "ep_cut": 2,
        "image_url": "https://w.junreimap.com/images/points/82322/a251s1v_1768907613271.jpg",
        "location": "",
        "point_id": "a251s1v",
        "point_name": "品川駅駅内",
        "remark": ""
      },
      "type": "Feature"
    },
    {
      "geometry": {
        "coordinates": [
          139.738611,
          35.62861
        ],
        "type": "Point"
      },
      "properties": {
        "bangumi_id": 82322,
        "bangumi_title": "花物语",
        "ep_cut": 2,
        "image_url": "https://w.junreimap.com/images/points/82322/9gljudj_1768909405118.jpg",
        "location": "",
        "point_id": "9gljudj",
        "point_name": "品川駅駅内",
        "remark": "神原骏河初见贝木"
      },
      "type": "Feature"
    },
    {
      "geometry": {
        "coordinates": [
          139.739518,
          35.629008
        ],
        "type": "Point"
      },
      "properties": {
        "bangumi_id": 82322,
        "bangumi_title": "花物语",
        "ep_cut": 2,
        "image_url": "https://w.junreimap.com/images/user/0/bangumi/82322/points/9gltzk8-1767605723682.jpg",
        "location": "",
        "point_id": "9gltzk8",
        "point_name": "品川駅港南口への連絡路",
        "remark": ""
      },
      "type": "Feature"
    },
    {
      "geometry": {
        "coordinates": [
          139.739607,
          35.629011
        ],
        "type": "Point"
      },
      "properties": {
        "bangumi_id": 82322,
        "bangumi_title": "花物语",
        "ep_cut": 2,
        "image_url": "https://w.junreimap.com/images/points/82322/a252jx1_1768907630544.jpg",
        "location": "",
        "point_id": "a252jx1",
        "point_name": "品川駅港南口への連絡路",
        "remark": ""
      },
      "type": "Feature"
    },
    {
      "geometry": {
        "coordinates": [
          139.739858,
          35.629044
        ],
        "type": "Point"
      },
      "properties": {
        "bangumi_id": 82322,
        "bangumi_title": "花物语",
        "ep_cut": 2,
        "image_url": "https://w.junreimap.com/images/points/82322/a252rga_1768907638127.jpg",
        "location": "",
        "point_id": "a252rga",
        "point_name": "品川駅港南口への連絡路",
        "remark": ""
      },
      "type": "Feature"
    },
    {
      "geometry": {
        "coordinates": [
          139.740971,
          35.62897
        ],
        "type": "Point"
      },
      "properties": {
        "bangumi_id": 82322,
        "bangumi_title": "花物语",
        "ep_cut": 2,
        "image_url": "https://w.junreimap.com/images/points/82322/a256yk7_1768908160372.jpg",
        "location": "",
        "point_id": "a256yk7",
        "point_name": "品川駅港南口への連絡路",
        "remark": ""
      },
      "type": "Feature"
    },
    {
      "geometry": {
        "coordinates": [
          139.7415,
          35.628966
        ],
        "type": "Point"
      },
      "properties": {
        "bangumi_id": 82322,
        "bangumi_title": "花物语",
        "ep_cut": 2,
        "image_url": "https://w.junreimap.com/images/points/82322/a25e65p_1768908171312.jpg",
        "location": "",
        "point_id": "a25e65p",
        "point_name": "品川駅港南口への連絡路",
        "remark": ""
      },
      "type": "Feature"
    },
    {
      "geometry": {
        "coordinates": [
          139.741434,
          35.628973
        ],
        "type": "Point"
      },
      "properties": {
        "bangumi_id": 82322,
        "bangumi_title": "花物语",
        "ep_cut": 2,
        "image_url": "https://w.junreimap.com/images/points/82322/a25eg0i_1768908191832.jpg",
        "location": "",
        "point_id": "a25eg0i",
        "point_name": "品川駅港南口への連絡路",
        "remark": ""
      },
      "type": "Feature"
    },
    {
      "geometry": {
        "coordinates": [
          139.741449,
          35.628975
        ],
        "type": "Point"
      },
      "properties": {
        "bangumi_id": 82322,
        "bangumi_title": "花物语",
        "ep_cut": 2,
        "image_url": "https://w.junreimap.com/images/points/82322/a25erzc_1768908199137.jpg",
        "location": "",
        "point_id": "a25erzc",
        "point_name": "品川駅港南口への連絡路",
        "remark": ""
      },
      "type": "Feature"
    },
    {
      "geometry": {
        "coordinates": [
          139.741465,
          35.628979
        ],
        "type": "Point"
      },
      "properties": {
        "bangumi_id": 82322,
        "bangumi_title": "花物语",
        "ep_cut": 2,
        "image_url": "https://w.junreimap.com/images/points/82322/a25ex3i_1768908202609.jpg",
        "location": "",
        "point_id": "a25ex3i",
        "point_name": "品川駅港南口への連絡路",
        "remark": ""
      },
      "type": "Feature"
    },
    {
      "geometry": {
        "coordinates": [
          139.741453,
          35.628989
        ],
        "type": "Point"
      },
      "properties": {
        "bangumi_id": 82322,
        "bangumi_title": "花物语",
        "ep_cut": 2,
        "image_url": "https://w.junreimap.com/images/points/82322/a25ezzw_1768908207350.jpg",
        "location": "",
        "point_id": "a25ezzw",
        "point_name": "品川駅港南口への連絡路",
        "remark": ""
      },
      "type": "Feature"
    },
    {
      "geometry": {
        "coordinates": [
          139.741549,
          35.629024
        ],
        "type": "Point"
      },
      "properties": {
        "bangumi_id": 82322,
        "bangumi_title": "花物语",
        "ep_cut": 2,
        "image_url": "https://w.junreimap.com/images/points/82322/a25f3gp_1768908216533.jpg",
        "location": "",
        "point_id": "a25f3gp",
        "point_name": "品川駅港南口への連絡路",
        "remark": ""
      },
      "type": "Feature"
    },
    {
      "geometry": {
        "coordinates": [
          139.741468,
          35.628992
        ],
        "type": "Point"
      },
      "properties": {
        "bangumi_id": 82322,
        "bangumi_title": "花物语",
        "ep_cut": 2,
        "image_url": "https://w.junreimap.com/images/points/82322/a25fdjf_1768908226832.jpg",
        "location": "",
        "point_id": "a25fdjf",
        "point_name": "品川駅港南口への連絡路",
        "remark": ""
      },
      "type": "Feature"
    },
    {
      "geometry": {
        "coordinates": [
          139.741468,
          35.62897
        ],
        "type": "Point"
      },
      "properties": {
        "bangumi_id": 82322,
        "bangumi_title": "花物语",
        "ep_cut": 2,
        "image_url": "https://w.junreimap.com/images/points/82322/a25fij6_1768908230772.jpg",
        "location": "",
        "point_id": "a25fij6",
        "point_name": "品川駅港南口への連絡路",
        "remark": ""
      },
      "type": "Feature"
    },
    {
      "geometry": {
        "coordinates": [
          139.741453,
          35.628961
        ],
        "type": "Point"
      },
      "properties": {
        "bangumi_id": 82322,
        "bangumi_title": "花物语",
        "ep_cut": 2,
        "image_url": "https://w.junreimap.com/images/points/82322/a25fn4e_1768908237411.jpg",
        "location": "",
        "point_id": "a25fn4e",
        "point_name": "品川駅港南口への連絡路",
        "remark": ""
      },
      "type": "Feature"
    },
    {
      "geometry": {
        "coordinates": [
          139.741435,
          35.628951
        ],
        "type": "Point"
      },
      "properties": {
        "bangumi_id": 82322,
        "bangumi_title": "花物语",
        "ep_cut": 2,
        "image_url": "https://w.junreimap.com/images/points/82322/a25fqx9_1768908242840.jpg",
        "location": "",
        "point_id": "a25fqx9",
        "point_name": "品川駅港南口への連絡路",
        "remark": ""
      },
      "type": "Feature"
    },
    {
      "geometry": {
        "coordinates": [
          139.741531,
          35.628939
        ],
        "type": "Point"
      },
      "properties": {
        "bangumi_id": 82322,
        "bangumi_title": "花物语",
        "ep_cut": 2,
        "image_url": "https://w.junreimap.com/images/points/82322/a25fuvs_1768908247007.jpg",
        "location": "",
        "point_id": "a25fuvs",
        "point_name": "品川駅港南口への連絡路",
        "remark": ""
      },
      "type": "Feature"
    },
    {
      "geometry": {
        "coordinates": [
          139.741463,
          35.629118
        ],
        "type": "Point"
      },
      "properties": {
        "bangumi_id": 82322,
        "bangumi_title": "花物语",
        "ep_cut": 2,
        "image_url": "https://w.junreimap.com/images/points/82322/a25g6tl_1768908262485.jpg",
        "location": "",
        "point_id": "a25g6tl",
        "point_name": "品川駅港南口への連絡路",
        "remark": ""
      },
      "type": "Feature"
    },
    {
      "geometry": {
        "coordinates": [
          139.741586,
          35.62899
        ],
        "type": "Point"
      },
      "properties": {
        "bangumi_id": 82322,
        "bangumi_title": "花物语",
        "ep_cut": 2,
        "image_url": "https://w.junreimap.com/images/points/82322/a25gbhw_1768908269247.jpg",
        "location": "",
        "point_id": "a25gbhw",
        "point_name": "品川駅港南口への連絡路",
        "remark": ""
      },
      "type": "Feature"
    },
    {
      "geometry": {
        "coordinates": [
          139.73863,
          35.6285
        ],
        "type": "Point"
      },
      "properties": {
        "bangumi_id": 82322,
        "bangumi_title": "花物语",
        "ep_cut": 2,
        "image_url": "https://w.junreimap.com/images/points/82322/a25ginn_1768908283517.jpg",
        "location": "",
        "point_id": "a25ginn",
        "point_name": "品川駅港南口への連絡路",
        "remark": ""
      },
      "type": "Feature"
    },
    {
      "geometry": {
        "coordinates": [
          139.740917,
          35.62878
        ],
        "type": "Point"
      },
      "properties": {
        "bangumi_id": 82322,
        "bangumi_title": "花物语",
        "ep_cut": 2,
        "image_url": "https://w.junreimap.com/images/points/82322/a25hd5e_1768908318132.jpg",
        "location": "",
        "point_id": "a25hd5e",
        "point_name": "品川駅港南口への連絡路",
        "remark": "没什么特色 不太确定具体是哪个楼梯"
      },
      "type": "Feature"
    },
    {
      "geometry": {
        "coordinates": [
          139.741476,
          35.628918
        ],
        "type": "Point"
      },
      "properties": {
        "bangumi_id": 82322,
        "bangumi_title": "花物语",
        "ep_cut": 2,
        "image_url": "https://w.junreimap.com/images/points/82322/a25i9u2_1768908360740.jpg",
        "location": "",
        "point_id": "a25i9u2",
        "point_name": "品川駅港南口への連絡路",
        "remark": ""
      },
      "type": "Feature"
    },
    {
      "geometry": {
        "coordinates": [
          139.74144,
          35.62891
        ],
        "type": "Point"
      },
      "properties": {
        "bangumi_id": 82322,
        "bangumi_title": "花物语",
        "ep_cut": 2,
        "image_url": "https://w.junreimap.com/images/points/82322/a25ikuq_1768908376932.jpg",
        "location": "",
        "point_id": "a25ikuq",
        "point_name": "品川駅港南口への連絡路",
        "remark": "下面三个都不太确定是拍的什么反光"
      },
      "type": "Feature"
    },
    {
      "geometry": {
        "coordinates": [
          139.741434,
          35.628908
        ],
        "type": "Point"
      },
      "properties": {
        "bangumi_id": 82322,
        "bangumi_title": "花物语",
        "ep_cut": 2,
        "image_url": "https://w.junreimap.com/images/points/82322/a25j0jx_1768908395941.jpg",
        "location": "",
        "point_id": "a25j0jx",
        "point_name": "品川駅港南口への連絡路",
        "remark": ""
      },
      "type": "Feature"
    },
    {
      "geometry": {
        "coordinates": [
          139.741439,
          35.628904
        ],
        "type": "Point"
      },
      "properties": {
        "bangumi_id": 82322,
        "bangumi_title": "花物语",
        "ep_cut": 2,
        "image_url": "https://w.junreimap.com/images/points/82322/a25j5gu_1768908400133.jpg",
        "location": "",
        "point_id": "a25j5gu",
        "point_name": "品川駅港南口への連絡路",
        "remark": ""
      },
      "type": "Feature"
    },
    {
      "geometry": {
        "coordinates": [
          139.741577,
          35.628965
        ],
        "type": "Point"
      },
      "properties": {
        "bangumi_id": 82322,
        "bangumi_title": "花物语",
        "ep_cut": 2,
        "image_url": "https://w.junreimap.com/images/points/82322/a25j82d_1768908403234.jpg",
        "location": "",
        "point_id": "a25j82d",
        "point_name": "品川駅港南口への連絡路",
        "remark": ""
      },
      "type": "Feature"
    },
    {
      "geometry": {
        "coordinates": [
          139.738056,
          35.62861
        ],
        "type": "Point"
      },
      "properties": {
        "bangumi_id": 82322,
        "bangumi_title": "花物语",
        "ep_cut": 2,
        "image_url": "https://w.junreimap.com/images/user/0/bangumi/82322/points/9gm6984-1767606107820.jpg",
        "location": "",
        "point_id": "9gm6984",
        "point_name": "品川駅楼下",
        "remark": ""
      },
      "type": "Feature"
    },
    {
      "geometry": {
        "coordinates": [
          139.741389,
          35.628889
        ],
        "type": "Point"
      },
      "properties": {
        "bangumi_id": 82322,
        "bangumi_title": "花物语",
        "ep_cut": 2,
        "image_url": "https://w.junreimap.com/images/user/0/bangumi/82322/points/9gmr9ek-1767607085298.jpg",
        "location": "",
        "point_id": "9gmr9ek",
        "point_name": ".品川駅港南ふれあい広場",
        "remark": ""
      },
      "type": "Feature"
    }
  ],
  "type": "FeatureCollection"
}