{
  "features": [
    {
      "geometry": {
        "coordinates": [
          139.768297,
          35.707881
        ],
        "type": "Point"
      },
      "properties": {
        "bangumi_id": 82572,
        "bangumi_title": "野良神",
        "ep_cut": "1",
        "image_url": "https://w.junreimap.com/images/user/0/bangumi/82572/points/qrs8r64y4-1733669800044.jpg",
        "location": "",
        "point_id": "qrs8r64y4",
        "point_name": "湯島天満宮",
        "remark": ""
      },
      "type": "Feature"
    }
  ],
  "type": "FeatureCollection"
}