{
  "features": [
    {
      "geometry": {
        "coordinates": [
          139.003784,
          36.497334
        ],
        "type": "Point"
      },
      "properties": {
        "bangumi_id": 8290,
        "bangumi_title": "头文字D",
        "ep_cut": "",
        "image_url": "https://w.junreimap.com/images/points/8290/a8ewdxbk_1730912948194.jpg",
        "location": "涩川",
        "point_id": "a8ewdxbk",
        "point_name": "藤原豆腐店",
        "remark": "群馬県渋川市渋川寄居町2167（原址已拆除）"
      },
      "type": "Feature"
    },
    {
      "geometry": {
        "coordinates": [
          138.896364,
          36.482455
        ],
        "type": "Point"
      },
      "properties": {
        "bangumi_id": 8290,
        "bangumi_title": "头文字D",
        "ep_cut": 1,
        "image_url": "https://w.junreimap.com/images/points/8290/a8ewdyag_1732557545294.jpg",
        "location": "秋名山",
        "point_id": "a8ewdyag",
        "point_name": "出発地: 榛名_秋名スタート地点",
        "remark": ""
      },
      "type": "Feature"
    },
    {
      "geometry": {
        "coordinates": [
          138.915535,
          36.49887
        ],
        "type": "Point"
      },
      "properties": {
        "bangumi_id": 8290,
        "bangumi_title": "头文字D",
        "ep_cut": "",
        "image_url": "https://w.junreimap.com/images/points/8290/a8ewdycx_1732557557340.jpg",
        "location": "秋名山",
        "point_id": "a8ewdycx",
        "point_name": "目的地:榛名 _秋名ゴール地点",
        "remark": ""
      },
      "type": "Feature"
    },
    {
      "geometry": {
        "coordinates": [
          138.650997,
          36.344783
        ],
        "type": "Point"
      },
      "properties": {
        "bangumi_id": 8290,
        "bangumi_title": "头文字D",
        "ep_cut": "",
        "image_url": "https://w.junreimap.com/images/points/8290/a8ewdy0p_1732557450813.jpg",
        "location": "碓氷峠",
        "point_id": "a8ewdy0p",
        "point_name": "出発地:碓氷スタート_中山道/国道18号線",
        "remark": ""
      },
      "type": "Feature"
    },
    {
      "geometry": {
        "coordinates": [
          138.671435,
          36.352696
        ],
        "type": "Point"
      },
      "properties": {
        "bangumi_id": 8290,
        "bangumi_title": "头文字D",
        "ep_cut": "",
        "image_url": "https://w.junreimap.com/images/points/8290/a8ewdxy2_1732557457837.jpg",
        "location": "碓氷峠",
        "point_id": "a8ewdxy2",
        "point_name": "碓氷峠_C=121",
        "remark": "+36° 21' 9.71\", +138° 40' 17.17\""
      },
      "type": "Feature"
    },
    {
      "geometry": {
        "coordinates": [
          138.715515,
          36.351643
        ],
        "type": "Point"
      },
      "properties": {
        "bangumi_id": 8290,
        "bangumi_title": "头文字D",
        "ep_cut": "",
        "image_url": "",
        "location": "碓氷峠",
        "point_id": "a8ewdy9z",
        "point_name": "目的地: 碓氷ゴール_中山道/国道18号線",
        "remark": ""
      },
      "type": "Feature"
    },
    {
      "geometry": {
        "coordinates": [
          138.738801,
          36.282482
        ],
        "type": "Point"
      },
      "properties": {
        "bangumi_id": 8290,
        "bangumi_title": "头文字D",
        "ep_cut": 22,
        "image_url": "https://w.junreimap.com/images/points/8290/a8ewdyam_1732557699797.jpg",
        "location": "妙義山",
        "point_id": "a8ewdyam",
        "point_name": "出発地: 妙義スタート",
        "remark": ""
      },
      "type": "Feature"
    },
    {
      "geometry": {
        "coordinates": [
          138.756244,
          36.286536
        ],
        "type": "Point"
      },
      "properties": {
        "bangumi_id": 8290,
        "bangumi_title": "头文字D",
        "ep_cut": "",
        "image_url": "https://w.junreimap.com/images/points/8290/a8ewdy6d_1732557718085.jpg",
        "location": "妙義山",
        "point_id": "a8ewdy6d",
        "point_name": "目的地:妙義ゴール",
        "remark": ""
      },
      "type": "Feature"
    },
    {
      "geometry": {
        "coordinates": [
          139.168456,
          36.543675
        ],
        "type": "Point"
      },
      "properties": {
        "bangumi_id": 8290,
        "bangumi_title": "头文字D",
        "ep_cut": "",
        "image_url": "https://w.junreimap.com/images/points/8290/a8ewdxpf_1734546887911.jpg",
        "location": "赤城山",
        "point_id": "a8ewdxpf",
        "point_name": "出発地: 赤城スタート_群馬県前橋市富士見町赤城山１－１４ (赤城山総合観光案内所)",
        "remark": ""
      },
      "type": "Feature"
    },
    {
      "geometry": {
        "coordinates": [
          139.163947,
          36.532812
        ],
        "type": "Point"
      },
      "properties": {
        "bangumi_id": 8290,
        "bangumi_title": "头文字D",
        "ep_cut": "",
        "image_url": "https://w.junreimap.com/images/points/8290/a8ewdx8k_1734547102503.jpg",
        "location": "赤城山",
        "point_id": "a8ewdx8k",
        "point_name": "赤城エンジンブロー地点",
        "remark": "AE86爆缸"
      },
      "type": "Feature"
    },
    {
      "geometry": {
        "coordinates": [
          139.151849,
          36.52712
        ],
        "type": "Point"
      },
      "properties": {
        "bangumi_id": 8290,
        "bangumi_title": "头文字D",
        "ep_cut": "",
        "image_url": "https://w.junreimap.com/images/points/8290/a8ewdxu2_1734546900758.jpg",
        "location": "赤城山",
        "point_id": "a8ewdxu2",
        "point_name": "目的地: 赤城ゴール_上毛三山パノラマ街道/県道4号線",
        "remark": ""
      },
      "type": "Feature"
    },
    {
      "geometry": {
        "coordinates": [
          139.154602,
          35.93531
        ],
        "type": "Point"
      },
      "properties": {
        "bangumi_id": 8290,
        "bangumi_title": "头文字D",
        "ep_cut": "",
        "image_url": "",
        "location": "",
        "point_id": "a8ewdy7w",
        "point_name": "出発地: 正丸峠_スタート",
        "remark": ""
      },
      "type": "Feature"
    },
    {
      "geometry": {
        "coordinates": [
          139.177974,
          35.950749
        ],
        "type": "Point"
      },
      "properties": {
        "bangumi_id": 8290,
        "bangumi_title": "头文字D",
        "ep_cut": "",
        "image_url": "",
        "location": "",
        "point_id": "a8ewdxun",
        "point_name": "目的地: 正丸峠_折返し",
        "remark": ""
      },
      "type": "Feature"
    },
    {
      "geometry": {
        "coordinates": [
          139.503493,
          36.7402
        ],
        "type": "Point"
      },
      "properties": {
        "bangumi_id": 8290,
        "bangumi_title": "头文字D",
        "ep_cut": "",
        "image_url": "https://w.junreimap.com/images/points/8290/a8ewdy1m_1734547374417.jpg",
        "location": "いろは坂",
        "point_id": "a8ewdy1m",
        "point_name": "出発地:いろは坂スタート_日本ロマンチック街道/国道120号線",
        "remark": "伊吕波坂为单行道，对向无来车"
      },
      "type": "Feature"
    },
    {
      "geometry": {
        "coordinates": [
          139.522087,
          36.742549
        ],
        "type": "Point"
      },
      "properties": {
        "bangumi_id": 8290,
        "bangumi_title": "头文字D",
        "ep_cut": "",
        "image_url": "https://w.junreimap.com/images/points/8290/a8ewdys5_1734548346089.jpg",
        "location": "いろは坂",
        "point_id": "a8ewdys5",
        "point_name": "目的地:いろは坂ゴール_日本ロマンチック街道/国道120号線",
        "remark": ""
      },
      "type": "Feature"
    },
    {
      "geometry": {
        "coordinates": [
          139.740343,
          36.899803
        ],
        "type": "Point"
      },
      "properties": {
        "bangumi_id": 8290,
        "bangumi_title": "头文字D",
        "ep_cut": "",
        "image_url": "",
        "location": "",
        "point_id": "a8ewdyl9",
        "point_name": "目的地: もみじラインスタート_日塩有料道路",
        "remark": ""
      },
      "type": "Feature"
    },
    {
      "geometry": {
        "coordinates": [
          139.723614,
          36.870681
        ],
        "type": "Point"
      },
      "properties": {
        "bangumi_id": 8290,
        "bangumi_title": "头文字D",
        "ep_cut": "",
        "image_url": "",
        "location": "",
        "point_id": "a8ewdywo",
        "point_name": "出発地: もみじラインゴール_日塩有料道路",
        "remark": ""
      },
      "type": "Feature"
    },
    {
      "geometry": {
        "coordinates": [
          139.740376,
          36.899799
        ],
        "type": "Point"
      },
      "properties": {
        "bangumi_id": 8290,
        "bangumi_title": "头文字D",
        "ep_cut": "",
        "image_url": "",
        "location": "",
        "point_id": "a8ewdz3a",
        "point_name": "出発地: 日塩もみじライン_DH START_富士見台駐車場",
        "remark": ""
      },
      "type": "Feature"
    },
    {
      "geometry": {
        "coordinates": [
          139.723614,
          36.870681
        ],
        "type": "Point"
      },
      "properties": {
        "bangumi_id": 8290,
        "bangumi_title": "头文字D",
        "ep_cut": "",
        "image_url": "",
        "location": "",
        "point_id": "a8ewdyio",
        "point_name": "目的地: 日塩もみじライン_DH GOAL",
        "remark": ""
      },
      "type": "Feature"
    },
    {
      "geometry": {
        "coordinates": [
          139.803285,
          36.99259
        ],
        "type": "Point"
      },
      "properties": {
        "bangumi_id": 8290,
        "bangumi_title": "头文字D",
        "ep_cut": "",
        "image_url": "",
        "location": "",
        "point_id": "a8ewdyh9",
        "point_name": "出発地: 塩那スタート_県道266号線",
        "remark": ""
      },
      "type": "Feature"
    },
    {
      "geometry": {
        "coordinates": [
          139.813395,
          36.995687
        ],
        "type": "Point"
      },
      "properties": {
        "bangumi_id": 8290,
        "bangumi_title": "头文字D",
        "ep_cut": "",
        "image_url": "",
        "location": "",
        "point_id": "a8ewdz4p",
        "point_name": "目的地:塩那ゴール_ 県道266号線",
        "remark": ""
      },
      "type": "Feature"
    },
    {
      "geometry": {
        "coordinates": [
          139.824168,
          36.920767
        ],
        "type": "Point"
      },
      "properties": {
        "bangumi_id": 8290,
        "bangumi_title": "头文字D",
        "ep_cut": "",
        "image_url": "",
        "location": "",
        "point_id": "a8ewdz3j",
        "point_name": "目的地:八方ケ原スタート_ 県道56号線",
        "remark": ""
      },
      "type": "Feature"
    },
    {
      "geometry": {
        "coordinates": [
          139.814614,
          36.938179
        ],
        "type": "Point"
      },
      "properties": {
        "bangumi_id": 8290,
        "bangumi_title": "头文字D",
        "ep_cut": "",
        "image_url": "",
        "location": "",
        "point_id": "a8ewdyxj",
        "point_name": "出発地: 八方ケ原ゴール_県道56号線",
        "remark": ""
      },
      "type": "Feature"
    },
    {
      "geometry": {
        "coordinates": [
          139.16386,
          36.01149
        ],
        "type": "Point"
      },
      "properties": {
        "bangumi_id": 8290,
        "bangumi_title": "头文字D",
        "ep_cut": "",
        "image_url": "",
        "location": "",
        "point_id": "a8ewdywr",
        "point_name": "出発地: 定峰峠スタート_県道11号線",
        "remark": ""
      },
      "type": "Feature"
    },
    {
      "geometry": {
        "coordinates": [
          139.17365,
          36.01685
        ],
        "type": "Point"
      },
      "properties": {
        "bangumi_id": 8290,
        "bangumi_title": "头文字D",
        "ep_cut": "",
        "image_url": "",
        "location": "",
        "point_id": "a8ewdz2e",
        "point_name": "目的地: 定峰峠ゴール_県道11号線",
        "remark": ""
      },
      "type": "Feature"
    },
    {
      "geometry": {
        "coordinates": [
          139.092218,
          36.135416
        ],
        "type": "Point"
      },
      "properties": {
        "bangumi_id": 8290,
        "bangumi_title": "头文字D",
        "ep_cut": "",
        "image_url": "",
        "location": "",
        "point_id": "a8ewdzir",
        "point_name": "出発地: 間瀬峠スタート",
        "remark": ""
      },
      "type": "Feature"
    },
    {
      "geometry": {
        "coordinates": [
          139.10572,
          36.13847
        ],
        "type": "Point"
      },
      "properties": {
        "bangumi_id": 8290,
        "bangumi_title": "头文字D",
        "ep_cut": "",
        "image_url": "",
        "location": "",
        "point_id": "a8ewdzsf",
        "point_name": "目的地: 間瀬峠ゴール",
        "remark": ""
      },
      "type": "Feature"
    },
    {
      "geometry": {
        "coordinates": [
          138.943577,
          36.096187
        ],
        "type": "Point"
      },
      "properties": {
        "bangumi_id": 8290,
        "bangumi_title": "头文字D",
        "ep_cut": "",
        "image_url": "",
        "location": "",
        "point_id": "a8ewdzrr",
        "point_name": "目的地:土坂峠スタートトンネル前_県道71号線",
        "remark": ""
      },
      "type": "Feature"
    },
    {
      "geometry": {
        "coordinates": [
          138.933084,
          36.102654
        ],
        "type": "Point"
      },
      "properties": {
        "bangumi_id": 8290,
        "bangumi_title": "头文字D",
        "ep_cut": "",
        "image_url": "",
        "location": "",
        "point_id": "a8ewdzs8",
        "point_name": "工事道幅_啓介_決着",
        "remark": "+36° 6' 9.55\", +138° 55' 59.10\""
      },
      "type": "Feature"
    },
    {
      "geometry": {
        "coordinates": [
          138.927394,
          36.109033
        ],
        "type": "Point"
      },
      "properties": {
        "bangumi_id": 8290,
        "bangumi_title": "头文字D",
        "ep_cut": "",
        "image_url": "",
        "location": "",
        "point_id": "a8ewdzgi",
        "point_name": "出発地:土坂峠ゴール_県道71号線",
        "remark": ""
      },
      "type": "Feature"
    },
    {
      "geometry": {
        "coordinates": [
          140.168703,
          36.171047
        ],
        "type": "Point"
      },
      "properties": {
        "bangumi_id": 8290,
        "bangumi_title": "头文字D",
        "ep_cut": "",
        "image_url": "",
        "location": "",
        "point_id": "a8ewdzdl",
        "point_name": "出発地:筑波山スタート_フルーツライン",
        "remark": ""
      },
      "type": "Feature"
    },
    {
      "geometry": {
        "coordinates": [
          140.162515,
          36.176163
        ],
        "type": "Point"
      },
      "properties": {
        "bangumi_id": 8290,
        "bangumi_title": "头文字D",
        "ep_cut": "",
        "image_url": "",
        "location": "",
        "point_id": "a8ewdzhw",
        "point_name": "スマイリー坂井＆二宮大輝_02",
        "remark": "+36° 10' 34.19\", +140° 9' 45.05\""
      },
      "type": "Feature"
    },
    {
      "geometry": {
        "coordinates": [
          140.162888,
          36.175176
        ],
        "type": "Point"
      },
      "properties": {
        "bangumi_id": 8290,
        "bangumi_title": "头文字D",
        "ep_cut": "",
        "image_url": "",
        "location": "",
        "point_id": "a8ewdzdw",
        "point_name": "スマイリー坂井＆二宮大輝_01",
        "remark": ""
      },
      "type": "Feature"
    },
    {
      "geometry": {
        "coordinates": [
          140.166621,
          36.183611
        ],
        "type": "Point"
      },
      "properties": {
        "bangumi_id": 8290,
        "bangumi_title": "头文字D",
        "ep_cut": "",
        "image_url": "",
        "location": "",
        "point_id": "a8ewe0c3",
        "point_name": "目的地:筑波山ゴール_フルーツライン",
        "remark": ""
      },
      "type": "Feature"
    },
    {
      "geometry": {
        "coordinates": [
          139.219247,
          35.427959
        ],
        "type": "Point"
      },
      "properties": {
        "bangumi_id": 8290,
        "bangumi_title": "头文字D",
        "ep_cut": "",
        "image_url": "",
        "location": "",
        "point_id": "a8ewe08b",
        "point_name": "出発地: ヤビツ峠_スタート",
        "remark": ""
      },
      "type": "Feature"
    },
    {
      "geometry": {
        "coordinates": [
          139.223661,
          35.415215
        ],
        "type": "Point"
      },
      "properties": {
        "bangumi_id": 8290,
        "bangumi_title": "头文字D",
        "ep_cut": "",
        "image_url": "",
        "location": "",
        "point_id": "a8ewe0l0",
        "point_name": "目的地:ヤビツ峠ゴール_県道70号線",
        "remark": ""
      },
      "type": "Feature"
    },
    {
      "geometry": {
        "coordinates": [
          138.97324,
          35.258891
        ],
        "type": "Point"
      },
      "properties": {
        "bangumi_id": 8290,
        "bangumi_title": "头文字D",
        "ep_cut": "",
        "image_url": "",
        "location": "",
        "point_id": "a8ewe0ln",
        "point_name": "出発地:長尾峠スタート_県道401号線",
        "remark": ""
      },
      "type": "Feature"
    },
    {
      "geometry": {
        "coordinates": [
          138.97129,
          35.28864
        ],
        "type": "Point"
      },
      "properties": {
        "bangumi_id": 8290,
        "bangumi_title": "头文字D",
        "ep_cut": "",
        "image_url": "",
        "location": "",
        "point_id": "a8ewe0r5",
        "point_name": "目的地:長尾峠ゴール_県道401号線",
        "remark": ""
      },
      "type": "Feature"
    },
    {
      "geometry": {
        "coordinates": [
          139.039011,
          35.20555
        ],
        "type": "Point"
      },
      "properties": {
        "bangumi_id": 8290,
        "bangumi_title": "头文字D",
        "ep_cut": "",
        "image_url": "",
        "location": "",
        "point_id": "a8ewe01a",
        "point_name": "出発地:七曲りスタート_旧東海道/県道732号線",
        "remark": ""
      },
      "type": "Feature"
    },
    {
      "geometry": {
        "coordinates": [
          139.06168,
          35.21273
        ],
        "type": "Point"
      },
      "properties": {
        "bangumi_id": 8290,
        "bangumi_title": "头文字D",
        "ep_cut": "",
        "image_url": "",
        "location": "",
        "point_id": "a8ewe08x",
        "point_name": "目的地: 七曲りゴール_旧東海道/県道732号線",
        "remark": ""
      },
      "type": "Feature"
    },
    {
      "geometry": {
        "coordinates": [
          139.048508,
          35.184213
        ],
        "type": "Point"
      },
      "properties": {
        "bangumi_id": 8290,
        "bangumi_title": "头文字D",
        "ep_cut": "",
        "image_url": "",
        "location": "",
        "point_id": "a8ewe0qt",
        "point_name": "出発地:箱根スタート_TOYO TIRES ターンパイク",
        "remark": ""
      },
      "type": "Feature"
    },
    {
      "geometry": {
        "coordinates": [
          139.139786,
          35.241694
        ],
        "type": "Point"
      },
      "properties": {
        "bangumi_id": 8290,
        "bangumi_title": "头文字D",
        "ep_cut": "",
        "image_url": "",
        "location": "",
        "point_id": "a8ewe005",
        "point_name": "目的地: 箱根ゴール_料金所",
        "remark": ""
      },
      "type": "Feature"
    },
    {
      "geometry": {
        "coordinates": [
          139.04849,
          35.18366
        ],
        "type": "Point"
      },
      "properties": {
        "bangumi_id": 8290,
        "bangumi_title": "头文字D",
        "ep_cut": "",
        "image_url": "",
        "location": "",
        "point_id": "a8ewe0lo",
        "point_name": "出発地: 椿ライン スタート",
        "remark": ""
      },
      "type": "Feature"
    },
    {
      "geometry": {
        "coordinates": [
          139.060443,
          35.159603
        ],
        "type": "Point"
      },
      "properties": {
        "bangumi_id": 8290,
        "bangumi_title": "头文字D",
        "ep_cut": "",
        "image_url": "",
        "location": "",
        "point_id": "a8ewe0hq",
        "point_name": "目的地: 椿ライン/県道75号線",
        "remark": ""
      },
      "type": "Feature"
    },
    {
      "geometry": {
        "coordinates": [
          138.921647,
          36.497676
        ],
        "type": "Point"
      },
      "properties": {
        "bangumi_id": 8290,
        "bangumi_title": "头文字D",
        "ep_cut": 2,
        "image_url": "https://w.junreimap.com/images/points/8290/a8ewe076_1732557490702.jpg",
        "location": "伊香保温泉",
        "point_id": "a8ewe076",
        "point_name": "グリーン商店街",
        "remark": "群馬県渋川市伊香保町伊香保５５７−１２"
      },
      "type": "Feature"
    },
    {
      "geometry": {
        "coordinates": [
          139.008082,
          36.490546
        ],
        "type": "Point"
      },
      "properties": {
        "bangumi_id": 8290,
        "bangumi_title": "头文字D",
        "ep_cut": 12,
        "image_url": "https://w.junreimap.com/images/points/8290/a8ewe0du_1732557852302.jpg",
        "location": "涩川",
        "point_id": "a8ewe0du",
        "point_name": "渋川駅（群馬）",
        "remark": ""
      },
      "type": "Feature"
    },
    {
      "geometry": {
        "coordinates": [
          139.651658,
          35.735623
        ],
        "type": "Point"
      },
      "properties": {
        "bangumi_id": 8290,
        "bangumi_title": "头文字D",
        "ep_cut": "",
        "image_url": "",
        "location": "",
        "point_id": "a8ewe102",
        "point_name": "ESSO  東京都練馬区",
        "remark": ""
      },
      "type": "Feature"
    },
    {
      "geometry": {
        "coordinates": [
          139.676637,
          35.733004
        ],
        "type": "Point"
      },
      "properties": {
        "bangumi_id": 8290,
        "bangumi_title": "头文字D",
        "ep_cut": "",
        "image_url": "",
        "location": "",
        "point_id": "a8ewe11p",
        "point_name": "石黒豆腐店",
        "remark": ""
      },
      "type": "Feature"
    },
    {
      "geometry": {
        "coordinates": [
          138.896364,
          36.482455
        ],
        "type": "Point"
      },
      "properties": {
        "bangumi_id": 8290,
        "bangumi_title": "头文字D",
        "ep_cut": "",
        "image_url": "",
        "location": "路段",
        "point_id": "a8ewe0xg",
        "point_name": "出発地: 榛名_秋名A",
        "remark": ""
      },
      "type": "Feature"
    },
    {
      "geometry": {
        "coordinates": [
          138.915535,
          36.49887
        ],
        "type": "Point"
      },
      "properties": {
        "bangumi_id": 8290,
        "bangumi_title": "头文字D",
        "ep_cut": "",
        "image_url": "",
        "location": "路段",
        "point_id": "a8ewe16b",
        "point_name": "目的地:榛名 _秋名B",
        "remark": ""
      },
      "type": "Feature"
    },
    {
      "geometry": {
        "coordinates": [
          138.650997,
          36.344783
        ],
        "type": "Point"
      },
      "properties": {
        "bangumi_id": 8290,
        "bangumi_title": "头文字D",
        "ep_cut": "",
        "image_url": "",
        "location": "路段",
        "point_id": "a8ewe15k",
        "point_name": "出発地:碓氷A",
        "remark": ""
      },
      "type": "Feature"
    },
    {
      "geometry": {
        "coordinates": [
          138.715515,
          36.351643
        ],
        "type": "Point"
      },
      "properties": {
        "bangumi_id": 8290,
        "bangumi_title": "头文字D",
        "ep_cut": "",
        "image_url": "",
        "location": "路段",
        "point_id": "a8ewe0t0",
        "point_name": "目的地: 碓氷B",
        "remark": ""
      },
      "type": "Feature"
    },
    {
      "geometry": {
        "coordinates": [
          138.738801,
          36.282482
        ],
        "type": "Point"
      },
      "properties": {
        "bangumi_id": 8290,
        "bangumi_title": "头文字D",
        "ep_cut": "",
        "image_url": "",
        "location": "路段",
        "point_id": "a8ewe0vl",
        "point_name": "出発地: 妙義A",
        "remark": ""
      },
      "type": "Feature"
    },
    {
      "geometry": {
        "coordinates": [
          138.756244,
          36.286536
        ],
        "type": "Point"
      },
      "properties": {
        "bangumi_id": 8290,
        "bangumi_title": "头文字D",
        "ep_cut": "",
        "image_url": "",
        "location": "路段",
        "point_id": "a8ewe0t9",
        "point_name": "目的地:妙義B",
        "remark": ""
      },
      "type": "Feature"
    },
    {
      "geometry": {
        "coordinates": [
          139.15184,
          36.52712
        ],
        "type": "Point"
      },
      "properties": {
        "bangumi_id": 8290,
        "bangumi_title": "头文字D",
        "ep_cut": "",
        "image_url": "",
        "location": "路段",
        "point_id": "a8ewe0tr",
        "point_name": "出発地: 赤城A",
        "remark": ""
      },
      "type": "Feature"
    },
    {
      "geometry": {
        "coordinates": [
          139.16845,
          36.54367
        ],
        "type": "Point"
      },
      "properties": {
        "bangumi_id": 8290,
        "bangumi_title": "头文字D",
        "ep_cut": "",
        "image_url": "",
        "location": "路段",
        "point_id": "a8ewe16p",
        "point_name": "目的地: 赤城B",
        "remark": ""
      },
      "type": "Feature"
    },
    {
      "geometry": {
        "coordinates": [
          139.154602,
          35.93531
        ],
        "type": "Point"
      },
      "properties": {
        "bangumi_id": 8290,
        "bangumi_title": "头文字D",
        "ep_cut": "",
        "image_url": "",
        "location": "路段",
        "point_id": "a8ewe1nu",
        "point_name": "出発地: 正丸峠A",
        "remark": ""
      },
      "type": "Feature"
    },
    {
      "geometry": {
        "coordinates": [
          139.177974,
          35.950749
        ],
        "type": "Point"
      },
      "properties": {
        "bangumi_id": 8290,
        "bangumi_title": "头文字D",
        "ep_cut": "",
        "image_url": "",
        "location": "路段",
        "point_id": "a8ewe27l",
        "point_name": "目的地: 正丸峠B",
        "remark": ""
      },
      "type": "Feature"
    },
    {
      "geometry": {
        "coordinates": [
          139.503493,
          36.7402
        ],
        "type": "Point"
      },
      "properties": {
        "bangumi_id": 8290,
        "bangumi_title": "头文字D",
        "ep_cut": "",
        "image_url": "",
        "location": "路段",
        "point_id": "a8ewe1nc",
        "point_name": "出発地:いろは坂A",
        "remark": ""
      },
      "type": "Feature"
    },
    {
      "geometry": {
        "coordinates": [
          139.522087,
          36.742549
        ],
        "type": "Point"
      },
      "properties": {
        "bangumi_id": 8290,
        "bangumi_title": "头文字D",
        "ep_cut": "",
        "image_url": "",
        "location": "路段",
        "point_id": "a8ewe1ox",
        "point_name": "目的地:いろは坂B",
        "remark": ""
      },
      "type": "Feature"
    },
    {
      "geometry": {
        "coordinates": [
          139.803285,
          36.99259
        ],
        "type": "Point"
      },
      "properties": {
        "bangumi_id": 8290,
        "bangumi_title": "头文字D",
        "ep_cut": "",
        "image_url": "",
        "location": "路段",
        "point_id": "a8ewe1kx",
        "point_name": "出発地: 塩那A",
        "remark": ""
      },
      "type": "Feature"
    },
    {
      "geometry": {
        "coordinates": [
          139.813395,
          36.995687
        ],
        "type": "Point"
      },
      "properties": {
        "bangumi_id": 8290,
        "bangumi_title": "头文字D",
        "ep_cut": "",
        "image_url": "",
        "location": "路段",
        "point_id": "a8ewe28x",
        "point_name": "目的地:塩那B",
        "remark": ""
      },
      "type": "Feature"
    },
    {
      "geometry": {
        "coordinates": [
          139.814614,
          36.938179
        ],
        "type": "Point"
      },
      "properties": {
        "bangumi_id": 8290,
        "bangumi_title": "头文字D",
        "ep_cut": "",
        "image_url": "",
        "location": "路段",
        "point_id": "a8ewe1oe",
        "point_name": "出発地: 八方ケ原A",
        "remark": ""
      },
      "type": "Feature"
    },
    {
      "geometry": {
        "coordinates": [
          139.824168,
          36.920767
        ],
        "type": "Point"
      },
      "properties": {
        "bangumi_id": 8290,
        "bangumi_title": "头文字D",
        "ep_cut": "",
        "image_url": "",
        "location": "路段",
        "point_id": "a8ewe27u",
        "point_name": "目的地:八方ケ原B",
        "remark": ""
      },
      "type": "Feature"
    },
    {
      "geometry": {
        "coordinates": [
          139.16386,
          36.01149
        ],
        "type": "Point"
      },
      "properties": {
        "bangumi_id": 8290,
        "bangumi_title": "头文字D",
        "ep_cut": "",
        "image_url": "",
        "location": "路段",
        "point_id": "a8ewe1qs",
        "point_name": "出発地: 定峰峠A",
        "remark": ""
      },
      "type": "Feature"
    },
    {
      "geometry": {
        "coordinates": [
          139.17365,
          36.01685
        ],
        "type": "Point"
      },
      "properties": {
        "bangumi_id": 8290,
        "bangumi_title": "头文字D",
        "ep_cut": "",
        "image_url": "",
        "location": "路段",
        "point_id": "a8ewe1w5",
        "point_name": "目的地: 定峰峠B",
        "remark": ""
      },
      "type": "Feature"
    },
    {
      "geometry": {
        "coordinates": [
          138.903442,
          36.491539
        ],
        "type": "Point"
      },
      "properties": {
        "bangumi_id": 8290,
        "bangumi_title": "头文字D",
        "ep_cut": "",
        "image_url": "https://w.junreimap.com/images/points/8290/qdlw166yu_1732558507422.jpg",
        "location": "秋名山",
        "point_id": "qdlw166yu",
        "point_name": "秋名山峠スケートリンク前",
        "remark": ""
      },
      "type": "Feature"
    },
    {
      "geometry": {
        "coordinates": [
          138.904521,
          36.497863
        ],
        "type": "Point"
      },
      "properties": {
        "bangumi_id": 8290,
        "bangumi_title": "头文字D",
        "ep_cut": "",
        "image_url": "https://w.junreimap.com/images/points/8290/qdm566ub3_1732559138221.jpg",
        "location": "秋名山",
        "point_id": "qdm566ub3",
        "point_name": "秋名山5連続ヘアピン",
        "remark": ""
      },
      "type": "Feature"
    },
    {
      "geometry": {
        "coordinates": [
          138.873108,
          36.470962
        ],
        "type": "Point"
      },
      "properties": {
        "bangumi_id": 8290,
        "bangumi_title": "头文字D",
        "ep_cut": "",
        "image_url": "https://w.junreimap.com/images/points/8290/qdm3cvcg4_1732558952109.jpg",
        "location": "秋名山",
        "point_id": "qdm3cvcg4",
        "point_name": "榛名湖",
        "remark": ""
      },
      "type": "Feature"
    },
    {
      "geometry": {
        "coordinates": [
          138.916317,
          36.497349
        ],
        "type": "Point"
      },
      "properties": {
        "bangumi_id": 8290,
        "bangumi_title": "头文字D",
        "ep_cut": 2,
        "image_url": "https://w.junreimap.com/images/points/8290/qdlqs6uy0_1732558200621.jpg",
        "location": "伊香保温泉",
        "point_id": "qdlqs6uy0",
        "point_name": "伊香保温泉石段街",
        "remark": ""
      },
      "type": "Feature"
    },
    {
      "geometry": {
        "coordinates": [
          138.91599,
          36.4961
        ],
        "type": "Point"
      },
      "properties": {
        "bangumi_id": 8290,
        "bangumi_title": "头文字D",
        "ep_cut": "",
        "image_url": "https://w.junreimap.com/images/points/8290/qdlrsomln_1732558248106.jpg",
        "location": "伊香保温泉",
        "point_id": "qdlrsomln",
        "point_name": "伊香保神社入口",
        "remark": "第2巻135ページ"
      },
      "type": "Feature"
    },
    {
      "geometry": {
        "coordinates": [
          138.915983,
          36.49595
        ],
        "type": "Point"
      },
      "properties": {
        "bangumi_id": 8290,
        "bangumi_title": "头文字D",
        "ep_cut": "",
        "image_url": "https://w.junreimap.com/images/points/8290/qdlt4xm4p_1732558310015.jpg",
        "location": "伊香保温泉",
        "point_id": "qdlt4xm4p",
        "point_name": "伊香保神社",
        "remark": ""
      },
      "type": "Feature"
    },
    {
      "geometry": {
        "coordinates": [
          138.926444,
          36.499647
        ],
        "type": "Point"
      },
      "properties": {
        "bangumi_id": 8290,
        "bangumi_title": "头文字D",
        "ep_cut": "",
        "image_url": "https://w.junreimap.com/images/points/8290/qdmd1in24_1732559511946.jpg",
        "location": "伊香保温泉",
        "point_id": "qdmd1in24",
        "point_name": "清芳亭",
        "remark": "第11巻202ページ"
      },
      "type": "Feature"
    },
    {
      "geometry": {
        "coordinates": [
          138.63555,
          36.343448
        ],
        "type": "Point"
      },
      "properties": {
        "bangumi_id": 8290,
        "bangumi_title": "头文字D",
        "ep_cut": "",
        "image_url": "https://w.junreimap.com/images/points/8290/qdmptkmz3_1732560291021.jpg",
        "location": "碓氷峠",
        "point_id": "qdmptkmz3",
        "point_name": "軽井沢​駅北口",
        "remark": ""
      },
      "type": "Feature"
    },
    {
      "geometry": {
        "coordinates": [
          138.698458,
          36.357808
        ],
        "type": "Point"
      },
      "properties": {
        "bangumi_id": 8290,
        "bangumi_title": "头文字D",
        "ep_cut": "",
        "image_url": "https://w.junreimap.com/images/points/8290/qdmrj2cyw_1732560405932.jpg",
        "location": "碓氷峠",
        "point_id": "qdmrj2cyw",
        "point_name": "碓氷峠めがね橋",
        "remark": ""
      },
      "type": "Feature"
    },
    {
      "geometry": {
        "coordinates": [
          138.738551,
          36.335315
        ],
        "type": "Point"
      },
      "properties": {
        "bangumi_id": 8290,
        "bangumi_title": "头文字D",
        "ep_cut": "",
        "image_url": "https://w.junreimap.com/images/points/8290/qdmnf6iqj_1732560149766.jpg",
        "location": "碓氷峠",
        "point_id": "qdmnf6iqj",
        "point_name": "峠の釜めしや看板",
        "remark": ""
      },
      "type": "Feature"
    },
    {
      "geometry": {
        "coordinates": [
          139.512572,
          36.745259
        ],
        "type": "Point"
      },
      "properties": {
        "bangumi_id": 8290,
        "bangumi_title": "头文字D",
        "ep_cut": "",
        "image_url": "https://w.junreimap.com/images/points/8290/r2zt25lvc_1734547882896.jpg",
        "location": "いろは坂",
        "point_id": "r2zt25lvc",
        "point_name": "中の茶屋",
        "remark": ""
      },
      "type": "Feature"
    },
    {
      "geometry": {
        "coordinates": [
          139.515166,
          36.744289
        ],
        "type": "Point"
      },
      "properties": {
        "bangumi_id": 8290,
        "bangumi_title": "头文字D",
        "ep_cut": "",
        "image_url": "https://w.junreimap.com/images/points/8290/r303mf5hj_1734548552625.jpg",
        "location": "いろは坂",
        "point_id": "r303mf5hj",
        "point_name": "剣が峰",
        "remark": ""
      },
      "type": "Feature"
    },
    {
      "geometry": {
        "coordinates": [
          139.526692,
          36.739222
        ],
        "type": "Point"
      },
      "properties": {
        "bangumi_id": 8290,
        "bangumi_title": "头文字D",
        "ep_cut": "",
        "image_url": "https://w.junreimap.com/images/points/8290/r305ioskq_1734548655905.jpg",
        "location": "いろは坂",
        "point_id": "r305ioskq",
        "point_name": "第二いろは坂入り口",
        "remark": ""
      },
      "type": "Feature"
    },
    {
      "geometry": {
        "coordinates": [
          139.517288,
          36.736901
        ],
        "type": "Point"
      },
      "properties": {
        "bangumi_id": 8290,
        "bangumi_title": "头文字D",
        "ep_cut": "",
        "image_url": "https://w.junreimap.com/images/points/8290/r307yma76_1734548790410.jpg",
        "location": "いろは坂",
        "point_id": "r307yma76",
        "point_name": "明智平",
        "remark": "紅屋頂已被拆"
      },
      "type": "Feature"
    },
    {
      "geometry": {
        "coordinates": [
          138.969257,
          36.46364
        ],
        "type": "Point"
      },
      "properties": {
        "bangumi_id": 8290,
        "bangumi_title": "头文字D",
        "ep_cut": "",
        "image_url": "https://w.junreimap.com/images/points/8290/qes247t07_1732650608620.jpg",
        "location": "涩川",
        "point_id": "qes247t07",
        "point_name": "伊香保おもちゃと人形自動車博物館",
        "remark": "收藏了AE86、RX-7、藤原豆腐店门面等头文字D周边以及近百台日式老车，网址www.ikaho-omocha.jp"
      },
      "type": "Feature"
    },
    {
      "geometry": {
        "coordinates": [
          139.003006,
          36.490899
        ],
        "type": "Point"
      },
      "properties": {
        "bangumi_id": 8290,
        "bangumi_title": "头文字D",
        "ep_cut": "",
        "image_url": "https://w.junreimap.com/images/points/8290/3a46seo_1754152418459.jpg",
        "location": "涩川",
        "point_id": "3a46seo",
        "point_name": "ガスト 渋川店",
        "remark": "拓海聚会的餐厅"
      },
      "type": "Feature"
    },
    {
      "geometry": {
        "coordinates": [
          139.008249,
          36.490707
        ],
        "type": "Point"
      },
      "properties": {
        "bangumi_id": 8290,
        "bangumi_title": "头文字D",
        "ep_cut": "",
        "image_url": "https://w.junreimap.com/images/points/8290/3a4mmp6_1754153175576.jpg",
        "location": "涩川",
        "point_id": "3a4mmp6",
        "point_name": "渋川駅",
        "remark": "第13巻220ページ"
      },
      "type": "Feature"
    },
    {
      "geometry": {
        "coordinates": [
          139.008134,
          36.490731
        ],
        "type": "Point"
      },
      "properties": {
        "bangumi_id": 8290,
        "bangumi_title": "头文字D",
        "ep_cut": "",
        "image_url": "https://w.junreimap.com/images/points/8290/3a4le2t_1754153099549.jpg",
        "location": "涩川",
        "point_id": "3a4le2t",
        "point_name": "渋川駅前",
        "remark": "第17巻106ページ"
      },
      "type": "Feature"
    },
    {
      "geometry": {
        "coordinates": [
          138.905809,
          36.492678
        ],
        "type": "Point"
      },
      "properties": {
        "bangumi_id": 8290,
        "bangumi_title": "头文字D",
        "ep_cut": "",
        "image_url": "https://w.junreimap.com/images/points/8290/3a4unv9_1754153563244.jpg",
        "location": "秋名山",
        "point_id": "3a4unv9",
        "point_name": "高根展望台",
        "remark": "第1巻5ページ 远看发卡弯的位置"
      },
      "type": "Feature"
    },
    {
      "geometry": {
        "coordinates": [
          138.877233,
          36.471445
        ],
        "type": "Point"
      },
      "properties": {
        "bangumi_id": 8290,
        "bangumi_title": "头文字D",
        "ep_cut": "",
        "image_url": "https://w.junreimap.com/images/points/8290/3a4zlq3_1754153757924.jpg",
        "location": "秋名山",
        "point_id": "3a4zlq3",
        "point_name": "榛名高原駅",
        "remark": "第3巻110ページ"
      },
      "type": "Feature"
    },
    {
      "geometry": {
        "coordinates": [
          138.899704,
          36.492503
        ],
        "type": "Point"
      },
      "properties": {
        "bangumi_id": 8290,
        "bangumi_title": "头文字D",
        "ep_cut": "S04E07",
        "image_url": "https://w.junreimap.com/images/user/2153/bangumi/8290/points/r19gjiirs-1734412354696.jpg",
        "location": "秋名山",
        "point_id": "r19gjiirs",
        "point_name": "上毛三山パノラマ街道",
        "remark": "拓海在秋名山首次败绩，两车同时进入排水渠"
      },
      "type": "Feature"
    },
    {
      "geometry": {
        "coordinates": [
          138.814541,
          37.725415
        ],
        "type": "Point"
      },
      "properties": {
        "bangumi_id": 8290,
        "bangumi_title": "头文字D",
        "ep_cut": "",
        "image_url": "https://w.junreimap.com/images/user/2153/bangumi/8290/points/r190q74lb-1734411246075.jpg",
        "location": "",
        "point_id": "r190q74lb",
        "point_name": "弥彦山スカイライン",
        "remark": "真人电影头文字D取景处"
      },
      "type": "Feature"
    },
    {
      "geometry": {
        "coordinates": [
          139.140533,
          35.242295
        ],
        "type": "Point"
      },
      "properties": {
        "bangumi_id": 8290,
        "bangumi_title": "头文字D",
        "ep_cut": "11",
        "image_url": "https://w.junreimap.com/images/user/0/bangumi/8290/points/91ccs1g-1766682716331.jpg",
        "location": "",
        "point_id": "91ccs1g",
        "point_name": "アネスト岩田箱根ターンパイク 小田原料金所",
        "remark": "頭文字D Fifth Stage ACT.11\n高橋涼介 VS 北條凜\n比賽終點"
      },
      "type": "Feature"
    }
  ],
  "type": "FeatureCollection"
}