{
  "features": [
    {
      "geometry": {
        "coordinates": [
          128.837399,
          32.66827
        ],
        "type": "Point"
      },
      "properties": {
        "bangumi_id": 83868,
        "bangumi_title": "元气囝仔",
        "ep_cut": 1,
        "image_url": "https://w.junreimap.com/images/points/83868/4xo5zvgtn_1673759712707.jpg",
        "location": "",
        "point_id": "4xo5zvgtn",
        "point_name": "1福江空港(FUJ)",
        "remark": ""
      },
      "type": "Feature"
    },
    {
      "geometry": {
        "coordinates": [
          128.834285,
          32.669732
        ],
        "type": "Point"
      },
      "properties": {
        "bangumi_id": 83868,
        "bangumi_title": "元气囝仔",
        "ep_cut": 1,
        "image_url": "https://w.junreimap.com/images/points/83868/5ja5kxmwa_1673759812260.jpg",
        "location": "",
        "point_id": "5ja5kxmwa",
        "point_name": "1福江空港(FUJ)",
        "remark": ""
      },
      "type": "Feature"
    },
    {
      "geometry": {
        "coordinates": [
          128.834177,
          32.669393
        ],
        "type": "Point"
      },
      "properties": {
        "bangumi_id": 83868,
        "bangumi_title": "元气囝仔",
        "ep_cut": 1,
        "image_url": "https://w.junreimap.com/images/points/83868/5ja62dvnj_1673759840836.jpg",
        "location": "",
        "point_id": "5ja62dvnj",
        "point_name": "1福江空港(FUJ)",
        "remark": ""
      },
      "type": "Feature"
    },
    {
      "geometry": {
        "coordinates": [
          128.835599,
          32.668673
        ],
        "type": "Point"
      },
      "properties": {
        "bangumi_id": 83868,
        "bangumi_title": "元气囝仔",
        "ep_cut": 7,
        "image_url": "https://w.junreimap.com/images/points/83868/5ja6f5w8k_1673759862266.jpg",
        "location": "",
        "point_id": "5ja6f5w8k",
        "point_name": "1福江空港(FUJ)",
        "remark": ""
      },
      "type": "Feature"
    },
    {
      "geometry": {
        "coordinates": [
          128.834615,
          32.670015
        ],
        "type": "Point"
      },
      "properties": {
        "bangumi_id": 83868,
        "bangumi_title": "元气囝仔",
        "ep_cut": 12,
        "image_url": "https://w.junreimap.com/images/points/83868/5ja6pr77e_1673759880963.jpg",
        "location": "",
        "point_id": "5ja6pr77e",
        "point_name": "1福江空港(FUJ)",
        "remark": ""
      },
      "type": "Feature"
    },
    {
      "geometry": {
        "coordinates": [
          128.770237,
          32.644723
        ],
        "type": "Point"
      },
      "properties": {
        "bangumi_id": 83868,
        "bangumi_title": "元气囝仔",
        "ep_cut": 1,
        "image_url": "https://w.junreimap.com/images/points/83868/4xo5zvgpc_1673759897169.jpg",
        "location": "",
        "point_id": "4xo5zvgpc",
        "point_name": "2県道49号旧富江町境界あたり",
        "remark": ""
      },
      "type": "Feature"
    },
    {
      "geometry": {
        "coordinates": [
          128.774871,
          32.578299
        ],
        "type": "Point"
      },
      "properties": {
        "bangumi_id": 83868,
        "bangumi_title": "元气囝仔",
        "ep_cut": 4,
        "image_url": "https://w.junreimap.com/images/points/83868/4xo5zvgpy_1673760000347.jpg",
        "location": "",
        "point_id": "4xo5zvgpy",
        "point_name": "3倭寇漁港（坪）",
        "remark": ""
      },
      "type": "Feature"
    },
    {
      "geometry": {
        "coordinates": [
          128.775302,
          32.577894
        ],
        "type": "Point"
      },
      "properties": {
        "bangumi_id": 83868,
        "bangumi_title": "元气囝仔",
        "ep_cut": 1,
        "image_url": "https://w.junreimap.com/images/points/83868/5ja7nw3ap_1673759937648.jpg",
        "location": "",
        "point_id": "5ja7nw3ap",
        "point_name": "3倭寇漁港（坪）",
        "remark": ""
      },
      "type": "Feature"
    },
    {
      "geometry": {
        "coordinates": [
          128.77528,
          32.578031
        ],
        "type": "Point"
      },
      "properties": {
        "bangumi_id": 83868,
        "bangumi_title": "元气囝仔",
        "ep_cut": 1,
        "image_url": "https://w.junreimap.com/images/points/83868/5ja7u9x2n_1673759948400.jpg",
        "location": "",
        "point_id": "5ja7u9x2n",
        "point_name": "3倭寇漁港（坪）",
        "remark": ""
      },
      "type": "Feature"
    },
    {
      "geometry": {
        "coordinates": [
          128.775243,
          32.578184
        ],
        "type": "Point"
      },
      "properties": {
        "bangumi_id": 83868,
        "bangumi_title": "元气囝仔",
        "ep_cut": 1,
        "image_url": "https://w.junreimap.com/images/points/83868/5ja87drf7_1673759970391.jpg",
        "location": "",
        "point_id": "5ja87drf7",
        "point_name": "3倭寇漁港（坪）",
        "remark": ""
      },
      "type": "Feature"
    },
    {
      "geometry": {
        "coordinates": [
          128.755956,
          32.589255
        ],
        "type": "Point"
      },
      "properties": {
        "bangumi_id": 83868,
        "bangumi_title": "元气囝仔",
        "ep_cut": 3,
        "image_url": "https://w.junreimap.com/images/points/83868/4xo5zvgfb_1673760030934.jpg",
        "location": "",
        "point_id": "4xo5zvgfb",
        "point_name": "4山下簡易郵便局",
        "remark": ""
      },
      "type": "Feature"
    },
    {
      "geometry": {
        "coordinates": [
          128.766806,
          32.588389
        ],
        "type": "Point"
      },
      "properties": {
        "bangumi_id": 83868,
        "bangumi_title": "元气囝仔",
        "ep_cut": 3,
        "image_url": "https://w.junreimap.com/images/points/83868/4xo5zvgjs_1673760064258.jpg",
        "location": "",
        "point_id": "4xo5zvgjs",
        "point_name": "5山下商店",
        "remark": ""
      },
      "type": "Feature"
    },
    {
      "geometry": {
        "coordinates": [
          128.766774,
          32.588358
        ],
        "type": "Point"
      },
      "properties": {
        "bangumi_id": 83868,
        "bangumi_title": "元气囝仔",
        "ep_cut": 6,
        "image_url": "https://w.junreimap.com/images/points/83868/5ja9z7oou_1673760085464.jpg",
        "location": "",
        "point_id": "5ja9z7oou",
        "point_name": "5山下商店",
        "remark": ""
      },
      "type": "Feature"
    },
    {
      "geometry": {
        "coordinates": [
          128.783755,
          32.587791
        ],
        "type": "Point"
      },
      "properties": {
        "bangumi_id": 83868,
        "bangumi_title": "元气囝仔",
        "ep_cut": 7,
        "image_url": "https://w.junreimap.com/images/points/83868/4xo5zvh0w_1673760121863.jpg",
        "location": "",
        "point_id": "4xo5zvh0w",
        "point_name": "6倭寇漁港（山崎）",
        "remark": ""
      },
      "type": "Feature"
    },
    {
      "geometry": {
        "coordinates": [
          128.781754,
          32.612141
        ],
        "type": "Point"
      },
      "properties": {
        "bangumi_id": 83868,
        "bangumi_title": "元气囝仔",
        "ep_cut": "",
        "image_url": "",
        "location": "",
        "point_id": "4xo5zvgol",
        "point_name": "7多郎島海水浴場",
        "remark": ""
      },
      "type": "Feature"
    },
    {
      "geometry": {
        "coordinates": [
          128.780822,
          32.611072
        ],
        "type": "Point"
      },
      "properties": {
        "bangumi_id": 83868,
        "bangumi_title": "元气囝仔",
        "ep_cut": 6,
        "image_url": "https://w.junreimap.com/images/points/83868/4xo5zvh0k_1673760169223.jpg",
        "location": "",
        "point_id": "4xo5zvh0k",
        "point_name": "8さんさん富江キャンプ村",
        "remark": ""
      },
      "type": "Feature"
    },
    {
      "geometry": {
        "coordinates": [
          128.766278,
          32.588639
        ],
        "type": "Point"
      },
      "properties": {
        "bangumi_id": 83868,
        "bangumi_title": "元气囝仔",
        "ep_cut": 8,
        "image_url": "https://w.junreimap.com/images/points/83868/4xo5zvh2n_1673760190108.jpg",
        "location": "",
        "point_id": "4xo5zvh2n",
        "point_name": "9学校（这个村附近）",
        "remark": ""
      },
      "type": "Feature"
    },
    {
      "geometry": {
        "coordinates": [
          128.766372,
          32.588614
        ],
        "type": "Point"
      },
      "properties": {
        "bangumi_id": 83868,
        "bangumi_title": "元气囝仔",
        "ep_cut": 8,
        "image_url": "https://w.junreimap.com/images/points/83868/5jac0np4x_1673760202327.jpg",
        "location": "",
        "point_id": "5jac0np4x",
        "point_name": "9学校（这个村附近）",
        "remark": ""
      },
      "type": "Feature"
    },
    {
      "geometry": {
        "coordinates": [
          128.766394,
          32.588548
        ],
        "type": "Point"
      },
      "properties": {
        "bangumi_id": 83868,
        "bangumi_title": "元气囝仔",
        "ep_cut": 8,
        "image_url": "https://w.junreimap.com/images/points/83868/5jac7yv9t_1673760212065.jpg",
        "location": "",
        "point_id": "5jac7yv9t",
        "point_name": "9学校（这个村附近）",
        "remark": ""
      },
      "type": "Feature"
    },
    {
      "geometry": {
        "coordinates": [
          128.766997,
          32.588306
        ],
        "type": "Point"
      },
      "properties": {
        "bangumi_id": 83868,
        "bangumi_title": "元气囝仔",
        "ep_cut": 10,
        "image_url": "https://w.junreimap.com/images/points/83868/4xo5zvggh_1673760225145.jpg",
        "location": "",
        "point_id": "4xo5zvggh",
        "point_name": "10神社",
        "remark": ""
      },
      "type": "Feature"
    },
    {
      "geometry": {
        "coordinates": [
          128.767019,
          32.588315
        ],
        "type": "Point"
      },
      "properties": {
        "bangumi_id": 83868,
        "bangumi_title": "元气囝仔",
        "ep_cut": 10,
        "image_url": "https://w.junreimap.com/images/points/83868/5jaciqs5z_1673760234033.jpg",
        "location": "",
        "point_id": "5jaciqs5z",
        "point_name": "10神社",
        "remark": ""
      },
      "type": "Feature"
    },
    {
      "geometry": {
        "coordinates": [
          128.766954,
          32.615645
        ],
        "type": "Point"
      },
      "properties": {
        "bangumi_id": 83868,
        "bangumi_title": "元气囝仔",
        "ep_cut": 10,
        "image_url": "https://w.junreimap.com/images/points/83868/4xo5zvgzr_1673760249494.jpg",
        "location": "",
        "point_id": "4xo5zvgzr",
        "point_name": "11富江ふれあい商店街",
        "remark": ""
      },
      "type": "Feature"
    },
    {
      "geometry": {
        "coordinates": [
          128.766967,
          32.615637
        ],
        "type": "Point"
      },
      "properties": {
        "bangumi_id": 83868,
        "bangumi_title": "元气囝仔",
        "ep_cut": 10,
        "image_url": "https://w.junreimap.com/images/points/83868/5jadb4d1h_1673760277816.jpg",
        "location": "",
        "point_id": "5jadb4d1h",
        "point_name": "11富江ふれあい商店街",
        "remark": ""
      },
      "type": "Feature"
    }
  ],
  "type": "FeatureCollection"
}