{
  "features": [
    {
      "geometry": {
        "coordinates": [
          139.353149,
          34.751974
        ],
        "type": "Point"
      },
      "properties": {
        "bangumi_id": 8484,
        "bangumi_title": "机动警察",
        "ep_cut": "21",
        "image_url": "https://w.junreimap.com/images/user/0/bangumi/8484/points/2wqw7g3-1753344159225.jpg",
        "location": "",
        "point_id": "2wqw7g3",
        "point_name": "恵比寿屋土産店",
        "remark": "大島元町おみやけの店"
      },
      "type": "Feature"
    },
    {
      "geometry": {
        "coordinates": [
          139.260092,
          35.678687
        ],
        "type": "Point"
      },
      "properties": {
        "bangumi_id": 8484,
        "bangumi_title": "机动警察",
        "ep_cut": 21,
        "image_url": "https://w.junreimap.com/images/user/0/bangumi/8484/points/2wscue4-1753346483766.jpg",
        "location": "",
        "point_id": "2wscue4",
        "point_name": "篠原工業(株)",
        "remark": "篠原重工的前身是｢篠原自動車部品製作所｣, 是現任社長是篠原一馬,及現八王子工場主管實山,\n將飛鳥重機(現在的所沢工場)及淺川鐵工(現在的八王子工場)合併,\n成為篠原重工株式會社,創立於1945年(昭和20年),資本金達500億日元!!\n也是日本最大的機械人製造商,從業員達4萬人!!(1999年3月至今)\n\n本社位於東京,事業所有茨城研究所(筑波研究所),\n機械人生產工場有八王子、所沢、茨木、習志野、川越五個;\n而當中八王子工場(Hachioji Factory)則是全日本最大的機械人製造工場。\n初期開發了一些土木用機械人(如KV-93,SSL-95式等)\n之後開始發展警察專用的機械人計劃,為MPL (Mobile Police Labor)\n到1998年重心發展次世代AV計劃(Advanced Vehicle Project),AV-98及ARL-99B為先驅,\n取得了很大的成功,開創了機械人的新世代!!\n八王子工場,機動警察的主角之一英格倫就是在這裡生產的!!"
      },
      "type": "Feature"
    },
    {
      "geometry": {
        "coordinates": [
          142.211951,
          27.068315
        ],
        "type": "Point"
      },
      "properties": {
        "bangumi_id": 8484,
        "bangumi_title": "机动警察",
        "ep_cut": 30,
        "image_url": "https://w.junreimap.com/images/user/0/bangumi/8484/points/2zlo5jq-1753516646610.jpg",
        "location": "",
        "point_id": "2zlo5jq",
        "point_name": "小笠原",
        "remark": "自卫队在小笠原进行军事演练"
      },
      "type": "Feature"
    },
    {
      "geometry": {
        "coordinates": [
          139.794469,
          35.629631
        ],
        "type": "Point"
      },
      "properties": {
        "bangumi_id": 8484,
        "bangumi_title": "机动警察",
        "ep_cut": 31,
        "image_url": "https://w.junreimap.com/images/user/0/bangumi/8484/points/2zndxwh-1753519523524.jpg",
        "location": "",
        "point_id": "2zndxwh",
        "point_name": "東京​ビッグ​サイト",
        "remark": "展览LABOR机器人"
      },
      "type": "Feature"
    },
    {
      "geometry": {
        "coordinates": [
          141.596501,
          42.631847
        ],
        "type": "Point"
      },
      "properties": {
        "bangumi_id": 8484,
        "bangumi_title": "机动警察",
        "ep_cut": 47,
        "image_url": "https://w.junreimap.com/images/user/0/bangumi/8484/points/39hvbul-1754114927371.jpg",
        "location": "",
        "point_id": "39hvbul",
        "point_name": "苫小牧 西銀座商店街",
        "remark": ""
      },
      "type": "Feature"
    }
  ],
  "type": "FeatureCollection"
}