{
  "features": [
    {
      "geometry": {
        "coordinates": [
          139.70079,
          35.659698
        ],
        "type": "Point"
      },
      "properties": {
        "bangumi_id": 884,
        "bangumi_title": "混沌头",
        "ep_cut": "",
        "image_url": "https://w.junreimap.com/images/points/884/d73ce7f2_1719067081143.jpg",
        "location": "CHAOS;HEAD",
        "point_id": "d73ce7f2",
        "point_name": "拓巳のディソード",
        "remark": "説明: 実際にはそれは剣じゃない 写真撮影日: 2012/10/14関連記事: "
      },
      "type": "Feature"
    },
    {
      "geometry": {
        "coordinates": [
          139.700714,
          35.659317
        ],
        "type": "Point"
      },
      "properties": {
        "bangumi_id": 884,
        "bangumi_title": "混沌头",
        "ep_cut": "",
        "image_url": "https://w.junreimap.com/images/points/884/9e85210e_1719066940168.jpg",
        "location": "CHAOS;HEAD",
        "point_id": "9e85210e",
        "point_name": "渋谷駅前",
        "remark": "説明: 南東向き。いわずもがなの渋谷駅ハチ公口である。写真撮影日: 2012/10/14関連記事: "
      },
      "type": "Feature"
    },
    {
      "geometry": {
        "coordinates": [
          139.701813,
          35.657558
        ],
        "type": "Point"
      },
      "properties": {
        "bangumi_id": 884,
        "bangumi_title": "混沌头",
        "ep_cut": "",
        "image_url": "https://w.junreimap.com/images/points/884/108861a5_1719066940601.jpg",
        "location": "CHAOS;HEAD",
        "point_id": "108861a5",
        "point_name": "山手線ホーム",
        "remark": "説明: 拓巳が病院に行く時や優愛と判刑事がカエル家に行くときに登場した気がする。写真撮影日: 2013/5/2関連記事: http://ch-shibuya.blogspot.jp/2013/10/blog-post.html"
      },
      "type": "Feature"
    },
    {
      "geometry": {
        "coordinates": [
          139.700821,
          35.658237
        ],
        "type": "Point"
      },
      "properties": {
        "bangumi_id": 884,
        "bangumi_title": "混沌头",
        "ep_cut": "",
        "image_url": "https://w.junreimap.com/images/points/884/e7374b72_1719066941002.jpg",
        "location": "CHAOS;HEAD",
        "point_id": "e7374b72",
        "point_name": "渋谷駅南口",
        "remark": "説明: @カフェから出てきてアニメエイトに行く時に通ったり。東向き。 写真撮影日: 2013/03/29関連記事: "
      },
      "type": "Feature"
    },
    {
      "geometry": {
        "coordinates": [
          139.701843,
          35.659508
        ],
        "type": "Point"
      },
      "properties": {
        "bangumi_id": 884,
        "bangumi_title": "混沌头",
        "ep_cut": "",
        "image_url": "https://w.junreimap.com/images/points/884/35977847_1719066941733.jpg",
        "location": "CHAOS;HEAD",
        "point_id": "35977847",
        "point_name": "副都心線コインロッカー",
        "remark": "説明: NOAHセナルートで300人委員会から付与されたチートコードがあるところ。B2F。東向き。指定されたロッカーは1009番、左から2番目、下から3番目だが、実際には5434番であり、1009番は1Fにある。↓あまり役に立たなそうな構内図 http://goo.gl/jqFBo1写真撮影日: 2013/03/29関連記事: http://ch-shibuya.blogspot.jp/2013/04/1009.html"
      },
      "type": "Feature"
    },
    {
      "geometry": {
        "coordinates": [
          139.700775,
          35.659084
        ],
        "type": "Point"
      },
      "properties": {
        "bangumi_id": 884,
        "bangumi_title": "混沌头",
        "ep_cut": "",
        "image_url": "https://w.junreimap.com/images/points/884/4a66c485_1719066942228.jpg",
        "location": "CHAOS;HEAD",
        "point_id": "4a66c485",
        "point_name": "青ガエル内",
        "remark": "説明: セナからVR技術について教えられた場所。LCCではセナルートで現実に戻って来る場所。2020年8月3日に渋谷駅再開発のため移動された。移設先は秋田県大館市「秋田犬の里」。西向き。CGは左右反転。写真撮影日: 2012/10/14関連記事: "
      },
      "type": "Feature"
    },
    {
      "geometry": {
        "coordinates": [
          139.700729,
          35.659164
        ],
        "type": "Point"
      },
      "properties": {
        "bangumi_id": 884,
        "bangumi_title": "混沌头",
        "ep_cut": "",
        "image_url": "https://w.junreimap.com/images/points/884/c5803143_1719066942708.jpg",
        "location": "CHAOS;HEAD",
        "point_id": "c5803143",
        "point_name": "青ガエル外観",
        "remark": "説明: セナの鎖に導かれて来る所。南東向き。写真撮影日: 2013/03/30関連記事: "
      },
      "type": "Feature"
    },
    {
      "geometry": {
        "coordinates": [
          139.702362,
          35.660175
        ],
        "type": "Point"
      },
      "properties": {
        "bangumi_id": 884,
        "bangumi_title": "混沌头",
        "ep_cut": "",
        "image_url": "https://w.junreimap.com/images/points/884/0bffd326_1719066943137.jpg",
        "location": "CHAOS;HEAD",
        "point_id": "0bffd326",
        "point_name": "副都心線階段",
        "remark": "説明: LCCで星来の目撃情報をもとに来る途中の場所。B4F。南向き。2013年3月16日の東急東横線ホーム移動の影響により、現在、天井の出口案内は「1-16」に変わっている。↓あまり役に立たなそうな構内図 http://goo.gl/jqFBo1写真撮影日: 2013/03/30関連記事: "
      },
      "type": "Feature"
    },
    {
      "geometry": {
        "coordinates": [
          139.702347,
          35.660278
        ],
        "type": "Point"
      },
      "properties": {
        "bangumi_id": 884,
        "bangumi_title": "混沌头",
        "ep_cut": "",
        "image_url": "https://w.junreimap.com/images/points/884/b09a45f9_1719066943786.jpg",
        "location": "CHAOS;HEAD",
        "point_id": "b09a45f9",
        "point_name": "地下鉄最深部通路",
        "remark": "説明: 位置未確認。たぶんこのへん。LCCでヒロインと星来が戦う場所。東横線直通互換運行が開始するまでの仮設通路であり、2012年4月22日に閉鎖した。 写真撮影日: 関連記事: https://ch-shibuya.blogspot.com/2013/04/blog-post_9.html"
      },
      "type": "Feature"
    },
    {
      "geometry": {
        "coordinates": [
          139.701401,
          35.659492
        ],
        "type": "Point"
      },
      "properties": {
        "bangumi_id": 884,
        "bangumi_title": "混沌头",
        "ep_cut": "",
        "image_url": "https://w.junreimap.com/images/points/884/8ec3872e_1719066944308.jpg",
        "location": "CHAOS;HEAD",
        "point_id": "8ec3872e",
        "point_name": "半蔵門線渋谷駅改札",
        "remark": "説明: セナがポーターを斬ったあたり。CGでは左右反転だが、天井の乗り場案内は実際と同じ。B2F。西向き。↓あまり役に立たなそうな構内図 http://goo.gl/jqFBo1写真撮影日: 2013/03/31関連記事: "
      },
      "type": "Feature"
    },
    {
      "geometry": {
        "coordinates": [
          139.701294,
          35.657814
        ],
        "type": "Point"
      },
      "properties": {
        "bangumi_id": 884,
        "bangumi_title": "混沌头",
        "ep_cut": "",
        "image_url": "https://w.junreimap.com/images/points/884/1dc80a7b_1719066944830.jpg",
        "location": "CHAOS;HEAD",
        "point_id": "1dc80a7b",
        "point_name": "渋谷駅南口歩道橋",
        "remark": "説明: 宮下公園で警察から逃げる途中に通った？あとはLCCで梨深と優愛と星来を探しに来た記憶しかないな…。南向き。CGは左右反転。写真撮影日: 2012/10/14関連記事: "
      },
      "type": "Feature"
    },
    {
      "geometry": {
        "coordinates": [
          139.700455,
          35.659664
        ],
        "type": "Point"
      },
      "properties": {
        "bangumi_id": 884,
        "bangumi_title": "混沌头",
        "ep_cut": "",
        "image_url": "https://w.junreimap.com/images/points/884/aad9b8fd_1719066945432.jpg",
        "location": "CHAOS;HEAD",
        "point_id": "aad9b8fd",
        "point_name": "スクランブル交差点",
        "remark": "説明: 無人の渋谷で将軍と出会う場所であると同時に、梨深に助けられる場所。南東向き。写真撮影日: 2012/10/14関連記事: "
      },
      "type": "Feature"
    },
    {
      "geometry": {
        "coordinates": [
          139.700409,
          35.659794
        ],
        "type": "Point"
      },
      "properties": {
        "bangumi_id": 884,
        "bangumi_title": "混沌头",
        "ep_cut": "",
        "image_url": "https://w.junreimap.com/images/points/884/7690c15f_1719066945992.jpg",
        "location": "CHAOS;HEAD",
        "point_id": "7690c15f",
        "point_name": "O-FRONT",
        "remark": "説明: 大型ビジョンを有するビル。ディソードを入手するための七海救出クエストで指定された場所。実際は「QFRONT」。 写真撮影日: 2012/10/14関連記事: http://ch-shibuya.blogspot.jp/2013/04/o-front.html"
      },
      "type": "Feature"
    },
    {
      "geometry": {
        "coordinates": [
          139.699051,
          35.659546
        ],
        "type": "Point"
      },
      "properties": {
        "bangumi_id": 884,
        "bangumi_title": "混沌头",
        "ep_cut": "",
        "image_url": "https://w.junreimap.com/images/points/884/ca25c979_1719066946881.jpg",
        "location": "CHAOS;HEAD",
        "point_id": "ca25c979",
        "point_name": "107",
        "remark": "説明: キービジュアルとしてよく使用される。実際は「渋谷109」。2019年4月末にロゴの付け替え工事があり、28日に正式リニューアルした。写真撮影日: 2019/4/28関連記事: "
      },
      "type": "Feature"
    },
    {
      "geometry": {
        "coordinates": [
          139.699463,
          35.659603
        ],
        "type": "Point"
      },
      "properties": {
        "bangumi_id": 884,
        "bangumi_title": "混沌头",
        "ep_cut": "",
        "image_url": "https://w.junreimap.com/images/points/884/75f8fdc1_1719066947407.jpg",
        "location": "CHAOS;HEAD",
        "point_id": "75f8fdc1",
        "point_name": "107階段",
        "remark": "説明: 西向き。セナがディソードを担いでいた場所。そして、ダーススパイダーに雇われたDQN3人に絡まれた場所。 写真撮影日: 2013/03/30関連記事: "
      },
      "type": "Feature"
    },
    {
      "geometry": {
        "coordinates": [
          139.699921,
          35.660038
        ],
        "type": "Point"
      },
      "properties": {
        "bangumi_id": 884,
        "bangumi_title": "混沌头",
        "ep_cut": "",
        "image_url": "https://w.junreimap.com/images/points/884/f8cf57e9_1719066947948.jpg",
        "location": "CHAOS;HEAD",
        "point_id": "f8cf57e9",
        "point_name": "センター街",
        "remark": "説明: 質屋の看板が特徴的。NOAHでセナルートの分岐点になるあたり。西向き。写真撮影日: 2012/10/14関連記事: http://ch-shibuya.blogspot.jp/2013/04/blog-post_28.html"
      },
      "type": "Feature"
    },
    {
      "geometry": {
        "coordinates": [
          139.700027,
          35.658718
        ],
        "type": "Point"
      },
      "properties": {
        "bangumi_id": 884,
        "bangumi_title": "混沌头",
        "ep_cut": "",
        "image_url": "https://w.junreimap.com/images/points/884/b81aa6bf_1719066948465.jpg",
        "location": "CHAOS;HEAD",
        "point_id": "b81aa6bf",
        "point_name": "渋谷サインシティ入り口",
        "remark": "説明: セナが通行人の会話に意識を集中させて有用な情報を探していた場所。実際には「渋谷マークシティ」。西向き。CGでは左右反転。 写真撮影日: 2012/10/14関連記事: "
      },
      "type": "Feature"
    },
    {
      "geometry": {
        "coordinates": [
          139.699753,
          35.660847
        ],
        "type": "Point"
      },
      "properties": {
        "bangumi_id": 884,
        "bangumi_title": "混沌头",
        "ep_cut": "",
        "image_url": "https://w.junreimap.com/images/points/884/b0cd4bba_1719066948959.jpg",
        "location": "CHAOS;HEAD",
        "point_id": "b0cd4bba",
        "point_name": "Roft",
        "remark": "説明: 梢がよく訪れる場所。2012年9月7月に改装したため、CGとは外観が少し異なる。実際は「西武百貨店渋谷店ロフト（Loft）館」。北向き。 写真撮影日: 2012/10/14関連記事: http://ch-shibuya.blogspot.jp/2014/03/roft.html"
      },
      "type": "Feature"
    },
    {
      "geometry": {
        "coordinates": [
          139.699341,
          35.661106
        ],
        "type": "Point"
      },
      "properties": {
        "bangumi_id": 884,
        "bangumi_title": "混沌头",
        "ep_cut": "",
        "image_url": "https://w.junreimap.com/images/points/884/64366bcf_1719066949390.jpg",
        "location": "CHAOS;HEAD",
        "point_id": "64366bcf",
        "point_name": "Roft階段",
        "remark": "説明: 梢からディソードについて教えられたり、NOAH梢ルートでぶちゅぶちゅさんを貰ったり、LCC梢ルートで現実に戻って来たりする場所。 写真撮影日: 2012/10/14関連記事: http://ch-shibuya.blogspot.jp/2014/03/roft.html"
      },
      "type": "Feature"
    },
    {
      "geometry": {
        "coordinates": [
          139.699326,
          35.661423
        ],
        "type": "Point"
      },
      "properties": {
        "bangumi_id": 884,
        "bangumi_title": "混沌头",
        "ep_cut": "",
        "image_url": "https://w.junreimap.com/images/points/884/87e9788f_1719066949785.jpg",
        "location": "CHAOS;HEAD",
        "point_id": "87e9788f",
        "point_name": "Roft裏",
        "remark": "説明: 3人のDQNにリンチされ、梢に助けられる場所。北向き。CGでは左右反転。 写真撮影日: 2013/03/30関連記事: "
      },
      "type": "Feature"
    },
    {
      "geometry": {
        "coordinates": [
          139.699982,
          35.660007
        ],
        "type": "Point"
      },
      "properties": {
        "bangumi_id": 884,
        "bangumi_title": "混沌头",
        "ep_cut": "",
        "image_url": "https://w.junreimap.com/images/points/884/985affe2_1719066950356.jpg",
        "location": "CHAOS;HEAD",
        "point_id": "985affe2",
        "point_name": "さくらや渋谷店",
        "remark": "説明: 七海に携帯電話を買わされた時の背景CGのモデル。2010年2月28日に閉店している。写真撮影日: 関連記事: http://ch-shibuya.blogspot.jp/2013/10/107.html"
      },
      "type": "Feature"
    },
    {
      "geometry": {
        "coordinates": [
          139.699509,
          35.659302
        ],
        "type": "Point"
      },
      "properties": {
        "bangumi_id": 884,
        "bangumi_title": "混沌头",
        "ep_cut": "",
        "image_url": "https://w.junreimap.com/images/points/884/de6a9f98_1719066950986.jpg",
        "location": "CHAOS;HEAD",
        "point_id": "de6a9f98",
        "point_name": "ビックリカメラ",
        "remark": "説明: 七海に携帯電話を買わされた場所。実際は「ビックカメラ渋谷ハチ公口店」だが、背景CGのモデルは「さくらや渋谷店」。 写真撮影日: 関連記事: http://ch-shibuya.blogspot.jp/2013/10/107.html"
      },
      "type": "Feature"
    },
    {
      "geometry": {
        "coordinates": [
          139.699982,
          35.660511
        ],
        "type": "Point"
      },
      "properties": {
        "bangumi_id": 884,
        "bangumi_title": "混沌头",
        "ep_cut": "",
        "image_url": "https://w.junreimap.com/images/points/884/6eeafd1d_1719066951610.jpg",
        "location": "CHAOS;HEAD",
        "point_id": "6eeafd1d",
        "point_name": "MHV前",
        "remark": "説明: 梨深がPHANTASMのCDを探しにきた場所。実際は「HMV」。2010年8月22日に閉店し、現在はFOREVER21になっている。南西向き。写真撮影日: 2012/10/14関連記事: "
      },
      "type": "Feature"
    },
    {
      "geometry": {
        "coordinates": [
          139.697891,
          35.661438
        ],
        "type": "Point"
      },
      "properties": {
        "bangumi_id": 884,
        "bangumi_title": "混沌头",
        "ep_cut": "",
        "image_url": "https://w.junreimap.com/images/points/884/5d960f2d_1719066952539.jpg",
        "location": "CHAOS;HEAD",
        "point_id": "5d960f2d",
        "point_name": "まんがだらけ",
        "remark": "説明: 拓巳が東またせまの同人誌「コスコスしまくり星来たん！」を探しにきた場所。実際は「まんだらけ」。西向き。CGは左右反転。 写真撮影日: 2013/03/29関連記事: "
      },
      "type": "Feature"
    },
    {
      "geometry": {
        "coordinates": [
          139.701385,
          35.655941
        ],
        "type": "Point"
      },
      "properties": {
        "bangumi_id": 884,
        "bangumi_title": "混沌头",
        "ep_cut": "",
        "image_url": "https://w.junreimap.com/images/points/884/d7ab11f2_1719066953044.jpg",
        "location": "CHAOS;HEAD",
        "point_id": "d7ab11f2",
        "point_name": "アニメエイト前",
        "remark": "説明: 優愛と一緒に星来覚醒後Ver.を予約しにきた場所。実際は「アニメイト渋谷」。移転に伴い、2012年7月29日に閉店した。現在は「スタジオペンタ渋谷シティサイド」になっている。南西向き。 写真撮影日: 2012/10/14関連記事: "
      },
      "type": "Feature"
    },
    {
      "geometry": {
        "coordinates": [
          139.697708,
          35.660175
        ],
        "type": "Point"
      },
      "properties": {
        "bangumi_id": 884,
        "bangumi_title": "混沌头",
        "ep_cut": "",
        "image_url": "https://w.junreimap.com/images/points/884/cb74c4cd_1719066953464.jpg",
        "location": "CHAOS;HEAD",
        "point_id": "cb74c4cd",
        "point_name": "WARUHON前横断歩道",
        "remark": "説明: 優愛と初めて会う場所。北北東向き。WARUHONは実際は「MARUHAN」だったが、現在は「MEGAドンキホーテ渋谷店」になっている。写真撮影日: 2013/03/30関連記事: "
      },
      "type": "Feature"
    },
    {
      "geometry": {
        "coordinates": [
          139.698242,
          35.661297
        ],
        "type": "Point"
      },
      "properties": {
        "bangumi_id": 884,
        "bangumi_title": "混沌头",
        "ep_cut": "",
        "image_url": "https://w.junreimap.com/images/points/884/388f3340_1719066954212.jpg",
        "location": "CHAOS;HEAD",
        "point_id": "388f3340",
        "point_name": "アジアース",
        "remark": "説明: セナが通りかかったときに隠れた場所。現在は店内の筐体の配置が変わっているため再現できない。実際は「アドアーズ渋谷店」。西向き。CGは左右反転。写真撮影日: 2013/03/31関連記事: "
      },
      "type": "Feature"
    },
    {
      "geometry": {
        "coordinates": [
          139.698349,
          35.661003
        ],
        "type": "Point"
      },
      "properties": {
        "bangumi_id": 884,
        "bangumi_title": "混沌头",
        "ep_cut": "",
        "image_url": "https://w.junreimap.com/images/points/884/640c4b59_1719066954632.jpg",
        "location": "CHAOS;HEAD",
        "point_id": "640c4b59",
        "point_name": "井の頭通り交番前",
        "remark": "説明: セナと梢と一緒にガルガリ君を食べた場所。西北西向き。CGでは左右反転。写真撮影日: 2012/10/14関連記事: "
      },
      "type": "Feature"
    },
    {
      "geometry": {
        "coordinates": [
          139.700653,
          35.660954
        ],
        "type": "Point"
      },
      "properties": {
        "bangumi_id": 884,
        "bangumi_title": "混沌头",
        "ep_cut": "",
        "image_url": "https://w.junreimap.com/images/points/884/10a81a16_1719066955504.jpg",
        "location": "CHAOS;HEAD",
        "point_id": "10a81a16",
        "point_name": "マルイチ前",
        "remark": "説明: 実際には「マルイシティ」。現在は「渋谷モディ」北向き。CGは左右反転。写真撮影日: 2012/10/14関連記事: "
      },
      "type": "Feature"
    },
    {
      "geometry": {
        "coordinates": [
          139.698837,
          35.661182
        ],
        "type": "Point"
      },
      "properties": {
        "bangumi_id": 884,
        "bangumi_title": "混沌头",
        "ep_cut": "",
        "image_url": "https://w.junreimap.com/images/points/884/4a3f670d_1719066955903.jpg",
        "location": "CHAOS;HEAD",
        "point_id": "4a3f670d",
        "point_name": "スペイン坂",
        "remark": "説明: ＠カフェから優愛に追われて逃げたときに一瞬通り過ぎたり。北向き。CGでは左右反転。 写真撮影日: 2013/03/29関連記事: "
      },
      "type": "Feature"
    },
    {
      "geometry": {
        "coordinates": [
          139.697708,
          35.6591
        ],
        "type": "Point"
      },
      "properties": {
        "bangumi_id": 884,
        "bangumi_title": "混沌头",
        "ep_cut": "",
        "image_url": "https://w.junreimap.com/images/points/884/21c50698_1719066956353.jpg",
        "location": "CHAOS;HEAD",
        "point_id": "21c50698",
        "point_name": "道玄坂",
        "remark": "説明: NOAHのあやせルートの最終地点ですね。北東向き。写真撮影日: 2012/10/14関連記事: "
      },
      "type": "Feature"
    },
    {
      "geometry": {
        "coordinates": [
          139.69725,
          35.660522
        ],
        "type": "Point"
      },
      "properties": {
        "bangumi_id": 884,
        "bangumi_title": "混沌头",
        "ep_cut": "",
        "image_url": "https://w.junreimap.com/images/points/884/5e725575_1719066956787.jpg",
        "location": "CHAOS;HEAD",
        "point_id": "5e725575",
        "point_name": "Bunkamachi前",
        "remark": "説明: 実際には「Bunkamura」。西向き。CGでは左右反転。写真撮影日: 2013/05/03関連記事: "
      },
      "type": "Feature"
    },
    {
      "geometry": {
        "coordinates": [
          139.696472,
          35.65963
        ],
        "type": "Point"
      },
      "properties": {
        "bangumi_id": 884,
        "bangumi_title": "混沌头",
        "ep_cut": "",
        "image_url": "https://w.junreimap.com/images/points/884/5011ed12_1719066957252.jpg",
        "location": "CHAOS;HEAD",
        "point_id": "5011ed12",
        "point_name": "ラブホ街左手前",
        "remark": "説明: 左の建物と看板。北西向き。写真撮影日: 2012/10/14関連記事: http://ch-shibuya.blogspot.jp/2014/07/blog-post_6.html"
      },
      "type": "Feature"
    },
    {
      "geometry": {
        "coordinates": [
          139.696136,
          35.659893
        ],
        "type": "Point"
      },
      "properties": {
        "bangumi_id": 884,
        "bangumi_title": "混沌头",
        "ep_cut": "",
        "image_url": "https://w.junreimap.com/images/points/884/b63e4733_1719066957838.jpg",
        "location": "CHAOS;HEAD",
        "point_id": "b63e4733",
        "point_name": "神泉町坂右半分・ラブホ街奥",
        "remark": "説明: 東向き。中央の建物から右半分が神泉の坂として出て来る所。左半分がラブホ街として出てくる所の奥。写真撮影日: 2013/03/30関連記事: http://ch-shibuya.blogspot.jp/2014/07/blog-post_6.html"
      },
      "type": "Feature"
    },
    {
      "geometry": {
        "coordinates": [
          139.695435,
          35.659176
        ],
        "type": "Point"
      },
      "properties": {
        "bangumi_id": 884,
        "bangumi_title": "混沌头",
        "ep_cut": "",
        "image_url": "https://w.junreimap.com/images/points/884/6f5fb1ba_1719066958242.jpg",
        "location": "CHAOS;HEAD",
        "point_id": "6f5fb1ba",
        "point_name": "円山町",
        "remark": "説明: 南向き。センター街から拓巳の基地への帰路らしい。梨深が鼻歌で「罪過に契約の血を」を歌っていた場所。写真撮影日: 2012/10/14関連記事: "
      },
      "type": "Feature"
    },
    {
      "geometry": {
        "coordinates": [
          139.695007,
          35.658192
        ],
        "type": "Point"
      },
      "properties": {
        "bangumi_id": 884,
        "bangumi_title": "混沌头",
        "ep_cut": "",
        "image_url": "https://w.junreimap.com/images/points/884/28f4a9fa_1719066958611.jpg",
        "location": "CHAOS;HEAD",
        "point_id": "28f4a9fa",
        "point_name": "円山町路地裏",
        "remark": "説明: 杭を打ち付ける音が聞こえてきたり、ぬこの死骸の妄想をしたり、あと警察に追われてあやせと逃げる時に通ったりしたような。東向き。写真撮影日: 2014/4/21関連記事: "
      },
      "type": "Feature"
    },
    {
      "geometry": {
        "coordinates": [
          139.693283,
          35.65947
        ],
        "type": "Point"
      },
      "properties": {
        "bangumi_id": 884,
        "bangumi_title": "混沌头",
        "ep_cut": "",
        "image_url": "https://w.junreimap.com/images/points/884/3db1bf5d_1719066959395.jpg",
        "location": "CHAOS;HEAD",
        "point_id": "3db1bf5d",
        "point_name": "松濤",
        "remark": "説明: 通学路。優愛にストーキングされる場所。北向き。写真撮影日: 2013/03/31関連記事: "
      },
      "type": "Feature"
    },
    {
      "geometry": {
        "coordinates": [
          139.693298,
          35.659458
        ],
        "type": "Point"
      },
      "properties": {
        "bangumi_id": 884,
        "bangumi_title": "混沌头",
        "ep_cut": "",
        "image_url": "https://w.junreimap.com/images/points/884/a0b2b58d_1719066959796.jpg",
        "location": "CHAOS;HEAD",
        "point_id": "a0b2b58d",
        "point_name": "松濤2",
        "remark": "説明: 通学路。優愛にストーキングされる場所。また、七海がポーターに洗脳されて車道に出そうになった場所。南西向き。CGでは左右反転。写真撮影日: 2013/03/31関連記事: "
      },
      "type": "Feature"
    },
    {
      "geometry": {
        "coordinates": [
          139.691284,
          35.659756
        ],
        "type": "Point"
      },
      "properties": {
        "bangumi_id": 884,
        "bangumi_title": "混沌头",
        "ep_cut": "",
        "image_url": "https://w.junreimap.com/images/points/884/a43ba32e_1719066960241.jpg",
        "location": "CHAOS;HEAD",
        "point_id": "a43ba32e",
        "point_name": "松涛公園",
        "remark": "説明: 正式には「渋谷区立鍋島松涛公園」。拓巳が登校時に寄り道し、朝食をとったりする場所。拓巳が優愛に将軍と同一人物である証拠を突き付けられる場所でもある。LCCでの優愛ルート分岐点であり、優愛ルート、美愛ルートで現実に戻って来る場所。西向き。 写真撮影日: 2012/10/14関連記事: http://ch-shibuya.blogspot.jp/2014/03/blog-post.html"
      },
      "type": "Feature"
    },
    {
      "geometry": {
        "coordinates": [
          139.691254,
          35.65979
        ],
        "type": "Point"
      },
      "properties": {
        "bangumi_id": 884,
        "bangumi_title": "混沌头",
        "ep_cut": "",
        "image_url": "https://w.junreimap.com/images/points/884/19a267ff_1719066961139.jpg",
        "location": "CHAOS;HEAD",
        "point_id": "19a267ff",
        "point_name": "松濤公園2",
        "remark": "説明: 南東向き。ベンチから左側まで。実際とは少し違う様子。池の中にある東屋は現在では4本の脚が水面から少し出ているだけで取り払われてしまったようだ。写真撮影日: 2013/03/31関連記事: "
      },
      "type": "Feature"
    },
    {
      "geometry": {
        "coordinates": [
          139.691895,
          35.66066
        ],
        "type": "Point"
      },
      "properties": {
        "bangumi_id": 884,
        "bangumi_title": "混沌头",
        "ep_cut": "",
        "image_url": "https://w.junreimap.com/images/points/884/38e24ce6_1719066961586.jpg",
        "location": "CHAOS;HEAD",
        "point_id": "38e24ce6",
        "point_name": "翠明学園",
        "remark": "説明: 拓巳達が通う私立翠明学園高等学校の校門。CGでは大きく描かれているため、現場に立つとかなり小さく感じる。北西向き。CGでは左右反転。実際には「渋谷区立松濤中学校」。 写真撮影日: 2012/05/03関連記事: "
      },
      "type": "Feature"
    },
    {
      "geometry": {
        "coordinates": [
          139.689651,
          35.659588
        ],
        "type": "Point"
      },
      "properties": {
        "bangumi_id": 884,
        "bangumi_title": "混沌头",
        "ep_cut": "",
        "image_url": "https://w.junreimap.com/images/points/884/5f93d625_1719066962839.jpg",
        "location": "CHAOS;HEAD",
        "point_id": "5f93d625",
        "point_name": "山手通り",
        "remark": "説明: 拓巳の基地の近所。車に轢かれるのを試みながら出来なかった場所。南西向き。写真撮影日: 2012/10/14関連記事: "
      },
      "type": "Feature"
    },
    {
      "geometry": {
        "coordinates": [
          139.693848,
          35.65744
        ],
        "type": "Point"
      },
      "properties": {
        "bangumi_id": 884,
        "bangumi_title": "混沌头",
        "ep_cut": "",
        "image_url": "https://w.junreimap.com/images/points/884/8fe8e74a_1719066963309.jpg",
        "location": "CHAOS;HEAD",
        "point_id": "8fe8e74a",
        "point_name": "神泉駅",
        "remark": "説明: 拓巳の基地最寄りの駅。南南西向き。 写真撮影日: 2013/03/31関連記事: "
      },
      "type": "Feature"
    },
    {
      "geometry": {
        "coordinates": [
          139.693893,
          35.65733
        ],
        "type": "Point"
      },
      "properties": {
        "bangumi_id": 884,
        "bangumi_title": "混沌头",
        "ep_cut": "",
        "image_url": "https://w.junreimap.com/images/points/884/18b2e4eb_1719066964255.jpg",
        "location": "CHAOS;HEAD",
        "point_id": "18b2e4eb",
        "point_name": "神泉駅踏切",
        "remark": "説明: 神泉駅すぐ側の踏切。南向き。CGでは左右反転。写真撮影日: 2013/03/29関連記事: "
      },
      "type": "Feature"
    },
    {
      "geometry": {
        "coordinates": [
          139.694,
          35.657001
        ],
        "type": "Point"
      },
      "properties": {
        "bangumi_id": 884,
        "bangumi_title": "混沌头",
        "ep_cut": "",
        "image_url": "https://w.junreimap.com/images/points/884/cea25b7e_1719066964711.jpg",
        "location": "CHAOS;HEAD",
        "point_id": "cea25b7e",
        "point_name": "神泉コンビニ",
        "remark": "説明: LANSOW。拓巳の基地最寄りのコンビニ。10月17日に人が誰もいなくなったことがわかるきっかけの場所。実際には「ローソン（LAWSON） 神泉駅前」。西向き。 写真撮影日: 2013/03/29関連記事: "
      },
      "type": "Feature"
    },
    {
      "geometry": {
        "coordinates": [
          139.69827,
          35.659092
        ],
        "type": "Point"
      },
      "properties": {
        "bangumi_id": 884,
        "bangumi_title": "混沌头",
        "ep_cut": "",
        "image_url": "https://w.junreimap.com/images/points/884/feb1d473_1719066965498.jpg",
        "location": "CHAOS;HEAD",
        "point_id": "feb1d473",
        "point_name": "KURENAI会館ビル左の建物",
        "remark": "説明: 拓巳が住むKURENAI会館ビルの左の建物。実際には交差点の角にあり、KURENAI会館ビルがあるべき空間には何もない。南南東向き。写真撮影日: 2019/2/16関連記事: "
      },
      "type": "Feature"
    },
    {
      "geometry": {
        "coordinates": [
          139.704086,
          35.659122
        ],
        "type": "Point"
      },
      "properties": {
        "bangumi_id": 884,
        "bangumi_title": "混沌头",
        "ep_cut": "",
        "image_url": "https://w.junreimap.com/images/points/884/9042c5b1_1719066966403.jpg",
        "location": "CHAOS;HEAD",
        "point_id": "9042c5b1",
        "point_name": "神泉町並み",
        "remark": "説明: 作中では神泉として登場するが実際は渋谷2丁目。拓巳が二人の刑事に職務質問を受ける場所。2010年に「渋谷ヒカリエ」が建設される都合で特徴的な建物はほぼなくなっている。東向き。CGでは左右反転。 写真撮影日: 2013/03/31関連記事: "
      },
      "type": "Feature"
    },
    {
      "geometry": {
        "coordinates": [
          139.70311,
          35.657314
        ],
        "type": "Point"
      },
      "properties": {
        "bangumi_id": 884,
        "bangumi_title": "混沌头",
        "ep_cut": "",
        "image_url": "https://w.junreimap.com/images/points/884/eabbb977_1719066967425.jpg",
        "location": "CHAOS;HEAD",
        "point_id": "eabbb977",
        "point_name": "GIGANTES",
        "remark": "説明: あやせがFESとして所属するバンドPHANTASMがライブをしたライブハウス。LCCのあやせルートで現実に戻って来る場所でもある。実際は「渋谷GIG-ANTIC」。東向き。CGでは左右反転。2009年1月31日に閉店し、東急建設株式会社の所有する「イターナル渋谷ビル」とななった後「渋谷駅南街区プロジェクト」により取り壊された。 写真撮影日: 2012/10/14関連記事: http://ch-shibuya.blogspot.jp/2013/11/gigantes.html"
      },
      "type": "Feature"
    },
    {
      "geometry": {
        "coordinates": [
          139.702377,
          35.657825
        ],
        "type": "Point"
      },
      "properties": {
        "bangumi_id": 884,
        "bangumi_title": "混沌头",
        "ep_cut": "",
        "image_url": "https://w.junreimap.com/images/points/884/9925bca8_1719066968731.jpg",
        "location": "CHAOS;HEAD",
        "point_id": "9925bca8",
        "point_name": "玉川通り地下道",
        "remark": "説明: FESにディソードをリアルブートする瞬間を見せてもらった場所。白下着あやせかスク水あやせを選択できるが、iOS版では下着NGのためメイド服になっている。LCCでは梨深と優愛が星来と戦った場所。CGでは左右反転。2013年4月7日23:00に閉鎖。写真撮影日: 2013/03/29関連記事: http://ch-shibuya.blogspot.jp/2013/11/blog-post.html"
      },
      "type": "Feature"
    },
    {
      "geometry": {
        "coordinates": [
          139.70253,
          35.657703
        ],
        "type": "Point"
      },
      "properties": {
        "bangumi_id": 884,
        "bangumi_title": "混沌头",
        "ep_cut": "",
        "image_url": "https://w.junreimap.com/images/points/884/badfcd91_1719066969623.jpg",
        "location": "CHAOS;HEAD",
        "point_id": "badfcd91",
        "point_name": "ガード下",
        "remark": "説明: 「美味い手」の現場付近だったり色々。「一日利用 有料駐車場」と書かれているが、実際は「横断地下道 入り口」。入り口は2013年4月7日に閉鎖された。南西向き。CGでは左右反転。 写真撮影日: 2013/03/29関連記事: "
      },
      "type": "Feature"
    },
    {
      "geometry": {
        "coordinates": [
          139.701859,
          35.662666
        ],
        "type": "Point"
      },
      "properties": {
        "bangumi_id": 884,
        "bangumi_title": "混沌头",
        "ep_cut": "",
        "image_url": "https://w.junreimap.com/images/points/884/cde11890_1719066970572.jpg",
        "location": "CHAOS;HEAD",
        "point_id": "cde11890",
        "point_name": "宮下公園",
        "remark": "説明: ポーターが人を集めているのをセナが止めた場所。たまに波多野がいる場所。LCCであやせルート分岐の場所。Bコート。南向き。2020年7月28日ショッピングモールを有する「MIYASHITA PARK」としてリニューアルオープンした。 写真撮影日: 2013/03/31関連記事: http://ch-shibuya.blogspot.jp/2014/03/4.html"
      },
      "type": "Feature"
    },
    {
      "geometry": {
        "coordinates": [
          139.701782,
          35.663517
        ],
        "type": "Point"
      },
      "properties": {
        "bangumi_id": 884,
        "bangumi_title": "混沌头",
        "ep_cut": "",
        "image_url": "https://w.junreimap.com/images/points/884/915bae29_1719066971234.jpg",
        "location": "CHAOS;HEAD",
        "point_id": "915bae29",
        "point_name": "宮下公園歩道橋",
        "remark": "説明: あやせが歌ってた場所。南向き。 写真撮影日: 2013/03/29関連記事: http://ch-shibuya.blogspot.jp/2014/03/4.html"
      },
      "type": "Feature"
    },
    {
      "geometry": {
        "coordinates": [
          139.70163,
          35.661053
        ],
        "type": "Point"
      },
      "properties": {
        "bangumi_id": 884,
        "bangumi_title": "混沌头",
        "ep_cut": "",
        "image_url": "https://w.junreimap.com/images/points/884/d6c5635f_1719066971656.jpg",
        "location": "CHAOS;HEAD",
        "point_id": "d6c5635f",
        "point_name": "宮下公園フットサル場",
        "remark": "説明: LCCであやせと1on1のサッカーをする場所。Aコート。北向き。現在は再開発工事のため消滅。写真撮影日: 2013/10/16関連記事: http://ch-shibuya.blogspot.jp/2014/03/4.html"
      },
      "type": "Feature"
    },
    {
      "geometry": {
        "coordinates": [
          139.704941,
          35.665783
        ],
        "type": "Point"
      },
      "properties": {
        "bangumi_id": 884,
        "bangumi_title": "混沌头",
        "ep_cut": "",
        "image_url": "https://w.junreimap.com/images/points/884/017e70cf_1719066972805.jpg",
        "location": "CHAOS;HEAD",
        "point_id": "017e70cf",
        "point_name": "キャットストリート",
        "remark": "説明: ディソードを求めてTownVanguardを訪れた際に通った場所。LCCでは梨深、優愛とともにたこ焼きを食べたりした場所。東北東向き。CGでは左右反転。写真撮影日: 2013/3/31関連記事: "
      },
      "type": "Feature"
    },
    {
      "geometry": {
        "coordinates": [
          139.706131,
          35.666687
        ],
        "type": "Point"
      },
      "properties": {
        "bangumi_id": 884,
        "bangumi_title": "混沌头",
        "ep_cut": "",
        "image_url": "https://w.junreimap.com/images/points/884/2f3eddb1_1719067004878.jpg",
        "location": "CHAOS;HEAD",
        "point_id": "2f3eddb1",
        "point_name": "たこ焼き屋",
        "remark": "説明: LCCで梨深、優愛と一緒に星来探しをしていたときに訪れたたこ焼き屋と思われる。写真撮影日: 2013/03/31関連記事:"
      },
      "type": "Feature"
    },
    {
      "geometry": {
        "coordinates": [
          139.701736,
          35.657883
        ],
        "type": "Point"
      },
      "properties": {
        "bangumi_id": 884,
        "bangumi_title": "混沌头",
        "ep_cut": "",
        "image_url": "https://w.junreimap.com/images/points/884/2d2e12fd_1719067005246.jpg",
        "location": "CHAOS;HEAD",
        "point_id": "2d2e12fd",
        "point_name": "立ち食い蕎麦",
        "remark": "説明: LCCで梨深とあやせと優愛が一緒にごはんする場所。梨深はよく来るらしい。無印のときから話には出ていた。実際には「あじさい茶屋 渋谷2号店」山手線2番線ホーム（恵比寿・品川方面、内回り）。東向き。現在は閉店。写真撮影日: 2014/10/13関連記事: http://ch-shibuya.blogspot.jp/2013/10/blog-post.html"
      },
      "type": "Feature"
    },
    {
      "geometry": {
        "coordinates": [
          139.703949,
          35.657803
        ],
        "type": "Point"
      },
      "properties": {
        "bangumi_id": 884,
        "bangumi_title": "混沌头",
        "ep_cut": "",
        "image_url": "https://w.junreimap.com/images/points/884/29c3efa3_1719067005419.jpg",
        "location": "CHAOS;HEAD",
        "point_id": "29c3efa3",
        "point_name": "渋谷警察署",
        "remark": "説明: ニュージェネ捜査本部。さすがに中には入れん。写真撮影日: 2013/03/31 とりあえず外観だけ撮ってきた関連記事: "
      },
      "type": "Feature"
    },
    {
      "geometry": {
        "coordinates": [
          139.700211,
          35.685909
        ],
        "type": "Point"
      },
      "properties": {
        "bangumi_id": 884,
        "bangumi_title": "混沌头",
        "ep_cut": "",
        "image_url": "https://w.junreimap.com/images/points/884/adfbfdc7_1719067005586.jpg",
        "location": "CHAOS;HEAD",
        "point_id": "adfbfdc7",
        "point_name": "AH東京総合病院",
        "remark": "説明: 拓巳が昔通っていたと思い込んでいた病院であり、将軍が入院・潜伏している病院であり、葉月が勤務している病院であり、あやせが担ぎ込まれた病院であり、梨深が地下で監禁実験された病院である。実際は「JR東京総合病院」。南向き。 写真撮影日: 2012/10/14関連記事: "
      },
      "type": "Feature"
    },
    {
      "geometry": {
        "coordinates": [
          139.699829,
          35.685226
        ],
        "type": "Point"
      },
      "properties": {
        "bangumi_id": 884,
        "bangumi_title": "混沌头",
        "ep_cut": "",
        "image_url": "https://w.junreimap.com/images/points/884/dd105620_1719067005757.jpg",
        "location": "CHAOS;HEAD",
        "point_id": "dd105620",
        "point_name": "外来棟屋上",
        "remark": "説明: 判刑事が息絶えた場所であり、あやせが梨深にビンタを喰らわせた場所。写真撮影日: 関連記事:"
      },
      "type": "Feature"
    },
    {
      "geometry": {
        "coordinates": [
          139.700012,
          35.685741
        ],
        "type": "Point"
      },
      "properties": {
        "bangumi_id": 884,
        "bangumi_title": "混沌头",
        "ep_cut": "",
        "image_url": "",
        "location": "CHAOS;HEAD",
        "point_id": "4776331e",
        "point_name": "病棟屋上",
        "remark": "説明: 優愛がギガロマニアックスの力に覚醒した場所。写真撮影日: 関連記事:"
      },
      "type": "Feature"
    },
    {
      "geometry": {
        "coordinates": [
          139.705017,
          35.671097
        ],
        "type": "Point"
      },
      "properties": {
        "bangumi_id": 884,
        "bangumi_title": "混沌头",
        "ep_cut": "",
        "image_url": "https://w.junreimap.com/images/points/884/7a60d15e_1719067006054.jpg",
        "location": "CHAOS;HEAD",
        "point_id": "7a60d15e",
        "point_name": "カエル家",
        "remark": "説明: ゲロカエルん専門店。優愛と判刑事が涙目ゲロカエルんを買いに行った場所。実際は「Eye Wear Shop Sun Style」。北東向き。CGは左右反転。写真撮影日: 2013/03/31関連記事: "
      },
      "type": "Feature"
    },
    {
      "geometry": {
        "coordinates": [
          139.667572,
          35.661335
        ],
        "type": "Point"
      },
      "properties": {
        "bangumi_id": 884,
        "bangumi_title": "混沌头",
        "ep_cut": "",
        "image_url": "https://w.junreimap.com/images/points/884/7e9cefdc_1719067006221.jpg",
        "location": "CHAOS;HEAD",
        "point_id": "7e9cefdc",
        "point_name": "下北沢駅前",
        "remark": "説明: 拓巳が実家に帰るときに通った場所。南向き。写真撮影日: 2013/3/29関連記事: "
      },
      "type": "Feature"
    },
    {
      "geometry": {
        "coordinates": [
          139.667659,
          35.661183
        ],
        "type": "Point"
      },
      "properties": {
        "bangumi_id": 884,
        "bangumi_title": "混沌头",
        "ep_cut": "",
        "image_url": "https://w.junreimap.com/images/points/884/6851bc8a_1719067006404.jpg",
        "location": "CHAOS;HEAD",
        "point_id": "6851bc8a",
        "point_name": "マクディ",
        "remark": "説明: 七海行きつけのファストフード店。作中では渋谷センター街の店舗に通っていると思われるが、背景CGは実際は「マクドナルド下北沢店」。ちなみに下北沢駅前CGでは「WacTikald's」となっている。西の窓際から、東向き。写真撮影日: 2020/1/30関連記事: "
      },
      "type": "Feature"
    },
    {
      "geometry": {
        "coordinates": [
          139.666245,
          35.659039
        ],
        "type": "Point"
      },
      "properties": {
        "bangumi_id": 884,
        "bangumi_title": "混沌头",
        "ep_cut": "",
        "image_url": "https://w.junreimap.com/images/points/884/56afcb42_1719067006620.jpg",
        "location": "CHAOS;HEAD",
        "point_id": "56afcb42",
        "point_name": "下北沢住宅街-メインビジュアル",
        "remark": "説明: 下北沢住宅街CGはいくつかの場所が複合して構成されている。主な風景はここから西を向いて、左右反転している。写真撮影日: 2013/3/29関連記事: "
      },
      "type": "Feature"
    },
    {
      "geometry": {
        "coordinates": [
          139.666214,
          35.659077
        ],
        "type": "Point"
      },
      "properties": {
        "bangumi_id": 884,
        "bangumi_title": "混沌头",
        "ep_cut": "",
        "image_url": "https://w.junreimap.com/images/points/884/4a7299ec_1719067006791.jpg",
        "location": "CHAOS;HEAD",
        "point_id": "4a7299ec",
        "point_name": "下北沢住宅街-赤い車",
        "remark": "説明: 下北沢住宅街CGの左側にある赤い車。CGは左右反転なので実際には右手にある。まあ車なのでいつもそこにあるわけではないと思う。比較しやすいようにCGを左右反転している。写真撮影日: 2013/3/29関連記事: "
      },
      "type": "Feature"
    },
    {
      "geometry": {
        "coordinates": [
          139.663956,
          35.658665
        ],
        "type": "Point"
      },
      "properties": {
        "bangumi_id": 884,
        "bangumi_title": "混沌头",
        "ep_cut": "",
        "image_url": "https://w.junreimap.com/images/points/884/7d51fce0_1719067006962.jpg",
        "location": "CHAOS;HEAD",
        "point_id": "7d51fce0",
        "point_name": "下北沢住宅街-右手前の家",
        "remark": "説明: 下北沢住宅街CGの右手前にある家。CGは左右反転なので実際には左手にある。比較しやすいようにCGを左右反転している。写真撮影日: 2013/3/29関連記事: "
      },
      "type": "Feature"
    },
    {
      "geometry": {
        "coordinates": [
          139.665985,
          35.659046
        ],
        "type": "Point"
      },
      "properties": {
        "bangumi_id": 884,
        "bangumi_title": "混沌头",
        "ep_cut": "",
        "image_url": "https://w.junreimap.com/images/points/884/2c2dc15d_1719067007133.jpg",
        "location": "CHAOS;HEAD",
        "point_id": "2c2dc15d",
        "point_name": "下北沢住宅街-右やや奥の塀",
        "remark": "説明: 電柱広告「はれる屋」の側にある塀。CGは左右反転なので実際には右手にある。比較しやすいようにCGを左右反転している。写真撮影日: 2013/3/29関連記事: "
      },
      "type": "Feature"
    },
    {
      "geometry": {
        "coordinates": [
          139.66481,
          35.658298
        ],
        "type": "Point"
      },
      "properties": {
        "bangumi_id": 884,
        "bangumi_title": "混沌头",
        "ep_cut": "",
        "image_url": "https://w.junreimap.com/images/points/884/48fe939e_1719067007301.jpg",
        "location": "CHAOS;HEAD",
        "point_id": "48fe939e",
        "point_name": "下北沢住宅街-「木餅医院」の電柱広告",
        "remark": "説明: 下北沢住宅街CGの左側にある電柱の広告「耳鼻科　形成外科　木餅医院 代々沢6-45」のモデルっぽい。※写真2枚目はストリートビュー2009年9月より実際には「アレルギー科　皮フ科　大谷医院 代沢5-23」。現在はグループホームの広告になっている。 写真撮影日: 関連記事: "
      },
      "type": "Feature"
    },
    {
      "geometry": {
        "coordinates": [
          133.19932,
          34.409778
        ],
        "type": "Point"
      },
      "properties": {
        "bangumi_id": 884,
        "bangumi_title": "混沌头",
        "ep_cut": "",
        "image_url": "https://w.junreimap.com/images/points/884/6091f74d_1719067007489.jpg",
        "location": "CHAOS;HEAD",
        "point_id": "6091f74d",
        "point_name": "広島-折原家",
        "remark": "説明: 梢が引っ越す前の家の庭と雰囲気が似ている。ただし背景の眺望を優先するなら頂上の千光寺公園展望台の方が近い。なのであくまでも推奨スポットということで。南東向き。写真撮影日: 2016/09/18関連記事: http://ch-shibuya.blogspot.jp/2016/09/blog-post.html"
      },
      "type": "Feature"
    },
    {
      "geometry": {
        "coordinates": [
          139.699524,
          35.656406
        ],
        "type": "Point"
      },
      "properties": {
        "bangumi_id": 884,
        "bangumi_title": "混沌头",
        "ep_cut": "",
        "image_url": "https://w.junreimap.com/images/points/884/65a66cfe_1719067007655.jpg",
        "location": "CHAOS;HEAD",
        "point_id": "65a66cfe",
        "point_name": "乳毛1-集団ダイブ ﾉﾉﾉ---(o||||||´▽｀)oﾉ",
        "remark": "説明: ニュージェネレーションの狂気第1の事件『コーネリアスタワー集団投身自殺事件』通称「集団ダイブ」の現場。実際には「セルリアンタワー」。 写真撮影日: 関連記事: https://ch-shibuya.blogspot.com/2016/05/blog-post.html"
      },
      "type": "Feature"
    },
    {
      "geometry": {
        "coordinates": [
          139.699203,
          35.656563
        ],
        "type": "Point"
      },
      "properties": {
        "bangumi_id": 884,
        "bangumi_title": "混沌头",
        "ep_cut": "",
        "image_url": "https://w.junreimap.com/images/points/884/87436928_1719067007840.jpg",
        "location": "CHAOS;HEAD",
        "point_id": "87436928",
        "point_name": "乳毛1-集団ダイブ墜落地点",
        "remark": "説明: 投身者が墜落した地点。セルリアンタワー北側デッキから歩道を見下ろしたところ。 写真撮影日: 2013/03/31関連記事: https://ch-shibuya.blogspot.com/2016/05/blog-post.html"
      },
      "type": "Feature"
    },
    {
      "geometry": {
        "coordinates": [
          139.729156,
          35.660202
        ],
        "type": "Point"
      },
      "properties": {
        "bangumi_id": 884,
        "bangumi_title": "混沌头",
        "ep_cut": "",
        "image_url": "https://w.junreimap.com/images/points/884/c063b8e3_1719067008027.jpg",
        "location": "CHAOS;HEAD",
        "point_id": "c063b8e3",
        "point_name": "乳毛1-六本木ビルズ",
        "remark": "説明: ニュージェネ第１の事件「集団ダイブ」の現場、コーネリアスタワーの屋上から見える建物。実際には「六本木ヒルズ」。 写真撮影日: 関連記事:"
      },
      "type": "Feature"
    },
    {
      "geometry": {
        "coordinates": [
          139.701233,
          35.659428
        ],
        "type": "Point"
      },
      "properties": {
        "bangumi_id": 884,
        "bangumi_title": "混沌头",
        "ep_cut": "",
        "image_url": "https://w.junreimap.com/images/points/884/4638ffc1_1719067008196.jpg",
        "location": "CHAOS;HEAD",
        "point_id": "4638ffc1",
        "point_name": "乳毛2-妊娠男 ＼(||｀□´||;;＼)",
        "remark": "説明: ニュージェネレーションの狂気第2の事件『渋谷駅ガード下大学生・胎児殺人事件』通称「妊娠男」の遺体が遺棄されていた現場っぽい。カオチャの地図で位置がはっきりしたが、具体的な構図は不明。写真撮影日: 関連記事: https://ch-shibuya.blogspot.com/2016/05/blog-post.html"
      },
      "type": "Feature"
    },
    {
      "geometry": {
        "coordinates": [
          139.695297,
          35.658115
        ],
        "type": "Point"
      },
      "properties": {
        "bangumi_id": 884,
        "bangumi_title": "混沌头",
        "ep_cut": "",
        "image_url": "https://w.junreimap.com/images/points/884/ca5cd518_1719067008593.jpg",
        "location": "CHAOS;HEAD",
        "point_id": "ca5cd518",
        "point_name": "乳毛3-張り付け †|†|(＠□＠)|†|†",
        "remark": "説明: ニュージェネレーションの狂気第3の事件『円山町張り付け殺人事件』通称「張り付け」の現場。西向き。写真撮影日: 2014/4/21関連記事: https://ch-shibuya.blogspot.com/2016/05/blog-post.html"
      },
      "type": "Feature"
    },
    {
      "geometry": {
        "coordinates": [
          139.699295,
          35.658352
        ],
        "type": "Point"
      },
      "properties": {
        "bangumi_id": 884,
        "bangumi_title": "混沌头",
        "ep_cut": "",
        "image_url": "https://w.junreimap.com/images/points/884/92b56110_1719067009581.jpg",
        "location": "CHAOS;HEAD",
        "point_id": "92b56110",
        "point_name": "乳毛4-ヴァンパイ屋 ξ--（;￣ξ￣;)---ξ",
        "remark": "説明: 位置未確認。井乃頭線ホームのトイレ。ニュージェネレーションの狂気第4の事件通称「ヴァンパイ屋」の遺体が遺棄されていた現場。ちなみに被害者のモデルは松原Pらしい。↓こっちの構内図の方がわかりやすい。http://goo.gl/S1voOU 写真撮影日: 2013/03/31（現場が見当たらないので似た場所を撮影）関連記事: https://ch-shibuya.blogspot.com/2016/05/blog-post.html"
      },
      "type": "Feature"
    },
    {
      "geometry": {
        "coordinates": [
          139.702271,
          35.668575
        ],
        "type": "Point"
      },
      "properties": {
        "bangumi_id": 884,
        "bangumi_title": "混沌头",
        "ep_cut": "",
        "image_url": "https://w.junreimap.com/images/points/884/434a2078_1719067011570.jpg",
        "location": "CHAOS;HEAD",
        "point_id": "434a2078",
        "point_name": "乳毛5-ノータリン　へ（´ρ｀）ノ~",
        "remark": "説明: ニュージェネレーションの狂気第5の事件「ノータリン」の遺体遺棄現場。「渋谷区の路上」としか公表されていないが、カオチャの地図でだいたいこのあたりっぽいことがあきらかになった。とはいえ地図外なのでおおよその方向でありもっと病院付近なのかもしれない。 写真撮影日: 関連記事: https://ch-shibuya.blogspot.com/2016/05/blog-post.html"
      },
      "type": "Feature"
    },
    {
      "geometry": {
        "coordinates": [
          139.702988,
          35.657642
        ],
        "type": "Point"
      },
      "properties": {
        "bangumi_id": 884,
        "bangumi_title": "混沌头",
        "ep_cut": "",
        "image_url": "https://w.junreimap.com/images/points/884/7e991b7a_1719067013128.jpg",
        "location": "CHAOS;HEAD",
        "point_id": "7e991b7a",
        "point_name": "乳毛6-美味い手　Ψ(Q^； )Ψ",
        "remark": "説明: ニュージェネレーションの狂気第6の事件「美味い手」の現場。カオヘでは事件当時回想がそばのガード下であることと渋谷川で遺体が発見されたことは明らかになっていたが、カオチャの地図で初めて具体的な位置が分かった。 写真撮影日: 関連記事: https://ch-shibuya.blogspot.com/2016/05/blog-post.html"
      },
      "type": "Feature"
    },
    {
      "geometry": {
        "coordinates": [
          139.704956,
          35.656052
        ],
        "type": "Point"
      },
      "properties": {
        "bangumi_id": 884,
        "bangumi_title": "混沌头",
        "ep_cut": "",
        "image_url": "https://w.junreimap.com/images/points/884/2f730c02_1719067014156.jpg",
        "location": "CHAOS;HEAD",
        "point_id": "2f730c02",
        "point_name": "乳毛7-DQNパズル　(ﾟ∀｡)ﾉ・ω・)ﾉA` )ﾉ",
        "remark": "説明: ニュージェネレーションの狂気第7の事件「DQNパズル」の現場。「線路沿いの鉄塔」という情報しか公表されていなかったがカオチャで具体的な位置が明らかになった。遺体の吊るされた鉄塔は東急東横線のものであるため、路線地下化の都合すでに解体されている。↓ストリートビューで確認できる。http://goo.gl/RwoBfh写真撮影日: 関連記事: https://ch-shibuya.blogspot.com/2016/05/blog-post.html"
      },
      "type": "Feature"
    },
    {
      "geometry": {
        "coordinates": [
          139.703049,
          35.658756
        ],
        "type": "Point"
      },
      "properties": {
        "bangumi_id": 884,
        "bangumi_title": "混沌头",
        "ep_cut": "",
        "image_url": "https://w.junreimap.com/images/points/884/05d0feed_1719067014712.jpg",
        "location": "CHAOS;HEAD",
        "point_id": "05d0feed",
        "point_name": "渋谷-ノアII",
        "remark": "説明: ノアIIのある元プラネタリウム。2003年に閉鎖されたはずだが、実は希が施設として利用していた。実際は「東急文化会館・天文博物館五島プラネタリウム」。2009年には「渋谷ヒカリエ」の建設中だった。写真撮影日: 関連記事:"
      },
      "type": "Feature"
    },
    {
      "geometry": {
        "coordinates": [
          139.697861,
          35.662415
        ],
        "type": "Point"
      },
      "properties": {
        "bangumi_id": 884,
        "bangumi_title": "混沌头",
        "ep_cut": "",
        "image_url": "https://w.junreimap.com/images/points/884/a8f85cf9_1719067021827.jpg",
        "location": "CHAOS;HEAD",
        "point_id": "a8f85cf9",
        "point_name": "おまけ-チェルシーホテル",
        "remark": "説明: PHANTASMが2009年3月14日にリアルブートされ「幻影の黒ミサ」が開かれた場所。元は渋谷GIG-ANTICで予定されていたらしいが、1月31日に閉店したためここになったようだ。写真撮影日: 2013/3/29関連記事:"
      },
      "type": "Feature"
    },
    {
      "geometry": {
        "coordinates": [
          139.710556,
          35.64909
        ],
        "type": "Point"
      },
      "properties": {
        "bangumi_id": 884,
        "bangumi_title": "混沌头",
        "ep_cut": "",
        "image_url": "https://w.junreimap.com/images/points/884/35c0fb15_1719067028984.jpg",
        "location": "CHAOS;HEAD",
        "point_id": "35c0fb15",
        "point_name": "おまけ-LIQUIDROOM",
        "remark": "説明: PHANTASMが2011年7月30日にリアルブートされ「漆黒のミサ (http://5pb.jp/phantasm/)」が開かれた場所。写真撮影日: 関連記事:"
      },
      "type": "Feature"
    }
  ],
  "type": "FeatureCollection"
}