{
  "features": [
    {
      "geometry": {
        "coordinates": [
          139.701126,
          35.662811
        ],
        "type": "Point"
      },
      "properties": {
        "bangumi_id": 88765,
        "bangumi_title": "混沌子",
        "ep_cut": "",
        "image_url": "https://w.junreimap.com/images/points/88765/fcb5ce6d_1719067767742.jpg",
        "location": "CHAOS;CHILD",
        "point_id": "fcb5ce6d",
        "point_name": "乳毛再来1-こっちみんな(o´▽｀)oﾉ",
        "remark": "説明: ニュージェネレーションの狂気の再来第1の事件「こっちみんな」の現場。シャルマン神南マンションズ5階401号室。地図を信じるなら実際はドトールコーヒー本社。写真撮影日: 関連記事:"
      },
      "type": "Feature"
    },
    {
      "geometry": {
        "coordinates": [
          139.70079,
          35.663136
        ],
        "type": "Point"
      },
      "properties": {
        "bangumi_id": 88765,
        "bangumi_title": "混沌子",
        "ep_cut": "",
        "image_url": "https://w.junreimap.com/images/points/88765/304e8923_1719067768461.jpg",
        "location": "CHAOS;CHILD",
        "point_id": "304e8923",
        "point_name": "力士シール1-こっちみんな",
        "remark": "説明: 現場の北西向かいにある「SHIBAX MILEAGE」の壁に貼られていて、南東向きに現場を見ている。実際は「SHIDAX VILLAGE」。写真撮影日: 2014/9/21関連記事: "
      },
      "type": "Feature"
    },
    {
      "geometry": {
        "coordinates": [
          139.691238,
          35.657467
        ],
        "type": "Point"
      },
      "properties": {
        "bangumi_id": 88765,
        "bangumi_title": "混沌子",
        "ep_cut": "",
        "image_url": "https://w.junreimap.com/images/points/88765/8982e376_1719067768742.jpg",
        "location": "CHAOS;CHILD",
        "point_id": "8982e376",
        "point_name": "乳毛再来2-音漏れたん♪＼(|｀□´|＼)",
        "remark": "説明: ニュージェネレーションの狂気の再来第2の事件「音漏れたん」の現場。東向き。写真撮影日: 2014/9/21関連記事: "
      },
      "type": "Feature"
    },
    {
      "geometry": {
        "coordinates": [
          139.691213,
          35.657391
        ],
        "type": "Point"
      },
      "properties": {
        "bangumi_id": 88765,
        "bangumi_title": "混沌子",
        "ep_cut": "",
        "image_url": "https://w.junreimap.com/images/points/88765/44143d16_1719067769276.jpg",
        "location": "CHAOS;CHILD",
        "point_id": "44143d16",
        "point_name": "力士シール2 - 音漏れたん",
        "remark": "説明: 現場の南の街灯に貼ってあり、北向きに現場を見ている。向かいの店の看板に「和風カフェまろ」という文字が見えるが、実際は「レストラン喫茶フレンズ」。写真撮影日: 2015/2/15関連記事: "
      },
      "type": "Feature"
    },
    {
      "geometry": {
        "coordinates": [
          139.696396,
          35.659889
        ],
        "type": "Point"
      },
      "properties": {
        "bangumi_id": 88765,
        "bangumi_title": "混沌子",
        "ep_cut": "",
        "image_url": "https://w.junreimap.com/images/points/88765/089b6c1b_1719067769517.jpg",
        "location": "CHAOS;CHILD",
        "point_id": "089b6c1b",
        "point_name": "乳毛再来3-回転DEAD †|†|(＠□＠)|†|†",
        "remark": "説明: ニュージェネレーションの狂気の再来第3の事件「回転DEAD」の現場。「ラブホテル 妖精のダンス」3階305号室。実際は「HOTEL SK LAZA II」だが室内の様子は違う模様。写真撮影日: 関連記事:"
      },
      "type": "Feature"
    },
    {
      "geometry": {
        "coordinates": [
          139.69635,
          35.659966
        ],
        "type": "Point"
      },
      "properties": {
        "bangumi_id": 88765,
        "bangumi_title": "混沌子",
        "ep_cut": "",
        "image_url": "https://w.junreimap.com/images/points/88765/0602ec1b_1719067769996.jpg",
        "location": "CHAOS;CHILD",
        "point_id": "0602ec1b",
        "point_name": "力士シール3-回転DEAD",
        "remark": "説明: 現場の北西向かいの壁に貼られていて、南東向きに現場を見ている。写真撮影日: 2015/2/15　2014/9/21関連記事: "
      },
      "type": "Feature"
    },
    {
      "geometry": {
        "coordinates": [
          139.697551,
          35.66342
        ],
        "type": "Point"
      },
      "properties": {
        "bangumi_id": 88765,
        "bangumi_title": "混沌子",
        "ep_cut": "",
        "image_url": "https://w.junreimap.com/images/points/88765/49542631_1719067770362.jpg",
        "location": "CHAOS;CHILD",
        "point_id": "49542631",
        "point_name": "乳毛再来4-ごっつぁんデス",
        "remark": "説明: ニュージェネレーションの狂気の再来第4の事件「ごっつぁんデス」の現場。碧朋学園の体育館だが、実際にここにある小学校とは校舎そのものが違うのであくまでも架空の位置となる。写真撮影日: 関連記事:"
      },
      "type": "Feature"
    },
    {
      "geometry": {
        "coordinates": [
          139.703294,
          35.663251
        ],
        "type": "Point"
      },
      "properties": {
        "bangumi_id": 88765,
        "bangumi_title": "混沌子",
        "ep_cut": "",
        "image_url": "https://w.junreimap.com/images/points/88765/cfc16ef2_1719067770743.jpg",
        "location": "CHAOS;CHILD",
        "point_id": "cfc16ef2",
        "point_name": "乳毛再来5-上手に焼けました",
        "remark": "説明: 実際にこの位置には建物が存在しないため、別の場所か架空の場所と思われる。写真撮影日: 関連記事:"
      },
      "type": "Feature"
    },
    {
      "geometry": {
        "coordinates": [
          139.689529,
          35.663965
        ],
        "type": "Point"
      },
      "properties": {
        "bangumi_id": 88765,
        "bangumi_title": "混沌子",
        "ep_cut": "",
        "image_url": "https://w.junreimap.com/images/points/88765/37f4169d_1719067771028.jpg",
        "location": "CHAOS;CHILD",
        "point_id": "37f4169d",
        "point_name": "乳毛再来6-非実在青少女",
        "remark": "説明: マッピングではここになっているが実際には風景が異なるためモデルは別の場所ではないかと推測中。写真撮影日: 関連記事:"
      },
      "type": "Feature"
    },
    {
      "geometry": {
        "coordinates": [
          139.701569,
          35.660339
        ],
        "type": "Point"
      },
      "properties": {
        "bangumi_id": 88765,
        "bangumi_title": "混沌子",
        "ep_cut": "",
        "image_url": "https://w.junreimap.com/images/points/88765/d9a7cd34_1719067771649.jpg",
        "location": "CHAOS;CHILD",
        "point_id": "d9a7cd34",
        "point_name": "拓留の家",
        "remark": "説明: 拓留が住居としているキャンピングカーがある場所。宮下公園南端。北東向き。現在は再開発工事により取り壊されている。写真撮影日: 2014/7/21関連記事: http://ch-shibuya.blogspot.jp/2014/03/4.html"
      },
      "type": "Feature"
    },
    {
      "geometry": {
        "coordinates": [
          139.701456,
          35.660326
        ],
        "type": "Point"
      },
      "properties": {
        "bangumi_id": 88765,
        "bangumi_title": "混沌子",
        "ep_cut": "",
        "image_url": "https://w.junreimap.com/images/points/88765/0fd5d891_1719067772244.jpg",
        "location": "CHAOS;CHILD",
        "point_id": "0fd5d891",
        "point_name": "宮下公園ガード下駐輪場",
        "remark": "説明: パイロキネシストに追い詰められたり、雛絵が殺されそうになったり。拓留のキャンピングカーの目の前。北西向き。写真撮影日: 2015/2/15関連記事: "
      },
      "type": "Feature"
    },
    {
      "geometry": {
        "coordinates": [
          139.701691,
          35.660393
        ],
        "type": "Point"
      },
      "properties": {
        "bangumi_id": 88765,
        "bangumi_title": "混沌子",
        "ep_cut": "",
        "image_url": "https://w.junreimap.com/images/points/88765/df4338da_1719067772681.jpg",
        "location": "CHAOS;CHILD",
        "point_id": "df4338da",
        "point_name": "宮下公園スケート場前",
        "remark": "説明: 拓留のキャンピングカー横の階段を上がってすぐの場所。南のまっちゃんが住んでいるところ。北向き。現在は再開発工事により取り壊されている。写真撮影日: 2014/4/21関連記事: "
      },
      "type": "Feature"
    },
    {
      "geometry": {
        "coordinates": [
          139.701691,
          35.661381
        ],
        "type": "Point"
      },
      "properties": {
        "bangumi_id": 88765,
        "bangumi_title": "混沌子",
        "ep_cut": "",
        "image_url": "https://w.junreimap.com/images/points/88765/1ef1868f_1719067773571.jpg",
        "location": "CHAOS;CHILD",
        "point_id": "1ef1868f",
        "point_name": "宮下公園管理事務所",
        "remark": "説明: 宮下公園の住人が電気代を払いに行く場所。北東向き。写真撮影日: 2014/9/20関連記事: "
      },
      "type": "Feature"
    },
    {
      "geometry": {
        "coordinates": [
          139.697739,
          35.662842
        ],
        "type": "Point"
      },
      "properties": {
        "bangumi_id": 88765,
        "bangumi_title": "混沌子",
        "ep_cut": "",
        "image_url": "https://w.junreimap.com/images/points/88765/b8402dd2_1719067774106.jpg",
        "location": "CHAOS;CHILD",
        "point_id": "b8402dd2",
        "point_name": "私立碧朋学園高等学校",
        "remark": "説明: 拓留たちが通う高校。実際には「渋谷区立神南小学校」。地図によるとここに間違いないのだが、校門をはじめ学校内のCGは別の場所がモデルになっていると思われる。写真撮影日: 関連記事:"
      },
      "type": "Feature"
    },
    {
      "geometry": {
        "coordinates": [
          139.703598,
          35.65773
        ],
        "type": "Point"
      },
      "properties": {
        "bangumi_id": 88765,
        "bangumi_title": "混沌子",
        "ep_cut": "",
        "image_url": "https://w.junreimap.com/images/points/88765/7518a04c_1719067774434.jpg",
        "location": "CHAOS;CHILD",
        "point_id": "7518a04c",
        "point_name": "渋谷警察署",
        "remark": "説明: 雛絵が連行された場所。東向き。写真撮影日: 2014/9/20関連記事: "
      },
      "type": "Feature"
    },
    {
      "geometry": {
        "coordinates": [
          139.702621,
          35.657417
        ],
        "type": "Point"
      },
      "properties": {
        "bangumi_id": 88765,
        "bangumi_title": "混沌子",
        "ep_cut": "",
        "image_url": "https://w.junreimap.com/images/points/88765/859a050b_1719067774794.jpg",
        "location": "CHAOS;CHILD",
        "point_id": "859a050b",
        "point_name": "東急東横線ガード下",
        "remark": "説明: うきと老人が訪れた場所。力士シールだらけになり拓留がカメラを設置する場所。中央やや左に「MAGES.」と書かれていてメタい。現在はこの壁自体が解体済み。ストリートビュー (http://goo.gl/u5EhPt)でなら確認可能。東向き。写真撮影日: 2014/7/21（壁は残っていたがガードで覆われている）関連記事: "
      },
      "type": "Feature"
    },
    {
      "geometry": {
        "coordinates": [
          139.696426,
          35.659298
        ],
        "type": "Point"
      },
      "properties": {
        "bangumi_id": 88765,
        "bangumi_title": "混沌子",
        "ep_cut": "",
        "image_url": "https://w.junreimap.com/images/points/88765/1fcb281c_1719067775423.jpg",
        "location": "CHAOS;CHILD",
        "point_id": "1fcb281c",
        "point_name": "ラブホ街",
        "remark": "説明: プロローグでパイロキネシストが歩いている場所。東向き。写真撮影日: 2014/10/13関連記事: "
      },
      "type": "Feature"
    },
    {
      "geometry": {
        "coordinates": [
          139.696106,
          35.659893
        ],
        "type": "Point"
      },
      "properties": {
        "bangumi_id": 88765,
        "bangumi_title": "混沌子",
        "ep_cut": "",
        "image_url": "https://w.junreimap.com/images/points/88765/5d046868_1719067775747.jpg",
        "location": "CHAOS;CHILD",
        "point_id": "5d046868",
        "point_name": "妖精のダンス前",
        "remark": "説明: ラブホテル「妖精のダンス」前。実際には「HOTEL SK PLAZA II」。東向き。写真撮影日: 2013/3/30（カオヘ用に撮ったもの）関連記事: "
      },
      "type": "Feature"
    },
    {
      "geometry": {
        "coordinates": [
          139.694469,
          35.658067
        ],
        "type": "Point"
      },
      "properties": {
        "bangumi_id": 88765,
        "bangumi_title": "混沌子",
        "ep_cut": "",
        "image_url": "https://w.junreimap.com/images/points/88765/7f4e79fc_1719067776082.jpg",
        "location": "CHAOS;CHILD",
        "point_id": "7f4e79fc",
        "point_name": "カフェLAX",
        "remark": "説明: 新聞部御用達といいつつ、わりと誰でもよく出入りしているお店。実際には「cafeLAX」。梅北ビル2F。北西向き。現在は閉店。写真撮影日: 2014/9/22関連記事: "
      },
      "type": "Feature"
    },
    {
      "geometry": {
        "coordinates": [
          139.701859,
          35.659569
        ],
        "type": "Point"
      },
      "properties": {
        "bangumi_id": 88765,
        "bangumi_title": "混沌子",
        "ep_cut": "",
        "image_url": "https://w.junreimap.com/images/points/88765/e97df18b_1719067776537.jpg",
        "location": "CHAOS;CHILD",
        "point_id": "e97df18b",
        "point_name": "渋谷ヒカリヲ",
        "remark": "説明: プロローグ等に登場する風景。実際には「渋谷ヒカリエ」。南東向き。写真撮影日: 2014/2/16関連記事: "
      },
      "type": "Feature"
    },
    {
      "geometry": {
        "coordinates": [
          139.703259,
          35.658908
        ],
        "type": "Point"
      },
      "properties": {
        "bangumi_id": 88765,
        "bangumi_title": "混沌子",
        "ep_cut": "",
        "image_url": "https://w.junreimap.com/images/points/88765/7640ce03_1719067776876.jpg",
        "location": "CHAOS;CHILD",
        "point_id": "7640ce03",
        "point_name": "ヒカリヲ11階・東側",
        "remark": "説明: 東向き。写真撮影日: 2015/08/30関連記事: "
      },
      "type": "Feature"
    },
    {
      "geometry": {
        "coordinates": [
          139.703178,
          35.658889
        ],
        "type": "Point"
      },
      "properties": {
        "bangumi_id": 88765,
        "bangumi_title": "混沌子",
        "ep_cut": "",
        "image_url": "https://w.junreimap.com/images/points/88765/b5efc4c7_1719067777567.jpg",
        "location": "CHAOS;CHILD",
        "point_id": "b5efc4c7",
        "point_name": "ヒカリヲ11階・西側",
        "remark": "説明: 乃々が……。ヒカリヲ11階。西向き。写真撮影日: 2015/08/30関連記事: "
      },
      "type": "Feature"
    },
    {
      "geometry": {
        "coordinates": [
          139.702739,
          35.660064
        ],
        "type": "Point"
      },
      "properties": {
        "bangumi_id": 88765,
        "bangumi_title": "混沌子",
        "ep_cut": "",
        "image_url": "https://w.junreimap.com/images/points/88765/bf7940ac_1719067777970.jpg",
        "location": "CHAOS;CHILD",
        "point_id": "bf7940ac",
        "point_name": "慰霊碑",
        "remark": "説明: 渋谷大地震で亡くなった人たちの慰霊碑のある広場。架空の空間であり、実際にはビルが立ち並んでいる。北向き。写真撮影日: 関連記事:"
      },
      "type": "Feature"
    },
    {
      "geometry": {
        "coordinates": [
          139.702255,
          35.659416
        ],
        "type": "Point"
      },
      "properties": {
        "bangumi_id": 88765,
        "bangumi_title": "混沌子",
        "ep_cut": "",
        "image_url": "https://w.junreimap.com/images/points/88765/ea755635_1719067778399.jpg",
        "location": "CHAOS;CHILD",
        "point_id": "ea755635",
        "point_name": "渋谷駅東口",
        "remark": "説明: プロローグ等に登場する風景。南向き。実際には旧東急東横線解体、東急百貨店解体、渋谷川移設などの工事が行われているが、作中の視点で見ると地震からの復興作業中のように思えてくる。写真撮影日: 2014/3/22関連記事: "
      },
      "type": "Feature"
    },
    {
      "geometry": {
        "coordinates": [
          139.701147,
          35.659212
        ],
        "type": "Point"
      },
      "properties": {
        "bangumi_id": 88765,
        "bangumi_title": "混沌子",
        "ep_cut": "",
        "image_url": "https://w.junreimap.com/images/points/88765/966fa72c_1719067778997.jpg",
        "location": "CHAOS;CHILD",
        "point_id": "966fa72c",
        "point_name": "渋谷駅改札内",
        "remark": "説明: うきルートで無賃で通過する場所。JR渋谷駅ハチ公口改札内。南向き。写真撮影日: 2015/2/15関連記事: "
      },
      "type": "Feature"
    },
    {
      "geometry": {
        "coordinates": [
          139.70154,
          35.658012
        ],
        "type": "Point"
      },
      "properties": {
        "bangumi_id": 88765,
        "bangumi_title": "混沌子",
        "ep_cut": "",
        "image_url": "https://w.junreimap.com/images/points/88765/f7971573_1719067779490.jpg",
        "location": "CHAOS;CHILD",
        "point_id": "f7971573",
        "point_name": "渋谷駅ホーム",
        "remark": "説明: うきルートで上がったり下りたりする場所。1番ホーム南向きなのだが、詳細な位置が把握できておらず再調査予定。写真撮影日: 2015/2/15関連記事: "
      },
      "type": "Feature"
    },
    {
      "geometry": {
        "coordinates": [
          139.700742,
          35.659251
        ],
        "type": "Point"
      },
      "properties": {
        "bangumi_id": 88765,
        "bangumi_title": "混沌子",
        "ep_cut": "",
        "image_url": "https://w.junreimap.com/images/points/88765/bcded978_1719067779957.jpg",
        "location": "CHAOS;CHILD",
        "point_id": "bcded978",
        "point_name": "渋谷駅前",
        "remark": "説明: 雛絵と待ち合わせしたりする場所。南東向き。写真撮影日: 2015/2/15関連記事: "
      },
      "type": "Feature"
    },
    {
      "geometry": {
        "coordinates": [
          139.700722,
          35.659287
        ],
        "type": "Point"
      },
      "properties": {
        "bangumi_id": 88765,
        "bangumi_title": "混沌子",
        "ep_cut": "",
        "image_url": "https://w.junreimap.com/images/points/88765/dca0eddc_1719067780373.jpg",
        "location": "CHAOS;CHILD",
        "point_id": "dca0eddc",
        "point_name": "スクランブル交差点",
        "remark": "説明: 雛絵がどつかれたり力士マスク集団がいたり。北西向き。写真撮影日: 2015/2/15関連記事: "
      },
      "type": "Feature"
    },
    {
      "geometry": {
        "coordinates": [
          139.700394,
          35.659592
        ],
        "type": "Point"
      },
      "properties": {
        "bangumi_id": 88765,
        "bangumi_title": "混沌子",
        "ep_cut": "",
        "image_url": "https://w.junreimap.com/images/points/88765/9d8928b5_1719067781036.jpg",
        "location": "CHAOS;CHILD",
        "point_id": "9d8928b5",
        "point_name": "バスケットボールストリート",
        "remark": "説明: OPムービーで全裸妄想のシーンの場所。北西向き。写真撮影日: 2014/7/21関連記事: "
      },
      "type": "Feature"
    },
    {
      "geometry": {
        "coordinates": [
          139.700146,
          35.659702
        ],
        "type": "Point"
      },
      "properties": {
        "bangumi_id": 88765,
        "bangumi_title": "混沌子",
        "ep_cut": "",
        "image_url": "https://w.junreimap.com/images/points/88765/6c974245_1719067781409.jpg",
        "location": "CHAOS;CHILD",
        "point_id": "6c974245",
        "point_name": "街頭モニター",
        "remark": "説明: うきルートやトゥルールートで登場する。しかしモニターよりも上のサロンパスの広告の方が印象的だと思う。北西向き。写真撮影日: 2015/4/11関連記事: "
      },
      "type": "Feature"
    },
    {
      "geometry": {
        "coordinates": [
          139.699661,
          35.661865
        ],
        "type": "Point"
      },
      "properties": {
        "bangumi_id": 88765,
        "bangumi_title": "混沌子",
        "ep_cut": "",
        "image_url": "https://w.junreimap.com/images/points/88765/16788f59_1719067782064.jpg",
        "location": "CHAOS;CHILD",
        "point_id": "16788f59",
        "point_name": "PARKU前",
        "remark": "説明: 買い物に行ったりポータル装置が出現したり。実際にはPARCO(パルコ）。北西向き。現在はリニューアルにより建て替えられている。写真撮影日: 2014/7/21関連記事: "
      },
      "type": "Feature"
    },
    {
      "geometry": {
        "coordinates": [
          139.698864,
          35.661356
        ],
        "type": "Point"
      },
      "properties": {
        "bangumi_id": 88765,
        "bangumi_title": "混沌子",
        "ep_cut": "",
        "image_url": "https://w.junreimap.com/images/points/88765/b0ba1850_1719067782414.jpg",
        "location": "CHAOS;CHILD",
        "point_id": "b0ba1850",
        "point_name": "スペイン坂",
        "remark": "説明: 買い物したりとか。北向き。写真撮影日: 2015/4/11関連記事: "
      },
      "type": "Feature"
    },
    {
      "geometry": {
        "coordinates": [
          139.697842,
          35.662347
        ],
        "type": "Point"
      },
      "properties": {
        "bangumi_id": 88765,
        "bangumi_title": "混沌子",
        "ep_cut": "",
        "image_url": "https://w.junreimap.com/images/points/88765/cb41d65b_1719067783167.jpg",
        "location": "CHAOS;CHILD",
        "point_id": "cb41d65b",
        "point_name": "センター街分かれ道",
        "remark": "説明: なんだかんだよく通る。碧朋高校前であり、拓留のキャンピングカーから青葉寮へ向かう際に通る道だと思われる。北西向き。写真撮影日: 2015/2/15関連記事: "
      },
      "type": "Feature"
    },
    {
      "geometry": {
        "coordinates": [
          139.698488,
          35.660856
        ],
        "type": "Point"
      },
      "properties": {
        "bangumi_id": 88765,
        "bangumi_title": "混沌子",
        "ep_cut": "",
        "image_url": "https://w.junreimap.com/images/points/88765/b84ef574_1719067783871.jpg",
        "location": "CHAOS;CHILD",
        "point_id": "b84ef574",
        "point_name": "sasaya",
        "remark": "説明: うきにシャフレラを買ってあげた場所。実際は「ふらわーしょっぷ桃や」。南向き。写真撮影日: 2015/2/15関連記事: "
      },
      "type": "Feature"
    },
    {
      "geometry": {
        "coordinates": [
          139.697311,
          35.660294
        ],
        "type": "Point"
      },
      "properties": {
        "bangumi_id": 88765,
        "bangumi_title": "混沌子",
        "ep_cut": "",
        "image_url": "https://w.junreimap.com/images/points/88765/040efc7c_1719067784765.jpg",
        "location": "CHAOS;CHILD",
        "point_id": "040efc7c",
        "point_name": "東京百貨店本店前",
        "remark": "説明: 実際には「東急百貨店本店」。北西向き。写真撮影日: 2014/7/21関連記事: "
      },
      "type": "Feature"
    },
    {
      "geometry": {
        "coordinates": [
          139.698018,
          35.658484
        ],
        "type": "Point"
      },
      "properties": {
        "bangumi_id": 88765,
        "bangumi_title": "混沌子",
        "ep_cut": "",
        "image_url": "https://w.junreimap.com/images/points/88765/14a31532_1719067785033.jpg",
        "location": "CHAOS;CHILD",
        "point_id": "14a31532",
        "point_name": "サインシティ裏",
        "remark": "説明: うきが歩いていたり拓留と雛絵が杯田理子から逃げたりポータル装置が出現したり。写真撮影日: 2015/2/15関連記事: "
      },
      "type": "Feature"
    },
    {
      "geometry": {
        "coordinates": [
          139.694858,
          35.659986
        ],
        "type": "Point"
      },
      "properties": {
        "bangumi_id": 88765,
        "bangumi_title": "混沌子",
        "ep_cut": "",
        "image_url": "https://w.junreimap.com/images/points/88765/30f90541_1719067785620.jpg",
        "location": "CHAOS;CHILD",
        "point_id": "30f90541",
        "point_name": "碧朋学園学生寮",
        "remark": "説明: 華が住んでいる所。北西向き。写真撮影日: 2015/2/15関連記事: "
      },
      "type": "Feature"
    },
    {
      "geometry": {
        "coordinates": [
          139.689438,
          35.668068
        ],
        "type": "Point"
      },
      "properties": {
        "bangumi_id": 88765,
        "bangumi_title": "混沌子",
        "ep_cut": "",
        "image_url": "https://w.junreimap.com/images/points/88765/b02d5786_1719067786369.jpg",
        "location": "CHAOS;CHILD",
        "point_id": "b02d5786",
        "point_name": "青葉寮",
        "remark": "説明: 拓留と乃々が地震後から暮らしている児童養護施設。寮は2階で、1階は寮長の佐久間が経営する青葉医院となっている。実際には「白滝医院」。西向き。現在は解体されており、白滝医院は近隣へ転居した。写真撮影日: 2014/10/14関連記事: "
      },
      "type": "Feature"
    },
    {
      "geometry": {
        "coordinates": [
          139.689716,
          35.665142
        ],
        "type": "Point"
      },
      "properties": {
        "bangumi_id": 88765,
        "bangumi_title": "混沌子",
        "ep_cut": "",
        "image_url": "",
        "location": "CHAOS;CHILD",
        "point_id": "2d6aa2cf",
        "point_name": "青葉寮-MAP",
        "remark": "説明: マッピングではここに記されているが、実際には北に330mほど行った所にある。写真撮影日: 関連記事:"
      },
      "type": "Feature"
    },
    {
      "geometry": {
        "coordinates": [
          139.702269,
          35.657487
        ],
        "type": "Point"
      },
      "properties": {
        "bangumi_id": 88765,
        "bangumi_title": "混沌子",
        "ep_cut": "",
        "image_url": "https://w.junreimap.com/images/points/88765/da32ff1f_1719067787122.jpg",
        "location": "CHAOS;CHILD",
        "point_id": "da32ff1f",
        "point_name": "246号線ガード下付近階段",
        "remark": "説明: 雛絵とのデートで通ったり、雛絵が突き落とされたりした場所。北西向き。写真撮影時点ではすでに工事が進んでおり再現率が低く残念。写真撮影日: 2015/2/15関連記事: "
      },
      "type": "Feature"
    },
    {
      "geometry": {
        "coordinates": [
          139.706467,
          35.654968
        ],
        "type": "Point"
      },
      "properties": {
        "bangumi_id": 88765,
        "bangumi_title": "混沌子",
        "ep_cut": "",
        "image_url": "https://w.junreimap.com/images/points/88765/a43d5efe_1719067787547.jpg",
        "location": "CHAOS;CHILD",
        "point_id": "a43d5efe",
        "point_name": "新並木橋からの渋谷川",
        "remark": "説明: プロローグ等に登場する風景。現在では右の東急東横線高架線路が解体されたため風景が少し異なる。南東向き。写真撮影日: 2014/3/22（東横線解体前）関連記事: "
      },
      "type": "Feature"
    },
    {
      "geometry": {
        "coordinates": [
          139.700166,
          35.685953
        ],
        "type": "Point"
      },
      "properties": {
        "bangumi_id": 88765,
        "bangumi_title": "混沌子",
        "ep_cut": "",
        "image_url": "https://w.junreimap.com/images/points/88765/3158ca4a_1719067787998.jpg",
        "location": "CHAOS;CHILD",
        "point_id": "3158ca4a",
        "point_name": "AH東京総合病院",
        "remark": "説明: 拓留と世莉架が忍び込んだ病院。うきが住んでいた場所。実際は「JR東京総合病院」。南向き。写真撮影日: 関連記事:"
      },
      "type": "Feature"
    },
    {
      "geometry": {
        "coordinates": [
          139.69897,
          35.686418
        ],
        "type": "Point"
      },
      "properties": {
        "bangumi_id": 88765,
        "bangumi_title": "混沌子",
        "ep_cut": "",
        "image_url": "https://w.junreimap.com/images/points/88765/c4991151_1719067788689.jpg",
        "location": "CHAOS;CHILD",
        "point_id": "c4991151",
        "point_name": "病院横通路",
        "remark": "説明: 南東向き。写真撮影日: 2015/4/13関連記事: "
      },
      "type": "Feature"
    },
    {
      "geometry": {
        "coordinates": [
          139.700534,
          35.651033
        ],
        "type": "Point"
      },
      "properties": {
        "bangumi_id": 88765,
        "bangumi_title": "混沌子",
        "ep_cut": "",
        "image_url": "https://w.junreimap.com/images/points/88765/d8e956b3_1719067789184.jpg",
        "location": "CHAOS;CHILD",
        "point_id": "d8e956b3",
        "point_name": "世莉架の家",
        "remark": "説明: 世莉架が現在住んでいるマンション。写真撮影日: 2015/08/29関連記事: "
      },
      "type": "Feature"
    },
    {
      "geometry": {
        "coordinates": [
          139.702927,
          35.663486
        ],
        "type": "Point"
      },
      "properties": {
        "bangumi_id": 88765,
        "bangumi_title": "混沌子",
        "ep_cut": "",
        "image_url": "https://w.junreimap.com/images/points/88765/f5f398d5_1719067790144.jpg",
        "location": "CHAOS;CHILD",
        "point_id": "f5f398d5",
        "point_name": "世莉架が撮影した写真",
        "remark": "説明: 世莉架が「こっちみんな」の現場付近を撮影してきたと言ってUSBメモリから拓留のノートPCにデータを移した写真。近いといえば近いがまったく関係ない渋谷教育学園渋谷中学高等学校である。写真撮影日: 2014/9/20（CG左上の写真）関連記事: "
      },
      "type": "Feature"
    },
    {
      "geometry": {
        "coordinates": [
          139.706268,
          35.668564
        ],
        "type": "Point"
      },
      "properties": {
        "bangumi_id": 88765,
        "bangumi_title": "混沌子",
        "ep_cut": "",
        "image_url": "https://w.junreimap.com/images/points/88765/cb2dbe63_1719067800222.jpg",
        "location": "CHAOS;CHILD",
        "point_id": "cb2dbe63",
        "point_name": "エッグスンサンクス",
        "remark": "説明: 拓留が妄想の中で乃々への賄賂を買いに行った店。実際は「エッグスンシングス」。渋谷駅近くといっているがむしろ原宿駅近くである。ストリートビューで見ると作中で述べられている通りの状況が写されていてわろた。写真撮影日: 2014/09/22関連記事:"
      },
      "type": "Feature"
    },
    {
      "geometry": {
        "coordinates": [
          139.699542,
          35.662248
        ],
        "type": "Point"
      },
      "properties": {
        "bangumi_id": 88765,
        "bangumi_title": "混沌子",
        "ep_cut": "",
        "image_url": "https://w.junreimap.com/images/points/88765/e67904d6_1719067807554.jpg",
        "location": "CHAOS;CHILD",
        "point_id": "e67904d6",
        "point_name": "牛タン屋",
        "remark": "説明: 華ルートでモンスターから隠れるために下った階段。「牛たん とろろ 麦めし ねぎし 公園通り店」。写真撮影日: 2015/08/31関連記事:"
      },
      "type": "Feature"
    },
    {
      "geometry": {
        "coordinates": [
          139.699262,
          35.662217
        ],
        "type": "Point"
      },
      "properties": {
        "bangumi_id": 88765,
        "bangumi_title": "混沌子",
        "ep_cut": "",
        "image_url": "",
        "location": "CHAOS;CHILD",
        "point_id": "29712f06",
        "point_name": "ポータル装置_パルク前",
        "remark": "説明: 拓留と華が発見したポータル装置。写真撮影日: 関連記事:"
      },
      "type": "Feature"
    },
    {
      "geometry": {
        "coordinates": [
          139.700738,
          35.661101
        ],
        "type": "Point"
      },
      "properties": {
        "bangumi_id": 88765,
        "bangumi_title": "混沌子",
        "ep_cut": "",
        "image_url": "",
        "location": "CHAOS;CHILD",
        "point_id": "bb742403",
        "point_name": "ポータル装置_マルイチ前",
        "remark": "説明: 警察から情報を得たポータル装置の位置写真撮影日: 関連記事:"
      },
      "type": "Feature"
    },
    {
      "geometry": {
        "coordinates": [
          139.703296,
          35.65788
        ],
        "type": "Point"
      },
      "properties": {
        "bangumi_id": 88765,
        "bangumi_title": "混沌子",
        "ep_cut": "",
        "image_url": "",
        "location": "CHAOS;CHILD",
        "point_id": "6d655ed6",
        "point_name": "ポータル装置_警察署前",
        "remark": "説明: 真二から情報を得たポータル装置の位置。写真撮影日: 関連記事:"
      },
      "type": "Feature"
    },
    {
      "geometry": {
        "coordinates": [
          139.70103,
          35.658181
        ],
        "type": "Point"
      },
      "properties": {
        "bangumi_id": 88765,
        "bangumi_title": "混沌子",
        "ep_cut": "",
        "image_url": "",
        "location": "CHAOS;CHILD",
        "point_id": "6fa4ed29",
        "point_name": "ポータル装置_駅南口前",
        "remark": "説明: 真二から情報を得たポータル装置の位置。写真撮影日: 関連記事:"
      },
      "type": "Feature"
    },
    {
      "geometry": {
        "coordinates": [
          139.698131,
          35.65831
        ],
        "type": "Point"
      },
      "properties": {
        "bangumi_id": 88765,
        "bangumi_title": "混沌子",
        "ep_cut": "",
        "image_url": "",
        "location": "CHAOS;CHILD",
        "point_id": "fef54f22",
        "point_name": "ポータル装置_路地裏",
        "remark": "説明: 世莉架から情報を得たポータル装置の位置。写真撮影日: 関連記事:"
      },
      "type": "Feature"
    },
    {
      "geometry": {
        "coordinates": [
          139.699305,
          35.659476
        ],
        "type": "Point"
      },
      "properties": {
        "bangumi_id": 88765,
        "bangumi_title": "混沌子",
        "ep_cut": "",
        "image_url": "",
        "location": "CHAOS;CHILD",
        "point_id": "f003f790",
        "point_name": "ポータル装置_107前",
        "remark": "説明: 世莉架から情報を得たポータル装置の位置。写真撮影日: 関連記事:"
      },
      "type": "Feature"
    },
    {
      "geometry": {
        "coordinates": [
          139.704753,
          35.661008
        ],
        "type": "Point"
      },
      "properties": {
        "bangumi_id": 88765,
        "bangumi_title": "混沌子",
        "ep_cut": "",
        "image_url": "",
        "location": "CHAOS;CHILD",
        "point_id": "a088029e",
        "point_name": "ポータル装置_美竹通り",
        "remark": "説明: 警察から情報を得たポータル装置の位置写真撮影日: 関連記事:"
      },
      "type": "Feature"
    },
    {
      "geometry": {
        "coordinates": [
          139.704906,
          35.659188
        ],
        "type": "Point"
      },
      "properties": {
        "bangumi_id": 88765,
        "bangumi_title": "混沌子",
        "ep_cut": "",
        "image_url": "",
        "location": "CHAOS;CHILD",
        "point_id": "f7b8f31c",
        "point_name": "ポータル装置_青山通り",
        "remark": "説明: 警察から情報を得たポータル装置の位置写真撮影日: 関連記事:"
      },
      "type": "Feature"
    }
  ],
  "type": "FeatureCollection"
}