{
  "features": [
    {
      "geometry": {
        "coordinates": [
          140.017729,
          35.689367
        ],
        "type": "Point"
      },
      "properties": {
        "bangumi_id": 89511,
        "bangumi_title": "BUDDY COMPLEX",
        "ep_cut": "",
        "image_url": "",
        "location": "津田沼",
        "point_id": "51i52ap7h",
        "point_name": "小高商店",
        "remark": ""
      },
      "type": "Feature"
    },
    {
      "geometry": {
        "coordinates": [
          140.016629,
          35.686861
        ],
        "type": "Point"
      },
      "properties": {
        "bangumi_id": 89511,
        "bangumi_title": "BUDDY COMPLEX",
        "ep_cut": "",
        "image_url": "",
        "location": "津田沼",
        "point_id": "51i52ap5h",
        "point_name": "滑り台の公園",
        "remark": ""
      },
      "type": "Feature"
    },
    {
      "geometry": {
        "coordinates": [
          140.016404,
          35.68629
        ],
        "type": "Point"
      },
      "properties": {
        "bangumi_id": 89511,
        "bangumi_title": "BUDDY COMPLEX",
        "ep_cut": "",
        "image_url": "",
        "location": "津田沼",
        "point_id": "51i52ap5b",
        "point_name": "通学路のカーブ",
        "remark": ""
      },
      "type": "Feature"
    },
    {
      "geometry": {
        "coordinates": [
          140.020451,
          35.691001
        ],
        "type": "Point"
      },
      "properties": {
        "bangumi_id": 89511,
        "bangumi_title": "BUDDY COMPLEX",
        "ep_cut": "",
        "image_url": "",
        "location": "津田沼",
        "point_id": "51i52apn3",
        "point_name": "津田沼駅5番線",
        "remark": ""
      },
      "type": "Feature"
    },
    {
      "geometry": {
        "coordinates": [
          139.666995,
          35.676284
        ],
        "type": "Point"
      },
      "properties": {
        "bangumi_id": 89511,
        "bangumi_title": "BUDDY COMPLEX",
        "ep_cut": "",
        "image_url": "",
        "location": "笹塚",
        "point_id": "51i52apqp",
        "point_name": "富士見丘高校前",
        "remark": ""
      },
      "type": "Feature"
    },
    {
      "geometry": {
        "coordinates": [
          139.667782,
          35.676392
        ],
        "type": "Point"
      },
      "properties": {
        "bangumi_id": 89511,
        "bangumi_title": "BUDDY COMPLEX",
        "ep_cut": "",
        "image_url": "",
        "location": "笹塚",
        "point_id": "51i52aq0g",
        "point_name": "電気屋前",
        "remark": ""
      },
      "type": "Feature"
    },
    {
      "geometry": {
        "coordinates": [
          139.66783,
          35.676212
        ],
        "type": "Point"
      },
      "properties": {
        "bangumi_id": 89511,
        "bangumi_title": "BUDDY COMPLEX",
        "ep_cut": "",
        "image_url": "",
        "location": "笹塚",
        "point_id": "51i52apo5",
        "point_name": "松屋前",
        "remark": ""
      },
      "type": "Feature"
    },
    {
      "geometry": {
        "coordinates": [
          139.667851,
          35.676063
        ],
        "type": "Point"
      },
      "properties": {
        "bangumi_id": 89511,
        "bangumi_title": "BUDDY COMPLEX",
        "ep_cut": "",
        "image_url": "",
        "location": "笹塚",
        "point_id": "51i52aqj5",
        "point_name": "みのん歯科医院前",
        "remark": ""
      },
      "type": "Feature"
    },
    {
      "geometry": {
        "coordinates": [
          139.668064,
          35.675872
        ],
        "type": "Point"
      },
      "properties": {
        "bangumi_id": 89511,
        "bangumi_title": "BUDDY COMPLEX",
        "ep_cut": "",
        "image_url": "",
        "location": "笹塚",
        "point_id": "51i52aqv0",
        "point_name": "お茶屋前",
        "remark": ""
      },
      "type": "Feature"
    },
    {
      "geometry": {
        "coordinates": [
          139.668801,
          35.675659
        ],
        "type": "Point"
      },
      "properties": {
        "bangumi_id": 89511,
        "bangumi_title": "BUDDY COMPLEX",
        "ep_cut": "",
        "image_url": "",
        "location": "笹塚",
        "point_id": "51i52aq60",
        "point_name": "栄湯前",
        "remark": ""
      },
      "type": "Feature"
    },
    {
      "geometry": {
        "coordinates": [
          139.668117,
          35.674823
        ],
        "type": "Point"
      },
      "properties": {
        "bangumi_id": 89511,
        "bangumi_title": "BUDDY COMPLEX",
        "ep_cut": "",
        "image_url": "",
        "location": "笹塚",
        "point_id": "51i52aqbn",
        "point_name": "国道20号 不動産屋前",
        "remark": ""
      },
      "type": "Feature"
    },
    {
      "geometry": {
        "coordinates": [
          139.670611,
          35.675557
        ],
        "type": "Point"
      },
      "properties": {
        "bangumi_id": 89511,
        "bangumi_title": "BUDDY COMPLEX",
        "ep_cut": "",
        "image_url": "",
        "location": "笹塚",
        "point_id": "51i52aq62",
        "point_name": "笹塚交差点",
        "remark": ""
      },
      "type": "Feature"
    },
    {
      "geometry": {
        "coordinates": [
          139.670853,
          35.674887
        ],
        "type": "Point"
      },
      "properties": {
        "bangumi_id": 89511,
        "bangumi_title": "BUDDY COMPLEX",
        "ep_cut": "",
        "image_url": "",
        "location": "笹塚",
        "point_id": "51i52aqms",
        "point_name": "高架下",
        "remark": ""
      },
      "type": "Feature"
    },
    {
      "geometry": {
        "coordinates": [
          139.670968,
          35.674546
        ],
        "type": "Point"
      },
      "properties": {
        "bangumi_id": 89511,
        "bangumi_title": "BUDDY COMPLEX",
        "ep_cut": "",
        "image_url": "",
        "location": "笹塚",
        "point_id": "51i52aqpd",
        "point_name": "ロボット起動",
        "remark": ""
      },
      "type": "Feature"
    }
  ],
  "type": "FeatureCollection"
}