{
  "features": [
    {
      "geometry": {
        "coordinates": [
          141.027007,
          38.303234
        ],
        "type": "Point"
      },
      "properties": {
        "bangumi_id": 902,
        "bangumi_title": "神薙",
        "ep_cut": "",
        "image_url": "https://w.junreimap.com/images/points/902/kpx6ouqr6_1731487086212.jpg",
        "location": "多賀城・七ヶ浜",
        "point_id": "kpx6ouqr6",
        "point_name": "多賀城高校",
        "remark": "03話舞台"
      },
      "type": "Feature"
    },
    {
      "geometry": {
        "coordinates": [
          141.026001,
          38.302533
        ],
        "type": "Point"
      },
      "properties": {
        "bangumi_id": 902,
        "bangumi_title": "神薙",
        "ep_cut": "",
        "image_url": "https://w.junreimap.com/images/points/902/kpx6ounnv_1731488134013.jpg",
        "location": "多賀城・七ヶ浜",
        "point_id": "kpx6ounnv",
        "point_name": "多賀城高校",
        "remark": ""
      },
      "type": "Feature"
    },
    {
      "geometry": {
        "coordinates": [
          141.084825,
          38.296052
        ],
        "type": "Point"
      },
      "properties": {
        "bangumi_id": 902,
        "bangumi_title": "神薙",
        "ep_cut": "",
        "image_url": "https://w.junreimap.com/images/points/902/kpx6oumgu_1731487219084.jpg",
        "location": "多賀城・七ヶ浜",
        "point_id": "kpx6oumgu",
        "point_name": "鼻節神社",
        "remark": ""
      },
      "type": "Feature"
    },
    {
      "geometry": {
        "coordinates": [
          141.084853,
          38.295808
        ],
        "type": "Point"
      },
      "properties": {
        "bangumi_id": 902,
        "bangumi_title": "神薙",
        "ep_cut": "",
        "image_url": "https://w.junreimap.com/images/points/902/pzxtwwgcm_1731487497638.jpg",
        "location": "多賀城・七ヶ浜",
        "point_id": "pzxtwwgcm",
        "point_name": "鼻節神社 階段",
        "remark": ""
      },
      "type": "Feature"
    },
    {
      "geometry": {
        "coordinates": [
          141.084856,
          38.295897
        ],
        "type": "Point"
      },
      "properties": {
        "bangumi_id": 902,
        "bangumi_title": "神薙",
        "ep_cut": "",
        "image_url": "https://w.junreimap.com/images/points/902/pzy4aavrq_1731488032586.jpg",
        "location": "多賀城・七ヶ浜",
        "point_id": "pzy4aavrq",
        "point_name": "鼻節神社 神道",
        "remark": ""
      },
      "type": "Feature"
    },
    {
      "geometry": {
        "coordinates": [
          140.968081,
          38.273299
        ],
        "type": "Point"
      },
      "properties": {
        "bangumi_id": 902,
        "bangumi_title": "神薙",
        "ep_cut": "",
        "image_url": "https://w.junreimap.com/images/points/902/kpx6ouu4z_1731485123267.jpg",
        "location": "陸前高砂",
        "point_id": "kpx6ouu4z",
        "point_name": "陸前高砂駅前",
        "remark": ""
      },
      "type": "Feature"
    },
    {
      "geometry": {
        "coordinates": [
          140.966588,
          38.273164
        ],
        "type": "Point"
      },
      "properties": {
        "bangumi_id": 902,
        "bangumi_title": "神薙",
        "ep_cut": "",
        "image_url": "https://w.junreimap.com/images/points/902/kpx6oumy1_1731485072172.jpg",
        "location": "陸前高砂",
        "point_id": "kpx6oumy1",
        "point_name": "陸前高砂駅",
        "remark": ""
      },
      "type": "Feature"
    },
    {
      "geometry": {
        "coordinates": [
          140.966632,
          38.273198
        ],
        "type": "Point"
      },
      "properties": {
        "bangumi_id": 902,
        "bangumi_title": "神薙",
        "ep_cut": "",
        "image_url": "https://w.junreimap.com/images/points/902/kpx6outty_1731485000988.jpg",
        "location": "陸前高砂",
        "point_id": "kpx6outty",
        "point_name": "陸前高砂駅西側踏切",
        "remark": ""
      },
      "type": "Feature"
    },
    {
      "geometry": {
        "coordinates": [
          140.969417,
          38.274131
        ],
        "type": "Point"
      },
      "properties": {
        "bangumi_id": 902,
        "bangumi_title": "神薙",
        "ep_cut": "",
        "image_url": "https://w.junreimap.com/images/points/902/kpx6ouo38_1731485012796.jpg",
        "location": "陸前高砂",
        "point_id": "kpx6ouo38",
        "point_name": "駅東側踏切（ひろとクリニック看板）",
        "remark": "02話舞台2カット"
      },
      "type": "Feature"
    },
    {
      "geometry": {
        "coordinates": [
          140.968449,
          38.274451
        ],
        "type": "Point"
      },
      "properties": {
        "bangumi_id": 902,
        "bangumi_title": "神薙",
        "ep_cut": "",
        "image_url": "https://w.junreimap.com/images/points/902/kpx6ouq2j_1731486083341.jpg",
        "location": "陸前高砂",
        "point_id": "kpx6ouq2j",
        "point_name": "福室半在家公園",
        "remark": "02話舞台"
      },
      "type": "Feature"
    },
    {
      "geometry": {
        "coordinates": [
          140.968492,
          38.277102
        ],
        "type": "Point"
      },
      "properties": {
        "bangumi_id": 902,
        "bangumi_title": "神薙",
        "ep_cut": "",
        "image_url": "https://w.junreimap.com/images/points/902/kpx6ouqpd_1731486256197.jpg",
        "location": "陸前高砂",
        "point_id": "kpx6ouqpd",
        "point_name": "陣宅",
        "remark": ""
      },
      "type": "Feature"
    },
    {
      "geometry": {
        "coordinates": [
          140.968607,
          38.277087
        ],
        "type": "Point"
      },
      "properties": {
        "bangumi_id": 902,
        "bangumi_title": "神薙",
        "ep_cut": "",
        "image_url": "https://w.junreimap.com/images/points/902/kpx6oupuz_1731486287260.jpg",
        "location": "陸前高砂",
        "point_id": "kpx6oupuz",
        "point_name": "陣宅前（遠藤有料駐車場）",
        "remark": "02話、13話舞台"
      },
      "type": "Feature"
    },
    {
      "geometry": {
        "coordinates": [
          140.968476,
          38.278656
        ],
        "type": "Point"
      },
      "properties": {
        "bangumi_id": 902,
        "bangumi_title": "神薙",
        "ep_cut": "",
        "image_url": "https://w.junreimap.com/images/points/902/kpx6ouptj_1731486456884.jpg",
        "location": "陸前高砂",
        "point_id": "kpx6ouptj",
        "point_name": "陣宅周辺",
        "remark": "02話舞台"
      },
      "type": "Feature"
    },
    {
      "geometry": {
        "coordinates": [
          140.968693,
          38.278182
        ],
        "type": "Point"
      },
      "properties": {
        "bangumi_id": 902,
        "bangumi_title": "神薙",
        "ep_cut": "",
        "image_url": "https://w.junreimap.com/images/points/902/kpx6oumce_1731485245453.jpg",
        "location": "陸前高砂",
        "point_id": "kpx6oumce",
        "point_name": "セブンイレブン仙台福室三丁目店",
        "remark": ""
      },
      "type": "Feature"
    },
    {
      "geometry": {
        "coordinates": [
          140.968596,
          38.278447
        ],
        "type": "Point"
      },
      "properties": {
        "bangumi_id": 902,
        "bangumi_title": "神薙",
        "ep_cut": "",
        "image_url": "https://w.junreimap.com/images/points/902/kpx6oun45_1731485355803.jpg",
        "location": "陸前高砂",
        "point_id": "kpx6oun45",
        "point_name": "福室上町南公園",
        "remark": ""
      },
      "type": "Feature"
    },
    {
      "geometry": {
        "coordinates": [
          140.968822,
          38.279507
        ],
        "type": "Point"
      },
      "properties": {
        "bangumi_id": 902,
        "bangumi_title": "神薙",
        "ep_cut": "",
        "image_url": "https://w.junreimap.com/images/points/902/kpx6ounj6_1731485859941.jpg",
        "location": "陸前高砂",
        "point_id": "kpx6ounj6",
        "point_name": "サンクス",
        "remark": ""
      },
      "type": "Feature"
    },
    {
      "geometry": {
        "coordinates": [
          140.968738,
          38.279561
        ],
        "type": "Point"
      },
      "properties": {
        "bangumi_id": 902,
        "bangumi_title": "神薙",
        "ep_cut": "",
        "image_url": "https://w.junreimap.com/images/points/902/kpx6ounvx_1731485852429.jpg",
        "location": "陸前高砂",
        "point_id": "kpx6ounvx",
        "point_name": "サンクス交差点からの橋",
        "remark": ""
      },
      "type": "Feature"
    },
    {
      "geometry": {
        "coordinates": [
          140.968805,
          38.279543
        ],
        "type": "Point"
      },
      "properties": {
        "bangumi_id": 902,
        "bangumi_title": "神薙",
        "ep_cut": "",
        "image_url": "https://w.junreimap.com/images/points/902/kpx6ous92_1731486750710.jpg",
        "location": "陸前高砂",
        "point_id": "kpx6ous92",
        "point_name": "交差点",
        "remark": "13話"
      },
      "type": "Feature"
    },
    {
      "geometry": {
        "coordinates": [
          140.968954,
          38.279657
        ],
        "type": "Point"
      },
      "properties": {
        "bangumi_id": 902,
        "bangumi_title": "神薙",
        "ep_cut": "",
        "image_url": "https://w.junreimap.com/images/points/902/kpx6ousbw_1731486760941.jpg",
        "location": "陸前高砂",
        "point_id": "kpx6ousbw",
        "point_name": "交差点中",
        "remark": "13話"
      },
      "type": "Feature"
    },
    {
      "geometry": {
        "coordinates": [
          140.968628,
          38.279165
        ],
        "type": "Point"
      },
      "properties": {
        "bangumi_id": 902,
        "bangumi_title": "神薙",
        "ep_cut": "",
        "image_url": "https://w.junreimap.com/images/points/902/kpx6outeq_1731486869671.jpg",
        "location": "陸前高砂",
        "point_id": "kpx6outeq",
        "point_name": "交差点南側",
        "remark": "03話"
      },
      "type": "Feature"
    },
    {
      "geometry": {
        "coordinates": [
          140.966137,
          38.281307
        ],
        "type": "Point"
      },
      "properties": {
        "bangumi_id": 902,
        "bangumi_title": "神薙",
        "ep_cut": "",
        "image_url": "https://w.junreimap.com/images/points/902/kpx6ouowe_1731486631692.jpg",
        "location": "陸前高砂",
        "point_id": "kpx6ouowe",
        "point_name": "七北田川",
        "remark": "03話舞台"
      },
      "type": "Feature"
    },
    {
      "geometry": {
        "coordinates": [
          140.966671,
          38.280837
        ],
        "type": "Point"
      },
      "properties": {
        "bangumi_id": 902,
        "bangumi_title": "神薙",
        "ep_cut": "",
        "image_url": "https://w.junreimap.com/images/points/902/kpx6ourj7_1731486552245.jpg",
        "location": "陸前高砂",
        "point_id": "kpx6ourj7",
        "point_name": "七北田川橋下",
        "remark": "03話舞台"
      },
      "type": "Feature"
    },
    {
      "geometry": {
        "coordinates": [
          140.881634,
          38.260835
        ],
        "type": "Point"
      },
      "properties": {
        "bangumi_id": 902,
        "bangumi_title": "神薙",
        "ep_cut": "",
        "image_url": "https://w.junreimap.com/images/points/902/pzwjml8qg_1731484588749.jpg",
        "location": "仙台市街地",
        "point_id": "pzwjml8qg",
        "point_name": "JR仙台駅西口",
        "remark": ""
      },
      "type": "Feature"
    },
    {
      "geometry": {
        "coordinates": [
          140.881548,
          38.260588
        ],
        "type": "Point"
      },
      "properties": {
        "bangumi_id": 902,
        "bangumi_title": "神薙",
        "ep_cut": "",
        "image_url": "https://w.junreimap.com/images/points/902/kpx6our9d_1731483409852.jpg",
        "location": "仙台市街地",
        "point_id": "kpx6our9d",
        "point_name": "JR仙台駅前（Ｈメトロポリタン仙台）",
        "remark": "03話舞台"
      },
      "type": "Feature"
    },
    {
      "geometry": {
        "coordinates": [
          140.880741,
          38.260066
        ],
        "type": "Point"
      },
      "properties": {
        "bangumi_id": 902,
        "bangumi_title": "神薙",
        "ep_cut": "",
        "image_url": "https://w.junreimap.com/images/points/902/kpx6ourbn_1731483388127.jpg",
        "location": "仙台市街地",
        "point_id": "kpx6ourbn",
        "point_name": "JR仙台駅前（ロフト）",
        "remark": "03話舞台"
      },
      "type": "Feature"
    },
    {
      "geometry": {
        "coordinates": [
          140.880877,
          38.26225
        ],
        "type": "Point"
      },
      "properties": {
        "bangumi_id": 902,
        "bangumi_title": "神薙",
        "ep_cut": "",
        "image_url": "https://w.junreimap.com/images/points/902/kpx6ouodn_1731483798977.jpg",
        "location": "仙台市街地",
        "point_id": "kpx6ouodn",
        "point_name": "ハピナ名掛丁 駅前通り",
        "remark": "03話舞台"
      },
      "type": "Feature"
    },
    {
      "geometry": {
        "coordinates": [
          140.87975,
          38.261972
        ],
        "type": "Point"
      },
      "properties": {
        "bangumi_id": 902,
        "bangumi_title": "神薙",
        "ep_cut": "",
        "image_url": "https://w.junreimap.com/images/points/902/pzy0ka6la_1731487820525.jpg",
        "location": "仙台市街地",
        "point_id": "pzy0ka6la",
        "point_name": "ハピナ名掛丁内",
        "remark": ""
      },
      "type": "Feature"
    },
    {
      "geometry": {
        "coordinates": [
          140.878981,
          38.261793
        ],
        "type": "Point"
      },
      "properties": {
        "bangumi_id": 902,
        "bangumi_title": "神薙",
        "ep_cut": "",
        "image_url": "https://w.junreimap.com/images/points/902/kpx6out37_1731483945123.jpg",
        "location": "仙台市街地",
        "point_id": "kpx6out37",
        "point_name": "ハピナ名掛丁 愛宕上杉通1",
        "remark": "06話"
      },
      "type": "Feature"
    },
    {
      "geometry": {
        "coordinates": [
          140.878565,
          38.261751
        ],
        "type": "Point"
      },
      "properties": {
        "bangumi_id": 902,
        "bangumi_title": "神薙",
        "ep_cut": "",
        "image_url": "https://w.junreimap.com/images/points/902/kpx6ous5k_1731484300821.jpg",
        "location": "仙台市街地",
        "point_id": "kpx6ous5k",
        "point_name": "ハピナ名掛丁 愛宕上杉通2",
        "remark": "06話"
      },
      "type": "Feature"
    },
    {
      "geometry": {
        "coordinates": [
          140.872085,
          38.262711
        ],
        "type": "Point"
      },
      "properties": {
        "bangumi_id": 902,
        "bangumi_title": "神薙",
        "ep_cut": "",
        "image_url": "https://w.junreimap.com/images/points/902/kpx6ouowg_1731484015509.jpg",
        "location": "仙台市街地",
        "point_id": "kpx6ouowg",
        "point_name": "シダックス",
        "remark": "10話 男主偶遇幸运星四人"
      },
      "type": "Feature"
    },
    {
      "geometry": {
        "coordinates": [
          140.870301,
          38.263459
        ],
        "type": "Point"
      },
      "properties": {
        "bangumi_id": 902,
        "bangumi_title": "神薙",
        "ep_cut": "",
        "image_url": "https://w.junreimap.com/images/points/902/kpx6ouonw_1731484102938.jpg",
        "location": "仙台市街地",
        "point_id": "kpx6ouonw",
        "point_name": "虎屋横丁",
        "remark": "12話"
      },
      "type": "Feature"
    },
    {
      "geometry": {
        "coordinates": [
          140.86965,
          38.263564
        ],
        "type": "Point"
      },
      "properties": {
        "bangumi_id": 902,
        "bangumi_title": "神薙",
        "ep_cut": "",
        "image_url": "https://w.junreimap.com/images/points/902/kpx6ouoin_1731484368051.jpg",
        "location": "仙台市街地",
        "point_id": "kpx6ouoin",
        "point_name": "サンクス（国分町）",
        "remark": "03話舞台"
      },
      "type": "Feature"
    },
    {
      "geometry": {
        "coordinates": [
          140.869826,
          38.262766
        ],
        "type": "Point"
      },
      "properties": {
        "bangumi_id": 902,
        "bangumi_title": "神薙",
        "ep_cut": "",
        "image_url": "https://w.junreimap.com/images/points/902/kpx6ousis_1731484413468.jpg",
        "location": "仙台市街地",
        "point_id": "kpx6ousis",
        "point_name": "瀬戸勝パーキング前",
        "remark": ""
      },
      "type": "Feature"
    },
    {
      "geometry": {
        "coordinates": [
          140.862181,
          38.262151
        ],
        "type": "Point"
      },
      "properties": {
        "bangumi_id": 902,
        "bangumi_title": "神薙",
        "ep_cut": "",
        "image_url": "https://w.junreimap.com/images/points/902/kpx6out7v_1731484430413.jpg",
        "location": "仙台市街地",
        "point_id": "kpx6out7v",
        "point_name": "西公園",
        "remark": "03話"
      },
      "type": "Feature"
    }
  ],
  "type": "FeatureCollection"
}