{
  "features": [
    {
      "geometry": {
        "coordinates": [
          139.502097,
          35.30664
        ],
        "type": "Point"
      },
      "properties": {
        "bangumi_id": 91222,
        "bangumi_title": "花舞少女",
        "ep_cut": "OP",
        "image_url": "https://w.junreimap.com/images/user/0/bangumi/91222/points/kpwp9eph9-1741538384881.jpg",
        "location": "",
        "point_id": "kpwp9eph9",
        "point_name": "鎌倉高校前一号踏切",
        "remark": "OP，#01「シャル・ウィ・ダンス？」"
      },
      "type": "Feature"
    },
    {
      "geometry": {
        "coordinates": [
          139.483022,
          35.923789
        ],
        "type": "Point"
      },
      "properties": {
        "bangumi_id": 91222,
        "bangumi_title": "花舞少女",
        "ep_cut": "OP",
        "image_url": "https://w.junreimap.com/images/user/0/bangumi/91222/points/kpwp9epex-1741538654331.jpg",
        "location": "",
        "point_id": "kpwp9epex",
        "point_name": "杉養蜂園 川越店",
        "remark": "OP"
      },
      "type": "Feature"
    },
    {
      "geometry": {
        "coordinates": [
          139.564261,
          35.325683
        ],
        "type": "Point"
      },
      "properties": {
        "bangumi_id": 91222,
        "bangumi_title": "花舞少女",
        "ep_cut": 3,
        "image_url": "https://w.junreimap.com/images/user/0/bangumi/91222/points/kpwp9epm3-1741539543101.jpg",
        "location": "",
        "point_id": "kpwp9epm3",
        "point_name": "荏柄天神社",
        "remark": "OP、#01、#03「ガールズ・スタイル」"
      },
      "type": "Feature"
    },
    {
      "geometry": {
        "coordinates": [
          139.483188,
          35.300764
        ],
        "type": "Point"
      },
      "properties": {
        "bangumi_id": 91222,
        "bangumi_title": "花舞少女",
        "ep_cut": "OP",
        "image_url": "https://w.junreimap.com/images/points/91222/kpwp9epho_1753265546866.jpg",
        "location": "",
        "point_id": "kpwp9epho",
        "point_name": "江ノ島 遠景",
        "remark": "OP、ED"
      },
      "type": "Feature"
    },
    {
      "geometry": {
        "coordinates": [
          139.513369,
          35.304367
        ],
        "type": "Point"
      },
      "properties": {
        "bangumi_id": 91222,
        "bangumi_title": "花舞少女",
        "ep_cut": "OP",
        "image_url": "https://w.junreimap.com/images/points/91222/kpwp9epuj_1753265584818.jpg",
        "location": "",
        "point_id": "kpwp9epuj",
        "point_name": "七里ヶ浜 有料駐車場",
        "remark": "OP 拍摄江之岛远景的点位"
      },
      "type": "Feature"
    },
    {
      "geometry": {
        "coordinates": [
          139.515338,
          35.307187
        ],
        "type": "Point"
      },
      "properties": {
        "bangumi_id": 91222,
        "bangumi_title": "花舞少女",
        "ep_cut": "OP",
        "image_url": "https://w.junreimap.com/images/user/0/bangumi/91222/points/kpwp9ep65-1741538959577.jpg",
        "location": "",
        "point_id": "kpwp9ep65",
        "point_name": "七里ヶ浜ゴルフ場 前",
        "remark": "OP"
      },
      "type": "Feature"
    },
    {
      "geometry": {
        "coordinates": [
          139.501986,
          35.306526
        ],
        "type": "Point"
      },
      "properties": {
        "bangumi_id": 91222,
        "bangumi_title": "花舞少女",
        "ep_cut": "",
        "image_url": "https://w.junreimap.com/images/points/91222/kpwp9epv7_1753260619647.jpg",
        "location": "イラスト",
        "point_id": "kpwp9epv7",
        "point_name": "鎌倉高校前１号踏み切り 南側横断歩道",
        "remark": "#メガ切符イラスト"
      },
      "type": "Feature"
    },
    {
      "geometry": {
        "coordinates": [
          139.513911,
          35.304836
        ],
        "type": "Point"
      },
      "properties": {
        "bangumi_id": 91222,
        "bangumi_title": "花舞少女",
        "ep_cut": "",
        "image_url": "https://w.junreimap.com/images/points/91222/kpwp9epkq_1753260559647.jpg",
        "location": "イラスト",
        "point_id": "kpwp9epkq",
        "point_name": "七里ガ浜２号踏み切り 北側横断歩道",
        "remark": "#コラボ入場券イラスト"
      },
      "type": "Feature"
    },
    {
      "geometry": {
        "coordinates": [
          139.502076,
          35.30657
        ],
        "type": "Point"
      },
      "properties": {
        "bangumi_id": 91222,
        "bangumi_title": "花舞少女",
        "ep_cut": 1,
        "image_url": "https://w.junreimap.com/images/user/0/bangumi/91222/points/kpwp9epdn-1741539788168.jpg",
        "location": "",
        "point_id": "kpwp9epdn",
        "point_name": "鎌倉高校前一号踏切 南側",
        "remark": "#01"
      },
      "type": "Feature"
    },
    {
      "geometry": {
        "coordinates": [
          139.534307,
          35.308907
        ],
        "type": "Point"
      },
      "properties": {
        "bangumi_id": 91222,
        "bangumi_title": "花舞少女",
        "ep_cut": 1,
        "image_url": "https://w.junreimap.com/images/points/91222/kpwp9epfn_1753264427357.jpg",
        "location": "",
        "point_id": "kpwp9epfn",
        "point_name": "坂ノ下 134号線沿い",
        "remark": "#01、#02"
      },
      "type": "Feature"
    },
    {
      "geometry": {
        "coordinates": [
          139.548962,
          35.323571
        ],
        "type": "Point"
      },
      "properties": {
        "bangumi_id": 91222,
        "bangumi_title": "花舞少女",
        "ep_cut": 1,
        "image_url": "https://w.junreimap.com/images/user/0/bangumi/91222/points/kpwp9epv2-1741540252517.jpg",
        "location": "",
        "point_id": "kpwp9epv2",
        "point_name": "寿福寺トンネル 北側",
        "remark": "#01、#02「ジェラシー・ローズ」、#04「プリンセス・プリンセス」，#07「ガール・アイデンティティー」"
      },
      "type": "Feature"
    },
    {
      "geometry": {
        "coordinates": [
          139.549965,
          35.322976
        ],
        "type": "Point"
      },
      "properties": {
        "bangumi_id": 91222,
        "bangumi_title": "花舞少女",
        "ep_cut": 1,
        "image_url": "https://w.junreimap.com/images/points/91222/kpwp9ep5v_1753264406574.jpg",
        "location": "",
        "point_id": "kpwp9ep5v",
        "point_name": "焼刃稲荷",
        "remark": "#01、#04"
      },
      "type": "Feature"
    },
    {
      "geometry": {
        "coordinates": [
          139.562715,
          35.323019
        ],
        "type": "Point"
      },
      "properties": {
        "bangumi_id": 91222,
        "bangumi_title": "花舞少女",
        "ep_cut": 1,
        "image_url": "https://w.junreimap.com/images/points/91222/kpwp9ephk_1753264492782.jpg",
        "location": "",
        "point_id": "kpwp9ephk",
        "point_name": "御陵橋",
        "remark": "#01，#04"
      },
      "type": "Feature"
    },
    {
      "geometry": {
        "coordinates": [
          139.533115,
          35.310794
        ],
        "type": "Point"
      },
      "properties": {
        "bangumi_id": 91222,
        "bangumi_title": "花舞少女",
        "ep_cut": 1,
        "image_url": "https://w.junreimap.com/images/points/91222/kpwp9epqc_1753264471358.jpg",
        "location": "",
        "point_id": "kpwp9epqc",
        "point_name": "御霊神社前 踏切",
        "remark": "#01"
      },
      "type": "Feature"
    },
    {
      "geometry": {
        "coordinates": [
          139.553843,
          35.321604
        ],
        "type": "Point"
      },
      "properties": {
        "bangumi_id": 91222,
        "bangumi_title": "花舞少女",
        "ep_cut": 2,
        "image_url": "https://w.junreimap.com/images/points/91222/kpwp9epl6_1753264729940.jpg",
        "location": "",
        "point_id": "kpwp9epl6",
        "point_name": "手打ちそば こ寿々",
        "remark": "#02、#03、#05「ファースト・ステップ」"
      },
      "type": "Feature"
    },
    {
      "geometry": {
        "coordinates": [
          139.552191,
          35.321269
        ],
        "type": "Point"
      },
      "properties": {
        "bangumi_id": 91222,
        "bangumi_title": "花舞少女",
        "ep_cut": 2,
        "image_url": "https://w.junreimap.com/images/points/91222/kpwp9epnk_1753264517509.jpg",
        "location": "",
        "point_id": "kpwp9epnk",
        "point_name": "さくらの夢見屋 小町通り本店",
        "remark": "#02、#03、#05"
      },
      "type": "Feature"
    },
    {
      "geometry": {
        "coordinates": [
          139.552674,
          35.322236
        ],
        "type": "Point"
      },
      "properties": {
        "bangumi_id": 91222,
        "bangumi_title": "花舞少女",
        "ep_cut": 3,
        "image_url": "https://w.junreimap.com/images/points/91222/kpwp9epb8_1753264536974.jpg",
        "location": "",
        "point_id": "kpwp9epb8",
        "point_name": "小町通りゲート",
        "remark": "#03"
      },
      "type": "Feature"
    },
    {
      "geometry": {
        "coordinates": [
          139.5521,
          35.320993
        ],
        "type": "Point"
      },
      "properties": {
        "bangumi_id": 91222,
        "bangumi_title": "花舞少女",
        "ep_cut": 3,
        "image_url": "https://w.junreimap.com/images/points/91222/kpwp9epiv_1753264650461.jpg",
        "location": "",
        "point_id": "kpwp9epiv",
        "point_name": "鎌倉はんなりいなり",
        "remark": "#03"
      },
      "type": "Feature"
    },
    {
      "geometry": {
        "coordinates": [
          139.550829,
          35.318899
        ],
        "type": "Point"
      },
      "properties": {
        "bangumi_id": 91222,
        "bangumi_title": "花舞少女",
        "ep_cut": 3,
        "image_url": "https://w.junreimap.com/images/points/91222/kpwp9ep7b_1753264674965.jpg",
        "location": "",
        "point_id": "kpwp9ep7b",
        "point_name": "鎌倉駅バスターミナル",
        "remark": "#03"
      },
      "type": "Feature"
    },
    {
      "geometry": {
        "coordinates": [
          139.564065,
          35.32551
        ],
        "type": "Point"
      },
      "properties": {
        "bangumi_id": 91222,
        "bangumi_title": "花舞少女",
        "ep_cut": 3,
        "image_url": "https://w.junreimap.com/images/points/91222/kpwp9epd3_1753264360799.jpg",
        "location": "",
        "point_id": "kpwp9epd3",
        "point_name": "荏柄天神社 横歩道",
        "remark": "#03"
      },
      "type": "Feature"
    },
    {
      "geometry": {
        "coordinates": [
          139.548399,
          35.323632
        ],
        "type": "Point"
      },
      "properties": {
        "bangumi_id": 91222,
        "bangumi_title": "花舞少女",
        "ep_cut": 4,
        "image_url": "https://w.junreimap.com/images/points/91222/kpwp9eppl_1753265071306.jpg",
        "location": "",
        "point_id": "kpwp9eppl",
        "point_name": "寿福寺トンネル付近 通路",
        "remark": "#04"
      },
      "type": "Feature"
    },
    {
      "geometry": {
        "coordinates": [
          139.550491,
          35.324709
        ],
        "type": "Point"
      },
      "properties": {
        "bangumi_id": 91222,
        "bangumi_title": "花舞少女",
        "ep_cut": 4,
        "image_url": "https://w.junreimap.com/images/points/91222/kpwp9epgw_1753265055778.jpg",
        "location": "",
        "point_id": "kpwp9epgw",
        "point_name": "寿福寺踏切",
        "remark": "#04"
      },
      "type": "Feature"
    },
    {
      "geometry": {
        "coordinates": [
          139.350371,
          35.328372
        ],
        "type": "Point"
      },
      "properties": {
        "bangumi_id": 91222,
        "bangumi_title": "花舞少女",
        "ep_cut": 5,
        "image_url": "https://w.junreimap.com/images/user/0/bangumi/91222/points/kpwp9ep9f-1741537582951.jpg",
        "location": "平塚",
        "point_id": "kpwp9ep9f",
        "point_name": "平塚ラスカ",
        "remark": "#05"
      },
      "type": "Feature"
    },
    {
      "geometry": {
        "coordinates": [
          139.350009,
          35.328738
        ],
        "type": "Point"
      },
      "properties": {
        "bangumi_id": 91222,
        "bangumi_title": "花舞少女",
        "ep_cut": 5,
        "image_url": "https://w.junreimap.com/images/user/0/bangumi/91222/points/kpwp9epea-1741537179989.jpg",
        "location": "平塚",
        "point_id": "kpwp9epea",
        "point_name": "平塚駅北口 地下道出口",
        "remark": "#05"
      },
      "type": "Feature"
    },
    {
      "geometry": {
        "coordinates": [
          139.34992,
          35.328781
        ],
        "type": "Point"
      },
      "properties": {
        "bangumi_id": 91222,
        "bangumi_title": "花舞少女",
        "ep_cut": 5,
        "image_url": "https://w.junreimap.com/images/points/91222/kpwpbrnuq_1753263981734.jpg",
        "location": "平塚",
        "point_id": "kpwpbrnuq",
        "point_name": "ファーストキッチン平塚店",
        "remark": "#05"
      },
      "type": "Feature"
    },
    {
      "geometry": {
        "coordinates": [
          139.351232,
          35.328963
        ],
        "type": "Point"
      },
      "properties": {
        "bangumi_id": 91222,
        "bangumi_title": "花舞少女",
        "ep_cut": 5,
        "image_url": "https://w.junreimap.com/images/user/0/bangumi/91222/points/kpwp9epun-1741538192134.jpg",
        "location": "平塚",
        "point_id": "kpwp9epun",
        "point_name": "セブンイレブン平塚駅北口店",
        "remark": "#05"
      },
      "type": "Feature"
    },
    {
      "geometry": {
        "coordinates": [
          139.349925,
          35.329037
        ],
        "type": "Point"
      },
      "properties": {
        "bangumi_id": 91222,
        "bangumi_title": "花舞少女",
        "ep_cut": 5,
        "image_url": "https://w.junreimap.com/images/points/91222/kpwp9epqn_1753263949094.jpg",
        "location": "平塚",
        "point_id": "kpwp9epqn",
        "point_name": "不二家 平塚店",
        "remark": "#05"
      },
      "type": "Feature"
    },
    {
      "geometry": {
        "coordinates": [
          139.348418,
          35.328954
        ],
        "type": "Point"
      },
      "properties": {
        "bangumi_id": 91222,
        "bangumi_title": "花舞少女",
        "ep_cut": 5,
        "image_url": "https://w.junreimap.com/images/points/91222/kpwp9epkf_1753264050335.jpg",
        "location": "平塚",
        "point_id": "kpwp9epkf",
        "point_name": "紅谷町パールロード 絹衣",
        "remark": "#05"
      },
      "type": "Feature"
    },
    {
      "geometry": {
        "coordinates": [
          139.348121,
          35.328937
        ],
        "type": "Point"
      },
      "properties": {
        "bangumi_id": 91222,
        "bangumi_title": "花舞少女",
        "ep_cut": 5,
        "image_url": "https://w.junreimap.com/images/user/0/bangumi/91222/points/kpwp9epue-1741538090562.jpg",
        "location": "平塚",
        "point_id": "kpwp9epue",
        "point_name": "紅谷町パールロード ケンタッキーフライドチキン平塚店",
        "remark": "#05"
      },
      "type": "Feature"
    },
    {
      "geometry": {
        "coordinates": [
          139.343097,
          35.329388
        ],
        "type": "Point"
      },
      "properties": {
        "bangumi_id": 91222,
        "bangumi_title": "花舞少女",
        "ep_cut": 5,
        "image_url": "https://w.junreimap.com/images/points/91222/kpwp9ep8y_1753264075157.jpg",
        "location": "平塚",
        "point_id": "kpwp9ep8y",
        "point_name": "見附台広場",
        "remark": "#05（※参考：湘南よさこい祭り2014では、受付やステージイベントの会場になっていました）"
      },
      "type": "Feature"
    },
    {
      "geometry": {
        "coordinates": [
          139.346943,
          35.32942
        ],
        "type": "Point"
      },
      "properties": {
        "bangumi_id": 91222,
        "bangumi_title": "花舞少女",
        "ep_cut": 5,
        "image_url": "https://w.junreimap.com/images/points/91222/kpwp9epem_1753264162742.jpg",
        "location": "平塚",
        "point_id": "kpwp9epem",
        "point_name": "平塚 銀座通り",
        "remark": "#05"
      },
      "type": "Feature"
    },
    {
      "geometry": {
        "coordinates": [
          139.548991,
          35.32347
        ],
        "type": "Point"
      },
      "properties": {
        "bangumi_id": 91222,
        "bangumi_title": "花舞少女",
        "ep_cut": 6,
        "image_url": "https://w.junreimap.com/images/points/91222/kpwp9epfl_1753265261865.jpg",
        "location": "",
        "point_id": "kpwp9epfl",
        "point_name": "寿福寺トンネル 南側",
        "remark": "#06「トライ・トライ・トライ 」"
      },
      "type": "Feature"
    },
    {
      "geometry": {
        "coordinates": [
          139.695464,
          35.658831
        ],
        "type": "Point"
      },
      "properties": {
        "bangumi_id": 91222,
        "bangumi_title": "花舞少女",
        "ep_cut": 6,
        "image_url": "https://w.junreimap.com/images/points/91222/kpwp9ephw_1753257897871.jpg",
        "location": "",
        "point_id": "kpwp9ephw",
        "point_name": "TSUTAYA O-EAST",
        "remark": "#06"
      },
      "type": "Feature"
    },
    {
      "geometry": {
        "coordinates": [
          139.549436,
          35.324243
        ],
        "type": "Point"
      },
      "properties": {
        "bangumi_id": 91222,
        "bangumi_title": "花舞少女",
        "ep_cut": 7,
        "image_url": "https://w.junreimap.com/images/points/91222/kpwp9epw0_1753260904525.jpg",
        "location": "",
        "point_id": "kpwp9epw0",
        "point_name": "寿福寺 鐘楼横",
        "remark": "#07，#08「ミッション・イベント」"
      },
      "type": "Feature"
    },
    {
      "geometry": {
        "coordinates": [
          139.55044,
          35.324072
        ],
        "type": "Point"
      },
      "properties": {
        "bangumi_id": 91222,
        "bangumi_title": "花舞少女",
        "ep_cut": 8,
        "image_url": "https://w.junreimap.com/images/points/91222/kpwp9epkc_1753260892462.jpg",
        "location": "",
        "point_id": "kpwp9epkc",
        "point_name": "寿福寺前 トイレ街灯",
        "remark": "#08"
      },
      "type": "Feature"
    },
    {
      "geometry": {
        "coordinates": [
          139.550928,
          35.318417
        ],
        "type": "Point"
      },
      "properties": {
        "bangumi_id": 91222,
        "bangumi_title": "花舞少女",
        "ep_cut": 8,
        "image_url": "https://w.junreimap.com/images/points/91222/kpwp9eps8_1753260837758.jpg",
        "location": "",
        "point_id": "kpwp9eps8",
        "point_name": "鎌倉 東急ストア",
        "remark": "#08"
      },
      "type": "Feature"
    },
    {
      "geometry": {
        "coordinates": [
          139.500864,
          35.306718
        ],
        "type": "Point"
      },
      "properties": {
        "bangumi_id": 91222,
        "bangumi_title": "花舞少女",
        "ep_cut": 8,
        "image_url": "https://w.junreimap.com/images/points/91222/kpwp9eppo_1753260807256.jpg",
        "location": "",
        "point_id": "kpwp9eppo",
        "point_name": "江ノ島電鉄 鎌倉高校前駅",
        "remark": "#08"
      },
      "type": "Feature"
    },
    {
      "geometry": {
        "coordinates": [
          139.087026,
          35.234269
        ],
        "type": "Point"
      },
      "properties": {
        "bangumi_id": 91222,
        "bangumi_title": "花舞少女",
        "ep_cut": 10,
        "image_url": "https://w.junreimap.com/images/points/91222/kpwp9epva_1753257236494.jpg",
        "location": "箱根",
        "point_id": "kpwp9epva",
        "point_name": "箱根登山鉄道 早川橋梁",
        "remark": "#10「オンセン・ガッシュク」"
      },
      "type": "Feature"
    },
    {
      "geometry": {
        "coordinates": [
          139.101081,
          35.229555
        ],
        "type": "Point"
      },
      "properties": {
        "bangumi_id": 91222,
        "bangumi_title": "花舞少女",
        "ep_cut": 10,
        "image_url": "",
        "location": "箱根",
        "point_id": "kpwp9epjg",
        "point_name": "玉庭",
        "remark": "#10"
      },
      "type": "Feature"
    },
    {
      "geometry": {
        "coordinates": [
          139.01907,
          35.240097
        ],
        "type": "Point"
      },
      "properties": {
        "bangumi_id": 91222,
        "bangumi_title": "花舞少女",
        "ep_cut": 10,
        "image_url": "https://w.junreimap.com/images/points/91222/kpwp9epdy_1753257257478.jpg",
        "location": "箱根",
        "point_id": "kpwp9epdy",
        "point_name": "大涌谷",
        "remark": "#10"
      },
      "type": "Feature"
    },
    {
      "geometry": {
        "coordinates": [
          139.105182,
          35.233404
        ],
        "type": "Point"
      },
      "properties": {
        "bangumi_id": 91222,
        "bangumi_title": "花舞少女",
        "ep_cut": 10,
        "image_url": "https://w.junreimap.com/images/user/0/bangumi/91222/points/kpwp9epr8-1741883467372.jpg",
        "location": "箱根",
        "point_id": "kpwp9epr8",
        "point_name": "湯本大橋",
        "remark": "#10"
      },
      "type": "Feature"
    },
    {
      "geometry": {
        "coordinates": [
          139.10496,
          35.23352
        ],
        "type": "Point"
      },
      "properties": {
        "bangumi_id": 91222,
        "bangumi_title": "花舞少女",
        "ep_cut": 10,
        "image_url": "https://w.junreimap.com/images/points/91222/kpwp9eplx_1753257300038.jpg",
        "location": "箱根",
        "point_id": "kpwp9eplx",
        "point_name": "早川河川敷",
        "remark": "#10"
      },
      "type": "Feature"
    },
    {
      "geometry": {
        "coordinates": [
          140.387136,
          35.765599
        ],
        "type": "Point"
      },
      "properties": {
        "bangumi_id": 91222,
        "bangumi_title": "花舞少女",
        "ep_cut": 11,
        "image_url": "https://w.junreimap.com/images/points/91222/kpwp9eptt_1753257393351.jpg",
        "location": "",
        "point_id": "kpwp9eptt",
        "point_name": "成田空港第１ターミナル駐車場",
        "remark": "#11「スマイル・イズ・フラワー」"
      },
      "type": "Feature"
    },
    {
      "geometry": {
        "coordinates": [
          140.38802,
          35.773517
        ],
        "type": "Point"
      },
      "properties": {
        "bangumi_id": 91222,
        "bangumi_title": "花舞少女",
        "ep_cut": 11,
        "image_url": "https://w.junreimap.com/images/points/91222/kpwp9eptm_1753257416142.jpg",
        "location": "",
        "point_id": "kpwp9eptm",
        "point_name": "成田空港第2ターミナル",
        "remark": "#11"
      },
      "type": "Feature"
    },
    {
      "geometry": {
        "coordinates": [
          139.564832,
          35.324118
        ],
        "type": "Point"
      },
      "properties": {
        "bangumi_id": 91222,
        "bangumi_title": "花舞少女",
        "ep_cut": 12,
        "image_url": "https://w.junreimap.com/images/points/91222/kpwp9eppz_1753257593846.jpg",
        "location": "",
        "point_id": "kpwp9eppz",
        "point_name": "鎌倉市第二小学校横通り 水路付近",
        "remark": "#12「ハナヤマタ」"
      },
      "type": "Feature"
    },
    {
      "geometry": {
        "coordinates": [
          139.552475,
          35.319662
        ],
        "type": "Point"
      },
      "properties": {
        "bangumi_id": 91222,
        "bangumi_title": "花舞少女",
        "ep_cut": 12,
        "image_url": "https://w.junreimap.com/images/points/91222/kpwp9epx0_1753257610534.jpg",
        "location": "",
        "point_id": "kpwp9epx0",
        "point_name": "鶴岡八幡宮 二の鳥居",
        "remark": "#12「ハナヤマタ」"
      },
      "type": "Feature"
    },
    {
      "geometry": {
        "coordinates": [
          139.552712,
          35.319623
        ],
        "type": "Point"
      },
      "properties": {
        "bangumi_id": 91222,
        "bangumi_title": "花舞少女",
        "ep_cut": 12,
        "image_url": "https://w.junreimap.com/images/points/91222/kpwp9epn3_1753257800797.jpg",
        "location": "",
        "point_id": "kpwp9epn3",
        "point_name": "二の鳥居前交差点 駐車場",
        "remark": "#12"
      },
      "type": "Feature"
    },
    {
      "geometry": {
        "coordinates": [
          139.524465,
          35.302669
        ],
        "type": "Point"
      },
      "properties": {
        "bangumi_id": 91222,
        "bangumi_title": "花舞少女",
        "ep_cut": 12,
        "image_url": "https://w.junreimap.com/images/points/91222/kpwp9epki_1753257836381.jpg",
        "location": "",
        "point_id": "kpwp9epki",
        "point_name": "鎌倉海浜公園 稲村ガ崎地区",
        "remark": "#12"
      },
      "type": "Feature"
    },
    {
      "geometry": {
        "coordinates": [
          139.552234,
          35.307182
        ],
        "type": "Point"
      },
      "properties": {
        "bangumi_id": 91222,
        "bangumi_title": "花舞少女",
        "ep_cut": 12,
        "image_url": "https://w.junreimap.com/images/points/91222/kpwp9epo8_1753257844005.jpg",
        "location": "",
        "point_id": "kpwp9epo8",
        "point_name": "九品寺前交差点",
        "remark": "#12"
      },
      "type": "Feature"
    },
    {
      "geometry": {
        "coordinates": [
          139.523942,
          35.302925
        ],
        "type": "Point"
      },
      "properties": {
        "bangumi_id": 91222,
        "bangumi_title": "花舞少女",
        "ep_cut": 12,
        "image_url": "https://w.junreimap.com/images/points/91222/kpwp9epag_1753257963725.jpg",
        "location": "",
        "point_id": "kpwp9epag",
        "point_name": "稲村ヶ崎海岸 トンネル前",
        "remark": "#12"
      },
      "type": "Feature"
    },
    {
      "geometry": {
        "coordinates": [
          139.523926,
          35.302807
        ],
        "type": "Point"
      },
      "properties": {
        "bangumi_id": 91222,
        "bangumi_title": "花舞少女",
        "ep_cut": 12,
        "image_url": "https://w.junreimap.com/images/points/91222/kpwpbro7p_1753257975443.jpg",
        "location": "",
        "point_id": "kpwpbro7p",
        "point_name": "稲村ヶ崎海岸 堤防",
        "remark": "#12"
      },
      "type": "Feature"
    }
  ],
  "type": "FeatureCollection"
}