{
  "features": [
    {
      "geometry": {
        "coordinates": [
          135.192079,
          34.701781
        ],
        "type": "Point"
      },
      "properties": {
        "bangumi_id": 935,
        "bangumi_title": "Fate/stay night",
        "ep_cut": "",
        "image_url": "https://w.junreimap.com/images/user/0/bangumi/935/points/3wznkvp-1755535617752.jpg",
        "location": "",
        "point_id": "3wznkvp",
        "point_name": "o遠坂邸付近の街並-(昼)",
        "remark": "游戏场景图"
      },
      "type": "Feature"
    },
    {
      "geometry": {
        "coordinates": [
          -0.449938,
          47.352865
        ],
        "type": "Point"
      },
      "properties": {
        "bangumi_id": 935,
        "bangumi_title": "Fate/stay night",
        "ep_cut": "",
        "image_url": "https://w.junreimap.com/images/user/0/bangumi/935/points/ftkb72q-1781450503155.jpg",
        "location": "",
        "point_id": "ftkb72q",
        "point_name": "Château de Brissac",
        "remark": "爱因兹贝伦城堡的原型"
      },
      "type": "Feature"
    },
    {
      "geometry": {
        "coordinates": [
          -1.611384,
          53.22772
        ],
        "type": "Point"
      },
      "properties": {
        "bangumi_id": 935,
        "bangumi_title": "Fate/stay night",
        "ep_cut": 15,
        "image_url": "https://w.junreimap.com/images/user/0/bangumi/935/points/gf18q4z-1782748009286.webp",
        "location": "",
        "point_id": "gf18q4z",
        "point_name": "Chatsworth House",
        "remark": "爱因兹贝伦城堡内景"
      },
      "type": "Feature"
    }
  ],
  "type": "FeatureCollection"
}