{
  "features": [
    {
      "geometry": {
        "coordinates": [
          139.767617,
          35.68421
        ],
        "type": "Point"
      },
      "properties": {
        "bangumi_id": 93714,
        "bangumi_title": "东京喰种",
        "ep_cut": "",
        "image_url": "https://w.junreimap.com/images/user/1099/bangumi/93714/points/p8fjjlhxi-1729331747440.jpg",
        "location": "",
        "point_id": "p8fjjlhxi",
        "point_name": "丸の内室町線",
        "remark": ""
      },
      "type": "Feature"
    },
    {
      "geometry": {
        "coordinates": [
          139.704401,
          35.695004
        ],
        "type": "Point"
      },
      "properties": {
        "bangumi_id": 93714,
        "bangumi_title": "东京喰种",
        "ep_cut": 1,
        "image_url": "https://w.junreimap.com/images/user/1099/bangumi/93714/points/p8c1uwvz7-1729324139657.jpg",
        "location": "",
        "point_id": "p8c1uwvz7",
        "point_name": "新宿区役所",
        "remark": "位于Kuyakusho-dori前的十字路口"
      },
      "type": "Feature"
    },
    {
      "geometry": {
        "coordinates": [
          139.711012,
          35.665795
        ],
        "type": "Point"
      },
      "properties": {
        "bangumi_id": 93714,
        "bangumi_title": "东京喰种",
        "ep_cut": 1,
        "image_url": "https://w.junreimap.com/images/user/1099/bangumi/93714/points/p8cbpec80-1729324891008.jpg",
        "location": "",
        "point_id": "p8cbpec80",
        "point_name": "ジョルジオ アルマーニ / アルマーニカフェ 表参道店",
        "remark": "阿玛尼 表参店\n根据左下角二轮车区间的标识牌，拍摄角度应该是在马路上，俯视的角度往阿玛尼商店方向拍摄"
      },
      "type": "Feature"
    },
    {
      "geometry": {
        "coordinates": [
          139.709134,
          35.666611
        ],
        "type": "Point"
      },
      "properties": {
        "bangumi_id": 93714,
        "bangumi_title": "东京喰种",
        "ep_cut": 1,
        "image_url": "https://w.junreimap.com/images/user/1099/bangumi/93714/points/p8c5fxklq-1729324574432.jpg",
        "location": "",
        "point_id": "p8c5fxklq",
        "point_name": "ルイ･ヴィトン 表参道店",
        "remark": "LV 表参道店"
      },
      "type": "Feature"
    },
    {
      "geometry": {
        "coordinates": [
          139.708218,
          35.667179
        ],
        "type": "Point"
      },
      "properties": {
        "bangumi_id": 93714,
        "bangumi_title": "东京喰种",
        "ep_cut": 1,
        "image_url": "https://w.junreimap.com/images/user/1099/bangumi/93714/points/p8cgw1d6f-1729325092063.jpg",
        "location": "",
        "point_id": "p8cgw1d6f",
        "point_name": "MM6 Maison Margiela Omotesando",
        "remark": "人行道"
      },
      "type": "Feature"
    },
    {
      "geometry": {
        "coordinates": [
          139.767608,
          35.684198
        ],
        "type": "Point"
      },
      "properties": {
        "bangumi_id": 93714,
        "bangumi_title": "东京喰种",
        "ep_cut": 1,
        "image_url": "https://w.junreimap.com/images/user/1099/bangumi/93714/points/p8fljbzuc-1729331899175.jpg",
        "location": "",
        "point_id": "p8fljbzuc",
        "point_name": "丸の内室町線",
        "remark": ""
      },
      "type": "Feature"
    },
    {
      "geometry": {
        "coordinates": [
          139.580502,
          35.703372
        ],
        "type": "Point"
      },
      "properties": {
        "bangumi_id": 93714,
        "bangumi_title": "东京喰种",
        "ep_cut": 1,
        "image_url": "https://w.junreimap.com/images/user/1099/bangumi/93714/points/p8fatlvk0-1729331218767.jpg",
        "location": "",
        "point_id": "p8fatlvk0",
        "point_name": "武蔵野警察署 吉祥寺駅東口交番",
        "remark": ""
      },
      "type": "Feature"
    },
    {
      "geometry": {
        "coordinates": [
          139.700943,
          35.693741
        ],
        "type": "Point"
      },
      "properties": {
        "bangumi_id": 93714,
        "bangumi_title": "东京喰种",
        "ep_cut": 1,
        "image_url": "https://w.junreimap.com/images/user/1099/bangumi/93714/points/p8cmzth4a-1729325494961.jpg",
        "location": "",
        "point_id": "p8cmzth4a",
        "point_name": "歌舞伎町一番街前",
        "remark": ""
      },
      "type": "Feature"
    },
    {
      "geometry": {
        "coordinates": [
          139.703644,
          35.73021
        ],
        "type": "Point"
      },
      "properties": {
        "bangumi_id": 93714,
        "bangumi_title": "东京喰种",
        "ep_cut": 2,
        "image_url": "https://w.junreimap.com/images/points/93714/p8ne3iffw_1729351440240.jpg",
        "location": "",
        "point_id": "p8ne3iffw",
        "point_name": "立教大学11号馆",
        "remark": ""
      },
      "type": "Feature"
    },
    {
      "geometry": {
        "coordinates": [
          139.578195,
          35.703422
        ],
        "type": "Point"
      },
      "properties": {
        "bangumi_id": 93714,
        "bangumi_title": "东京喰种",
        "ep_cut": 2,
        "image_url": "https://w.junreimap.com/images/user/1099/bangumi/93714/points/p8ezqghym-1729330538412.jpg",
        "location": "",
        "point_id": "p8ezqghym",
        "point_name": "アシックスウォーキング 吉祥寺",
        "remark": ""
      },
      "type": "Feature"
    },
    {
      "geometry": {
        "coordinates": [
          139.579778,
          35.703455
        ],
        "type": "Point"
      },
      "properties": {
        "bangumi_id": 93714,
        "bangumi_title": "东京喰种",
        "ep_cut": 2,
        "image_url": "https://w.junreimap.com/images/user/1099/bangumi/93714/points/p8f7f7uox-1729331003858.jpg",
        "location": "",
        "point_id": "p8f7f7uox",
        "point_name": "吉祥寺駅",
        "remark": "吉祥寺駅北口"
      },
      "type": "Feature"
    },
    {
      "geometry": {
        "coordinates": [
          139.700936,
          35.692083
        ],
        "type": "Point"
      },
      "properties": {
        "bangumi_id": 93714,
        "bangumi_title": "东京喰种",
        "ep_cut": 3,
        "image_url": "https://w.junreimap.com/images/user/1099/bangumi/93714/points/p8cwoe6m1-1729326169103.jpg",
        "location": "",
        "point_id": "p8cwoe6m1",
        "point_name": "新宿駅 東口",
        "remark": "新宿駅 東口出来，朝东北方向"
      },
      "type": "Feature"
    },
    {
      "geometry": {
        "coordinates": [
          139.70094,
          35.692078
        ],
        "type": "Point"
      },
      "properties": {
        "bangumi_id": 93714,
        "bangumi_title": "东京喰种",
        "ep_cut": 3,
        "image_url": "https://w.junreimap.com/images/user/1099/bangumi/93714/points/p8d0h74ce-1729326229641.jpg",
        "location": "",
        "point_id": "p8d0h74ce",
        "point_name": "新宿駅 東口",
        "remark": "背后的墙已经安装成新宿駅的周边地图了"
      },
      "type": "Feature"
    },
    {
      "geometry": {
        "coordinates": [
          139.611158,
          35.739463
        ],
        "type": "Point"
      },
      "properties": {
        "bangumi_id": 93714,
        "bangumi_title": "东京喰种",
        "ep_cut": 3,
        "image_url": "https://w.junreimap.com/images/user/1099/bangumi/93714/points/p8d7dahh3-1729326666486.jpg",
        "location": "",
        "point_id": "p8d7dahh3",
        "point_name": "南田中橋",
        "remark": ""
      },
      "type": "Feature"
    },
    {
      "geometry": {
        "coordinates": [
          139.611161,
          35.739477
        ],
        "type": "Point"
      },
      "properties": {
        "bangumi_id": 93714,
        "bangumi_title": "东京喰种",
        "ep_cut": 3,
        "image_url": "https://w.junreimap.com/images/user/1099/bangumi/93714/points/p8d8xy786-1729326770643.jpg",
        "location": "",
        "point_id": "p8d8xy786",
        "point_name": "南田中橋",
        "remark": ""
      },
      "type": "Feature"
    },
    {
      "geometry": {
        "coordinates": [
          139.611142,
          35.739513
        ],
        "type": "Point"
      },
      "properties": {
        "bangumi_id": 93714,
        "bangumi_title": "东京喰种",
        "ep_cut": 3,
        "image_url": "https://w.junreimap.com/images/user/1099/bangumi/93714/points/p8dbxgojy-1729326924282.jpg",
        "location": "",
        "point_id": "p8dbxgojy",
        "point_name": "南田中橋",
        "remark": ""
      },
      "type": "Feature"
    },
    {
      "geometry": {
        "coordinates": [
          139.579083,
          35.702303
        ],
        "type": "Point"
      },
      "properties": {
        "bangumi_id": 93714,
        "bangumi_title": "东京喰种",
        "ep_cut": 6,
        "image_url": "https://w.junreimap.com/images/user/1099/bangumi/93714/points/p8oaflduf-1729350808644.jpg",
        "location": "",
        "point_id": "p8oaflduf",
        "point_name": "IIIISUIT SELECT 吉祥寺南",
        "remark": ""
      },
      "type": "Feature"
    },
    {
      "geometry": {
        "coordinates": [
          139.578841,
          35.702143
        ],
        "type": "Point"
      },
      "properties": {
        "bangumi_id": 93714,
        "bangumi_title": "东京喰种",
        "ep_cut": 6,
        "image_url": "https://w.junreimap.com/images/user/1099/bangumi/93714/points/p8o78h63f-1729350713016.jpg",
        "location": "",
        "point_id": "p8o78h63f",
        "point_name": "IIIISUIT SELECT 吉祥寺南",
        "remark": "吉祥寺南口出来直走"
      },
      "type": "Feature"
    },
    {
      "geometry": {
        "coordinates": [
          139.57873,
          35.702188
        ],
        "type": "Point"
      },
      "properties": {
        "bangumi_id": 93714,
        "bangumi_title": "东京喰种",
        "ep_cut": 6,
        "image_url": "https://w.junreimap.com/images/user/1099/bangumi/93714/points/p8og6pwul-1729351128322.jpg",
        "location": "",
        "point_id": "p8og6pwul",
        "point_name": "ニッシュ Hair salon",
        "remark": ""
      },
      "type": "Feature"
    },
    {
      "geometry": {
        "coordinates": [
          139.667256,
          35.739285
        ],
        "type": "Point"
      },
      "properties": {
        "bangumi_id": 93714,
        "bangumi_title": "东京喰种",
        "ep_cut": 7,
        "image_url": "https://w.junreimap.com/images/user/1099/bangumi/93714/points/p8dxoh4vn-1729328250980.jpg",
        "location": "",
        "point_id": "p8dxoh4vn",
        "point_name": "ヘアーサロン牛丸",
        "remark": "铁路桥下方的通道"
      },
      "type": "Feature"
    },
    {
      "geometry": {
        "coordinates": [
          139.667021,
          35.739361
        ],
        "type": "Point"
      },
      "properties": {
        "bangumi_id": 93714,
        "bangumi_title": "东京喰种",
        "ep_cut": 7,
        "image_url": "https://w.junreimap.com/images/user/1099/bangumi/93714/points/p8e090sgm-1729328401848.jpg",
        "location": "",
        "point_id": "p8e090sgm",
        "point_name": "東和シリンダー工業（株）",
        "remark": ""
      },
      "type": "Feature"
    },
    {
      "geometry": {
        "coordinates": [
          139.667257,
          35.739296
        ],
        "type": "Point"
      },
      "properties": {
        "bangumi_id": 93714,
        "bangumi_title": "东京喰种",
        "ep_cut": 7,
        "image_url": "https://w.junreimap.com/images/user/1099/bangumi/93714/points/p8e3n6c27-1729328639772.jpg",
        "location": "",
        "point_id": "p8e3n6c27",
        "point_name": "環七通り",
        "remark": ""
      },
      "type": "Feature"
    },
    {
      "geometry": {
        "coordinates": [
          139.667212,
          35.739311
        ],
        "type": "Point"
      },
      "properties": {
        "bangumi_id": 93714,
        "bangumi_title": "东京喰种",
        "ep_cut": 7,
        "image_url": "https://w.junreimap.com/images/user/1099/bangumi/93714/points/p8e52jwkf-1729328724838.jpg",
        "location": "",
        "point_id": "p8e52jwkf",
        "point_name": "ヘアーサロン牛丸",
        "remark": "位置在桥下"
      },
      "type": "Feature"
    },
    {
      "geometry": {
        "coordinates": [
          139.702023,
          35.661742
        ],
        "type": "Point"
      },
      "properties": {
        "bangumi_id": 93714,
        "bangumi_title": "东京喰种",
        "ep_cut": 9,
        "image_url": "https://w.junreimap.com/images/user/1099/bangumi/93714/points/p8blfpeba-1729323187878.jpg",
        "location": "",
        "point_id": "p8blfpeba",
        "point_name": "Miyashita Park",
        "remark": "原本是公园的楼梯，2016年升级改造后已拆除，现在是座商城"
      },
      "type": "Feature"
    },
    {
      "geometry": {
        "coordinates": [
          139.667339,
          35.739323
        ],
        "type": "Point"
      },
      "properties": {
        "bangumi_id": 93714,
        "bangumi_title": "东京喰种",
        "ep_cut": 33,
        "image_url": "https://w.junreimap.com/images/user/1099/bangumi/93714/points/p8e8pkumy-1729328915677.jpg",
        "location": "",
        "point_id": "p8e8pkumy",
        "point_name": "ヘアーサロン牛丸",
        "remark": "董香和CCG搜查官真户吴绪对战的地方"
      },
      "type": "Feature"
    },
    {
      "geometry": {
        "coordinates": [
          139.714112,
          35.729447
        ],
        "type": "Point"
      },
      "properties": {
        "bangumi_id": 93714,
        "bangumi_title": "东京喰种",
        "ep_cut": 1,
        "image_url": "https://w.junreimap.com/images/user/1099/bangumi/93714/points/pfxcbvfqi-1729919069953.jpg",
        "location": "",
        "point_id": "pfxcbvfqi",
        "point_name": "Milky Way Cafe パフェテラスミルキーウェイ",
        "remark": "金木和利世约会（？）的地方"
      },
      "type": "Feature"
    },
    {
      "geometry": {
        "coordinates": [
          139.741222,
          35.712392
        ],
        "type": "Point"
      },
      "properties": {
        "bangumi_id": 93714,
        "bangumi_title": "东京喰种",
        "ep_cut": 1,
        "image_url": "https://w.junreimap.com/images/user/1099/bangumi/93714/points/pfzo5tlmg-1729924101693.jpg",
        "location": "",
        "point_id": "pfzo5tlmg",
        "point_name": "文京区立春日二丁目児童遊園",
        "remark": ""
      },
      "type": "Feature"
    },
    {
      "geometry": {
        "coordinates": [
          139.704404,
          35.695058
        ],
        "type": "Point"
      },
      "properties": {
        "bangumi_id": 93714,
        "bangumi_title": "东京喰种",
        "ep_cut": 1,
        "image_url": "https://w.junreimap.com/images/user/1099/bangumi/93714/points/pfzwerbtx-1729924611263.jpg",
        "location": "",
        "point_id": "pfzwerbtx",
        "point_name": "野郎寿司 新宿本店",
        "remark": ""
      },
      "type": "Feature"
    },
    {
      "geometry": {
        "coordinates": [
          139.779474,
          35.627444
        ],
        "type": "Point"
      },
      "properties": {
        "bangumi_id": 93714,
        "bangumi_title": "东京喰种",
        "ep_cut": 11,
        "image_url": "https://w.junreimap.com/images/user/1099/bangumi/93714/points/q03q1d00l-1731500247394.jpg",
        "location": "",
        "point_id": "q03q1d00l",
        "point_name": "東京テレポート駅前",
        "remark": "CCG集结的停车场，位于台场，视角在车站上方的步行桥"
      },
      "type": "Feature"
    },
    {
      "geometry": {
        "coordinates": [
          139.776802,
          35.625888
        ],
        "type": "Point"
      },
      "properties": {
        "bangumi_id": 93714,
        "bangumi_title": "东京喰种",
        "ep_cut": 11,
        "image_url": "https://w.junreimap.com/images/user/1099/bangumi/93714/points/q04byltu3-1731501549778.jpg",
        "location": "",
        "point_id": "q04byltu3",
        "point_name": "DiverCity Tokyo Plaza 前",
        "remark": ""
      },
      "type": "Feature"
    },
    {
      "geometry": {
        "coordinates": [
          139.777225,
          35.625346
        ],
        "type": "Point"
      },
      "properties": {
        "bangumi_id": 93714,
        "bangumi_title": "东京喰种",
        "ep_cut": 11,
        "image_url": "https://w.junreimap.com/images/user/1099/bangumi/93714/points/q04lqfnsm-1731502212355.jpg",
        "location": "",
        "point_id": "q04lqfnsm",
        "point_name": "Deai Bridge",
        "remark": "推测为此处，参考大楼的方位、树木的支撑架，以及左侧的小山坡应该是这个位置，头上的遮挡物大概率是桥，但是视角上无法还原，有错位"
      },
      "type": "Feature"
    },
    {
      "geometry": {
        "coordinates": [
          139.57937,
          35.702159
        ],
        "type": "Point"
      },
      "properties": {
        "bangumi_id": 93714,
        "bangumi_title": "东京喰种",
        "ep_cut": 6,
        "image_url": "https://w.junreimap.com/images/user/1099/bangumi/93714/points/rkdpiruun-1735910435418.jpg",
        "location": "",
        "point_id": "rkdpiruun",
        "point_name": "吉祥寺駅南口",
        "remark": "左侧是商场"
      },
      "type": "Feature"
    },
    {
      "geometry": {
        "coordinates": [
          139.57905,
          35.702313
        ],
        "type": "Point"
      },
      "properties": {
        "bangumi_id": 93714,
        "bangumi_title": "东京喰种",
        "ep_cut": 6,
        "image_url": "https://w.junreimap.com/images/user/1099/bangumi/93714/points/rkdu3bkt9-1735910627170.jpg",
        "location": "",
        "point_id": "rkdu3bkt9",
        "point_name": "THE SUIT COMPANY吉祥寺店",
        "remark": ""
      },
      "type": "Feature"
    },
    {
      "geometry": {
        "coordinates": [
          139.578709,
          35.702429
        ],
        "type": "Point"
      },
      "properties": {
        "bangumi_id": 93714,
        "bangumi_title": "东京喰种",
        "ep_cut": 6,
        "image_url": "https://w.junreimap.com/images/user/1099/bangumi/93714/points/rkdwmi7gd-1735910761011.jpg",
        "location": "",
        "point_id": "rkdwmi7gd",
        "point_name": "SUIT SQUARE 吉祥寺店",
        "remark": ""
      },
      "type": "Feature"
    }
  ],
  "type": "FeatureCollection"
}