{
  "features": [
    {
      "geometry": {
        "coordinates": [
          127.667411,
          26.215889
        ],
        "type": "Point"
      },
      "properties": {
        "bangumi_id": 977,
        "bangumi_title": "阿滋漫画大王",
        "ep_cut": 21,
        "image_url": "https://w.junreimap.com/images/user/0/bangumi/977/points/nw6xxdfjw-1725551676349.jpg",
        "location": "",
        "point_id": "nw6xxdfjw",
        "point_name": "パシフィック​ホテル​沖縄",
        "remark": ""
      },
      "type": "Feature"
    },
    {
      "geometry": {
        "coordinates": [
          127.717287,
          26.218088
        ],
        "type": "Point"
      },
      "properties": {
        "bangumi_id": 977,
        "bangumi_title": "阿滋漫画大王",
        "ep_cut": 21,
        "image_url": "https://w.junreimap.com/images/user/0/bangumi/977/points/nw77j69ga-1725552180835.jpg",
        "location": "",
        "point_id": "nw77j69ga",
        "point_name": "園比屋武御嶽石門",
        "remark": ""
      },
      "type": "Feature"
    },
    {
      "geometry": {
        "coordinates": [
          123.883071,
          24.272375
        ],
        "type": "Point"
      },
      "properties": {
        "bangumi_id": 977,
        "bangumi_title": "阿滋漫画大王",
        "ep_cut": 21,
        "image_url": "https://w.junreimap.com/images/user/0/bangumi/977/points/nw7hi7ezv-1725552840078.jpg",
        "location": "",
        "point_id": "nw7hi7ezv",
        "point_name": "仲間​港​旅客​待合所​なかま​りん",
        "remark": ""
      },
      "type": "Feature"
    },
    {
      "geometry": {
        "coordinates": [
          123.908839,
          24.331187
        ],
        "type": "Point"
      },
      "properties": {
        "bangumi_id": 977,
        "bangumi_title": "阿滋漫画大王",
        "ep_cut": "21",
        "image_url": "https://w.junreimap.com/images/user/0/bangumi/977/points/ny7u45m3a-1725710432077.jpg",
        "location": "",
        "point_id": "ny7u45m3a",
        "point_name": "西表​野生​生物​保護​センター",
        "remark": ""
      },
      "type": "Feature"
    },
    {
      "geometry": {
        "coordinates": [
          123.911127,
          24.325669
        ],
        "type": "Point"
      },
      "properties": {
        "bangumi_id": 977,
        "bangumi_title": "阿滋漫画大王",
        "ep_cut": "21",
        "image_url": "https://w.junreimap.com/images/user/0/bangumi/977/points/ny7zefxps-1725710963128.jpg",
        "location": "",
        "point_id": "ny7zefxps",
        "point_name": "西表野生生物保護センター前交差点",
        "remark": ""
      },
      "type": "Feature"
    },
    {
      "geometry": {
        "coordinates": [
          123.803114,
          24.357294
        ],
        "type": "Point"
      },
      "properties": {
        "bangumi_id": 977,
        "bangumi_title": "阿滋漫画大王",
        "ep_cut": "21",
        "image_url": "https://w.junreimap.com/images/user/0/bangumi/977/points/ny88nl1ld-1725711176852.jpg",
        "location": "",
        "point_id": "ny88nl1ld",
        "point_name": "マリュード滝（マリユドゥの滝）",
        "remark": ""
      },
      "type": "Feature"
    },
    {
      "geometry": {
        "coordinates": [
          127.715298,
          26.216078
        ],
        "type": "Point"
      },
      "properties": {
        "bangumi_id": 977,
        "bangumi_title": "阿滋漫画大王",
        "ep_cut": "21",
        "image_url": "https://w.junreimap.com/images/user/0/bangumi/977/points/ny8ikod8y-1725711821101.jpg",
        "location": "",
        "point_id": "ny8ikod8y",
        "point_name": "金城町石畳道",
        "remark": ""
      },
      "type": "Feature"
    },
    {
      "geometry": {
        "coordinates": [
          127.849732,
          26.505026
        ],
        "type": "Point"
      },
      "properties": {
        "bangumi_id": 977,
        "bangumi_title": "阿滋漫画大王",
        "ep_cut": "21",
        "image_url": "https://w.junreimap.com/images/user/0/bangumi/977/points/ny8tvpytm-1725712417512.jpg",
        "location": "",
        "point_id": "ny8tvpytm",
        "point_name": "万座毛",
        "remark": ""
      },
      "type": "Feature"
    },
    {
      "geometry": {
        "coordinates": [
          127.718611,
          26.217276
        ],
        "type": "Point"
      },
      "properties": {
        "bangumi_id": 977,
        "bangumi_title": "阿滋漫画大王",
        "ep_cut": "21",
        "image_url": "https://w.junreimap.com/images/user/0/bangumi/977/points/ny8phmmtp-1725712174152.jpg",
        "location": "",
        "point_id": "ny8phmmtp",
        "point_name": "首里城 広福門",
        "remark": ""
      },
      "type": "Feature"
    },
    {
      "geometry": {
        "coordinates": [
          127.681746,
          26.214275
        ],
        "type": "Point"
      },
      "properties": {
        "bangumi_id": 977,
        "bangumi_title": "阿滋漫画大王",
        "ep_cut": "21",
        "image_url": "https://w.junreimap.com/images/user/0/bangumi/977/points/nz1swz9bs-1725775459370.jpg",
        "location": "",
        "point_id": "nz1swz9bs",
        "point_name": "カネトヨビル 守礼堂 本店",
        "remark": ""
      },
      "type": "Feature"
    }
  ],
  "type": "FeatureCollection"
}